{"type":"FeatureCollection","features":[{"type":"Feature","geometry":{"type":"MultiPolygon","coordinates":[[[[-122.61229,37.81522],[-122.60024,37.80248],[-122.58817,37.78936],[-122.58473,37.77916],[-122.58329,37.77127],[-122.58198,37.76405],[-122.58128,37.7602],[-122.5799,37.74808],[-122.57829,37.73399],[-122.57519,37.70672],[-122.55069,37.70733],[-122.5071,37.70808],[-122.50693,37.70809],[-122.50438,37.70813],[-122.50283,37.70813],[-122.50278,37.70813],[-122.50248,37.70813],[-122.4983,37.70813],[-122.49823,37.70813],[-122.49817,37.70813],[-122.49811,37.70813],[-122.49809,37.70813],[-122.49786,37.70813],[-122.49014,37.70814],[-122.48988,37.70814],[-122.48878,37.70816],[-122.48638,37.70816],[-122.48613,37.70816],[-122.48604,37.70815],[-122.48588,37.70816],[-122.48577,37.70813],[-122.48566,37.70811],[-122.48564,37.70815],[-122.48559,37.70823],[-122.48539,37.70817],[-122.48472,37.70817],[-122.48426,37.70817],[-122.48348,37.70817],[-122.48232,37.70817],[-122.48102,37.70818],[-122.47957,37.70818],[-122.4779,37.70819],[-122.47645,37.70819],[-122.47511,37.70819],[-122.47284,37.7082],[-122.47173,37.70821],[-122.47142,37.7082],[-122.47133,37.70821],[-122.47108,37.7082],[-122.47098,37.7082],[-122.46927,37.7082],[-122.46901,37.7082],[-122.46897,37.7082],[-122.4689,37.7082],[-122.46865,37.7082],[-122.46848,37.7082],[-122.46698,37.70821],[-122.46677,37.70823],[-122.46663,37.70824],[-122.46654,37.70825],[-122.4659,37.70825],[-122.46576,37.70825],[-122.46533,37.70824],[-122.46532,37.70821],[-122.46505,37.70821],[-122.46498,37.70821],[-122.4649,37.70821],[-122.46489,37.70827],[-122.46481,37.70827],[-122.4645,37.70827],[-122.46445,37.70827],[-122.46445,37.70823],[-122.46445,37.70821],[-122.46399,37.7082],[-122.46381,37.70808],[-122.46371,37.70801],[-122.46367,37.70805],[-122.46365,37.70807],[-122.46342,37.70827],[-122.46316,37.70809],[-122.46291,37.70832],[-122.46285,37.70836],[-122.46266,37.70823],[-122.46232,37.70799],[-122.46202,37.70826],[-122.46168,37.70803],[-122.46146,37.70823],[-122.46138,37.70831],[-122.46128,37.70823],[-122.46099,37.70804],[-122.46093,37.70809],[-122.46082,37.7082],[-122.46071,37.7083],[-122.46064,37.70826],[-122.46038,37.70808],[-122.46022,37.70823],[-122.46017,37.70827],[-122.46014,37.70831],[-122.46008,37.70836],[-122.45989,37.70823],[-122.45975,37.70813],[-122.45957,37.7083],[-122.45947,37.70823],[-122.45936,37.70816],[-122.45923,37.70808],[-122.45917,37.70813],[-122.45905,37.70823],[-122.45882,37.70844],[-122.45851,37.70823],[-122.45822,37.70803],[-122.45799,37.70824],[-122.45795,37.70827],[-122.45791,37.70824],[-122.45774,37.70813],[-122.45763,37.70824],[-122.4575,37.70837],[-122.45748,37.70838],[-122.45744,37.70843],[-122.45735,37.70835],[-122.45718,37.70824],[-122.45699,37.7081],[-122.45684,37.70823],[-122.45668,37.70838],[-122.45657,37.7083],[-122.45647,37.70823],[-122.45624,37.70808],[-122.45608,37.70822],[-122.45598,37.70832],[-122.45594,37.70836],[-122.45593,37.70835],[-122.45575,37.70823],[-122.45565,37.70817],[-122.45559,37.70812],[-122.45552,37.70819],[-122.45547,37.70823],[-122.45542,37.70827],[-122.45535,37.70834],[-122.4552,37.70824],[-122.45504,37.70813],[-122.455,37.7081],[-122.45491,37.70804],[-122.45472,37.7081],[-122.45449,37.70818],[-122.45436,37.70823],[-122.45428,37.70826],[-122.4536,37.70849],[-122.45355,37.70838],[-122.45343,37.70815],[-122.4529,37.70834],[-122.45282,37.70819],[-122.45251,37.7083],[-122.45241,37.70833],[-122.45235,37.70821],[-122.45169,37.70844],[-122.45159,37.70826],[-122.45155,37.70819],[-122.45153,37.7082],[-122.45121,37.70831],[-122.4512,37.70832],[-122.45118,37.70828],[-122.45112,37.70817],[-122.45103,37.70802],[-122.45101,37.70798],[-122.451,37.70795],[-122.45027,37.7082],[-122.44985,37.70834],[-122.44977,37.70821],[-122.44967,37.70801],[-122.44966,37.70798],[-122.44956,37.70802],[-122.44946,37.70805],[-122.4493,37.70811],[-122.44914,37.70816],[-122.449,37.70821],[-122.44893,37.70809],[-122.44892,37.70806],[-122.44882,37.70809],[-122.44886,37.70816],[-122.44867,37.70822],[-122.44858,37.70825],[-122.44862,37.70833],[-122.44852,37.70836],[-122.44854,37.70839],[-122.44816,37.70852],[-122.44815,37.7085],[-122.4481,37.70852],[-122.44804,37.7084],[-122.44803,37.70838],[-122.44788,37.70844],[-122.44784,37.70837],[-122.44779,37.70838],[-122.44775,37.70831],[-122.44773,37.70832],[-122.4477,37.70826],[-122.44735,37.70837],[-122.44731,37.70839],[-122.44722,37.70824],[-122.4472,37.70819],[-122.44716,37.70821],[-122.44706,37.70824],[-122.447,37.70826],[-122.44654,37.70842],[-122.44653,37.7084],[-122.44644,37.70823],[-122.44639,37.70815],[-122.44635,37.70808],[-122.44591,37.70823],[-122.44582,37.70826],[-122.44551,37.70837],[-122.44549,37.70833],[-122.44546,37.70828],[-122.44543,37.70823],[-122.44532,37.70802],[-122.44531,37.70801],[-122.44508,37.70808],[-122.44506,37.70809],[-122.44511,37.7082],[-122.44513,37.70824],[-122.44503,37.70827],[-122.4448,37.70835],[-122.44473,37.70838],[-122.44469,37.70831],[-122.44456,37.70806],[-122.44446,37.70809],[-122.4443,37.70814],[-122.44403,37.70824],[-122.44389,37.70828],[-122.44385,37.7082],[-122.4436,37.70828],[-122.44355,37.70821],[-122.44335,37.70828],[-122.44318,37.70835],[-122.44305,37.7084],[-122.44303,37.70836],[-122.44302,37.70835],[-122.44297,37.70825],[-122.4429,37.70813],[-122.44282,37.70815],[-122.4428,37.70814],[-122.44273,37.70816],[-122.44265,37.70819],[-122.44257,37.70822],[-122.44261,37.70828],[-122.44228,37.70839],[-122.44218,37.70842],[-122.442,37.70807],[-122.44182,37.70813],[-122.44142,37.70827],[-122.44132,37.70831],[-122.44127,37.70832],[-122.44124,37.70833],[-122.44121,37.70833],[-122.44086,37.70834],[-122.44081,37.70833],[-122.44053,37.70824],[-122.4405,37.70828],[-122.44046,37.70834],[-122.44034,37.7085],[-122.44004,37.70838],[-122.4399,37.70839],[-122.43984,37.70839],[-122.43975,37.70835],[-122.43968,37.70832],[-122.43955,37.70826],[-122.43935,37.70818],[-122.43919,37.70811],[-122.43903,37.70804],[-122.43891,37.70824],[-122.43883,37.70835],[-122.43873,37.70831],[-122.43836,37.70816],[-122.43831,37.70823],[-122.43826,37.70832],[-122.43817,37.70846],[-122.43805,37.70842],[-122.43795,37.70838],[-122.43785,37.70834],[-122.43775,37.7083],[-122.43765,37.70826],[-122.43753,37.70821],[-122.43739,37.70816],[-122.43709,37.70804],[-122.43678,37.70792],[-122.43667,37.70803],[-122.43648,37.70822],[-122.43639,37.70831],[-122.43632,37.70836],[-122.43628,37.70831],[-122.4362,37.70823],[-122.43618,37.70821],[-122.43612,37.70816],[-122.43607,37.7082],[-122.43601,37.70823],[-122.43583,37.70836],[-122.43576,37.70841],[-122.43572,37.70843],[-122.4357,37.70841],[-122.43564,37.70835],[-122.43562,37.70832],[-122.43549,37.70825],[-122.43537,37.70816],[-122.43517,37.7083],[-122.43505,37.70837],[-122.43493,37.70827],[-122.43494,37.70826],[-122.43497,37.70813],[-122.43498,37.70809],[-122.43501,37.70801],[-122.43482,37.70805],[-122.43478,37.70805],[-122.43453,37.70809],[-122.43431,37.70813],[-122.43411,37.7082],[-122.43367,37.70833],[-122.43361,37.70836],[-122.43355,37.70838],[-122.43348,37.70834],[-122.4333,37.70823],[-122.43318,37.70815],[-122.43287,37.70817],[-122.4328,37.70817],[-122.43277,37.70823],[-122.4327,37.70835],[-122.43269,37.70835],[-122.43238,37.70823],[-122.43226,37.70818],[-122.43222,37.70823],[-122.43219,37.70832],[-122.43215,37.70839],[-122.43209,37.70838],[-122.43192,37.70834],[-122.4318,37.70847],[-122.43173,37.70838],[-122.43168,37.70833],[-122.43158,37.70823],[-122.43151,37.70815],[-122.43144,37.70819],[-122.43134,37.70823],[-122.4312,37.70827],[-122.43094,37.70831],[-122.43067,37.70831],[-122.43039,37.70835],[-122.43018,37.70842],[-122.43001,37.70853],[-122.43,37.70852],[-122.42983,37.70852],[-122.42991,37.70834],[-122.42978,37.70834],[-122.42963,37.70835],[-122.42934,37.70837],[-122.42925,37.70838],[-122.42915,37.70837],[-122.4289,37.70836],[-122.42889,37.70836],[-122.42849,37.7082],[-122.42845,37.70819],[-122.42834,37.70835],[-122.42794,37.70819],[-122.42791,37.70824],[-122.42787,37.7083],[-122.42719,37.7083],[-122.42694,37.7083],[-122.42686,37.7083],[-122.42668,37.70826],[-122.42665,37.70833],[-122.42647,37.7083],[-122.42644,37.7083],[-122.42638,37.7083],[-122.42631,37.7083],[-122.42626,37.7083],[-122.42621,37.7083],[-122.42617,37.7083],[-122.42605,37.7083],[-122.426,37.7083],[-122.42589,37.7083],[-122.42561,37.7083],[-122.4255,37.7083],[-122.42544,37.70831],[-122.42542,37.70831],[-122.4254,37.70837],[-122.42535,37.70862],[-122.42404,37.70824],[-122.42386,37.7082],[-122.42355,37.70884],[-122.42336,37.70925],[-122.42334,37.70928],[-122.4229,37.70912],[-122.42226,37.70895],[-122.42161,37.70877],[-122.42091,37.70858],[-122.42021,37.70839],[-122.42007,37.70834],[-122.4197,37.70823],[-122.41922,37.70812],[-122.41906,37.70848],[-122.41896,37.70845],[-122.4188,37.70841],[-122.41872,37.70839],[-122.41861,37.70835],[-122.41838,37.70829],[-122.4183,37.70827],[-122.4182,37.70824],[-122.41816,37.70833],[-122.41815,37.70837],[-122.4181,37.70836],[-122.41801,37.70833],[-122.41773,37.70825],[-122.4177,37.70831],[-122.41767,37.70838],[-122.41754,37.70834],[-122.41749,37.70833],[-122.41732,37.70828],[-122.41724,37.70826],[-122.41721,37.70833],[-122.41718,37.70839],[-122.41706,37.70836],[-122.41701,37.70834],[-122.41675,37.70827],[-122.41672,37.70833],[-122.41637,37.70824],[-122.41627,37.70821],[-122.41622,37.70833],[-122.41619,37.7084],[-122.41614,37.70839],[-122.41607,37.70837],[-122.41573,37.70827],[-122.41567,37.7084],[-122.41541,37.70833],[-122.41531,37.7083],[-122.41525,37.70828],[-122.41519,37.70841],[-122.41507,37.70838],[-122.41499,37.70836],[-122.4144,37.70819],[-122.41435,37.70818],[-122.41428,37.70833],[-122.41422,37.70848],[-122.41421,37.7085],[-122.41359,37.70833],[-122.41348,37.7083],[-122.41338,37.70831],[-122.41328,37.70832],[-122.4129,37.70831],[-122.41252,37.7083],[-122.41238,37.7083],[-122.41237,37.70832],[-122.4123,37.70846],[-122.41228,37.70845],[-122.41222,37.70843],[-122.41182,37.70832],[-122.41177,37.70832],[-122.41036,37.70832],[-122.4081,37.70832],[-122.40776,37.70834],[-122.40773,37.70841],[-122.4077,37.7084],[-122.40767,37.70839],[-122.40742,37.70832],[-122.40737,37.70831],[-122.40735,37.70831],[-122.40733,37.70836],[-122.40698,37.70827],[-122.40694,37.70836],[-122.40659,37.70836],[-122.40654,37.70836],[-122.4063,37.70836],[-122.40626,37.70835],[-122.40618,37.70852],[-122.40617,37.70852],[-122.40604,37.70848],[-122.40555,37.70834],[-122.40537,37.70829],[-122.40528,37.70847],[-122.40514,37.70843],[-122.40475,37.70832],[-122.40473,37.70836],[-122.40434,37.70836],[-122.40344,37.70836],[-122.40293,37.70837],[-122.4024,37.70837],[-122.40177,37.70837],[-122.40133,37.70837],[-122.40128,37.70837],[-122.39968,37.70838],[-122.39753,37.70839],[-122.39616,37.70839],[-122.39529,37.70839],[-122.39512,37.70839],[-122.39485,37.70839],[-122.39468,37.70839],[-122.39347,37.70837],[-122.3934,37.70837],[-122.39319,37.70836],[-122.39295,37.70836],[-122.39268,37.70833],[-122.38898,37.70833],[-122.38748,37.70833],[-122.38108,37.70843],[-122.37949,37.70841],[-122.3794,37.70841],[-122.37606,37.70836],[-122.37562,37.70837],[-122.37168,37.70833],[-122.36038,37.70833],[-122.29458,37.70823],[-122.28178,37.70823],[-122.28246,37.70931],[-122.2845,37.71255],[-122.28518,37.71363],[-122.2861,37.71507],[-122.28886,37.71939],[-122.28978,37.72083],[-122.2902,37.72149],[-122.29146,37.72347],[-122.29188,37.72413],[-122.29222,37.72463],[-122.29324,37.72613],[-122.29358,37.72663],[-122.29376,37.72691],[-122.2943,37.72775],[-122.29448,37.72803],[-122.29767,37.7332],[-122.30028,37.73743],[-122.30118,37.73883],[-122.30728,37.74867],[-122.31048,37.75383],[-122.31314,37.758],[-122.31609,37.76264],[-122.32134,37.77088],[-122.32155,37.77121],[-122.32496,37.77656],[-122.32792,37.7812],[-122.32864,37.78235],[-122.32873,37.7825],[-122.3288,37.78261],[-122.32888,37.78272],[-122.32944,37.78362],[-122.32953,37.78376],[-122.32962,37.78391],[-122.33016,37.78477],[-122.33039,37.78512],[-122.33061,37.78547],[-122.33081,37.78579],[-122.33154,37.78694],[-122.33244,37.7884],[-122.33517,37.79277],[-122.33608,37.79423],[-122.33609,37.79424],[-122.33647,37.79485],[-122.33658,37.79503],[-122.33664,37.79512],[-122.34028,37.80063],[-122.34102,37.80183],[-122.34156,37.80271],[-122.3454,37.80895],[-122.34668,37.81103],[-122.34688,37.81143],[-122.34718,37.81225],[-122.34855,37.81597],[-122.349,37.81721],[-122.34902,37.81727],[-122.34905,37.81734],[-122.34907,37.81739],[-122.34919,37.81773],[-122.34939,37.81825],[-122.34961,37.81884],[-122.34976,37.81924],[-122.35038,37.82091],[-122.35263,37.82699],[-122.3545,37.83202],[-122.35588,37.83573],[-122.35826,37.84193],[-122.3654,37.86053],[-122.36778,37.86673],[-122.36898,37.87013],[-122.36923,37.87083],[-122.37068,37.87493],[-122.37223,37.87933],[-122.37258,37.88032],[-122.37378,37.88373],[-122.37398,37.88388],[-122.37458,37.88436],[-122.37478,37.88452],[-122.38174,37.88995],[-122.39938,37.90373],[-122.40259,37.90627],[-122.40951,37.91176],[-122.41214,37.91385],[-122.42005,37.92013],[-122.42268,37.92222],[-122.4246,37.92374],[-122.42644,37.9252],[-122.4302,37.92818],[-122.43036,37.9283],[-122.43222,37.92977],[-122.43228,37.92982],[-122.43018,37.91842],[-122.42758,37.90403],[-122.42408,37.88463],[-122.42268,37.87813],[-122.42248,37.87643],[-122.42216,37.87444],[-122.42084,37.86625],[-122.42038,37.86343],[-122.42034,37.8632],[-122.41991,37.86058],[-122.41988,37.86043],[-122.41926,37.85645],[-122.41879,37.8535],[-122.41878,37.85343],[-122.41867,37.8525],[-122.41871,37.85249],[-122.42248,37.85111],[-122.42423,37.85045],[-122.43363,37.84691],[-122.44548,37.84243],[-122.45398,37.83903],[-122.46808,37.83369],[-122.47004,37.83295],[-122.47225,37.83211],[-122.47283,37.83189],[-122.4729,37.83189],[-122.47331,37.83185],[-122.47362,37.83193],[-122.47394,37.83219],[-122.47417,37.83265],[-122.47432,37.83352],[-122.47449,37.83364],[-122.47613,37.83364],[-122.47712,37.83345],[-122.47781,37.83322],[-122.47801,37.83304],[-122.4781,37.83274],[-122.47761,37.83229],[-122.47744,37.83221],[-122.47729,37.83215],[-122.47734,37.83194],[-122.4774,37.83167],[-122.47709,37.83133],[-122.47703,37.83115],[-122.47729,37.83105],[-122.47786,37.8313],[-122.47812,37.83123],[-122.47833,37.83103],[-122.47844,37.83091],[-122.47861,37.82996],[-122.4787,37.82949],[-122.47859,37.82936],[-122.47847,37.82922],[-122.47844,37.82883],[-122.47855,37.82854],[-122.47858,37.8285],[-122.47856,37.82736],[-122.47835,37.82652],[-122.47835,37.82576],[-122.47809,37.82558],[-122.47809,37.82535],[-122.47844,37.82528],[-122.47874,37.82539],[-122.47882,37.82542],[-122.47893,37.82542],[-122.47909,37.82542],[-122.47921,37.82543],[-122.47944,37.82543],[-122.47957,37.82544],[-122.47968,37.82544],[-122.48076,37.82588],[-122.48099,37.82597],[-122.48182,37.82606],[-122.48251,37.82569],[-122.48326,37.82564],[-122.48323,37.82629],[-122.48346,37.82649],[-122.48415,37.82681],[-122.48456,37.82688],[-122.48483,37.82666],[-122.48506,37.82645],[-122.4862,37.82624],[-122.48725,37.82646],[-122.48854,37.82676],[-122.4899,37.8269],[-122.49122,37.8266],[-122.4916,37.82571],[-122.49208,37.82533],[-122.49212,37.82508],[-122.49242,37.8249],[-122.49319,37.82466],[-122.49356,37.82395],[-122.49437,37.8236],[-122.49477,37.82326],[-122.49501,37.82279],[-122.49533,37.82259],[-122.49584,37.82214],[-122.49619,37.82207],[-122.49642,37.82232],[-122.49881,37.82223],[-122.49962,37.82188],[-122.49988,37.82159],[-122.49979,37.82086],[-122.49968,37.8206],[-122.49914,37.82026],[-122.4991,37.81988],[-122.50071,37.81985],[-122.50136,37.82044],[-122.50139,37.82062],[-122.50177,37.8209],[-122.50177,37.82115],[-122.50168,37.82123],[-122.50165,37.82149],[-122.50194,37.82152],[-122.50287,37.8209],[-122.50312,37.82092],[-122.50338,37.82113],[-122.50448,37.82103],[-122.50482,37.82131],[-122.50488,37.82181],[-122.50563,37.82227],[-122.50556,37.82284],[-122.50586,37.82306],[-122.51129,37.8247],[-122.51178,37.8247],[-122.51219,37.82457],[-122.51244,37.82452],[-122.51294,37.82475],[-122.51507,37.82524],[-122.51593,37.8253],[-122.51671,37.82477],[-122.51688,37.82467],[-122.51718,37.82482],[-122.51721,37.82498],[-122.51768,37.8252],[-122.51849,37.82529],[-122.51917,37.82505],[-122.51978,37.82512],[-122.5207,37.82528],[-122.52286,37.82493],[-122.52357,37.82466],[-122.52383,37.82455],[-122.52382,37.82404],[-122.52437,37.82365],[-122.52461,37.82336],[-122.52451,37.82297],[-122.52418,37.8228],[-122.52416,37.82265],[-122.5244,37.82249],[-122.52487,37.82242],[-122.52533,37.82251],[-122.52559,37.82189],[-122.52553,37.82112],[-122.52581,37.82105],[-122.52618,37.82114],[-122.52625,37.82098],[-122.52666,37.82088],[-122.52716,37.82096],[-122.52776,37.82078],[-122.5283,37.82054],[-122.52885,37.82011],[-122.52907,37.81965],[-122.52931,37.81916],[-122.52936,37.81901],[-122.52931,37.81868],[-122.52897,37.81845],[-122.52895,37.81818],[-122.52859,37.81764],[-122.52858,37.81728],[-122.52889,37.81692],[-122.52849,37.81644],[-122.52841,37.81613],[-122.52782,37.8157],[-122.52775,37.81548],[-122.52774,37.81514],[-122.52802,37.8151],[-122.52855,37.81537],[-122.52884,37.81547],[-122.52893,37.81549],[-122.52921,37.81527],[-122.52971,37.81515],[-122.52991,37.8154],[-122.5301,37.81543],[-122.53409,37.81535],[-122.53623,37.8153],[-122.54639,37.81523],[-122.55089,37.81533],[-122.58459,37.81523],[-122.61229,37.81522]]],[[[-123.17383,37.77573],[-123.17376,37.77183],[-123.17293,37.7636],[-123.16998,37.75593],[-123.1667,37.74993],[-123.16275,37.74353],[-123.15676,37.73784],[-123.14913,37.73228],[-123.14149,37.72616],[-123.1326,37.71939],[-123.12611,37.71673],[-123.11964,37.71544],[-123.11557,37.71405],[-123.10492,37.71265],[-123.09965,37.71359],[-123.0948,37.71407],[-123.09285,37.71369],[-123.0918,37.71187],[-123.08878,37.70579],[-123.08606,37.70075],[-123.08188,37.69684],[-123.07716,37.69232],[-123.07492,37.69007],[-123.07306,37.68258],[-123.06859,37.67304],[-123.06358,37.66732],[-123.05358,37.65865],[-123.0407,37.65033],[-123.02715,37.64522],[-123.01161,37.64151],[-123.00111,37.64177],[-123.00111,37.63983],[-123.00091,37.63993],[-122.99259,37.64102],[-122.98675,37.64178],[-122.98051,37.6439],[-122.97301,37.64658],[-122.96301,37.65198],[-122.95488,37.65835],[-122.94907,37.66338],[-122.94501,37.66977],[-122.94136,37.67658],[-122.93966,37.68235],[-122.93903,37.68654],[-122.93734,37.69093],[-122.93571,37.69762],[-122.93586,37.70246],[-122.93768,37.70924],[-122.93792,37.70996],[-122.93971,37.71535],[-122.94229,37.72106],[-122.94552,37.72531],[-122.94998,37.73219],[-122.95464,37.73683],[-122.95839,37.73973],[-122.96106,37.74196],[-122.9641,37.74428],[-122.96727,37.7463],[-122.97045,37.74782],[-122.97326,37.74865],[-122.97406,37.74993],[-122.97545,37.75258],[-122.9776,37.75498],[-122.98143,37.75892],[-122.98741,37.76387],[-122.99509,37.76913],[-122.99754,37.77078],[-123.00111,37.77205],[-123.00615,37.77352],[-123.01059,37.77493],[-123.01697,37.77607],[-123.02585,37.77709],[-123.03144,37.77715],[-123.03384,37.77838],[-123.0351,37.78043],[-123.03873,37.78888],[-123.04882,37.79982],[-123.07049,37.81383],[-123.08165,37.81815],[-123.09526,37.82188],[-123.10826,37.82254],[-123.11829,37.82306],[-123.12611,37.82166],[-123.13227,37.81968],[-123.13944,37.81672],[-123.14721,37.81195],[-123.15334,37.80744],[-123.15386,37.80706],[-123.16094,37.802],[-123.16601,37.79689],[-123.16911,37.79237],[-123.17371,37.77611],[-123.17383,37.77573]]]]},"properties":{"GEOID":"0667000","BASENAME":"San Francisco","NAME":"San Francisco city","STATE":"06","PLACE":"67000","AREALAND":"120913551","AREAWATER":"479701999","LSADC":"25","FUNCSTAT":"A"}}]}