{"type":"Feature","geometry":{"type":"Point","coordinates":[-122.419,37.775,86.52]},"properties":{"parameter":{"T2M":{"20250401":10.43,"20250402":10.42,"20250403":10.77,"20250404":12.08,"20250405":13.88,"20250406":12.59,"20250407":13.33,"20250408":12.7,"20250409":14.06,"20250410":13.91,"20250411":14.22,"20250412":12.51,"20250413":13.8,"20250414":15.51,"20250415":12.68,"20250416":12.03,"20250417":12.3,"20250418":13.07,"20250419":12.79,"20250420":12.64,"20250421":14.02,"20250422":14.1,"20250423":12.16,"20250424":11.4,"20250425":11.17,"20250426":10.77,"20250427":11.12,"20250428":12.68,"20250429":13.87,"20250430":14.99,"20250501":13.62,"20250502":12.78,"20250503":13.1,"20250504":13.8,"20250505":16.83,"20250506":16.52,"20250507":13.43,"20250508":14.59,"20250509":16.65,"20250510":16.06,"20250511":13.86,"20250512":12.93,"20250513":13.19,"20250514":14.12,"20250515":14.66,"20250516":15.24,"20250517":14.42,"20250518":14.76,"20250519":16.51,"20250520":15.73,"20250521":15.69,"20250522":15.25,"20250523":13.72,"20250524":13.77,"20250525":13.61,"20250526":14.74,"20250527":14.94,"20250528":14.53,"20250529":15.78,"20250530":18.43,"20250531":18.43,"20250601":16.56,"20250602":15.1,"20250603":15.31,"20250604":15.81,"20250605":14.82,"20250606":15.23,"20250607":15.07,"20250608":14.63,"20250609":14.62,"20250610":14.72,"20250611":14.51,"20250612":14.67,"20250613":14.65,"20250614":14.64,"20250615":14.75,"20250616":14.54,"20250617":15.85,"20250618":17.22,"20250619":16.11,"20250620":14.86,"20250621":15.23,"20250622":16.36,"20250623":16.72,"20250624":15.11,"20250625":14.28,"20250626":16.1,"20250627":17.44,"20250628":17.99,"20250629":17.07,"20250630":15.82,"20250701":15.86,"20250702":16.37,"20250703":15.3,"20250704":15.57,"20250705":15.47,"20250706":15.63,"20250707":15.2,"20250708":15.02,"20250709":15.68,"20250710":17.98,"20250711":18.4,"20250712":16.68,"20250713":16.19,"20250714":15.96,"20250715":15.54,"20250716":14.9,"20250717":15.08,"20250718":14.73,"20250719":15.01,"20250720":15.24,"20250721":15.48,"20250722":15.95,"20250723":15.7,"20250724":15.11,"20250725":15.09,"20250726":15.34,"20250727":15.65,"20250728":16.53,"20250729":17.62,"20250730":16.76,"20250731":16.89,"20250801":16.66,"20250802":16.79,"20250803":17.27,"20250804":17.6,"20250805":16.65,"20250806":18.3,"20250807":19.63,"20250808":19.06,"20250809":19.72,"20250810":18.06,"20250811":17.31,"20250812":16.72,"20250813":16.95,"20250814":17.34,"20250815":18.16,"20250816":18.99,"20250817":18.07,"20250818":17.49,"20250819":17.47,"20250820":19.58,"20250821":21.17,"20250822":18.76,"20250823":18.26,"20250824":17.93,"20250825":17.37,"20250826":17.22,"20250827":17.3,"20250828":16.98,"20250829":17.89,"20250830":20.3,"20250831":21.95,"20250901":20.72,"20250902":20.29,"20250903":17.87,"20250904":16.65,"20250905":17.49,"20250906":17.77,"20250907":17.92,"20250908":18.42,"20250909":18.61,"20250910":18.22,"20250911":18.18,"20250912":18.31,"20250913":17.24,"20250914":18.59,"20250915":20.26,"20250916":21.45,"20250917":19.89,"20250918":19.83,"20250919":17.93,"20250920":18.35,"20250921":19.06,"20250922":20.16,"20250923":22.71,"20250924":21.16,"20250925":19.7,"20250926":18.46,"20250927":17.19,"20250928":17.06,"20250929":17.83,"20250930":17.28},"T2M_MAX":{"20250401":12.96,"20250402":15.25,"20250403":16.06,"20250404":19.18,"20250405":20.36,"20250406":18.36,"20250407":16.01,"20250408":17.51,"20250409":22.24,"20250410":19.82,"20250411":19.46,"20250412":17.96,"20250413":22.78,"20250414":23.0,"20250415":19.21,"20250416":14.68,"20250417":16.93,"20250418":18.72,"20250419":17.67,"20250420":18.9,"20250421":22.55,"20250422":21.21,"20250423":16.78,"20250424":14.08,"20250425":13.57,"20250426":13.94,"20250427":14.32,"20250428":19.34,"20250429":20.73,"20250430":21.16,"20250501":19.49,"20250502":17.18,"20250503":17.35,"20250504":20.03,"20250505":23.33,"20250506":22.85,"20250507":18.49,"20250508":23.13,"20250509":24.68,"20250510":22.86,"20250511":19.82,"20250512":15.92,"20250513":19.14,"20250514":20.65,"20250515":21.27,"20250516":21.63,"20250517":18.76,"20250518":21.96,"20250519":23.89,"20250520":22.59,"20250521":22.09,"20250522":20.6,"20250523":19.02,"20250524":18.79,"20250525":18.34,"20250526":19.37,"20250527":21.15,"20250528":19.13,"20250529":23.67,"20250530":28.18,"20250531":25.72,"20250601":22.55,"20250602":21.45,"20250603":21.75,"20250604":21.81,"20250605":18.7,"20250606":21.37,"20250607":19.71,"20250608":19.48,"20250609":19.02,"20250610":18.95,"20250611":19.46,"20250612":20.3,"20250613":19.24,"20250614":19.69,"20250615":21.13,"20250616":19.94,"20250617":21.95,"20250618":24.61,"20250619":22.01,"20250620":19.53,"20250621":21.86,"20250622":22.01,"20250623":24.82,"20250624":22.14,"20250625":19.74,"20250626":22.07,"20250627":24.41,"20250628":24.66,"20250629":22.52,"20250630":20.8,"20250701":22.83,"20250702":21.44,"20250703":19.68,"20250704":20.79,"20250705":21.45,"20250706":20.8,"20250707":19.59,"20250708":20.31,"20250709":22.38,"20250710":25.44,"20250711":24.3,"20250712":21.09,"20250713":21.84,"20250714":21.83,"20250715":19.75,"20250716":18.55,"20250717":20.34,"20250718":19.3,"20250719":20.5,"20250720":19.9,"20250721":19.73,"20250722":20.23,"20250723":19.95,"20250724":19.46,"20250725":19.58,"20250726":19.47,"20250727":20.27,"20250728":22.09,"20250729":22.75,"20250730":21.48,"20250731":23.24,"20250801":21.83,"20250802":23.38,"20250803":23.44,"20250804":23.55,"20250805":21.29,"20250806":27.01,"20250807":25.71,"20250808":27.03,"20250809":26.01,"20250810":24.33,"20250811":22.73,"20250812":21.78,"20250813":21.06,"20250814":24.67,"20250815":25.08,"20250816":25.25,"20250817":22.89,"20250818":23.01,"20250819":23.18,"20250820":29.44,"20250821":28.63,"20250822":25.82,"20250823":22.59,"20250824":22.75,"20250825":22.31,"20250826":22.61,"20250827":22.51,"20250828":23.81,"20250829":22.51,"20250830":29.85,"20250831":29.02,"20250901":27.21,"20250902":25.88,"20250903":23.57,"20250904":21.22,"20250905":22.33,"20250906":21.83,"20250907":23.9,"20250908":23.13,"20250909":22.09,"20250910":21.64,"20250911":22.74,"20250912":23.04,"20250913":21.48,"20250914":25.27,"20250915":30.51,"20250916":27.9,"20250917":25.52,"20250918":23.85,"20250919":23.81,"20250920":24.24,"20250921":24.52,"20250922":28.57,"20250923":34.61,"20250924":32.06,"20250925":24.06,"20250926":26.45,"20250927":23.97,"20250928":21.39,"20250929":21.84,"20250930":21.36},"T2M_MIN":{"20250401":8.72,"20250402":6.54,"20250403":6.6,"20250404":7.52,"20250405":9.98,"20250406":7.95,"20250407":11.17,"20250408":9.05,"20250409":8.88,"20250410":9.85,"20250411":11.52,"20250412":8.16,"20250413":8.92,"20250414":10.42,"20250415":9.34,"20250416":10.23,"20250417":10.0,"20250418":10.12,"20250419":9.27,"20250420":8.78,"20250421":8.55,"20250422":9.86,"20250423":9.4,"20250424":9.91,"20250425":9.71,"20250426":7.89,"20250427":9.56,"20250428":7.98,"20250429":9.45,"20250430":10.56,"20250501":9.6,"20250502":9.63,"20250503":10.79,"20250504":9.22,"20250505":13.04,"20250506":10.71,"20250507":9.86,"20250508":9.65,"20250509":10.5,"20250510":9.89,"20250511":10.2,"20250512":10.96,"20250513":9.34,"20250514":8.93,"20250515":9.64,"20250516":9.93,"20250517":11.15,"20250518":9.28,"20250519":10.92,"20250520":9.9,"20250521":10.14,"20250522":11.0,"20250523":10.07,"20250524":9.82,"20250525":9.91,"20250526":11.47,"20250527":10.04,"20250528":10.47,"20250529":10.53,"20250530":11.57,"20250531":12.73,"20250601":12.03,"20250602":10.87,"20250603":11.12,"20250604":10.82,"20250605":11.54,"20250606":11.31,"20250607":11.05,"20250608":11.43,"20250609":11.38,"20250610":10.82,"20250611":10.4,"20250612":10.18,"20250613":10.18,"20250614":10.01,"20250615":9.99,"20250616":10.1,"20250617":10.55,"20250618":11.45,"20250619":11.45,"20250620":10.86,"20250621":10.19,"20250622":10.79,"20250623":10.88,"20250624":10.41,"20250625":9.89,"20250626":11.49,"20250627":11.53,"20250628":11.94,"20250629":11.6,"20250630":11.08,"20250701":10.71,"20250702":12.07,"20250703":11.36,"20250704":11.56,"20250705":10.7,"20250706":10.84,"20250707":10.84,"20250708":11.29,"20250709":11.78,"20250710":11.95,"20250711":12.6,"20250712":11.95,"20250713":11.21,"20250714":10.84,"20250715":11.53,"20250716":11.59,"20250717":11.45,"20250718":10.56,"20250719":10.6,"20250720":11.16,"20250721":12.55,"20250722":13.09,"20250723":12.94,"20250724":11.76,"20250725":11.81,"20250726":12.41,"20250727":11.96,"20250728":12.45,"20250729":13.1,"20250730":12.74,"20250731":12.17,"20250801":12.17,"20250802":12.13,"20250803":12.26,"20250804":12.59,"20250805":12.27,"20250806":12.56,"20250807":14.33,"20250808":12.85,"20250809":13.65,"20250810":12.89,"20250811":12.47,"20250812":12.47,"20250813":13.14,"20250814":12.82,"20250815":13.18,"20250816":14.86,"20250817":14.1,"20250818":13.06,"20250819":12.45,"20250820":13.31,"20250821":14.88,"20250822":13.82,"20250823":14.98,"20250824":14.12,"20250825":13.54,"20250826":13.7,"20250827":13.58,"20250828":12.03,"20250829":14.1,"20250830":14.6,"20250831":16.18,"20250901":14.89,"20250902":16.32,"20250903":13.21,"20250904":12.53,"20250905":14.05,"20250906":14.54,"20250907":13.9,"20250908":14.71,"20250909":15.65,"20250910":15.52,"20250911":14.98,"20250912":14.81,"20250913":13.94,"20250914":14.45,"20250915":14.7,"20250916":16.77,"20250917":15.12,"20250918":16.49,"20250919":14.53,"20250920":14.29,"20250921":15.1,"20250922":14.24,"20250923":16.58,"20250924":16.66,"20250925":16.26,"20250926":14.06,"20250927":13.38,"20250928":14.93,"20250929":15.7,"20250930":13.41},"PRECTOTCORR":{"20250401":4.83,"20250402":0.38,"20250403":0.01,"20250404":0.02,"20250405":0.04,"20250406":0.03,"20250407":0.63,"20250408":0.12,"20250409":0.01,"20250410":0.05,"20250411":0.0,"20250412":0.0,"20250413":0.0,"20250414":0.0,"20250415":0.0,"20250416":0.01,"20250417":0.01,"20250418":0.0,"20250419":0.0,"20250420":0.0,"20250421":0.02,"20250422":0.03,"20250423":0.02,"20250424":0.08,"20250425":0.66,"20250426":0.83,"20250427":1.24,"20250428":0.07,"20250429":0.04,"20250430":0.11,"20250501":0.01,"20250502":0.02,"20250503":0.02,"20250504":0.0,"20250505":0.0,"20250506":0.0,"20250507":0.0,"20250508":0.0,"20250509":0.0,"20250510":0.0,"20250511":0.02,"20250512":2.1,"20250513":1.07,"20250514":0.05,"20250515":0.09,"20250516":0.01,"20250517":0.01,"20250518":0.0,"20250519":0.0,"20250520":0.0,"20250521":0.0,"20250522":0.0,"20250523":0.0,"20250524":0.01,"20250525":0.0,"20250526":0.0,"20250527":0.01,"20250528":0.01,"20250529":0.0,"20250530":0.0,"20250531":0.0,"20250601":0.0,"20250602":0.02,"20250603":0.1,"20250604":0.0,"20250605":0.03,"20250606":0.03,"20250607":0.07,"20250608":0.09,"20250609":0.05,"20250610":0.01,"20250611":0.01,"20250612":0.01,"20250613":0.0,"20250614":0.0,"20250615":0.0,"20250616":0.0,"20250617":0.0,"20250618":0.0,"20250619":0.0,"20250620":0.01,"20250621":0.0,"20250622":0.0,"20250623":0.02,"20250624":0.07,"20250625":0.05,"20250626":0.04,"20250627":0.02,"20250628":0.01,"20250629":0.0,"20250630":0.02,"20250701":0.05,"20250702":0.12,"20250703":0.14,"20250704":0.02,"20250705":0.01,"20250706":0.02,"20250707":0.01,"20250708":0.02,"20250709":0.02,"20250710":0.0,"20250711":0.0,"20250712":0.0,"20250713":0.01,"20250714":0.0,"20250715":0.02,"20250716":0.03,"20250717":0.04,"20250718":0.03,"20250719":0.04,"20250720":0.05,"20250721":0.05,"20250722":0.05,"20250723":0.01,"20250724":0.01,"20250725":0.05,"20250726":0.09,"20250727":0.06,"20250728":0.03,"20250729":0.02,"20250730":0.04,"20250731":0.02,"20250801":0.03,"20250802":0.03,"20250803":0.01,"20250804":0.0,"20250805":0.01,"20250806":0.01,"20250807":0.01,"20250808":0.01,"20250809":0.01,"20250810":0.01,"20250811":0.03,"20250812":0.05,"20250813":0.05,"20250814":0.04,"20250815":0.02,"20250816":0.04,"20250817":0.03,"20250818":0.01,"20250819":0.01,"20250820":0.03,"20250821":0.02,"20250822":0.06,"20250823":0.05,"20250824":0.05,"20250825":0.03,"20250826":0.02,"20250827":0.05,"20250828":0.01,"20250829":0.21,"20250830":0.05,"20250831":0.0,"20250901":0.18,"20250902":0.13,"20250903":0.05,"20250904":0.02,"20250905":0.02,"20250906":0.01,"20250907":0.01,"20250908":0.14,"20250909":0.29,"20250910":0.41,"20250911":0.3,"20250912":0.13,"20250913":0.03,"20250914":0.02,"20250915":0.01,"20250916":0.0,"20250917":0.0,"20250918":0.22,"20250919":0.55,"20250920":0.05,"20250921":0.09,"20250922":0.02,"20250923":0.0,"20250924":0.72,"20250925":2.23,"20250926":0.05,"20250927":0.02,"20250928":0.32,"20250929":0.19,"20250930":0.92},"WS10M":{"20250401":6.29,"20250402":4.88,"20250403":3.16,"20250404":3.03,"20250405":2.23,"20250406":3.04,"20250407":2.95,"20250408":3.16,"20250409":2.92,"20250410":3.85,"20250411":3.69,"20250412":4.66,"20250413":2.31,"20250414":2.13,"20250415":3.57,"20250416":4.46,"20250417":2.7,"20250418":2.88,"20250419":3.78,"20250420":2.92,"20250421":2.19,"20250422":2.98,"20250423":4.96,"20250424":4.31,"20250425":4.69,"20250426":2.88,"20250427":2.83,"20250428":2.65,"20250429":2.47,"20250430":2.15,"20250501":3.4,"20250502":5.31,"20250503":6.17,"20250504":5.01,"20250505":5.12,"20250506":2.5,"20250507":3.51,"20250508":2.8,"20250509":2.94,"20250510":3.88,"20250511":5.6,"20250512":5.06,"20250513":4.01,"20250514":3.65,"20250515":2.9,"20250516":3.71,"20250517":6.54,"20250518":4.46,"20250519":4.73,"20250520":4.64,"20250521":3.5,"20250522":5.76,"20250523":5.38,"20250524":4.14,"20250525":5.85,"20250526":4.77,"20250527":3.04,"20250528":4.7,"20250529":4.81,"20250530":2.87,"20250531":3.5,"20250601":4.39,"20250602":3.14,"20250603":3.88,"20250604":3.7,"20250605":3.8,"20250606":3.11,"20250607":4.24,"20250608":5.02,"20250609":4.41,"20250610":5.11,"20250611":5.57,"20250612":4.82,"20250613":5.32,"20250614":4.41,"20250615":3.68,"20250616":5.2,"20250617":4.95,"20250618":3.3,"20250619":6.43,"20250620":7.83,"20250621":6.03,"20250622":4.34,"20250623":3.04,"20250624":4.2,"20250625":3.66,"20250626":3.92,"20250627":2.92,"20250628":2.88,"20250629":3.1,"20250630":3.36,"20250701":3.47,"20250702":3.75,"20250703":4.57,"20250704":6.33,"20250705":4.63,"20250706":3.85,"20250707":3.67,"20250708":3.55,"20250709":3.74,"20250710":3.08,"20250711":3.26,"20250712":3.44,"20250713":3.6,"20250714":3.59,"20250715":3.99,"20250716":4.13,"20250717":3.56,"20250718":3.76,"20250719":4.51,"20250720":4.35,"20250721":5.78,"20250722":4.71,"20250723":3.61,"20250724":3.96,"20250725":4.43,"20250726":4.57,"20250727":4.59,"20250728":4.56,"20250729":4.73,"20250730":4.37,"20250731":3.56,"20250801":3.8,"20250802":3.71,"20250803":4.71,"20250804":6.31,"20250805":4.9,"20250806":3.04,"20250807":3.68,"20250808":2.7,"20250809":2.91,"20250810":3.2,"20250811":3.78,"20250812":4.53,"20250813":4.56,"20250814":3.75,"20250815":4.2,"20250816":5.61,"20250817":5.5,"20250818":4.78,"20250819":4.04,"20250820":3.43,"20250821":3.81,"20250822":4.01,"20250823":3.7,"20250824":3.9,"20250825":3.94,"20250826":3.59,"20250827":3.66,"20250828":3.29,"20250829":4.24,"20250830":3.3,"20250831":3.82,"20250901":3.51,"20250902":3.16,"20250903":3.08,"20250904":3.57,"20250905":4.37,"20250906":4.29,"20250907":3.65,"20250908":3.29,"20250909":3.42,"20250910":3.24,"20250911":3.67,"20250912":3.57,"20250913":4.19,"20250914":4.34,"20250915":2.46,"20250916":2.32,"20250917":2.97,"20250918":3.35,"20250919":2.75,"20250920":2.98,"20250921":3.83,"20250922":3.0,"20250923":1.83,"20250924":3.8,"20250925":3.44,"20250926":2.91,"20250927":3.55,"20250928":3.62,"20250929":2.79,"20250930":3.5},"RH2M":{"20250401":84.63,"20250402":79.57,"20250403":80.05,"20250404":79.12,"20250405":76.68,"20250406":81.71,"20250407":84.78,"20250408":84.9,"20250409":80.33,"20250410":84.43,"20250411":86.39,"20250412":81.67,"20250413":77.84,"20250414":74.78,"20250415":83.66,"20250416":82.5,"20250417":82.98,"20250418":82.01,"20250419":84.18,"20250420":83.66,"20250421":79.82,"20250422":82.01,"20250423":83.2,"20250424":82.43,"20250425":80.92,"20250426":81.1,"20250427":87.29,"20250428":81.08,"20250429":80.9,"20250430":79.71,"20250501":81.64,"20250502":80.77,"20250503":82.37,"20250504":74.0,"20250505":56.37,"20250506":68.91,"20250507":81.3,"20250508":78.62,"20250509":71.7,"20250510":70.02,"20250511":75.38,"20250512":78.87,"20250513":78.46,"20250514":77.37,"20250515":77.37,"20250516":75.64,"20250517":77.24,"20250518":72.58,"20250519":70.32,"20250520":70.8,"20250521":70.29,"20250522":68.27,"20250523":78.48,"20250524":80.44,"20250525":78.77,"20250526":79.08,"20250527":78.08,"20250528":78.06,"20250529":75.33,"20250530":69.29,"20250531":68.27,"20250601":72.35,"20250602":76.7,"20250603":77.53,"20250604":73.82,"20250605":80.45,"20250606":76.91,"20250607":78.21,"20250608":79.0,"20250609":78.81,"20250610":80.54,"20250611":78.12,"20250612":76.19,"20250613":74.95,"20250614":74.56,"20250615":75.56,"20250616":75.55,"20250617":67.86,"20250618":69.05,"20250619":69.92,"20250620":70.97,"20250621":65.89,"20250622":62.67,"20250623":66.47,"20250624":72.76,"20250625":78.13,"20250626":71.24,"20250627":67.8,"20250628":68.38,"20250629":68.74,"20250630":72.2,"20250701":71.24,"20250702":72.49,"20250703":77.27,"20250704":72.97,"20250705":73.55,"20250706":74.18,"20250707":74.73,"20250708":77.97,"20250709":74.42,"20250710":68.03,"20250711":67.05,"20250712":74.85,"20250713":75.21,"20250714":72.96,"20250715":76.13,"20250716":77.47,"20250717":77.52,"20250718":78.42,"20250719":76.77,"20250720":80.05,"20250721":80.2,"20250722":79.2,"20250723":75.86,"20250724":78.23,"20250725":80.19,"20250726":81.12,"20250727":78.94,"20250728":77.89,"20250729":75.3,"20250730":78.78,"20250731":78.39,"20250801":78.02,"20250802":76.5,"20250803":73.41,"20250804":67.17,"20250805":74.61,"20250806":68.95,"20250807":64.34,"20250808":67.61,"20250809":64.33,"20250810":68.77,"20250811":74.16,"20250812":77.86,"20250813":79.74,"20250814":77.29,"20250815":73.43,"20250816":76.01,"20250817":77.21,"20250818":76.65,"20250819":75.99,"20250820":68.83,"20250821":61.05,"20250822":68.87,"20250823":68.37,"20250824":74.82,"20250825":78.44,"20250826":78.13,"20250827":78.88,"20250828":78.14,"20250829":76.11,"20250830":65.57,"20250831":52.73,"20250901":62.97,"20250902":63.14,"20250903":78.25,"20250904":80.21,"20250905":80.7,"20250906":80.56,"20250907":78.89,"20250908":80.9,"20250909":84.06,"20250910":84.39,"20250911":81.4,"20250912":80.43,"20250913":81.77,"20250914":80.31,"20250915":68.65,"20250916":61.89,"20250917":62.1,"20250918":66.21,"20250919":79.29,"20250920":80.73,"20250921":76.97,"20250922":66.24,"20250923":55.54,"20250924":70.14,"20250925":74.72,"20250926":73.89,"20250927":79.51,"20250928":81.45,"20250929":85.35,"20250930":82.66}}},"header":{"title":"NASA/POWER Source Native Resolution Daily Data","api":{"version":"v2.9.6","name":"POWER Daily API"},"sources":["MERRA2","POWER"],"fill_value":-999.0,"time_standard":"UTC","start":"20250401","end":"20250930"},"messages":[],"parameters":{"T2M":{"units":"C","longname":"Temperature at 2 Meters"},"T2M_MAX":{"units":"C","longname":"Temperature at 2 Meters Maximum"},"T2M_MIN":{"units":"C","longname":"Temperature at 2 Meters Minimum"},"PRECTOTCORR":{"units":"mm/day","longname":"Precipitation Corrected"},"WS10M":{"units":"m/s","longname":"Wind Speed at 10 Meters"},"RH2M":{"units":"%","longname":"Relative Humidity at 2 Meters"}},"times":{"data":0.801,"process":0.01}}