{"type":"FeatureCollection","features":[{"type":"Feature","geometry":{"type":"Polygon","coordinates":[[[-75.28027,39.97496],[-75.28023,39.97489],[-75.28019,39.97484],[-75.28013,39.97473],[-75.28009,39.97462],[-75.28004,39.97454],[-75.28003,39.9745],[-75.27995,39.97442],[-75.2798,39.97432],[-75.2796,39.97419],[-75.27947,39.97412],[-75.27936,39.97407],[-75.27924,39.97403],[-75.27917,39.97399],[-75.27912,39.97391],[-75.27911,39.97381],[-75.27908,39.97369],[-75.27905,39.97362],[-75.279,39.97353],[-75.27897,39.97345],[-75.27895,39.97336],[-75.27892,39.97331],[-75.27886,39.97325],[-75.27883,39.97316],[-75.27881,39.97305],[-75.27879,39.97295],[-75.27878,39.97284],[-75.27878,39.97275],[-75.27878,39.97269],[-75.27876,39.97263],[-75.27872,39.97253],[-75.2787,39.97244],[-75.2787,39.97241],[-75.27866,39.97233],[-75.27861,39.97226],[-75.27854,39.97219],[-75.27845,39.97211],[-75.27835,39.97201],[-75.2783,39.97193],[-75.27802,39.97175],[-75.27797,39.97171],[-75.27789,39.97169],[-75.27777,39.97168],[-75.27768,39.97166],[-75.27764,39.97164],[-75.27759,39.97162],[-75.27755,39.97158],[-75.27753,39.97156],[-75.27751,39.97152],[-75.27751,39.97149],[-75.2775,39.97145],[-75.27751,39.97142],[-75.27752,39.9714],[-75.27755,39.97139],[-75.2776,39.97138],[-75.27765,39.97136],[-75.27769,39.97134],[-75.27771,39.97132],[-75.2777,39.97128],[-75.27769,39.97125],[-75.27766,39.97121],[-75.27761,39.97118],[-75.27758,39.97115],[-75.27754,39.97113],[-75.27749,39.97111],[-75.27742,39.9711],[-75.27734,39.97108],[-75.27727,39.97108],[-75.2772,39.97108],[-75.27714,39.97109],[-75.27707,39.97111],[-75.2769,39.97118],[-75.27682,39.97121],[-75.27676,39.97124],[-75.27669,39.97125],[-75.27658,39.97126],[-75.27652,39.97122],[-75.27648,39.97118],[-75.27647,39.97113],[-75.27653,39.9711],[-75.27659,39.97106],[-75.27664,39.97102],[-75.27666,39.97098],[-75.27667,39.97094],[-75.27667,39.97091],[-75.27666,39.97086],[-75.27664,39.97083],[-75.27661,39.97078],[-75.27655,39.97067],[-75.27651,39.97059],[-75.27647,39.97052],[-75.27644,39.97047],[-75.27641,39.97042],[-75.27637,39.97039],[-75.2763,39.97035],[-75.27628,39.97034],[-75.27624,39.97033],[-75.27619,39.97032],[-75.27601,39.97031],[-75.27582,39.97031],[-75.2757,39.97029],[-75.27565,39.97026],[-75.27561,39.97021],[-75.27557,39.97013],[-75.27549,39.96993],[-75.27546,39.96978],[-75.27539,39.96957],[-75.27536,39.9695],[-75.27532,39.96942],[-75.27527,39.96936],[-75.2752,39.96932],[-75.27508,39.9693],[-75.27503,39.96929],[-75.27489,39.96929],[-75.27481,39.96929],[-75.27449,39.96931],[-75.27433,39.96932],[-75.27415,39.96932],[-75.27401,39.96931],[-75.27391,39.96931],[-75.27381,39.9693],[-75.27368,39.96929],[-75.27357,39.96928],[-75.27349,39.96928],[-75.27342,39.96928],[-75.27328,39.96929],[-75.27319,39.9693],[-75.27305,39.9693],[-75.27296,39.96929],[-75.27282,39.96924],[-75.27273,39.96922],[-75.27263,39.96918],[-75.2725,39.96913],[-75.27234,39.96909],[-75.2722,39.96905],[-75.27209,39.96901],[-75.27202,39.96899],[-75.27199,39.96894],[-75.27192,39.96886],[-75.27186,39.96881],[-75.2718,39.96876],[-75.2717,39.96873],[-75.27159,39.96872],[-75.27149,39.96871],[-75.27141,39.9687],[-75.27133,39.96869],[-75.27124,39.96866],[-75.27117,39.96863],[-75.27111,39.96862],[-75.27104,39.96861],[-75.27099,39.9686],[-75.27091,39.96862],[-75.27084,39.96864],[-75.27077,39.96866],[-75.27072,39.96867],[-75.27065,39.96868],[-75.2706,39.96866],[-75.27057,39.96864],[-75.27052,39.9686],[-75.2705,39.96858],[-75.27045,39.96853],[-75.27042,39.96848],[-75.27041,39.96843],[-75.2704,39.96836],[-75.27039,39.96832],[-75.2703,39.96818],[-75.27019,39.96798],[-75.27014,39.96787],[-75.27007,39.96773],[-75.27005,39.96765],[-75.27003,39.96755],[-75.27,39.96748],[-75.26996,39.96742],[-75.26992,39.96738],[-75.26986,39.96734],[-75.2698,39.96733],[-75.26974,39.96731],[-75.26967,39.96732],[-75.26961,39.96733],[-75.26955,39.96735],[-75.2695,39.96737],[-75.26945,39.96739],[-75.26936,39.9674],[-75.26927,39.96739],[-75.26921,39.96738],[-75.26916,39.96737],[-75.26913,39.96736],[-75.26908,39.96733],[-75.26904,39.96728],[-75.26902,39.96723],[-75.26892,39.96704],[-75.26885,39.96695],[-75.26877,39.96686],[-75.2687,39.9668],[-75.26857,39.96669],[-75.26851,39.96665],[-75.26846,39.96662],[-75.26839,39.96659],[-75.26813,39.96649],[-75.26791,39.9664],[-75.26782,39.96636],[-75.26778,39.96634],[-75.26767,39.9663],[-75.2676,39.96627],[-75.26754,39.96627],[-75.26748,39.96626],[-75.26739,39.96622],[-75.26724,39.96612],[-75.26721,39.96609],[-75.26714,39.96606],[-75.2671,39.96605],[-75.26702,39.96603],[-75.26691,39.96601],[-75.26679,39.96601],[-75.26671,39.96602],[-75.26655,39.96602],[-75.26639,39.96602],[-75.26631,39.966],[-75.26619,39.96597],[-75.26606,39.96593],[-75.26605,39.96593],[-75.26592,39.96586],[-75.26586,39.96579],[-75.26581,39.96572],[-75.26574,39.96563],[-75.26566,39.96553],[-75.2656,39.96545],[-75.26557,39.9654],[-75.26553,39.96535],[-75.26545,39.96526],[-75.26539,39.96522],[-75.26525,39.96521],[-75.26506,39.96519],[-75.26492,39.96519],[-75.26476,39.96518],[-75.26464,39.96518],[-75.26455,39.96518],[-75.2645,39.96519],[-75.26437,39.96524],[-75.26424,39.96531],[-75.26413,39.96537],[-75.26406,39.96542],[-75.26402,39.96546],[-75.26399,39.96549],[-75.26393,39.96553],[-75.26385,39.96556],[-75.26377,39.9656],[-75.2637,39.96561],[-75.26361,39.96562],[-75.26353,39.96561],[-75.26347,39.96558],[-75.26338,39.96554],[-75.26331,39.9655],[-75.26325,39.96547],[-75.2632,39.96546],[-75.26314,39.96546],[-75.26309,39.96549],[-75.26303,39.96553],[-75.26296,39.96558],[-75.26292,39.96561],[-75.26284,39.96564],[-75.26277,39.96565],[-75.26268,39.96564],[-75.26262,39.96563],[-75.26256,39.96562],[-75.26251,39.96561],[-75.26246,39.96563],[-75.26242,39.96568],[-75.26238,39.96574],[-75.26234,39.96578],[-75.26228,39.96585],[-75.26226,39.96586],[-75.26224,39.96588],[-75.26217,39.96593],[-75.26215,39.96595],[-75.26214,39.96597],[-75.26212,39.96601],[-75.2621,39.96605],[-75.26209,39.96609],[-75.26201,39.96613],[-75.26189,39.96617],[-75.26181,39.96619],[-75.26174,39.96618],[-75.26166,39.96616],[-75.26155,39.96612],[-75.26148,39.96608],[-75.26145,39.96603],[-75.26139,39.966],[-75.26128,39.966],[-75.26122,39.96603],[-75.26116,39.96608],[-75.26111,39.96614],[-75.26103,39.9662],[-75.26093,39.96624],[-75.26083,39.96627],[-75.26075,39.96628],[-75.26066,39.96627],[-75.26058,39.96627],[-75.26049,39.96631],[-75.26031,39.96626],[-75.26007,39.9662],[-75.25991,39.96611],[-75.25978,39.96608],[-75.25965,39.96604],[-75.25955,39.96601],[-75.25945,39.96595],[-75.25943,39.96589],[-75.25943,39.96581],[-75.25942,39.96576],[-75.2594,39.96572],[-75.25933,39.9657],[-75.25921,39.9657],[-75.25908,39.96569],[-75.25897,39.96568],[-75.25889,39.96565],[-75.25884,39.96561],[-75.2588,39.96557],[-75.25877,39.96552],[-75.25874,39.96545],[-75.25871,39.96538],[-75.2587,39.96532],[-75.25871,39.96524],[-75.25872,39.96506],[-75.25871,39.96496],[-75.25871,39.9649],[-75.25868,39.96485],[-75.25864,39.96477],[-75.25859,39.96471],[-75.25855,39.96462],[-75.25851,39.96453],[-75.25847,39.96448],[-75.25841,39.96445],[-75.25834,39.96445],[-75.25827,39.96445],[-75.25819,39.96445],[-75.25812,39.96445],[-75.25806,39.96443],[-75.25801,39.9644],[-75.25798,39.96438],[-75.25794,39.9643],[-75.25794,39.96424],[-75.25796,39.96416],[-75.25799,39.96409],[-75.25801,39.96399],[-75.25801,39.96385],[-75.25801,39.96374],[-75.25799,39.96368],[-75.25793,39.96362],[-75.25786,39.96359],[-75.25779,39.9636],[-75.25771,39.96363],[-75.25763,39.96366],[-75.25754,39.9637],[-75.25749,39.96374],[-75.25742,39.96377],[-75.25732,39.96377],[-75.25725,39.96375],[-75.25713,39.96373],[-75.25711,39.96372],[-75.25698,39.96369],[-75.2569,39.96367],[-75.25682,39.96368],[-75.25675,39.96369],[-75.25669,39.96372],[-75.25659,39.9638],[-75.25638,39.96397],[-75.25628,39.96408],[-75.25619,39.96416],[-75.25608,39.96424],[-75.25597,39.96431],[-75.25589,39.96437],[-75.25585,39.96444],[-75.25581,39.96447],[-75.25569,39.96455],[-75.25554,39.9646],[-75.25541,39.96463],[-75.25527,39.96466],[-75.25511,39.96469],[-75.25494,39.96476],[-75.25474,39.96485],[-75.25463,39.96492],[-75.25454,39.96499],[-75.25446,39.96505],[-75.25438,39.96513],[-75.25434,39.96521],[-75.2543,39.96527],[-75.25422,39.96534],[-75.25414,39.9654],[-75.25405,39.9654],[-75.25394,39.96539],[-75.25371,39.96533],[-75.25358,39.9653],[-75.25341,39.96526],[-75.25331,39.96523],[-75.25322,39.96518],[-75.25308,39.96521],[-75.25297,39.96524],[-75.25284,39.96524],[-75.25264,39.96525],[-75.25233,39.96528],[-75.25209,39.9653],[-75.25192,39.96532],[-75.25181,39.96533],[-75.25171,39.96535],[-75.2516,39.96536],[-75.2515,39.96534],[-75.25143,39.9653],[-75.25137,39.96525],[-75.25135,39.96522],[-75.25134,39.96519],[-75.25134,39.96514],[-75.25134,39.96507],[-75.25128,39.965],[-75.2512,39.96491],[-75.2511,39.96486],[-75.25105,39.96483],[-75.25091,39.96484],[-75.25076,39.96488],[-75.25061,39.96495],[-75.25045,39.96502],[-75.25031,39.96507],[-75.25022,39.96508],[-75.25013,39.96507],[-75.25005,39.96504],[-75.24999,39.965],[-75.24991,39.96495],[-75.24985,39.96491],[-75.24973,39.96485],[-75.24947,39.96472],[-75.24897,39.96449],[-75.24862,39.96435],[-75.24806,39.96407],[-75.2479,39.96398],[-75.24778,39.96388],[-75.24769,39.96378],[-75.24756,39.96364],[-75.24748,39.96353],[-75.24743,39.96342],[-75.2474,39.96333],[-75.2474,39.96325],[-75.24742,39.96319],[-75.24749,39.96312],[-75.2476,39.96299],[-75.24764,39.96295],[-75.24769,39.96282],[-75.24772,39.96266],[-75.24775,39.96245],[-75.24778,39.9623],[-75.24776,39.96223],[-75.24773,39.96217],[-75.2477,39.96206],[-75.24771,39.96198],[-75.24774,39.9619],[-75.24777,39.96184],[-75.24781,39.96176],[-75.24782,39.96169],[-75.24784,39.96161],[-75.24787,39.96149],[-75.24787,39.96143],[-75.24787,39.96134],[-75.24789,39.96118],[-75.24792,39.96108],[-75.24797,39.961],[-75.24806,39.96089],[-75.2482,39.96072],[-75.24828,39.96062],[-75.24833,39.96052],[-75.24838,39.96042],[-75.24846,39.96033],[-75.24855,39.96027],[-75.24869,39.9602],[-75.24884,39.96013],[-75.24897,39.96007],[-75.24912,39.95999],[-75.24921,39.95992],[-75.24932,39.95984],[-75.24944,39.95975],[-75.24955,39.95968],[-75.24965,39.95964],[-75.24983,39.95957],[-75.25008,39.95948],[-75.25029,39.9594],[-75.25045,39.95932],[-75.25061,39.95924],[-75.25075,39.95915],[-75.25085,39.9591],[-75.25088,39.95902],[-75.25089,39.95894],[-75.25088,39.95881],[-75.25087,39.95873],[-75.25084,39.95864],[-75.25079,39.95853],[-75.25073,39.95843],[-75.25067,39.95833],[-75.25056,39.95823],[-75.25046,39.95812],[-75.25036,39.95801],[-75.25024,39.95787],[-75.25018,39.95779],[-75.25004,39.95765],[-75.24978,39.95743],[-75.24969,39.95735],[-75.24963,39.95731],[-75.24958,39.95726],[-75.24953,39.95721],[-75.2495,39.95719],[-75.24944,39.95715],[-75.2494,39.95712],[-75.24931,39.95707],[-75.24919,39.95701],[-75.24906,39.95696],[-75.24901,39.95691],[-75.24895,39.95675],[-75.24893,39.95663],[-75.24896,39.95652],[-75.24899,39.95643],[-75.24905,39.95637],[-75.24911,39.95633],[-75.24923,39.95622],[-75.24927,39.95612],[-75.24926,39.95604],[-75.24922,39.95593],[-75.24917,39.95585],[-75.24913,39.95576],[-75.24912,39.95566],[-75.24914,39.95557],[-75.24916,39.95551],[-75.2492,39.95547],[-75.24923,39.95543],[-75.24928,39.95542],[-75.24936,39.9554],[-75.24942,39.95538],[-75.24949,39.95535],[-75.24956,39.95529],[-75.2496,39.95524],[-75.24961,39.95518],[-75.24969,39.95498],[-75.24975,39.95483],[-75.24977,39.95476],[-75.24976,39.95471],[-75.24975,39.95464],[-75.24977,39.95457],[-75.2498,39.9545],[-75.24984,39.95443],[-75.24989,39.95438],[-75.24995,39.95433],[-75.25,39.95423],[-75.25005,39.95415],[-75.25014,39.95407],[-75.25035,39.95386],[-75.25049,39.95374],[-75.25065,39.95361],[-75.25079,39.9535],[-75.25082,39.95347],[-75.25092,39.95339],[-75.25105,39.95329],[-75.2511,39.95323],[-75.25115,39.95316],[-75.25118,39.95309],[-75.25121,39.95303],[-75.25118,39.95294],[-75.25115,39.95285],[-75.25115,39.95275],[-75.25119,39.95266],[-75.25128,39.95254],[-75.25141,39.95238],[-75.25151,39.95224],[-75.25158,39.95213],[-75.25161,39.95204],[-75.25164,39.95195],[-75.25165,39.95185],[-75.25165,39.95175],[-75.25163,39.95162],[-75.25161,39.9515],[-75.25161,39.95147],[-75.25161,39.95138],[-75.25158,39.95128],[-75.25153,39.95122],[-75.25148,39.95119],[-75.25142,39.95115],[-75.25134,39.95107],[-75.25126,39.95097],[-75.25116,39.95078],[-75.25112,39.9507],[-75.25113,39.9506],[-75.25113,39.95044],[-75.25116,39.95029],[-75.25121,39.95015],[-75.25127,39.94999],[-75.25137,39.94986],[-75.25147,39.94965],[-75.25151,39.94946],[-75.2515,39.94925],[-75.25144,39.94914],[-75.25138,39.94906],[-75.25125,39.94897],[-75.25112,39.94887],[-75.25099,39.94874],[-75.25066,39.94844],[-75.25072,39.94838],[-75.25056,39.94825],[-75.25047,39.94818],[-75.25042,39.94809],[-75.25036,39.94798],[-75.25034,39.94785],[-75.25031,39.94772],[-75.25027,39.94757],[-75.25024,39.94741],[-75.25023,39.94739],[-75.25022,39.94732],[-75.25021,39.94724],[-75.2502,39.94723],[-75.25016,39.94711],[-75.25012,39.94697],[-75.25004,39.94681],[-75.24997,39.94671],[-75.24992,39.94663],[-75.24981,39.94653],[-75.24971,39.94645],[-75.24962,39.94641],[-75.24956,39.94639],[-75.2495,39.94636],[-75.24943,39.94631],[-75.24925,39.94615],[-75.24908,39.94599],[-75.2489,39.94583],[-75.24871,39.94567],[-75.24857,39.94555],[-75.24851,39.94551],[-75.24847,39.94548],[-75.24842,39.94545],[-75.24833,39.94534],[-75.24824,39.94523],[-75.24822,39.9451],[-75.24818,39.94501],[-75.2481,39.94492],[-75.24791,39.94478],[-75.24777,39.94464],[-75.24765,39.94451],[-75.24764,39.94452],[-75.24751,39.94441],[-75.24747,39.94435],[-75.24742,39.94429],[-75.2474,39.94421],[-75.24738,39.94414],[-75.2473,39.94401],[-75.24721,39.9439],[-75.24719,39.94387],[-75.24711,39.94368],[-75.24708,39.94362],[-75.24705,39.94356],[-75.24705,39.94353],[-75.24704,39.94348],[-75.24703,39.94341],[-75.24702,39.94338],[-75.24698,39.94329],[-75.24696,39.94326],[-75.24687,39.94313],[-75.24682,39.94297],[-75.24674,39.94286],[-75.24666,39.94276],[-75.24657,39.9427],[-75.24647,39.94267],[-75.24635,39.94265],[-75.24619,39.94261],[-75.24605,39.94261],[-75.24589,39.9426],[-75.24574,39.9426],[-75.24556,39.94261],[-75.24541,39.94261],[-75.24523,39.94262],[-75.24501,39.9426],[-75.24466,39.94259],[-75.24441,39.94255],[-75.24407,39.9425],[-75.24384,39.94248],[-75.24353,39.94244],[-75.24342,39.94241],[-75.24354,39.94231],[-75.24336,39.94235],[-75.24334,39.94233],[-75.2432,39.94228],[-75.24311,39.94223],[-75.24303,39.94221],[-75.24295,39.94225],[-75.2426,39.94225],[-75.24228,39.94223],[-75.24203,39.94223],[-75.24182,39.94223],[-75.24158,39.94225],[-75.24145,39.94227],[-75.2414,39.94227],[-75.24118,39.94226],[-75.24095,39.94224],[-75.24079,39.94222],[-75.24058,39.9422],[-75.24052,39.94219],[-75.24037,39.94217],[-75.24025,39.94214],[-75.24015,39.94209],[-75.24007,39.94199],[-75.23999,39.94189],[-75.23985,39.94173],[-75.23973,39.94159],[-75.23963,39.94142],[-75.23956,39.9413],[-75.23949,39.94116],[-75.23946,39.94103],[-75.23943,39.94089],[-75.2394,39.94074],[-75.23941,39.94061],[-75.23953,39.94043],[-75.23964,39.9403],[-75.2398,39.94016],[-75.23984,39.94012],[-75.23988,39.94007],[-75.2399,39.94004],[-75.23994,39.93998],[-75.24002,39.93984],[-75.24014,39.93971],[-75.24024,39.93957],[-75.24034,39.93946],[-75.24042,39.93937],[-75.24054,39.93928],[-75.24063,39.93919],[-75.2407,39.93908],[-75.24074,39.93897],[-75.24076,39.93887],[-75.24076,39.93879],[-75.24071,39.93873],[-75.24059,39.93863],[-75.24041,39.93846],[-75.24026,39.93834],[-75.24021,39.93828],[-75.24014,39.93824],[-75.24004,39.9382],[-75.23993,39.93817],[-75.23986,39.93816],[-75.23983,39.93814],[-75.23976,39.93811],[-75.23966,39.93807],[-75.23958,39.93804],[-75.23957,39.93804],[-75.23943,39.93816],[-75.23934,39.93816],[-75.23918,39.93815],[-75.23901,39.93814],[-75.23887,39.93816],[-75.23874,39.93818],[-75.2385,39.9382],[-75.23833,39.93822],[-75.23817,39.93823],[-75.23796,39.93823],[-75.23777,39.93825],[-75.23762,39.93827],[-75.23745,39.93832],[-75.23714,39.93838],[-75.23688,39.93843],[-75.23668,39.93845],[-75.2365,39.93846],[-75.23634,39.93846],[-75.23614,39.93843],[-75.23594,39.93841],[-75.23578,39.93839],[-75.23549,39.93836],[-75.23529,39.93832],[-75.23516,39.93827],[-75.23507,39.9382],[-75.235,39.93813],[-75.23498,39.93802],[-75.23497,39.93775],[-75.23492,39.93755],[-75.23487,39.93746],[-75.2348,39.93734],[-75.23478,39.93719],[-75.23479,39.93704],[-75.23474,39.93688],[-75.23477,39.93675],[-75.23484,39.93668],[-75.23492,39.93659],[-75.23492,39.93645],[-75.23492,39.93633],[-75.23498,39.93622],[-75.23526,39.93596],[-75.23546,39.93582],[-75.23562,39.93573],[-75.23567,39.93571],[-75.23589,39.93562],[-75.23601,39.93552],[-75.2361,39.93546],[-75.23617,39.93541],[-75.23632,39.93533],[-75.23639,39.93517],[-75.23647,39.93485],[-75.23652,39.93468],[-75.23655,39.93454],[-75.23658,39.93442],[-75.2366,39.93434],[-75.23665,39.93421],[-75.23666,39.93409],[-75.23665,39.9339],[-75.23664,39.93379],[-75.23666,39.93355],[-75.23672,39.93341],[-75.23679,39.93326],[-75.23691,39.93307],[-75.23701,39.93292],[-75.23712,39.9328],[-75.23722,39.93269],[-75.23732,39.93262],[-75.23744,39.93256],[-75.23756,39.93252],[-75.23773,39.9325],[-75.23795,39.93247],[-75.2381,39.93251],[-75.23827,39.93255],[-75.23844,39.9326],[-75.23861,39.93264],[-75.23876,39.9327],[-75.23895,39.93282],[-75.23918,39.933],[-75.23934,39.93312],[-75.23947,39.93322],[-75.23965,39.93332],[-75.23992,39.9334],[-75.24,39.93343],[-75.24016,39.93349],[-75.24024,39.93352],[-75.2403,39.93354],[-75.24045,39.93359],[-75.2405,39.9336],[-75.24069,39.93364],[-75.24074,39.93365],[-75.24094,39.93365],[-75.24116,39.93363],[-75.24136,39.93361],[-75.24152,39.93359],[-75.24168,39.93358],[-75.24174,39.93358],[-75.24177,39.93348],[-75.24185,39.93347],[-75.24191,39.93354],[-75.24195,39.93353],[-75.24207,39.93349],[-75.24219,39.93343],[-75.24223,39.93338],[-75.2423,39.93329],[-75.24234,39.93319],[-75.2424,39.93309],[-75.2425,39.93296],[-75.24258,39.93288],[-75.24267,39.93278],[-75.24276,39.93261],[-75.24288,39.93244],[-75.24297,39.9323],[-75.24308,39.93218],[-75.24313,39.93209],[-75.24321,39.93203],[-75.24331,39.93198],[-75.24337,39.93191],[-75.24342,39.93184],[-75.24342,39.93178],[-75.24344,39.93169],[-75.24345,39.93158],[-75.24349,39.93147],[-75.24353,39.93134],[-75.24356,39.9312],[-75.24361,39.93108],[-75.24363,39.93091],[-75.24364,39.9309],[-75.24369,39.93082],[-75.24381,39.93073],[-75.24395,39.93065],[-75.24413,39.93056],[-75.24427,39.93049],[-75.24438,39.9304],[-75.24443,39.93029],[-75.2444,39.93016],[-75.24436,39.93004],[-75.24428,39.92996],[-75.24419,39.9299],[-75.2441,39.92986],[-75.24401,39.92979],[-75.24398,39.92971],[-75.24398,39.92968],[-75.24397,39.9296],[-75.24397,39.92953],[-75.24397,39.9295],[-75.24397,39.92947],[-75.24397,39.92943],[-75.24397,39.92918],[-75.24397,39.9288],[-75.24397,39.92865],[-75.24399,39.92848],[-75.244,39.92836],[-75.24405,39.92815],[-75.24412,39.92801],[-75.2442,39.92789],[-75.24427,39.9278],[-75.24434,39.92766],[-75.24443,39.92753],[-75.24448,39.92743],[-75.2445,39.92741],[-75.24455,39.92728],[-75.24458,39.92718],[-75.24458,39.927],[-75.2446,39.92686],[-75.24458,39.92675],[-75.24451,39.92665],[-75.2445,39.92664],[-75.24441,39.92657],[-75.24433,39.92648],[-75.2443,39.92635],[-75.24434,39.92625],[-75.2444,39.92613],[-75.24452,39.92606],[-75.24462,39.926],[-75.24476,39.92595],[-75.24487,39.92589],[-75.24499,39.92584],[-75.24505,39.92577],[-75.24513,39.92566],[-75.2452,39.92555],[-75.24526,39.92542],[-75.24544,39.92516],[-75.24555,39.92504],[-75.24558,39.92501],[-75.24564,39.92494],[-75.24568,39.92488],[-75.24573,39.92482],[-75.24575,39.92478],[-75.24579,39.9247],[-75.24581,39.92466],[-75.24587,39.92458],[-75.24593,39.92447],[-75.24594,39.92445],[-75.24599,39.92437],[-75.246,39.92435],[-75.24603,39.92424],[-75.24607,39.92413],[-75.2461,39.92401],[-75.24613,39.92391],[-75.24613,39.92379],[-75.24614,39.92361],[-75.24616,39.92345],[-75.24619,39.92331],[-75.24627,39.92317],[-75.24636,39.92306],[-75.24652,39.92289],[-75.24664,39.92277],[-75.24694,39.9225],[-75.24707,39.92238],[-75.24716,39.92228],[-75.24729,39.92217],[-75.24732,39.92214],[-75.24739,39.92205],[-75.24747,39.92188],[-75.24751,39.92177],[-75.24751,39.92171],[-75.24751,39.92168],[-75.24752,39.92166],[-75.24751,39.92161],[-75.24748,39.9215],[-75.24746,39.92134],[-75.24747,39.92097],[-75.24747,39.92072],[-75.24746,39.92059],[-75.24746,39.92052],[-75.24747,39.92045],[-75.24748,39.92033],[-75.24749,39.92021],[-75.24753,39.9201],[-75.24758,39.91998],[-75.24759,39.9199],[-75.24762,39.91967],[-75.24762,39.91952],[-75.24758,39.9194],[-75.2475,39.91927],[-75.24748,39.91924],[-75.24745,39.91916],[-75.24746,39.91908],[-75.2476,39.91908],[-75.24755,39.91902],[-75.24742,39.91882],[-75.24738,39.91869],[-75.24734,39.91854],[-75.24735,39.91843],[-75.24736,39.91799],[-75.24735,39.91778],[-75.24731,39.91763],[-75.2473,39.91762],[-75.24724,39.9174],[-75.24717,39.91724],[-75.24719,39.91721],[-75.24721,39.91718],[-75.2472,39.91713],[-75.24719,39.91709],[-75.24715,39.91706],[-75.2471,39.91703],[-75.24704,39.91699],[-75.247,39.91697],[-75.24697,39.91694],[-75.24694,39.91687],[-75.24688,39.91672],[-75.24683,39.91656],[-75.24679,39.91645],[-75.24676,39.91633],[-75.24675,39.91623],[-75.24678,39.91617],[-75.24684,39.91609],[-75.24692,39.916],[-75.24699,39.91593],[-75.24706,39.91585],[-75.24714,39.91573],[-75.24719,39.91563],[-75.24735,39.9154],[-75.24749,39.91521],[-75.24755,39.91508],[-75.24765,39.91495],[-75.24772,39.91484],[-75.24771,39.91472],[-75.24763,39.91464],[-75.24759,39.91461],[-75.24758,39.91456],[-75.24757,39.91449],[-75.24759,39.91436],[-75.24732,39.91429],[-75.24722,39.91416],[-75.24712,39.91404],[-75.24706,39.91391],[-75.24707,39.91378],[-75.24712,39.91368],[-75.24719,39.91359],[-75.2472,39.91358],[-75.2474,39.9135],[-75.2476,39.91339],[-75.24783,39.91329],[-75.24806,39.91316],[-75.24821,39.91308],[-75.2483,39.91301],[-75.24838,39.91293],[-75.24843,39.91284],[-75.24851,39.91272],[-75.24856,39.9126],[-75.2486,39.9125],[-75.24869,39.9123],[-75.24872,39.91214],[-75.24876,39.91198],[-75.24885,39.91185],[-75.24898,39.91175],[-75.24916,39.91164],[-75.24933,39.91155],[-75.24952,39.91148],[-75.24975,39.91137],[-75.24993,39.91129],[-75.25019,39.9112],[-75.25035,39.91108],[-75.2504,39.91104],[-75.25054,39.91089],[-75.25062,39.91077],[-75.25072,39.91066],[-75.25087,39.91053],[-75.251,39.91038],[-75.25112,39.91025],[-75.25124,39.91011],[-75.25127,39.91003],[-75.2515,39.91005],[-75.25129,39.90998],[-75.2513,39.90986],[-75.25123,39.90978],[-75.25111,39.90971],[-75.25088,39.90963],[-75.25066,39.90957],[-75.25048,39.90953],[-75.25029,39.90953],[-75.25016,39.9095],[-75.25005,39.90946],[-75.25,39.90943],[-75.24993,39.90935],[-75.2499,39.90927],[-75.24994,39.90915],[-75.25001,39.90904],[-75.25005,39.90888],[-75.25012,39.90872],[-75.25017,39.90857],[-75.25019,39.90845],[-75.2502,39.90832],[-75.2502,39.90829],[-75.25018,39.90806],[-75.25021,39.90791],[-75.25022,39.90781],[-75.25027,39.90771],[-75.25032,39.90763],[-75.25045,39.90754],[-75.25072,39.90737],[-75.25087,39.90728],[-75.25106,39.90718],[-75.25131,39.90703],[-75.2515,39.9069],[-75.25163,39.90681],[-75.25176,39.90674],[-75.252,39.90669],[-75.25216,39.90667],[-75.25233,39.90664],[-75.2524,39.90664],[-75.25248,39.90663],[-75.2525,39.90661],[-75.25256,39.90655],[-75.25349,39.90559],[-75.25297,39.90531],[-75.25129,39.9044],[-75.25179,39.90384],[-75.25356,39.90183],[-75.2556,39.8996],[-75.25561,39.89958],[-75.25555,39.8995],[-75.25538,39.89929],[-75.25525,39.89914],[-75.25519,39.89898],[-75.25517,39.89894],[-75.25513,39.8989],[-75.25512,39.89888],[-75.25511,39.89884],[-75.25509,39.89876],[-75.2551,39.89867],[-75.25516,39.89858],[-75.25522,39.89849],[-75.25533,39.89842],[-75.25551,39.89818],[-75.25562,39.89794],[-75.2558,39.89772],[-75.25598,39.89747],[-75.25609,39.89729],[-75.25623,39.8971],[-75.25645,39.89684],[-75.25676,39.89649],[-75.25693,39.89636],[-75.25715,39.89615],[-75.25728,39.896],[-75.25728,39.89598],[-75.25736,39.89584],[-75.25739,39.8957],[-75.25727,39.89556],[-75.25712,39.89546],[-75.25697,39.89536],[-75.25679,39.89519],[-75.25671,39.89503],[-75.25666,39.89493],[-75.25666,39.89485],[-75.25674,39.89473],[-75.25691,39.89454],[-75.25743,39.894],[-75.25767,39.89373],[-75.25783,39.89356],[-75.25802,39.89336],[-75.25821,39.89316],[-75.25839,39.89298],[-75.25857,39.8928],[-75.25878,39.89267],[-75.25896,39.89252],[-75.25911,39.89244],[-75.25935,39.8924],[-75.25955,39.89235],[-75.25975,39.89235],[-75.25993,39.89233],[-75.26015,39.8923],[-75.26074,39.89217],[-75.26111,39.89208],[-75.26132,39.89198],[-75.26151,39.89194],[-75.26161,39.89188],[-75.26174,39.89177],[-75.2618,39.89162],[-75.26187,39.89144],[-75.26189,39.8913],[-75.26205,39.89069],[-75.26211,39.89047],[-75.26212,39.89027],[-75.26213,39.89009],[-75.26211,39.8899],[-75.2621,39.88966],[-75.26209,39.88935],[-75.26211,39.88914],[-75.26214,39.8889],[-75.26221,39.88869],[-75.26231,39.88854],[-75.26248,39.88841],[-75.26269,39.88834],[-75.26299,39.8884],[-75.26339,39.88845],[-75.26374,39.88847],[-75.26401,39.88846],[-75.26428,39.8884],[-75.26446,39.88832],[-75.26461,39.8882],[-75.26474,39.88807],[-75.26488,39.88793],[-75.26492,39.88787],[-75.26501,39.88771],[-75.26508,39.88758],[-75.26511,39.88752],[-75.26515,39.88732],[-75.26515,39.88714],[-75.26512,39.88697],[-75.26511,39.88694],[-75.26506,39.88682],[-75.265,39.88673],[-75.26495,39.88665],[-75.26487,39.88652],[-75.26482,39.88643],[-75.26472,39.88636],[-75.26455,39.88623],[-75.26439,39.88616],[-75.26409,39.88609],[-75.26381,39.88617],[-75.26296,39.88618],[-75.26284,39.88613],[-75.26282,39.88608],[-75.2628,39.88608],[-75.26268,39.88603],[-75.26262,39.88581],[-75.26273,39.88555],[-75.26315,39.8853],[-75.26423,39.885],[-75.26445,39.88486],[-75.2646,39.88474],[-75.26449,39.88454],[-75.26441,39.88432],[-75.26418,39.88416],[-75.26243,39.88363],[-75.26196,39.88324],[-75.26189,39.88307],[-75.26195,39.88289],[-75.26226,39.88257],[-75.26308,39.88236],[-75.26434,39.88226],[-75.26456,39.88212],[-75.26511,39.88166],[-75.26508,39.88146],[-75.265,39.88098],[-75.26483,39.88065],[-75.26347,39.87823],[-75.26265,39.87679],[-75.26256,39.87662],[-75.26254,39.87658],[-75.26253,39.87656],[-75.26248,39.87656],[-75.26222,39.87654],[-75.26165,39.87651],[-75.26151,39.8765],[-75.26125,39.87648],[-75.2599,39.8764],[-75.25985,39.8764],[-75.25972,39.87639],[-75.25927,39.87636],[-75.25902,39.87635],[-75.25857,39.87632],[-75.25785,39.87628],[-75.25772,39.87627],[-75.25741,39.87625],[-75.25715,39.87623],[-75.25613,39.87617],[-75.25543,39.87613],[-75.25508,39.87611],[-75.25465,39.87608],[-75.25429,39.87606],[-75.25399,39.87604],[-75.25374,39.87603],[-75.25366,39.87602],[-75.25351,39.87602],[-75.25346,39.87601],[-75.25322,39.876],[-75.25302,39.87598],[-75.25293,39.87598],[-75.2529,39.87597],[-75.25272,39.87597],[-75.25226,39.87594],[-75.25175,39.87601],[-75.2513,39.87607],[-75.2503,39.87622],[-75.24964,39.87631],[-75.24843,39.87649],[-75.2484,39.87646],[-75.2483,39.87638],[-75.2481,39.87621],[-75.24753,39.87573],[-75.24682,39.87514],[-75.24678,39.8751],[-75.24673,39.87507],[-75.24663,39.87501],[-75.24273,39.87304],[-75.24269,39.87302],[-75.24257,39.87295],[-75.24229,39.87281],[-75.24222,39.87278],[-75.24175,39.87258],[-75.24156,39.87254],[-75.24142,39.87251],[-75.24137,39.8725],[-75.24122,39.87247],[-75.24109,39.87244],[-75.24094,39.87241],[-75.2409,39.8724],[-75.24047,39.87238],[-75.2401,39.8726],[-75.2401,39.87263],[-75.2401,39.87273],[-75.2401,39.87286],[-75.2401,39.87303],[-75.2394,39.8733],[-75.23935,39.87337],[-75.23926,39.87349],[-75.23917,39.87361],[-75.23899,39.87384],[-75.23869,39.87396],[-75.23838,39.8743],[-75.23832,39.87436],[-75.23825,39.87445],[-75.23811,39.87459],[-75.23746,39.8748],[-75.2375,39.87487],[-75.23754,39.87491],[-75.23759,39.87498],[-75.2375,39.87508],[-75.23693,39.87512],[-75.23678,39.87545],[-75.23677,39.87548],[-75.23671,39.87561],[-75.23664,39.87574],[-75.23637,39.87619],[-75.23605,39.8764],[-75.23597,39.87646],[-75.23593,39.87649],[-75.23579,39.87658],[-75.23554,39.87675],[-75.23502,39.87696],[-75.23468,39.87705],[-75.23465,39.87705],[-75.23448,39.87709],[-75.2343,39.87714],[-75.23412,39.87718],[-75.23402,39.87718],[-75.23396,39.87718],[-75.23327,39.87715],[-75.23299,39.87713],[-75.23281,39.87711],[-75.23266,39.87709],[-75.23255,39.87708],[-75.23231,39.87706],[-75.23193,39.87702],[-75.23187,39.87701],[-75.23105,39.87694],[-75.231,39.87693],[-75.23085,39.87692],[-75.23081,39.87691],[-75.23077,39.87691],[-75.23064,39.8769],[-75.23047,39.87689],[-75.22999,39.87685],[-75.2289,39.87669],[-75.22872,39.87667],[-75.22847,39.87663],[-75.22712,39.87644],[-75.22689,39.8764],[-75.22684,39.8764],[-75.22595,39.87627],[-75.22503,39.87609],[-75.22486,39.87606],[-75.22465,39.87602],[-75.22376,39.87586],[-75.22315,39.87578],[-75.22306,39.87577],[-75.22287,39.87575],[-75.2227,39.87573],[-75.22208,39.87567],[-75.22127,39.87561],[-75.22123,39.8756],[-75.22104,39.87559],[-75.22086,39.87557],[-75.21977,39.87548],[-75.21973,39.87547],[-75.2197,39.87548],[-75.21965,39.87549],[-75.21962,39.8755],[-75.21945,39.87554],[-75.21924,39.87559],[-75.21892,39.87567],[-75.21888,39.87567],[-75.21882,39.87567],[-75.21832,39.87568],[-75.21803,39.87568],[-75.21786,39.8757],[-75.2177,39.87572],[-75.21751,39.87574],[-75.21701,39.87581],[-75.21684,39.87584],[-75.2167,39.87588],[-75.21637,39.87595],[-75.21635,39.87596],[-75.2162,39.87599],[-75.21605,39.87602],[-75.2159,39.87606],[-75.21572,39.87609],[-75.21573,39.87602],[-75.21579,39.87505],[-75.2158,39.87483],[-75.21602,39.87147],[-75.21602,39.87136],[-75.21604,39.87111],[-75.21198,39.86746],[-75.20795,39.87028],[-75.20731,39.87067],[-75.20666,39.87108],[-75.2051,39.87197],[-75.2021,39.87362],[-75.20065,39.8744],[-75.20058,39.87444],[-75.19943,39.87501],[-75.19819,39.87568],[-75.19701,39.87626],[-75.1958,39.8769],[-75.19523,39.87721],[-75.19423,39.87766],[-75.19341,39.87802],[-75.19014,39.87946],[-75.18898,39.87999],[-75.18833,39.88023],[-75.18766,39.88046],[-75.18722,39.88058],[-75.18704,39.88064],[-75.18627,39.88078],[-75.18542,39.88085],[-75.18495,39.88089],[-75.18457,39.88091],[-75.18378,39.88089],[-75.17929,39.88076],[-75.17823,39.8808],[-75.17689,39.8809],[-75.17505,39.88102],[-75.17431,39.88108],[-75.17214,39.88129],[-75.16965,39.88158],[-75.167,39.88203],[-75.16531,39.88235],[-75.16419,39.88257],[-75.16381,39.88263],[-75.16289,39.88279],[-75.16217,39.88291],[-75.15997,39.88319],[-75.15763,39.88338],[-75.15237,39.88375],[-75.14925,39.88393],[-75.14695,39.88406],[-75.14616,39.8841],[-75.14526,39.88424],[-75.14461,39.88434],[-75.14437,39.88442],[-75.14331,39.88485],[-75.14234,39.88521],[-75.14112,39.88593],[-75.14039,39.88661],[-75.13955,39.88737],[-75.13902,39.8879],[-75.13773,39.88918],[-75.13689,39.89008],[-75.13629,39.89075],[-75.13585,39.89127],[-75.13557,39.89178],[-75.135,39.89286],[-75.13459,39.89362],[-75.1332,39.89626],[-75.13229,39.89833],[-75.13175,39.89954],[-75.13137,39.90044],[-75.13123,39.90079],[-75.13054,39.90254],[-75.13041,39.90287],[-75.13013,39.90374],[-75.12985,39.90464],[-75.1297,39.90521],[-75.12967,39.90533],[-75.12965,39.90543],[-75.12948,39.90622],[-75.1294,39.90663],[-75.12928,39.90739],[-75.12928,39.90748],[-75.12923,39.90822],[-75.1292,39.90912],[-75.12924,39.91017],[-75.1293,39.9113],[-75.12938,39.91232],[-75.12951,39.91322],[-75.12968,39.91422],[-75.12978,39.91481],[-75.12999,39.91589],[-75.13006,39.91615],[-75.13019,39.91667],[-75.13035,39.9174],[-75.13049,39.91769],[-75.13076,39.91848],[-75.13105,39.91921],[-75.13138,39.92005],[-75.13218,39.9218],[-75.13224,39.92193],[-75.13357,39.92486],[-75.13401,39.92582],[-75.13412,39.92609],[-75.13465,39.92737],[-75.13518,39.9287],[-75.13531,39.92928],[-75.13561,39.93066],[-75.13578,39.93157],[-75.13591,39.93245],[-75.13595,39.9338],[-75.13593,39.93436],[-75.13584,39.93655],[-75.1358,39.93743],[-75.13575,39.93874],[-75.13571,39.93948],[-75.13572,39.94015],[-75.1357,39.94079],[-75.13576,39.94196],[-75.13586,39.94265],[-75.13597,39.94329],[-75.13614,39.94442],[-75.13623,39.94493],[-75.13632,39.94584],[-75.13629,39.94659],[-75.13617,39.94748],[-75.13604,39.94827],[-75.13589,39.94888],[-75.1358,39.94923],[-75.13576,39.94945],[-75.13574,39.94952],[-75.13532,39.95081],[-75.13488,39.95208],[-75.13469,39.9525],[-75.13452,39.95288],[-75.13445,39.95299],[-75.13424,39.95342],[-75.13385,39.95422],[-75.13376,39.95446],[-75.1337,39.95462],[-75.13335,39.95511],[-75.13264,39.95638],[-75.13227,39.95704],[-75.13154,39.95828],[-75.13108,39.95891],[-75.13088,39.95914],[-75.13049,39.9596],[-75.12983,39.96022],[-75.12909,39.96071],[-75.12777,39.96152],[-75.12578,39.96254],[-75.1243,39.9633],[-75.12337,39.96378],[-75.11945,39.96567],[-75.11915,39.9658],[-75.11882,39.96595],[-75.11289,39.96853],[-75.11051,39.96951],[-75.10845,39.97031],[-75.10767,39.97061],[-75.10675,39.97097],[-75.10508,39.9716],[-75.10304,39.97226],[-75.10135,39.97272],[-75.09918,39.97326],[-75.09846,39.97341],[-75.09739,39.97371],[-75.09637,39.97398],[-75.09456,39.97423],[-75.09401,39.97434],[-75.09347,39.97445],[-75.09249,39.97461],[-75.09154,39.97478],[-75.08813,39.97537],[-75.08639,39.97567],[-75.08258,39.9764],[-75.08122,39.97667],[-75.0802,39.97702],[-75.07841,39.97742],[-75.07723,39.97782],[-75.07582,39.97835],[-75.0745,39.97894],[-75.07323,39.97956],[-75.07224,39.98013],[-75.0712,39.98074],[-75.07014,39.98144],[-75.06939,39.982],[-75.06878,39.98251],[-75.06809,39.98308],[-75.06782,39.98328],[-75.06588,39.9847],[-75.06577,39.98478],[-75.06551,39.98507],[-75.06415,39.98653],[-75.06261,39.98816],[-75.06111,39.99056],[-75.06064,39.99148],[-75.06008,39.99257],[-75.05979,39.99326],[-75.0594,39.99419],[-75.05882,39.99572],[-75.05843,39.99666],[-75.05809,39.9974],[-75.05693,39.99941],[-75.05603,40.00092],[-75.05516,40.0024],[-75.05422,40.00369],[-75.05394,40.00412],[-75.05288,40.00575],[-75.05266,40.00601],[-75.05236,40.00639],[-75.05171,40.00699],[-75.05092,40.00762],[-75.04994,40.00838],[-75.04883,40.00918],[-75.04802,40.00972],[-75.04731,40.01012],[-75.04701,40.0103],[-75.04595,40.01086],[-75.04347,40.01217],[-75.04319,40.0123],[-75.04263,40.01257],[-75.0416,40.01309],[-75.04038,40.01361],[-75.03867,40.01427],[-75.03848,40.01433],[-75.03788,40.01455],[-75.03658,40.01495],[-75.03546,40.01524],[-75.03478,40.01542],[-75.03305,40.01573],[-75.03193,40.01592],[-75.03094,40.01609],[-75.03053,40.01614],[-75.02945,40.01628],[-75.02658,40.01666],[-75.02377,40.01707],[-75.0225,40.01728],[-75.02148,40.01749],[-75.02061,40.01767],[-75.02041,40.0177],[-75.01937,40.01798],[-75.01826,40.01839],[-75.01628,40.01921],[-75.01486,40.01989],[-75.01394,40.02044],[-75.01368,40.0206],[-75.01323,40.02088],[-75.0126,40.02127],[-75.01063,40.02278],[-75.00969,40.02346],[-75.00623,40.02567],[-75.00342,40.02739],[-75.0021,40.0282],[-75.00086,40.02896],[-75.00047,40.02919],[-74.99976,40.0296],[-74.99876,40.03028],[-74.99773,40.03116],[-74.99578,40.03289],[-74.99256,40.03576],[-74.99072,40.03735],[-74.98771,40.03996],[-74.98768,40.03998],[-74.98702,40.04048],[-74.98628,40.04094],[-74.98566,40.0413],[-74.98494,40.04177],[-74.98485,40.04184],[-74.98443,40.04216],[-74.98383,40.04271],[-74.98313,40.04351],[-74.98267,40.04408],[-74.98235,40.04448],[-74.98163,40.04515],[-74.98117,40.04553],[-74.98059,40.04594],[-74.97989,40.04634],[-74.9792,40.04659],[-74.97862,40.04676],[-74.97826,40.04686],[-74.97719,40.04717],[-74.97664,40.04741],[-74.97621,40.0477],[-74.97576,40.04815],[-74.97478,40.04932],[-74.975,40.04951],[-74.97601,40.05042],[-74.97628,40.05066],[-74.97792,40.05213],[-74.97819,40.05229],[-74.97842,40.05241],[-74.97856,40.05249],[-74.97909,40.05286],[-74.97947,40.05316],[-74.97955,40.05324],[-74.97969,40.0534],[-74.97971,40.05347],[-74.97973,40.05355],[-74.98003,40.05364],[-74.98202,40.05373],[-74.9822,40.0538],[-74.98255,40.05395],[-74.98267,40.05395],[-74.98319,40.05422],[-74.98349,40.05445],[-74.98356,40.05454],[-74.98384,40.05491],[-74.98389,40.05498],[-74.9839,40.05499],[-74.98393,40.05502],[-74.98397,40.05504],[-74.984,40.05507],[-74.98407,40.05512],[-74.98419,40.05535],[-74.98419,40.05547],[-74.9842,40.0555],[-74.9842,40.05552],[-74.98419,40.05557],[-74.9843,40.05585],[-74.98447,40.05627],[-74.98449,40.05629],[-74.98459,40.0564],[-74.98469,40.05651],[-74.98482,40.0566],[-74.98494,40.05673],[-74.98516,40.05693],[-74.98518,40.05701],[-74.98519,40.05711],[-74.98515,40.0572],[-74.98506,40.05729],[-74.98491,40.05739],[-74.98454,40.05764],[-74.98437,40.05779],[-74.98429,40.05784],[-74.98417,40.05787],[-74.984,40.05792],[-74.98389,40.05794],[-74.98387,40.05795],[-74.98331,40.05819],[-74.98302,40.05837],[-74.9829,40.05837],[-74.98237,40.05868],[-74.98184,40.05909],[-74.98155,40.05945],[-74.98044,40.0603],[-74.98048,40.06038],[-74.98055,40.06045],[-74.98077,40.06061],[-74.98084,40.06068],[-74.98089,40.06079],[-74.98092,40.06088],[-74.98093,40.06098],[-74.98094,40.06109],[-74.98093,40.0612],[-74.98092,40.0613],[-74.98091,40.06141],[-74.98095,40.06159],[-74.981,40.06169],[-74.98102,40.06178],[-74.98103,40.06186],[-74.98101,40.06196],[-74.98099,40.06208],[-74.98097,40.06209],[-74.98091,40.06218],[-74.98087,40.06229],[-74.98083,40.0624],[-74.98081,40.0625],[-74.9808,40.06259],[-74.98086,40.06269],[-74.9809,40.06274],[-74.9809,40.06301],[-74.98114,40.06337],[-74.98114,40.06368],[-74.98102,40.06382],[-74.9809,40.06427],[-74.9809,40.06438],[-74.98087,40.06447],[-74.9809,40.06462],[-74.98094,40.06471],[-74.98102,40.06485],[-74.98102,40.06494],[-74.98099,40.06551],[-74.98095,40.06556],[-74.98092,40.06572],[-74.98089,40.06591],[-74.98088,40.06603],[-74.98084,40.0661],[-74.98069,40.0662],[-74.98058,40.06625],[-74.98042,40.06634],[-74.98019,40.06644],[-74.97999,40.06657],[-74.97991,40.06663],[-74.97984,40.06672],[-74.97984,40.06679],[-74.9798,40.06686],[-74.97978,40.06691],[-74.97971,40.06697],[-74.97961,40.06704],[-74.97955,40.06708],[-74.97941,40.0672],[-74.97918,40.0673],[-74.97909,40.06737],[-74.97888,40.06742],[-74.97862,40.06752],[-74.97837,40.06758],[-74.97816,40.06764],[-74.97801,40.06773],[-74.97786,40.06781],[-74.97763,40.06791],[-74.97742,40.06803],[-74.9773,40.06812],[-74.97721,40.06817],[-74.97712,40.06825],[-74.97712,40.06832],[-74.9771,40.0684],[-74.9771,40.06844],[-74.97699,40.06863],[-74.9769,40.06871],[-74.97689,40.06879],[-74.97686,40.06887],[-74.97679,40.06901],[-74.97673,40.06907],[-74.9767,40.06914],[-74.97662,40.0692],[-74.97629,40.06933],[-74.9762,40.06943],[-74.97614,40.06948],[-74.97599,40.0696],[-74.97548,40.06983],[-74.97527,40.06993],[-74.97524,40.06994],[-74.97517,40.06999],[-74.9751,40.07003],[-74.9751,40.07006],[-74.97512,40.07022],[-74.97512,40.07029],[-74.9751,40.0704],[-74.97507,40.07049],[-74.97504,40.07059],[-74.97498,40.07068],[-74.9749,40.07076],[-74.9748,40.07082],[-74.97461,40.07089],[-74.97442,40.07097],[-74.97433,40.07099],[-74.9742,40.07104],[-74.97414,40.07107],[-74.97399,40.07113],[-74.9739,40.07117],[-74.97389,40.07118],[-74.97387,40.07119],[-74.97374,40.07124],[-74.97363,40.07135],[-74.97362,40.07139],[-74.9736,40.07146],[-74.9736,40.07152],[-74.97357,40.07157],[-74.97353,40.07163],[-74.97347,40.07169],[-74.97338,40.07175],[-74.97321,40.07183],[-74.97306,40.07188],[-74.97294,40.07192],[-74.97259,40.07214],[-74.97244,40.07224],[-74.97238,40.07234],[-74.97235,40.07241],[-74.97233,40.07256],[-74.97229,40.07267],[-74.97228,40.07268],[-74.97226,40.0728],[-74.97224,40.07294],[-74.97223,40.07304],[-74.97221,40.07314],[-74.97215,40.0732],[-74.97208,40.07325],[-74.97194,40.07332],[-74.97163,40.07337],[-74.9714,40.07352],[-74.97126,40.07361],[-74.9711,40.07369],[-74.97106,40.07373],[-74.97104,40.07382],[-74.97104,40.07386],[-74.97106,40.07397],[-74.97126,40.07415],[-74.97141,40.07426],[-74.97144,40.07429],[-74.97147,40.07436],[-74.97148,40.07443],[-74.97147,40.07452],[-74.97139,40.07459],[-74.97134,40.07464],[-74.97131,40.07469],[-74.97128,40.07483],[-74.97127,40.07494],[-74.97128,40.07506],[-74.97131,40.07523],[-74.97135,40.07532],[-74.97135,40.07543],[-74.97136,40.07554],[-74.97135,40.07562],[-74.97133,40.07572],[-74.9713,40.07584],[-74.9712,40.07593],[-74.97113,40.07597],[-74.97109,40.07601],[-74.97094,40.07614],[-74.97084,40.07621],[-74.97069,40.07625],[-74.97051,40.07624],[-74.97037,40.07622],[-74.97025,40.07622],[-74.97011,40.07627],[-74.97001,40.07633],[-74.9699,40.07639],[-74.96982,40.07645],[-74.96975,40.07647],[-74.96963,40.07647],[-74.96948,40.07645],[-74.96929,40.0764],[-74.96923,40.07636],[-74.96904,40.07633],[-74.96876,40.0763],[-74.96845,40.0763],[-74.96803,40.07631],[-74.96777,40.07632],[-74.96759,40.07634],[-74.9674,40.07634],[-74.96706,40.07638],[-74.96688,40.07644],[-74.96677,40.07663],[-74.96673,40.07674],[-74.96667,40.07689],[-74.96653,40.07708],[-74.9664,40.07719],[-74.96622,40.07726],[-74.96592,40.07728],[-74.96561,40.07724],[-74.96542,40.07723],[-74.96496,40.07717],[-74.96489,40.07716],[-74.96484,40.07715],[-74.96451,40.0771],[-74.96449,40.0771],[-74.96423,40.07706],[-74.96399,40.07704],[-74.96376,40.07706],[-74.9636,40.0771],[-74.96347,40.07715],[-74.96333,40.07721],[-74.96327,40.07724],[-74.96315,40.07733],[-74.96309,40.07742],[-74.96307,40.0775],[-74.96302,40.07757],[-74.96294,40.07765],[-74.96286,40.07769],[-74.96276,40.07777],[-74.96271,40.07786],[-74.96266,40.078],[-74.96258,40.07807],[-74.96253,40.07812],[-74.96245,40.0782],[-74.96243,40.07823],[-74.96243,40.07825],[-74.96248,40.0784],[-74.96252,40.07846],[-74.96253,40.07852],[-74.96253,40.07858],[-74.96251,40.07864],[-74.96247,40.07869],[-74.96237,40.07879],[-74.96233,40.07883],[-74.96227,40.07889],[-74.9622,40.07901],[-74.96216,40.07912],[-74.96213,40.07933],[-74.96213,40.07938],[-74.96211,40.07947],[-74.96201,40.07958],[-74.96189,40.07966],[-74.96173,40.07977],[-74.96163,40.07984],[-74.96152,40.07992],[-74.9614,40.08003],[-74.96127,40.08019],[-74.96112,40.08039],[-74.96107,40.08044],[-74.96088,40.08058],[-74.96081,40.08065],[-74.96041,40.08097],[-74.9603,40.08105],[-74.96024,40.08111],[-74.96004,40.08132],[-74.96006,40.08145],[-74.96008,40.08154],[-74.96008,40.08167],[-74.96007,40.08178],[-74.96005,40.08192],[-74.96001,40.08205],[-74.95995,40.08214],[-74.95986,40.08225],[-74.95974,40.0823],[-74.95965,40.08232],[-74.95925,40.08237],[-74.95908,40.08235],[-74.95905,40.08241],[-74.959,40.0825],[-74.95904,40.08258],[-74.95913,40.08271],[-74.95915,40.08281],[-74.95913,40.08292],[-74.95902,40.08308],[-74.95895,40.08316],[-74.95896,40.08322],[-74.95894,40.08332],[-74.95898,40.08345],[-74.95896,40.08358],[-74.9589,40.08372],[-74.95872,40.0839],[-74.95865,40.08391],[-74.95859,40.08392],[-74.95842,40.08392],[-74.95838,40.08396],[-74.95837,40.08402],[-74.95836,40.08411],[-74.95842,40.08421],[-74.95855,40.08426],[-74.95863,40.08429],[-74.95868,40.08438],[-74.95863,40.08459],[-74.95839,40.0849],[-74.95835,40.08494],[-74.9583,40.08506],[-74.95825,40.08527],[-74.95821,40.08564],[-74.95821,40.08587],[-74.95817,40.08602],[-74.95809,40.08613],[-74.95803,40.08624],[-74.95802,40.08639],[-74.95804,40.08647],[-74.95803,40.08655],[-74.95801,40.08664],[-74.95795,40.08675],[-74.95791,40.08681],[-74.95783,40.08688],[-74.95775,40.08695],[-74.95767,40.08703],[-74.9576,40.08709],[-74.9576,40.08718],[-74.95762,40.08731],[-74.95769,40.08762],[-74.95783,40.08784],[-74.95795,40.0881],[-74.95801,40.08828],[-74.95803,40.08841],[-74.95818,40.08881],[-74.95817,40.089],[-74.95817,40.08916],[-74.95816,40.08926],[-74.95812,40.08933],[-74.95804,40.08945],[-74.95798,40.08953],[-74.95786,40.08969],[-74.95781,40.08976],[-74.95775,40.08984],[-74.95782,40.09],[-74.95792,40.09012],[-74.95794,40.09024],[-74.95794,40.09035],[-74.95794,40.09042],[-74.9579,40.09057],[-74.95782,40.09073],[-74.9577,40.09093],[-74.95757,40.09112],[-74.9574,40.09132],[-74.95726,40.09153],[-74.95721,40.09165],[-74.95714,40.09176],[-74.95709,40.0919],[-74.95701,40.09199],[-74.95688,40.09209],[-74.95676,40.09227],[-74.95664,40.09245],[-74.95655,40.0926],[-74.95645,40.09276],[-74.95639,40.0929],[-74.95634,40.09299],[-74.95633,40.09312],[-74.95631,40.0932],[-74.9563,40.09364],[-74.95633,40.09385],[-74.95631,40.09404],[-74.95605,40.0946],[-74.95591,40.09472],[-74.95581,40.09486],[-74.95576,40.09498],[-74.95578,40.0951],[-74.95584,40.09523],[-74.95606,40.09557],[-74.95611,40.09569],[-74.95616,40.09574],[-74.95627,40.09577],[-74.95664,40.09594],[-74.95683,40.09594],[-74.95708,40.09592],[-74.95742,40.09597],[-74.95774,40.09609],[-74.95816,40.09657],[-74.95834,40.09672],[-74.95849,40.09681],[-74.95862,40.09687],[-74.95875,40.09693],[-74.95877,40.09694],[-74.95915,40.09705],[-74.95934,40.09713],[-74.95994,40.09737],[-74.96008,40.09738],[-74.96045,40.09746],[-74.96105,40.09743],[-74.96119,40.09745],[-74.96134,40.0975],[-74.96144,40.0976],[-74.96162,40.09766],[-74.96172,40.09771],[-74.96177,40.09775],[-74.96179,40.09777],[-74.96181,40.09785],[-74.96181,40.09793],[-74.96177,40.09802],[-74.96166,40.0981],[-74.9616,40.09817],[-74.96158,40.09823],[-74.9616,40.09829],[-74.96172,40.09838],[-74.96191,40.0985],[-74.96206,40.09861],[-74.96209,40.09866],[-74.96207,40.09877],[-74.96178,40.09904],[-74.96173,40.09909],[-74.96168,40.09915],[-74.96167,40.0992],[-74.96174,40.09925],[-74.96181,40.09932],[-74.96192,40.09941],[-74.96198,40.0995],[-74.96202,40.09959],[-74.96201,40.09965],[-74.96198,40.09971],[-74.96193,40.09979],[-74.96189,40.0999],[-74.96185,40.10009],[-74.96184,40.10017],[-74.9618,40.10038],[-74.96177,40.10052],[-74.96174,40.10065],[-74.96169,40.10073],[-74.9617,40.10077],[-74.96164,40.1009],[-74.96148,40.10106],[-74.96139,40.10115],[-74.96122,40.10129],[-74.96112,40.1014],[-74.96106,40.10167],[-74.9611,40.1018],[-74.96118,40.10187],[-74.96127,40.10195],[-74.96129,40.10202],[-74.96129,40.10212],[-74.96123,40.10228],[-74.9612,40.10242],[-74.9612,40.1026],[-74.96109,40.10278],[-74.96105,40.10292],[-74.96106,40.10295],[-74.96091,40.10303],[-74.96089,40.1031],[-74.961,40.10332],[-74.96114,40.10343],[-74.96116,40.10345],[-74.96123,40.10349],[-74.9614,40.10357],[-74.96156,40.10367],[-74.96177,40.10381],[-74.96199,40.10402],[-74.96209,40.10414],[-74.96238,40.10434],[-74.96254,40.10448],[-74.96254,40.10455],[-74.96247,40.10465],[-74.96243,40.10476],[-74.96243,40.10485],[-74.96245,40.10488],[-74.9625,40.10498],[-74.96255,40.10508],[-74.96269,40.10513],[-74.96296,40.1052],[-74.96318,40.10528],[-74.9634,40.10538],[-74.96359,40.10547],[-74.9638,40.10554],[-74.96393,40.10559],[-74.96396,40.10564],[-74.96396,40.10573],[-74.96391,40.1058],[-74.96378,40.1059],[-74.96369,40.10597],[-74.96363,40.10606],[-74.9636,40.10614],[-74.96367,40.10628],[-74.96366,40.10638],[-74.96359,40.10644],[-74.96346,40.10648],[-74.96337,40.10651],[-74.96327,40.10656],[-74.9632,40.10667],[-74.96325,40.10677],[-74.96334,40.10687],[-74.96352,40.10698],[-74.96368,40.10705],[-74.96396,40.1071],[-74.96419,40.10712],[-74.96442,40.10714],[-74.96473,40.10717],[-74.96498,40.10719],[-74.96506,40.10721],[-74.96512,40.1073],[-74.96521,40.10744],[-74.96529,40.10762],[-74.96537,40.10777],[-74.96543,40.10789],[-74.9655,40.10798],[-74.96556,40.10804],[-74.96561,40.10809],[-74.96557,40.10815],[-74.96539,40.10839],[-74.9652,40.10865],[-74.96512,40.10877],[-74.96506,40.10882],[-74.96493,40.10888],[-74.96488,40.10893],[-74.96481,40.109],[-74.96476,40.10908],[-74.96474,40.10918],[-74.96468,40.10931],[-74.9646,40.1094],[-74.96451,40.10947],[-74.96441,40.1095],[-74.96423,40.10943],[-74.96407,40.10945],[-74.96398,40.10951],[-74.96389,40.1096],[-74.96377,40.10975],[-74.96371,40.10987],[-74.96371,40.10996],[-74.96375,40.11009],[-74.96381,40.11022],[-74.96384,40.11037],[-74.96384,40.11046],[-74.9639,40.11056],[-74.96404,40.11071],[-74.96412,40.11086],[-74.96412,40.11095],[-74.9641,40.11106],[-74.96404,40.11121],[-74.96393,40.11137],[-74.96385,40.11147],[-74.96379,40.11154],[-74.96378,40.11165],[-74.96378,40.11174],[-74.96385,40.11191],[-74.96388,40.112],[-74.96388,40.11219],[-74.96388,40.11243],[-74.96392,40.11263],[-74.96402,40.11301],[-74.96414,40.11328],[-74.96415,40.11337],[-74.96414,40.11346],[-74.96409,40.11355],[-74.964,40.11368],[-74.96367,40.11399],[-74.96346,40.1142],[-74.96335,40.11434],[-74.9632,40.11468],[-74.96317,40.11482],[-74.96324,40.11496],[-74.96326,40.11503],[-74.96335,40.11513],[-74.96341,40.11521],[-74.96339,40.11529],[-74.96333,40.11547],[-74.96332,40.11552],[-74.96325,40.11564],[-74.9632,40.11571],[-74.96315,40.11579],[-74.96311,40.11587],[-74.96311,40.116],[-74.96313,40.1161],[-74.96316,40.1162],[-74.96314,40.11636],[-74.96315,40.1165],[-74.96317,40.11667],[-74.96322,40.11676],[-74.96329,40.11689],[-74.96338,40.11697],[-74.96344,40.117],[-74.96357,40.11704],[-74.96374,40.11708],[-74.96383,40.11712],[-74.964,40.11722],[-74.96412,40.11729],[-74.96415,40.11733],[-74.96421,40.11739],[-74.96426,40.11756],[-74.96428,40.11762],[-74.96433,40.11782],[-74.96442,40.11798],[-74.96449,40.11812],[-74.96451,40.11824],[-74.9645,40.11832],[-74.96453,40.11837],[-74.96461,40.11848],[-74.96474,40.11857],[-74.96499,40.11864],[-74.9652,40.11861],[-74.96546,40.11855],[-74.9659,40.11831],[-74.96608,40.11823],[-74.96638,40.11811],[-74.96653,40.11808],[-74.96672,40.11805],[-74.96695,40.118],[-74.96712,40.11794],[-74.96735,40.11793],[-74.96746,40.11788],[-74.96748,40.1178],[-74.96752,40.11768],[-74.96756,40.11763],[-74.96773,40.11752],[-74.96789,40.1174],[-74.96804,40.11729],[-74.96812,40.11722],[-74.96822,40.11717],[-74.96832,40.11709],[-74.96844,40.11703],[-74.96868,40.11693],[-74.96892,40.11687],[-74.96909,40.11684],[-74.9692,40.11682],[-74.96932,40.11685],[-74.96948,40.11692],[-74.96959,40.11697],[-74.96965,40.117],[-74.96974,40.11702],[-74.96981,40.11701],[-74.96987,40.11698],[-74.96992,40.11696],[-74.96999,40.11695],[-74.97008,40.11696],[-74.97018,40.117],[-74.97027,40.11709],[-74.97035,40.11719],[-74.97045,40.11738],[-74.97061,40.11752],[-74.97075,40.11764],[-74.97084,40.11775],[-74.97088,40.11785],[-74.97095,40.11791],[-74.97109,40.11808],[-74.97117,40.11826],[-74.97142,40.11857],[-74.97187,40.11908],[-74.97205,40.11926],[-74.97265,40.11965],[-74.97296,40.1198],[-74.97311,40.11978],[-74.97337,40.1198],[-74.97361,40.11981],[-74.97408,40.11979],[-74.97429,40.11979],[-74.97443,40.1198],[-74.97454,40.11985],[-74.97461,40.11991],[-74.97469,40.12],[-74.9748,40.12007],[-74.97497,40.12016],[-74.9751,40.12021],[-74.97523,40.12022],[-74.97539,40.12019],[-74.97557,40.12017],[-74.97567,40.12019],[-74.97572,40.12025],[-74.97573,40.12032],[-74.97573,40.12039],[-74.97581,40.12043],[-74.97593,40.12046],[-74.97603,40.12044],[-74.97607,40.12038],[-74.97603,40.12028],[-74.97607,40.1202],[-74.97614,40.12014],[-74.9764,40.12004],[-74.97661,40.11997],[-74.97679,40.11992],[-74.97693,40.11992],[-74.97704,40.11996],[-74.97714,40.12002],[-74.97725,40.12006],[-74.97738,40.12006],[-74.97752,40.12002],[-74.97755,40.11983],[-74.97759,40.11976],[-74.97765,40.11969],[-74.97774,40.11965],[-74.97797,40.11959],[-74.97824,40.11948],[-74.97837,40.11945],[-74.97848,40.1195],[-74.9786,40.11954],[-74.97869,40.11953],[-74.9788,40.11949],[-74.97889,40.11942],[-74.97901,40.11937],[-74.97913,40.11934],[-74.97928,40.11934],[-74.97947,40.11938],[-74.9796,40.11942],[-74.97971,40.1195],[-74.97976,40.11957],[-74.97984,40.11962],[-74.97994,40.11974],[-74.98004,40.11986],[-74.98006,40.11988],[-74.98008,40.1199],[-74.98011,40.11993],[-74.98022,40.12001],[-74.98081,40.12007],[-74.98132,40.12015],[-74.98151,40.12008],[-74.98159,40.12002],[-74.9817,40.11996],[-74.98183,40.11992],[-74.98198,40.11991],[-74.98216,40.11992],[-74.98237,40.11994],[-74.98252,40.11999],[-74.98262,40.12005],[-74.98267,40.12011],[-74.98271,40.12017],[-74.98279,40.12022],[-74.98292,40.12028],[-74.98298,40.12035],[-74.98303,40.12046],[-74.98308,40.12064],[-74.98308,40.1208],[-74.98307,40.12089],[-74.983,40.12101],[-74.98293,40.12109],[-74.98277,40.12115],[-74.98261,40.12118],[-74.98254,40.12132],[-74.98245,40.12144],[-74.98229,40.12174],[-74.98225,40.1219],[-74.98233,40.12191],[-74.98245,40.1219],[-74.9825,40.12195],[-74.98263,40.12221],[-74.98272,40.12235],[-74.98276,40.12245],[-74.98274,40.12254],[-74.9826,40.12274],[-74.98258,40.12279],[-74.98259,40.12285],[-74.98268,40.12301],[-74.98296,40.12335],[-74.983,40.12338],[-74.98328,40.12353],[-74.98343,40.12362],[-74.98354,40.12363],[-74.98368,40.12361],[-74.98398,40.1236],[-74.98408,40.12356],[-74.98421,40.12356],[-74.98431,40.12359],[-74.98436,40.12366],[-74.98439,40.12376],[-74.98442,40.1238],[-74.98446,40.12381],[-74.98475,40.12387],[-74.98498,40.1239],[-74.98513,40.12383],[-74.98553,40.1236],[-74.98567,40.12348],[-74.98592,40.12333],[-74.98604,40.12325],[-74.98624,40.12313],[-74.98642,40.12305],[-74.98649,40.12304],[-74.98655,40.12306],[-74.98667,40.12316],[-74.9867,40.12319],[-74.98684,40.12333],[-74.98691,40.12337],[-74.98705,40.12348],[-74.98719,40.12351],[-74.98732,40.12359],[-74.98738,40.12367],[-74.98754,40.12379],[-74.98771,40.1239],[-74.98778,40.12392],[-74.98845,40.12427],[-74.98863,40.12442],[-74.98861,40.12464],[-74.98858,40.12486],[-74.9887,40.1251],[-74.98871,40.12515],[-74.9888,40.12531],[-74.98894,40.12542],[-74.98901,40.12548],[-74.98907,40.12557],[-74.98907,40.12564],[-74.98899,40.12573],[-74.98898,40.1258],[-74.98901,40.12591],[-74.98904,40.12601],[-74.98906,40.12611],[-74.98916,40.12616],[-74.98934,40.1262],[-74.98956,40.12623],[-74.99008,40.12623],[-74.99029,40.12623],[-74.99036,40.12624],[-74.99043,40.12626],[-74.99062,40.1263],[-74.99078,40.12627],[-74.99107,40.1262],[-74.99145,40.12614],[-74.9917,40.12607],[-74.99204,40.12599],[-74.99236,40.12593],[-74.99264,40.12591],[-74.99288,40.12591],[-74.99315,40.12594],[-74.99348,40.126],[-74.99392,40.12605],[-74.99417,40.12609],[-74.99428,40.12614],[-74.99435,40.12622],[-74.99443,40.12642],[-74.99448,40.12652],[-74.99454,40.12668],[-74.99453,40.12695],[-74.99447,40.12711],[-74.99441,40.12728],[-74.99424,40.1275],[-74.994,40.12768],[-74.99389,40.12775],[-74.99375,40.12791],[-74.99367,40.12811],[-74.99369,40.12821],[-74.99366,40.12838],[-74.9938,40.12846],[-74.99381,40.12851],[-74.99378,40.12861],[-74.99369,40.12868],[-74.99366,40.12875],[-74.99351,40.12877],[-74.99342,40.129],[-74.99342,40.12918],[-74.99345,40.12943],[-74.9935,40.12951],[-74.99352,40.12963],[-74.99348,40.12967],[-74.99339,40.1297],[-74.99328,40.12973],[-74.99319,40.12976],[-74.99313,40.1298],[-74.9931,40.12989],[-74.99311,40.13002],[-74.9931,40.13009],[-74.99305,40.13019],[-74.99294,40.1302],[-74.99286,40.13023],[-74.99281,40.1303],[-74.99277,40.13042],[-74.99274,40.1305],[-74.99275,40.13061],[-74.99278,40.13073],[-74.99284,40.13082],[-74.99292,40.13095],[-74.993,40.13105],[-74.9931,40.13118],[-74.99321,40.13132],[-74.99336,40.13146],[-74.99343,40.13155],[-74.99351,40.13162],[-74.99367,40.13173],[-74.99389,40.13188],[-74.99419,40.13152],[-74.99745,40.12825],[-74.99757,40.12812],[-74.9978,40.1279],[-74.99789,40.12782],[-74.99852,40.12819],[-74.99856,40.12822],[-74.99898,40.12846],[-74.99946,40.12875],[-74.99958,40.12882],[-74.99974,40.12891],[-75.00096,40.12961],[-75.00152,40.12994],[-75.00227,40.13038],[-75.00325,40.13101],[-75.00391,40.13134],[-75.004,40.13139],[-75.0041,40.13145],[-75.00569,40.13238],[-75.0059,40.1325],[-75.00595,40.13252],[-75.00599,40.13255],[-75.0069,40.13308],[-75.00741,40.13338],[-75.00769,40.13353],[-75.00853,40.13399],[-75.00866,40.13408],[-75.00912,40.13436],[-75.00947,40.13457],[-75.01063,40.13528],[-75.01105,40.13553],[-75.01145,40.13579],[-75.0119,40.13606],[-75.01227,40.13628],[-75.01238,40.13635],[-75.01259,40.13648],[-75.01274,40.13657],[-75.01388,40.13727],[-75.01439,40.13758],[-75.01458,40.13769],[-75.0147,40.13777],[-75.01507,40.13799],[-75.01563,40.13733],[-75.01632,40.13653],[-75.01649,40.13635],[-75.01702,40.13581],[-75.01778,40.13503],[-75.01795,40.13485],[-75.0196,40.13323],[-75.02057,40.13227],[-75.02301,40.13055],[-75.02371,40.13005],[-75.02489,40.12922],[-75.02513,40.12908],[-75.02579,40.12857],[-75.02623,40.12826],[-75.03165,40.1245],[-75.0318,40.1244],[-75.03326,40.12338],[-75.03363,40.12313],[-75.03755,40.12041],[-75.03784,40.12021],[-75.03829,40.1199],[-75.03834,40.11987],[-75.03871,40.1196],[-75.03904,40.11936],[-75.04231,40.11708],[-75.04381,40.11603],[-75.04386,40.116],[-75.04422,40.11575],[-75.04426,40.11571],[-75.04745,40.11349],[-75.04854,40.11273],[-75.0493,40.1122],[-75.04939,40.11213],[-75.04953,40.11204],[-75.05066,40.11125],[-75.05213,40.11022],[-75.05292,40.10967],[-75.05297,40.10964],[-75.05432,40.10869],[-75.05533,40.10799],[-75.05718,40.10669],[-75.05707,40.10663],[-75.05752,40.10638],[-75.05795,40.10616],[-75.05834,40.10589],[-75.0592,40.10501],[-75.05954,40.10466],[-75.06032,40.10386],[-75.0614,40.10274],[-75.06273,40.10137],[-75.0628,40.1013],[-75.06354,40.10053],[-75.0636,40.10047],[-75.06374,40.10032],[-75.0642,40.09985],[-75.06446,40.09958],[-75.06493,40.09909],[-75.06565,40.09835],[-75.06717,40.09677],[-75.0677,40.09622],[-75.06946,40.09441],[-75.07071,40.09311],[-75.07101,40.0928],[-75.07117,40.09264],[-75.07127,40.09253],[-75.07128,40.09252],[-75.07137,40.09243],[-75.07456,40.08912],[-75.07458,40.0891],[-75.07621,40.08742],[-75.07625,40.08738],[-75.07636,40.08726],[-75.07637,40.08725],[-75.07639,40.08723],[-75.07639,40.08723],[-75.07642,40.08721],[-75.07643,40.08719],[-75.07781,40.08577],[-75.07881,40.08528],[-75.07891,40.08523],[-75.08119,40.08412],[-75.08165,40.08367],[-75.08246,40.08288],[-75.08341,40.08195],[-75.08445,40.08095],[-75.08686,40.07863],[-75.08691,40.07865],[-75.0879,40.07761],[-75.08909,40.07637],[-75.08983,40.0756],[-75.09019,40.07524],[-75.09032,40.07511],[-75.09155,40.0739],[-75.09312,40.07233],[-75.09365,40.07175],[-75.09384,40.07183],[-75.09518,40.0705],[-75.09621,40.06949],[-75.09673,40.06899],[-75.09663,40.06893],[-75.09646,40.06883],[-75.09495,40.06795],[-75.09322,40.06694],[-75.09192,40.06619],[-75.09178,40.06611],[-75.09037,40.06528],[-75.08975,40.06492],[-75.08952,40.06479],[-75.08938,40.0647],[-75.08927,40.06464],[-75.08891,40.06443],[-75.08876,40.06434],[-75.08806,40.06396],[-75.08787,40.06385],[-75.08743,40.0636],[-75.0882,40.06282],[-75.08867,40.06234],[-75.08897,40.06204],[-75.08971,40.0613],[-75.09042,40.06058],[-75.09046,40.06053],[-75.09109,40.05986],[-75.09113,40.05982],[-75.09139,40.05956],[-75.09146,40.05949],[-75.09197,40.05901],[-75.09203,40.05895],[-75.09229,40.0587],[-75.09269,40.05831],[-75.09364,40.05743],[-75.0935,40.05724],[-75.0937,40.05707],[-75.09406,40.05677],[-75.09419,40.05668],[-75.09432,40.0566],[-75.09457,40.05643],[-75.09467,40.05636],[-75.09484,40.05625],[-75.09508,40.05609],[-75.09521,40.056],[-75.09536,40.05591],[-75.09563,40.05576],[-75.0959,40.05559],[-75.09617,40.05543],[-75.09644,40.05527],[-75.09671,40.05511],[-75.09698,40.05495],[-75.09726,40.05479],[-75.09748,40.05466],[-75.09752,40.05464],[-75.09754,40.05464],[-75.09772,40.05453],[-75.09781,40.05448],[-75.09809,40.05432],[-75.09836,40.05417],[-75.09864,40.05401],[-75.09892,40.05386],[-75.09919,40.0537],[-75.09947,40.05355],[-75.09975,40.0534],[-75.09983,40.05335],[-75.10003,40.05324],[-75.10025,40.05311],[-75.1003,40.05308],[-75.10057,40.05292],[-75.1008,40.05278],[-75.10084,40.05276],[-75.1009,40.05272],[-75.10094,40.0527],[-75.1011,40.05259],[-75.10137,40.05242],[-75.10163,40.05225],[-75.1019,40.05209],[-75.10217,40.05193],[-75.10241,40.05179],[-75.10244,40.05177],[-75.10273,40.05162],[-75.10301,40.05147],[-75.10323,40.05135],[-75.10325,40.05133],[-75.10328,40.05131],[-75.10356,40.05116],[-75.10383,40.051],[-75.1041,40.05084],[-75.10437,40.05068],[-75.10457,40.05056],[-75.10464,40.05052],[-75.1048,40.05042],[-75.10491,40.05036],[-75.10518,40.05019],[-75.10545,40.05003],[-75.10572,40.04987],[-75.10599,40.04971],[-75.10627,40.04955],[-75.10653,40.04938],[-75.10677,40.04919],[-75.107,40.049],[-75.10703,40.04897],[-75.10723,40.0488],[-75.10745,40.0486],[-75.10768,40.0484],[-75.10789,40.0482],[-75.10809,40.04798],[-75.10828,40.04776],[-75.10844,40.04753],[-75.10861,40.0473],[-75.10876,40.04706],[-75.10891,40.04683],[-75.10902,40.04664],[-75.10931,40.04603],[-75.10935,40.04594],[-75.10941,40.04584],[-75.10943,40.04587],[-75.11073,40.04662],[-75.11087,40.0467],[-75.11099,40.04677],[-75.11114,40.04686],[-75.11205,40.04739],[-75.11236,40.04756],[-75.11287,40.04786],[-75.11291,40.04788],[-75.11451,40.04881],[-75.11504,40.04912],[-75.1171,40.0503],[-75.11855,40.05113],[-75.11865,40.05119],[-75.11877,40.05125],[-75.11947,40.05165],[-75.11954,40.0517],[-75.12002,40.05196],[-75.12083,40.05242],[-75.12164,40.05289],[-75.12215,40.05318],[-75.12331,40.05382],[-75.12376,40.05406],[-75.12445,40.05443],[-75.12462,40.05452],[-75.12492,40.05468],[-75.12632,40.05548],[-75.12709,40.05593],[-75.12849,40.05677],[-75.12855,40.05681],[-75.12902,40.05709],[-75.12981,40.05759],[-75.13005,40.05774],[-75.13013,40.0578],[-75.1304,40.05796],[-75.13168,40.05878],[-75.13253,40.0593],[-75.13332,40.05982],[-75.13409,40.06034],[-75.13439,40.06053],[-75.13489,40.06085],[-75.13512,40.06099],[-75.13519,40.06103],[-75.13653,40.06173],[-75.13672,40.06182],[-75.13695,40.06193],[-75.13821,40.06266],[-75.13893,40.06307],[-75.13908,40.06315],[-75.13931,40.06329],[-75.13935,40.06331],[-75.13936,40.06332],[-75.13943,40.06336],[-75.14058,40.06406],[-75.14071,40.06413],[-75.14085,40.06421],[-75.1409,40.06424],[-75.14119,40.06441],[-75.14185,40.06478],[-75.14188,40.06479],[-75.14306,40.06546],[-75.14312,40.06549],[-75.14407,40.06605],[-75.1441,40.06607],[-75.14455,40.06632],[-75.14486,40.0665],[-75.14519,40.06669],[-75.14545,40.06684],[-75.14548,40.06686],[-75.14668,40.06755],[-75.14764,40.0681],[-75.14833,40.06849],[-75.14957,40.06919],[-75.15,40.06942],[-75.15072,40.06983],[-75.1516,40.07033],[-75.15189,40.07049],[-75.15218,40.07066],[-75.15276,40.07098],[-75.15333,40.07131],[-75.15408,40.07173],[-75.15469,40.07208],[-75.15583,40.07273],[-75.15842,40.07417],[-75.16043,40.0753],[-75.16129,40.07576],[-75.16196,40.07613],[-75.1634,40.07695],[-75.16497,40.07787],[-75.16764,40.07948],[-75.16824,40.07983],[-75.16991,40.08082],[-75.17135,40.08166],[-75.1716,40.08181],[-75.17166,40.08185],[-75.17172,40.08188],[-75.17191,40.08199],[-75.17295,40.08258],[-75.17359,40.08296],[-75.17416,40.08329],[-75.17478,40.08366],[-75.17507,40.08384],[-75.17533,40.08399],[-75.17587,40.08431],[-75.17617,40.08449],[-75.17644,40.08465],[-75.17648,40.08461],[-75.1777,40.08338],[-75.17822,40.08285],[-75.17871,40.08237],[-75.17921,40.08187],[-75.17976,40.08133],[-75.18002,40.08108],[-75.18028,40.08083],[-75.18058,40.08053],[-75.18079,40.08032],[-75.1809,40.08022],[-75.18147,40.07967],[-75.18182,40.07933],[-75.18205,40.0791],[-75.18262,40.07855],[-75.1829,40.07828],[-75.18311,40.07806],[-75.1834,40.07779],[-75.18495,40.07624],[-75.18504,40.07615],[-75.18538,40.07582],[-75.18584,40.07538],[-75.18599,40.07523],[-75.1861,40.07512],[-75.18706,40.07418],[-75.18846,40.07275],[-75.18875,40.07291],[-75.18887,40.07297],[-75.1892,40.07317],[-75.19083,40.07411],[-75.19174,40.07465],[-75.19499,40.0765],[-75.19594,40.07703],[-75.19642,40.0773],[-75.1976,40.07799],[-75.19772,40.07806],[-75.19833,40.07842],[-75.19849,40.07851],[-75.20038,40.07959],[-75.20093,40.0799],[-75.20265,40.08089],[-75.20415,40.08174],[-75.20472,40.08207],[-75.20487,40.08216],[-75.20632,40.08299],[-75.20671,40.08321],[-75.20765,40.08367],[-75.20784,40.08378],[-75.20841,40.08417],[-75.20874,40.08444],[-75.2094,40.08493],[-75.20977,40.08513],[-75.21039,40.08539],[-75.21045,40.08542],[-75.21146,40.08588],[-75.21153,40.08592],[-75.21172,40.08601],[-75.21187,40.08609],[-75.21193,40.08601],[-75.21201,40.08597],[-75.21211,40.08596],[-75.21219,40.08597],[-75.21238,40.08599],[-75.21247,40.08607],[-75.2132,40.08686],[-75.2133,40.08696],[-75.21339,40.08704],[-75.21357,40.08715],[-75.21435,40.0876],[-75.21517,40.08807],[-75.2167,40.08895],[-75.21678,40.08901],[-75.2168,40.08902],[-75.21796,40.08968],[-75.218,40.08971],[-75.21965,40.09065],[-75.22006,40.09089],[-75.22023,40.09099],[-75.2203,40.09103],[-75.22122,40.09156],[-75.22157,40.09175],[-75.22242,40.09223],[-75.22361,40.09291],[-75.22518,40.09135],[-75.22771,40.08882],[-75.22778,40.08874],[-75.22783,40.0887],[-75.22788,40.08864],[-75.22828,40.08825],[-75.22869,40.08784],[-75.22897,40.08756],[-75.22906,40.08747],[-75.22958,40.08695],[-75.22961,40.08692],[-75.22977,40.08676],[-75.2305,40.08602],[-75.23093,40.08563],[-75.23172,40.08485],[-75.23185,40.08473],[-75.2326,40.084],[-75.23291,40.08367],[-75.23295,40.08362],[-75.23446,40.08214],[-75.23577,40.08085],[-75.23809,40.07857],[-75.2382,40.07846],[-75.23935,40.07731],[-75.23963,40.07703],[-75.23998,40.07672],[-75.24012,40.07659],[-75.24038,40.07634],[-75.24066,40.07604],[-75.24087,40.07583],[-75.24094,40.07576],[-75.24128,40.07545],[-75.24313,40.07363],[-75.24321,40.07356],[-75.24329,40.07349],[-75.24346,40.07333],[-75.24586,40.07113],[-75.25221,40.06528],[-75.25434,40.06331],[-75.25436,40.06318],[-75.25442,40.06309],[-75.25489,40.06265],[-75.25589,40.06167],[-75.25642,40.0612],[-75.25656,40.06116],[-75.25668,40.06116],[-75.25671,40.06114],[-75.26055,40.0576],[-75.26324,40.05513],[-75.2635,40.05489],[-75.26352,40.05487],[-75.2636,40.05481],[-75.26381,40.0546],[-75.26386,40.05456],[-75.26443,40.05409],[-75.26268,40.0523],[-75.2611,40.05067],[-75.25962,40.04924],[-75.25766,40.04761],[-75.25589,40.0465],[-75.2551,40.04612],[-75.25468,40.04592],[-75.25432,40.04575],[-75.25423,40.04569],[-75.25288,40.04473],[-75.25136,40.04355],[-75.2513,40.04351],[-75.25122,40.04345],[-75.25099,40.04326],[-75.25033,40.04279],[-75.24935,40.04207],[-75.24918,40.04195],[-75.24904,40.04185],[-75.24792,40.04076],[-75.24732,40.0401],[-75.247,40.03974],[-75.24667,40.03917],[-75.24617,40.03829],[-75.2459,40.038],[-75.2456,40.03765],[-75.24524,40.03736],[-75.24505,40.03727],[-75.24493,40.03722],[-75.24441,40.037],[-75.24422,40.03692],[-75.24411,40.03686],[-75.24366,40.03663],[-75.24326,40.03642],[-75.24297,40.03626],[-75.24269,40.0361],[-75.24241,40.03592],[-75.24218,40.03576],[-75.24199,40.03562],[-75.2418,40.03547],[-75.24166,40.03535],[-75.24152,40.03521],[-75.24142,40.0351],[-75.24129,40.03496],[-75.2412,40.03484],[-75.24086,40.0344],[-75.24077,40.03428],[-75.24067,40.03417],[-75.24057,40.03406],[-75.24048,40.03398],[-75.2404,40.0339],[-75.24028,40.0338],[-75.2401,40.03365],[-75.23987,40.03349],[-75.2397,40.03338],[-75.23923,40.03306],[-75.2384,40.0325],[-75.23798,40.0322],[-75.23767,40.032],[-75.23736,40.0318],[-75.23659,40.03129],[-75.23621,40.03105],[-75.2353,40.0305],[-75.23506,40.03035],[-75.23477,40.03016],[-75.23446,40.02995],[-75.23433,40.02985],[-75.23418,40.02973],[-75.23409,40.02965],[-75.23403,40.0296],[-75.23388,40.02948],[-75.23307,40.02875],[-75.23292,40.02863],[-75.23276,40.02851],[-75.2326,40.02839],[-75.2324,40.02825],[-75.23222,40.02814],[-75.23204,40.02804],[-75.23199,40.02799],[-75.2317,40.02783],[-75.23118,40.02755],[-75.23103,40.02749],[-75.23092,40.02743],[-75.23075,40.02731],[-75.22968,40.02679],[-75.22825,40.02608],[-75.22822,40.02607],[-75.22818,40.02605],[-75.22815,40.02603],[-75.228,40.02596],[-75.22795,40.02593],[-75.22665,40.02527],[-75.22651,40.0252],[-75.22631,40.02509],[-75.22519,40.02446],[-75.22395,40.02381],[-75.22369,40.02371],[-75.22302,40.02323],[-75.22215,40.02261],[-75.22189,40.02253],[-75.22172,40.02247],[-75.22158,40.02245],[-75.22144,40.02243],[-75.22119,40.02236],[-75.22059,40.02223],[-75.22042,40.02219],[-75.22025,40.02214],[-75.22013,40.0221],[-75.22001,40.02206],[-75.21989,40.02202],[-75.21981,40.02199],[-75.21962,40.02191],[-75.2195,40.02185],[-75.2194,40.0218],[-75.21925,40.02172],[-75.21908,40.02162],[-75.21889,40.02149],[-75.21847,40.02121],[-75.21819,40.02101],[-75.21806,40.02094],[-75.21782,40.02074],[-75.21628,40.01956],[-75.21601,40.01933],[-75.21586,40.01921],[-75.21575,40.0191],[-75.21561,40.01897],[-75.21548,40.01883],[-75.21533,40.01866],[-75.21506,40.01835],[-75.21463,40.01784],[-75.21403,40.01715],[-75.21364,40.01672],[-75.21349,40.01659],[-75.21346,40.01656],[-75.21222,40.01546],[-75.21001,40.01411],[-75.20865,40.01344],[-75.20801,40.013],[-75.20773,40.0128],[-75.20763,40.01274],[-75.2076,40.01272],[-75.20641,40.012],[-75.20629,40.01192],[-75.20614,40.01183],[-75.20607,40.01178],[-75.20598,40.01172],[-75.20656,40.01125],[-75.20699,40.01098],[-75.2071,40.01089],[-75.20716,40.0108],[-75.20724,40.01069],[-75.20728,40.01059],[-75.20728,40.01054],[-75.20738,40.01048],[-75.20752,40.01038],[-75.20767,40.01029],[-75.20801,40.01008],[-75.20822,40.00995],[-75.2084,40.00984],[-75.20924,40.00937],[-75.21062,40.00865],[-75.21077,40.00858],[-75.21155,40.00821],[-75.21167,40.00816],[-75.21375,40.00716],[-75.2158,40.00623],[-75.21602,40.00613],[-75.21836,40.00507],[-75.21873,40.00489],[-75.21923,40.00464],[-75.22066,40.00394],[-75.22362,40.00258],[-75.2264,40.00126],[-75.22705,40.00094],[-75.22746,40.00075],[-75.22776,40.0006],[-75.22837,40.00032],[-75.22874,40.00014],[-75.22888,40.00008],[-75.22945,39.99981],[-75.23044,39.99934],[-75.2309,39.99913],[-75.23206,39.99859],[-75.23212,39.99856],[-75.23215,39.99855],[-75.23321,39.99806],[-75.23415,39.99761],[-75.23418,39.9976],[-75.2343,39.99754],[-75.23441,39.99749],[-75.2353,39.99707],[-75.23612,39.99669],[-75.23733,39.99613],[-75.23734,39.99612],[-75.238,39.99582],[-75.23898,39.99536],[-75.23901,39.99534],[-75.24079,39.99451],[-75.24165,39.9941],[-75.24382,39.99309],[-75.24391,39.99304],[-75.24569,39.99219],[-75.24795,39.99114],[-75.24921,39.99055],[-75.24977,39.99029],[-75.25,39.99018],[-75.25013,39.99012],[-75.25034,39.99002],[-75.25079,39.9898],[-75.25144,39.9895],[-75.25155,39.98945],[-75.2516,39.98943],[-75.254,39.9883],[-75.25568,39.9875],[-75.25612,39.9873],[-75.25629,39.98719],[-75.25687,39.98677],[-75.25695,39.98671],[-75.25854,39.98553],[-75.25871,39.98543],[-75.25884,39.98535],[-75.25928,39.98507],[-75.25948,39.98495],[-75.26069,39.9843],[-75.26078,39.98424],[-75.26251,39.98328],[-75.26279,39.98312],[-75.26295,39.98304],[-75.26369,39.98266],[-75.26435,39.98237],[-75.26439,39.98236],[-75.26475,39.98219],[-75.26551,39.98186],[-75.26557,39.98183],[-75.26625,39.98152],[-75.26725,39.98108],[-75.2674,39.98101],[-75.26797,39.98076],[-75.26926,39.98019],[-75.27131,39.97928],[-75.27153,39.97918],[-75.27226,39.97885],[-75.27303,39.97851],[-75.27315,39.97846],[-75.27355,39.97828],[-75.27528,39.97751],[-75.27547,39.97743],[-75.27587,39.97725],[-75.27613,39.97713],[-75.27648,39.97696],[-75.27767,39.97631],[-75.27819,39.97604],[-75.27894,39.97565],[-75.27914,39.97555],[-75.27951,39.97535],[-75.28027,39.97496]]]},"properties":{"GEOID":"4260000","BASENAME":"Philadelphia","NAME":"Philadelphia city","STATE":"42","PLACE":"60000","AREALAND":"347900788","AREAWATER":"20969565","LSADC":"25","FUNCSTAT":"A"}}]}