{"type":"Feature","geometry":{"type":"Point","coordinates":[-75.165,39.953,46.88]},"properties":{"parameter":{"T2M":{"20250401":10.9,"20250402":5.87,"20250403":14.28,"20250404":18.16,"20250405":12.19,"20250406":9.62,"20250407":6.35,"20250408":4.77,"20250409":2.64,"20250410":5.51,"20250411":5.71,"20250412":3.88,"20250413":7.66,"20250414":10.72,"20250415":13.96,"20250416":8.81,"20250417":7.87,"20250418":10.97,"20250419":17.29,"20250420":17.61,"20250421":12.53,"20250422":17.06,"20250423":16.18,"20250424":16.89,"20250425":16.59,"20250426":18.12,"20250427":12.55,"20250428":13.89,"20250429":15.93,"20250430":20.04,"20250501":15.79,"20250502":20.55,"20250503":21.02,"20250504":18.33,"20250505":17.02,"20250506":18.22,"20250507":17.91,"20250508":19.62,"20250509":15.79,"20250510":14.47,"20250511":18.17,"20250512":19.23,"20250513":18.24,"20250514":17.23,"20250515":18.09,"20250516":19.97,"20250517":21.69,"20250518":19.37,"20250519":17.73,"20250520":13.79,"20250521":13.25,"20250522":11.56,"20250523":13.89,"20250524":13.54,"20250525":14.27,"20250526":15.79,"20250527":15.94,"20250528":13.43,"20250529":16.94,"20250530":19.46,"20250531":17.52,"20250601":13.83,"20250602":15.59,"20250603":18.42,"20250604":20.44,"20250605":21.39,"20250606":22.41,"20250607":21.66,"20250608":19.72,"20250609":19.65,"20250610":20.99,"20250611":22.35,"20250612":23.29,"20250613":23.07,"20250614":19.08,"20250615":17.5,"20250616":17.87,"20250617":20.43,"20250618":23.9,"20250619":25.99,"20250620":23.38,"20250621":24.9,"20250622":26.21,"20250623":29.36,"20250624":30.9,"20250625":30.32,"20250626":27.75,"20250627":20.68,"20250628":23.59,"20250629":27.72,"20250630":27.05,"20250701":26.22,"20250702":25.55,"20250703":25.35,"20250704":23.88,"20250705":23.57,"20250706":24.17,"20250707":26.31,"20250708":27.28,"20250709":26.66,"20250710":24.68,"20250711":25.6,"20250712":26.03,"20250713":25.98,"20250714":26.15,"20250715":26.3,"20250716":26.82,"20250717":27.61,"20250718":26.21,"20250719":24.65,"20250720":26.92,"20250721":26.41,"20250722":23.81,"20250723":24.04,"20250724":25.23,"20250725":28.04,"20250726":26.96,"20250727":25.6,"20250728":28.59,"20250729":30.69,"20250730":30.09,"20250731":28.76,"20250801":21.69,"20250802":21.79,"20250803":23.09,"20250804":24.25,"20250805":23.98,"20250806":23.0,"20250807":22.92,"20250808":21.65,"20250809":21.42,"20250810":23.04,"20250811":24.24,"20250812":25.83,"20250813":27.09,"20250814":26.9,"20250815":27.23,"20250816":26.29,"20250817":27.02,"20250818":23.08,"20250819":21.75,"20250820":22.48,"20250821":19.99,"20250822":21.7,"20250823":22.1,"20250824":22.76,"20250825":24.07,"20250826":21.66,"20250827":20.34,"20250828":20.57,"20250829":20.61,"20250830":19.18,"20250831":19.78,"20250901":20.94,"20250902":20.19,"20250903":20.89,"20250904":21.63,"20250905":23.91,"20250906":25.61,"20250907":19.89,"20250908":18.32,"20250909":18.18,"20250910":19.2,"20250911":21.63,"20250912":21.49,"20250913":22.03,"20250914":22.67,"20250915":22.26,"20250916":19.83,"20250917":19.31,"20250918":21.69,"20250919":23.48,"20250920":21.18,"20250921":18.73,"20250922":18.53,"20250923":22.53,"20250924":22.0,"20250925":23.38,"20250926":23.7,"20250927":22.29,"20250928":23.09,"20250929":22.53,"20250930":20.99},"T2M_MAX":{"20250401":16.93,"20250402":12.39,"20250403":24.71,"20250404":20.09,"20250405":15.19,"20250406":12.2,"20250407":10.01,"20250408":7.48,"20250409":9.85,"20250410":12.14,"20250411":8.17,"20250412":6.38,"20250413":14.48,"20250414":19.48,"20250415":20.45,"20250416":13.19,"20250417":16.15,"20250418":21.19,"20250419":23.55,"20250420":19.83,"20250421":18.04,"20250422":24.46,"20250423":23.63,"20250424":24.92,"20250425":24.1,"20250426":22.86,"20250427":18.19,"20250428":22.93,"20250429":25.12,"20250430":24.47,"20250501":23.43,"20250502":27.8,"20250503":26.71,"20250504":20.66,"20250505":21.6,"20250506":24.62,"20250507":23.44,"20250508":24.59,"20250509":19.88,"20250510":22.07,"20250511":26.51,"20250512":26.83,"20250513":21.09,"20250514":20.73,"20250515":23.77,"20250516":25.03,"20250517":27.57,"20250518":23.56,"20250519":22.9,"20250520":20.45,"20250521":15.09,"20250522":13.43,"20250523":19.18,"20250524":18.85,"20250525":20.05,"20250526":22.43,"20250527":20.97,"20250528":14.98,"20250529":23.18,"20250530":25.05,"20250531":21.42,"20250601":19.3,"20250602":22.3,"20250603":26.38,"20250604":28.58,"20250605":28.32,"20250606":28.84,"20250607":26.86,"20250608":23.66,"20250609":25.13,"20250610":27.15,"20250611":27.53,"20250612":30.76,"20250613":26.28,"20250614":21.22,"20250615":20.81,"20250616":22.92,"20250617":26.18,"20250618":30.07,"20250619":31.54,"20250620":28.31,"20250621":31.08,"20250622":32.38,"20250623":36.23,"20250624":37.19,"20250625":36.8,"20250626":31.67,"20250627":24.23,"20250628":31.67,"20250629":32.64,"20250630":30.26,"20250701":30.78,"20250702":28.92,"20250703":31.03,"20250704":28.53,"20250705":30.32,"20250706":31.41,"20250707":30.83,"20250708":32.15,"20250709":31.71,"20250710":28.35,"20250711":30.05,"20250712":31.03,"20250713":31.09,"20250714":30.25,"20250715":30.58,"20250716":31.18,"20250717":31.93,"20250718":28.86,"20250719":29.29,"20250720":32.58,"20250721":31.07,"20250722":28.31,"20250723":29.98,"20250724":31.96,"20250725":34.79,"20250726":31.01,"20250727":30.54,"20250728":35.1,"20250729":37.13,"20250730":36.45,"20250731":33.85,"20250801":25.77,"20250802":26.78,"20250803":29.04,"20250804":31.75,"20250805":29.2,"20250806":26.5,"20250807":28.29,"20250808":28.66,"20250809":29.41,"20250810":31.86,"20250811":32.75,"20250812":34.37,"20250813":33.85,"20250814":32.57,"20250815":32.31,"20250816":32.94,"20250817":34.44,"20250818":27.56,"20250819":26.97,"20250820":28.3,"20250821":24.28,"20250822":29.56,"20250823":29.14,"20250824":30.04,"20250825":30.81,"20250826":28.05,"20250827":26.2,"20250828":26.38,"20250829":27.25,"20250830":26.38,"20250831":27.31,"20250901":27.63,"20250902":27.92,"20250903":27.5,"20250904":29.89,"20250905":31.58,"20250906":32.69,"20250907":24.03,"20250908":25.26,"20250909":24.99,"20250910":23.47,"20250911":29.08,"20250912":28.18,"20250913":28.78,"20250914":30.53,"20250915":28.09,"20250916":23.69,"20250917":22.52,"20250918":29.94,"20250919":32.15,"20250920":26.7,"20250921":24.35,"20250922":27.6,"20250923":31.28,"20250924":26.74,"20250925":27.72,"20250926":29.65,"20250927":28.7,"20250928":30.35,"20250929":28.83,"20250930":27.17},"T2M_MIN":{"20250401":5.11,"20250402":-0.25,"20250403":6.83,"20250404":14.96,"20250405":9.72,"20250406":7.41,"20250407":4.1,"20250408":0.91,"20250409":-4.45,"20250410":0.75,"20250411":3.2,"20250412":1.48,"20250413":2.44,"20250414":3.79,"20250415":10.41,"20250416":4.89,"20250417":0.48,"20250418":2.26,"20250419":12.36,"20250420":14.53,"20250421":7.01,"20250422":11.27,"20250423":9.11,"20250424":9.63,"20250425":10.45,"20250426":14.59,"20250427":6.51,"20250428":5.5,"20250429":7.4,"20250430":16.82,"20250501":8.6,"20250502":13.68,"20250503":15.67,"20250504":15.53,"20250505":13.82,"20250506":13.3,"20250507":13.17,"20250508":14.68,"20250509":13.38,"20250510":8.0,"20250511":10.1,"20250512":12.71,"20250513":16.29,"20250514":15.12,"20250515":14.06,"20250516":15.07,"20250517":16.51,"20250518":13.45,"20250519":12.58,"20250520":6.4,"20250521":11.25,"20250522":10.14,"20250523":9.4,"20250524":7.78,"20250525":8.18,"20250526":8.47,"20250527":10.61,"20250528":11.73,"20250529":12.31,"20250530":14.92,"20250531":13.73,"20250601":7.88,"20250602":7.86,"20250603":9.99,"20250604":12.08,"20250605":15.48,"20250606":16.26,"20250607":17.87,"20250608":16.37,"20250609":15.79,"20250610":16.24,"20250611":16.46,"20250612":16.38,"20250613":20.53,"20250614":17.42,"20250615":14.76,"20250616":13.92,"20250617":16.12,"20250618":18.74,"20250619":20.79,"20250620":17.12,"20250621":18.76,"20250622":20.73,"20250623":24.49,"20250624":24.67,"20250625":24.59,"20250626":23.36,"20250627":17.88,"20250628":17.31,"20250629":22.39,"20250630":23.37,"20250701":23.7,"20250702":22.41,"20250703":18.74,"20250704":18.6,"20250705":16.5,"20250706":16.95,"20250707":22.29,"20250708":22.16,"20250709":22.0,"20250710":21.13,"20250711":21.49,"20250712":21.62,"20250713":21.6,"20250714":22.09,"20250715":23.08,"20250716":22.84,"20250717":24.14,"20250718":22.43,"20250719":19.5,"20250720":22.57,"20250721":20.89,"20250722":18.83,"20250723":18.55,"20250724":18.37,"20250725":22.08,"20250726":23.59,"20250727":21.8,"20250728":22.3,"20250729":24.31,"20250730":24.02,"20250731":23.62,"20250801":17.7,"20250802":16.18,"20250803":16.82,"20250804":17.43,"20250805":20.22,"20250806":20.27,"20250807":18.87,"20250808":15.17,"20250809":13.69,"20250810":15.36,"20250811":16.81,"20250812":18.25,"20250813":21.67,"20250814":22.87,"20250815":23.08,"20250816":21.22,"20250817":20.66,"20250818":19.06,"20250819":18.56,"20250820":18.9,"20250821":16.04,"20250822":14.13,"20250823":15.24,"20250824":16.42,"20250825":18.39,"20250826":14.51,"20250827":14.5,"20250828":15.31,"20250829":14.46,"20250830":11.51,"20250831":12.0,"20250901":15.1,"20250902":13.43,"20250903":13.9,"20250904":14.36,"20250905":17.17,"20250906":20.3,"20250907":17.7,"20250908":11.54,"20250909":12.23,"20250910":16.73,"20250911":14.26,"20250912":13.84,"20250913":16.23,"20250914":15.6,"20250915":17.16,"20250916":16.15,"20250917":17.23,"20250918":16.43,"20250919":16.24,"20250920":15.77,"20250921":14.42,"20250922":11.63,"20250923":16.6,"20250924":18.05,"20250925":21.18,"20250926":18.72,"20250927":16.66,"20250928":17.94,"20250929":18.18,"20250930":16.48},"PRECTOTCORR":{"20250401":26.52,"20250402":0.05,"20250403":2.67,"20250404":11.63,"20250405":2.34,"20250406":2.5,"20250407":7.42,"20250408":0.56,"20250409":0.0,"20250410":0.89,"20250411":7.73,"20250412":27.42,"20250413":0.16,"20250414":0.0,"20250415":0.37,"20250416":0.01,"20250417":0.0,"20250418":0.07,"20250419":0.0,"20250420":0.02,"20250421":0.01,"20250422":0.07,"20250423":0.0,"20250424":0.0,"20250425":0.03,"20250426":8.07,"20250427":0.03,"20250428":0.0,"20250429":0.14,"20250430":0.1,"20250501":0.02,"20250502":0.3,"20250503":4.5,"20250504":10.32,"20250505":4.47,"20250506":3.67,"20250507":1.34,"20250508":0.39,"20250509":14.78,"20250510":0.06,"20250511":0.0,"20250512":0.0,"20250513":16.48,"20250514":21.79,"20250515":3.92,"20250516":7.86,"20250517":10.33,"20250518":0.06,"20250519":0.0,"20250520":0.0,"20250521":8.75,"20250522":18.57,"20250523":1.95,"20250524":0.27,"20250525":0.03,"20250526":0.01,"20250527":0.0,"20250528":25.68,"20250529":5.96,"20250530":10.4,"20250531":22.16,"20250601":0.46,"20250602":0.0,"20250603":0.0,"20250604":0.02,"20250605":0.01,"20250606":0.13,"20250607":3.32,"20250608":1.56,"20250609":2.06,"20250610":6.85,"20250611":0.03,"20250612":0.02,"20250613":0.01,"20250614":7.95,"20250615":5.35,"20250616":2.52,"20250617":3.59,"20250618":2.55,"20250619":8.02,"20250620":1.7,"20250621":0.0,"20250622":0.21,"20250623":0.61,"20250624":0.0,"20250625":2.55,"20250626":4.57,"20250627":5.59,"20250628":1.86,"20250629":0.63,"20250630":9.41,"20250701":29.47,"20250702":9.06,"20250703":3.65,"20250704":1.13,"20250705":0.0,"20250706":0.28,"20250707":2.83,"20250708":11.16,"20250709":4.58,"20250710":21.55,"20250711":0.05,"20250712":0.1,"20250713":0.26,"20250714":10.93,"20250715":6.23,"20250716":1.93,"20250717":3.8,"20250718":0.03,"20250719":2.47,"20250720":2.68,"20250721":0.86,"20250722":0.05,"20250723":0.07,"20250724":0.02,"20250725":1.28,"20250726":3.79,"20250727":12.62,"20250728":0.1,"20250729":0.01,"20250730":0.15,"20250731":17.56,"20250801":9.76,"20250802":0.01,"20250803":0.0,"20250804":0.01,"20250805":0.01,"20250806":0.22,"20250807":0.08,"20250808":0.01,"20250809":0.1,"20250810":0.12,"20250811":0.02,"20250812":0.09,"20250813":5.16,"20250814":10.84,"20250815":0.9,"20250816":0.33,"20250817":4.85,"20250818":3.16,"20250819":0.16,"20250820":4.68,"20250821":1.73,"20250822":0.01,"20250823":0.0,"20250824":0.05,"20250825":0.17,"20250826":0.01,"20250827":0.02,"20250828":0.2,"20250829":0.66,"20250830":0.0,"20250831":0.0,"20250901":0.0,"20250902":0.01,"20250903":0.15,"20250904":4.1,"20250905":7.25,"20250906":3.4,"20250907":15.32,"20250908":0.0,"20250909":0.0,"20250910":0.76,"20250911":0.0,"20250912":0.02,"20250913":0.02,"20250914":0.0,"20250915":0.0,"20250916":0.16,"20250917":8.55,"20250918":1.05,"20250919":0.02,"20250920":0.0,"20250921":0.0,"20250922":0.0,"20250923":0.38,"20250924":8.05,"20250925":10.19,"20250926":0.75,"20250927":0.64,"20250928":4.5,"20250929":0.06,"20250930":0.0},"WS10M":{"20250401":5.57,"20250402":4.26,"20250403":5.32,"20250404":3.27,"20250405":3.97,"20250406":3.27,"20250407":3.34,"20250408":5.53,"20250409":3.42,"20250410":3.89,"20250411":4.4,"20250412":5.78,"20250413":4.14,"20250414":2.77,"20250415":5.37,"20250416":6.64,"20250417":3.65,"20250418":4.53,"20250419":5.33,"20250420":4.55,"20250421":3.46,"20250422":3.32,"20250423":2.52,"20250424":2.81,"20250425":3.34,"20250426":4.94,"20250427":6.81,"20250428":2.52,"20250429":4.93,"20250430":4.29,"20250501":3.54,"20250502":3.87,"20250503":4.16,"20250504":4.08,"20250505":3.41,"20250506":3.83,"20250507":2.13,"20250508":1.55,"20250509":2.77,"20250510":4.78,"20250511":2.57,"20250512":3.44,"20250513":3.54,"20250514":6.12,"20250515":1.57,"20250516":2.17,"20250517":3.77,"20250518":5.05,"20250519":4.92,"20250520":2.95,"20250521":4.28,"20250522":4.38,"20250523":3.23,"20250524":4.57,"20250525":3.39,"20250526":2.18,"20250527":1.87,"20250528":3.05,"20250529":3.14,"20250530":2.09,"20250531":6.23,"20250601":4.64,"20250602":2.55,"20250603":1.8,"20250604":2.76,"20250605":2.83,"20250606":2.75,"20250607":1.96,"20250608":3.56,"20250609":2.93,"20250610":2.48,"20250611":2.57,"20250612":2.98,"20250613":2.85,"20250614":3.02,"20250615":3.29,"20250616":3.37,"20250617":1.86,"20250618":2.22,"20250619":3.2,"20250620":4.69,"20250621":2.29,"20250622":3.71,"20250623":2.25,"20250624":2.25,"20250625":2.41,"20250626":2.55,"20250627":4.21,"20250628":2.12,"20250629":1.98,"20250630":1.66,"20250701":2.59,"20250702":1.7,"20250703":2.71,"20250704":2.08,"20250705":1.87,"20250706":3.13,"20250707":2.73,"20250708":2.19,"20250709":2.06,"20250710":1.49,"20250711":1.94,"20250712":2.0,"20250713":2.22,"20250714":2.28,"20250715":1.52,"20250716":2.06,"20250717":3.71,"20250718":2.99,"20250719":2.32,"20250720":1.85,"20250721":2.51,"20250722":3.19,"20250723":2.38,"20250724":2.99,"20250725":3.34,"20250726":3.04,"20250727":2.39,"20250728":2.01,"20250729":1.34,"20250730":2.17,"20250731":1.98,"20250801":4.41,"20250802":2.12,"20250803":2.02,"20250804":1.53,"20250805":1.8,"20250806":2.9,"20250807":3.36,"20250808":2.87,"20250809":2.65,"20250810":2.02,"20250811":1.93,"20250812":2.18,"20250813":2.7,"20250814":1.41,"20250815":2.63,"20250816":1.93,"20250817":2.66,"20250818":3.8,"20250819":3.61,"20250820":3.49,"20250821":5.74,"20250822":2.49,"20250823":3.7,"20250824":3.23,"20250825":2.84,"20250826":2.56,"20250827":3.09,"20250828":2.12,"20250829":2.81,"20250830":2.33,"20250831":2.18,"20250901":3.14,"20250902":2.48,"20250903":1.49,"20250904":4.17,"20250905":3.99,"20250906":3.8,"20250907":2.23,"20250908":2.5,"20250909":3.82,"20250910":4.41,"20250911":2.0,"20250912":1.71,"20250913":1.59,"20250914":2.19,"20250915":2.96,"20250916":4.31,"20250917":5.21,"20250918":2.35,"20250919":2.39,"20250920":3.68,"20250921":3.08,"20250922":1.98,"20250923":3.12,"20250924":1.66,"20250925":3.38,"20250926":2.13,"20250927":2.37,"20250928":1.62,"20250929":2.38,"20250930":2.42},"RH2M":{"20250401":69.13,"20250402":66.63,"20250403":87.26,"20250404":81.64,"20250405":82.58,"20250406":88.9,"20250407":87.93,"20250408":68.2,"20250409":58.29,"20250410":76.0,"20250411":90.58,"20250412":87.56,"20250413":80.24,"20250414":73.66,"20250415":75.27,"20250416":62.92,"20250417":65.37,"20250418":72.38,"20250419":84.15,"20250420":66.7,"20250421":72.05,"20250422":79.01,"20250423":65.6,"20250424":74.31,"20250425":75.18,"20250426":87.82,"20250427":60.15,"20250428":62.58,"20250429":71.73,"20250430":68.29,"20250501":66.75,"20250502":72.99,"20250503":81.87,"20250504":90.3,"20250505":89.58,"20250506":82.54,"20250507":73.39,"20250508":70.57,"20250509":87.2,"20250510":69.89,"20250511":68.42,"20250512":74.98,"20250513":89.38,"20250514":89.91,"20250515":88.54,"20250516":85.22,"20250517":83.32,"20250518":70.4,"20250519":70.87,"20250520":67.42,"20250521":83.73,"20250522":90.77,"20250523":79.22,"20250524":72.23,"20250525":74.07,"20250526":73.43,"20250527":80.35,"20250528":88.37,"20250529":85.57,"20250530":85.97,"20250531":80.92,"20250601":70.86,"20250602":70.74,"20250603":67.29,"20250604":78.22,"20250605":82.13,"20250606":82.11,"20250607":85.12,"20250608":85.09,"20250609":87.3,"20250610":85.65,"20250611":73.33,"20250612":76.04,"20250613":74.92,"20250614":87.62,"20250615":87.55,"20250616":88.29,"20250617":87.76,"20250618":85.0,"20250619":81.3,"20250620":74.75,"20250621":73.43,"20250622":75.95,"20250623":72.2,"20250624":64.19,"20250625":63.77,"20250626":78.19,"20250627":80.64,"20250628":81.08,"20250629":75.23,"20250630":74.92,"20250701":87.48,"20250702":81.34,"20250703":74.46,"20250704":74.18,"20250705":66.02,"20250706":72.1,"20250707":83.6,"20250708":79.29,"20250709":80.65,"20250710":83.95,"20250711":81.8,"20250712":80.4,"20250713":81.26,"20250714":85.14,"20250715":84.3,"20250716":83.75,"20250717":83.16,"20250718":68.33,"20250719":74.89,"20250720":79.48,"20250721":69.41,"20250722":63.99,"20250723":70.06,"20250724":65.65,"20250725":65.89,"20250726":72.61,"20250727":82.1,"20250728":75.0,"20250729":59.73,"20250730":56.01,"20250731":69.78,"20250801":79.97,"20250802":71.5,"20250803":67.6,"20250804":60.84,"20250805":68.53,"20250806":79.55,"20250807":70.31,"20250808":65.92,"20250809":58.7,"20250810":59.96,"20250811":59.16,"20250812":69.91,"20250813":72.99,"20250814":80.96,"20250815":72.74,"20250816":72.76,"20250817":70.0,"20250818":75.78,"20250819":63.62,"20250820":79.73,"20250821":80.0,"20250822":63.12,"20250823":60.79,"20250824":70.64,"20250825":68.48,"20250826":51.29,"20250827":52.74,"20250828":45.3,"20250829":63.92,"20250830":49.62,"20250831":53.86,"20250901":61.59,"20250902":66.19,"20250903":68.31,"20250904":69.48,"20250905":70.65,"20250906":72.93,"20250907":77.48,"20250908":59.47,"20250909":64.42,"20250910":74.78,"20250911":65.66,"20250912":66.09,"20250913":67.0,"20250914":67.87,"20250915":68.86,"20250916":72.19,"20250917":80.26,"20250918":75.93,"20250919":60.96,"20250920":54.57,"20250921":65.18,"20250922":67.55,"20250923":72.5,"20250924":83.66,"20250925":90.35,"20250926":76.72,"20250927":68.66,"20250928":73.81,"20250929":70.27,"20250930":64.78}}},"header":{"title":"NASA/POWER Source Native Resolution Daily Data","api":{"version":"v2.9.6","name":"POWER Daily API"},"sources":["MERRA2","POWER"],"fill_value":-999.0,"time_standard":"UTC","start":"20250401","end":"20250930"},"messages":[],"parameters":{"T2M":{"units":"C","longname":"Temperature at 2 Meters"},"T2M_MAX":{"units":"C","longname":"Temperature at 2 Meters Maximum"},"T2M_MIN":{"units":"C","longname":"Temperature at 2 Meters Minimum"},"PRECTOTCORR":{"units":"mm/day","longname":"Precipitation Corrected"},"WS10M":{"units":"m/s","longname":"Wind Speed at 10 Meters"},"RH2M":{"units":"%","longname":"Relative Humidity at 2 Meters"}},"times":{"data":0.375,"process":0.01}}