{"type":"Feature","geometry":{"type":"Point","coordinates":[-118.244,34.052,395.0]},"properties":{"parameter":{"T2M":{"20250401":12.0,"20250402":10.99,"20250403":11.08,"20250404":12.68,"20250405":15.49,"20250406":17.47,"20250407":16.94,"20250408":17.72,"20250409":19.25,"20250410":20.07,"20250411":20.49,"20250412":17.92,"20250413":15.87,"20250414":15.72,"20250415":13.45,"20250416":13.01,"20250417":12.73,"20250418":12.47,"20250419":14.6,"20250420":15.78,"20250421":16.1,"20250422":14.13,"20250423":13.01,"20250424":13.59,"20250425":12.97,"20250426":11.35,"20250427":11.48,"20250428":14.08,"20250429":16.18,"20250430":14.9,"20250501":14.94,"20250502":16.06,"20250503":14.5,"20250504":13.58,"20250505":13.45,"20250506":14.6,"20250507":16.54,"20250508":18.87,"20250509":22.91,"20250510":25.62,"20250511":24.91,"20250512":18.03,"20250513":14.89,"20250514":15.95,"20250515":16.64,"20250516":16.16,"20250517":14.94,"20250518":16.02,"20250519":18.78,"20250520":22.12,"20250521":22.65,"20250522":21.69,"20250523":18.83,"20250524":17.15,"20250525":17.52,"20250526":17.44,"20250527":18.12,"20250528":17.5,"20250529":17.51,"20250530":22.2,"20250531":23.17,"20250601":21.85,"20250602":19.62,"20250603":18.35,"20250604":18.36,"20250605":18.03,"20250606":18.1,"20250607":18.15,"20250608":18.09,"20250609":19.27,"20250610":20.27,"20250611":20.21,"20250612":19.66,"20250613":19.79,"20250614":20.43,"20250615":23.32,"20250616":24.45,"20250617":24.39,"20250618":24.23,"20250619":21.88,"20250620":19.68,"20250621":18.47,"20250622":19.34,"20250623":18.82,"20250624":18.1,"20250625":19.76,"20250626":20.66,"20250627":21.24,"20250628":22.52,"20250629":24.37,"20250630":23.42,"20250701":22.16,"20250702":21.14,"20250703":20.63,"20250704":20.39,"20250705":21.87,"20250706":22.51,"20250707":21.37,"20250708":22.74,"20250709":24.83,"20250710":25.42,"20250711":23.14,"20250712":20.9,"20250713":21.27,"20250714":21.42,"20250715":20.65,"20250716":20.13,"20250717":21.63,"20250718":22.06,"20250719":21.92,"20250720":20.81,"20250721":19.8,"20250722":19.94,"20250723":19.91,"20250724":20.99,"20250725":19.86,"20250726":18.71,"20250727":19.56,"20250728":20.11,"20250729":21.51,"20250730":22.29,"20250731":23.01,"20250801":22.45,"20250802":22.2,"20250803":23.26,"20250804":22.86,"20250805":23.61,"20250806":25.28,"20250807":27.48,"20250808":26.98,"20250809":25.12,"20250810":24.33,"20250811":25.34,"20250812":23.75,"20250813":22.8,"20250814":21.72,"20250815":20.18,"20250816":20.6,"20250817":21.07,"20250818":22.5,"20250819":23.78,"20250820":25.83,"20250821":28.19,"20250822":28.44,"20250823":27.42,"20250824":27.01,"20250825":25.9,"20250826":24.12,"20250827":24.56,"20250828":24.78,"20250829":26.06,"20250830":26.64,"20250831":27.4,"20250901":26.79,"20250902":26.67,"20250903":27.8,"20250904":26.09,"20250905":24.23,"20250906":24.27,"20250907":25.24,"20250908":24.69,"20250909":21.47,"20250910":20.04,"20250911":20.15,"20250912":20.7,"20250913":21.16,"20250914":21.37,"20250915":22.96,"20250916":25.97,"20250917":25.65,"20250918":22.97,"20250919":22.47,"20250920":22.79,"20250921":22.18,"20250922":22.96,"20250923":25.33,"20250924":23.9,"20250925":21.61,"20250926":21.03,"20250927":20.71,"20250928":20.37,"20250929":20.23,"20250930":19.22},"T2M_MAX":{"20250401":17.61,"20250402":16.78,"20250403":17.31,"20250404":20.4,"20250405":24.17,"20250406":25.42,"20250407":23.83,"20250408":24.99,"20250409":27.02,"20250410":27.33,"20250411":26.42,"20250412":23.75,"20250413":22.09,"20250414":22.87,"20250415":18.55,"20250416":16.64,"20250417":15.83,"20250418":16.08,"20250419":23.06,"20250420":22.71,"20250421":21.98,"20250422":20.1,"20250423":18.41,"20250424":17.45,"20250425":16.53,"20250426":14.58,"20250427":15.99,"20250428":21.61,"20250429":24.15,"20250430":20.88,"20250501":21.66,"20250502":23.61,"20250503":19.85,"20250504":16.7,"20250505":17.59,"20250506":19.22,"20250507":25.05,"20250508":27.14,"20250509":30.88,"20250510":31.84,"20250511":31.4,"20250512":25.16,"20250513":20.46,"20250514":22.75,"20250515":23.31,"20250516":21.96,"20250517":18.26,"20250518":23.29,"20250519":27.54,"20250520":29.76,"20250521":29.56,"20250522":28.25,"20250523":25.06,"20250524":23.15,"20250525":24.05,"20250526":23.94,"20250527":25.71,"20250528":23.6,"20250529":25.94,"20250530":31.33,"20250531":29.56,"20250601":26.74,"20250602":25.03,"20250603":24.47,"20250604":24.52,"20250605":24.0,"20250606":24.73,"20250607":24.21,"20250608":24.47,"20250609":26.55,"20250610":26.65,"20250611":26.49,"20250612":26.8,"20250613":27.88,"20250614":28.42,"20250615":31.6,"20250616":32.28,"20250617":32.25,"20250618":32.05,"20250619":29.11,"20250620":25.65,"20250621":24.56,"20250622":27.19,"20250623":24.78,"20250624":23.58,"20250625":28.24,"20250626":26.63,"20250627":28.22,"20250628":30.34,"20250629":31.26,"20250630":29.92,"20250701":28.14,"20250702":28.4,"20250703":28.38,"20250704":26.3,"20250705":29.51,"20250706":29.01,"20250707":28.4,"20250708":30.09,"20250709":31.98,"20250710":32.92,"20250711":29.0,"20250712":27.6,"20250713":28.28,"20250714":27.93,"20250715":26.45,"20250716":27.19,"20250717":28.89,"20250718":28.02,"20250719":29.17,"20250720":26.82,"20250721":24.93,"20250722":25.61,"20250723":26.39,"20250724":28.15,"20250725":26.02,"20250726":25.09,"20250727":25.9,"20250728":26.56,"20250729":28.63,"20250730":29.67,"20250731":29.6,"20250801":29.2,"20250802":30.02,"20250803":30.65,"20250804":29.71,"20250805":31.33,"20250806":33.31,"20250807":35.53,"20250808":32.4,"20250809":31.18,"20250810":30.34,"20250811":33.48,"20250812":29.59,"20250813":30.64,"20250814":27.69,"20250815":26.27,"20250816":28.42,"20250817":28.81,"20250818":30.76,"20250819":31.77,"20250820":34.56,"20250821":34.5,"20250822":36.47,"20250823":34.8,"20250824":33.69,"20250825":32.42,"20250826":29.23,"20250827":32.19,"20250828":32.21,"20250829":33.38,"20250830":33.71,"20250831":34.38,"20250901":33.86,"20250902":32.32,"20250903":35.2,"20250904":32.17,"20250905":31.02,"20250906":31.08,"20250907":31.82,"20250908":30.45,"20250909":26.97,"20250910":25.78,"20250911":25.88,"20250912":26.91,"20250913":28.05,"20250914":28.83,"20250915":30.88,"20250916":32.77,"20250917":30.74,"20250918":26.75,"20250919":27.43,"20250920":29.47,"20250921":27.88,"20250922":29.32,"20250923":32.42,"20250924":29.48,"20250925":26.48,"20250926":27.87,"20250927":25.47,"20250928":26.48,"20250929":25.98,"20250930":24.71},"T2M_MIN":{"20250401":7.35,"20250402":5.4,"20250403":5.83,"20250404":6.17,"20250405":8.92,"20250406":10.45,"20250407":11.42,"20250408":12.38,"20250409":13.0,"20250410":15.14,"20250411":15.14,"20250412":13.22,"20250413":10.95,"20250414":10.27,"20250415":9.47,"20250416":10.35,"20250417":10.66,"20250418":10.09,"20250419":8.22,"20250420":10.29,"20250421":10.85,"20250422":9.19,"20250423":10.32,"20250424":11.45,"20250425":10.25,"20250426":8.15,"20250427":8.34,"20250428":9.98,"20250429":9.76,"20250430":10.51,"20250501":10.79,"20250502":11.72,"20250503":11.66,"20250504":11.93,"20250505":11.34,"20250506":12.23,"20250507":11.45,"20250508":12.98,"20250509":16.37,"20250510":19.65,"20250511":18.73,"20250512":13.56,"20250513":9.84,"20250514":10.24,"20250515":10.61,"20250516":11.72,"20250517":12.88,"20250518":11.46,"20250519":11.93,"20250520":14.98,"20250521":15.83,"20250522":15.26,"20250523":13.63,"20250524":13.71,"20250525":13.5,"20250526":13.19,"20250527":13.64,"20250528":14.04,"20250529":12.93,"20250530":16.06,"20250531":17.79,"20250601":16.67,"20250602":14.52,"20250603":13.93,"20250604":13.98,"20250605":14.5,"20250606":13.66,"20250607":13.69,"20250608":13.75,"20250609":13.91,"20250610":15.06,"20250611":15.38,"20250612":13.91,"20250613":14.03,"20250614":14.43,"20250615":16.31,"20250616":17.51,"20250617":17.3,"20250618":17.13,"20250619":16.37,"20250620":14.47,"20250621":13.65,"20250622":12.19,"20250623":13.77,"20250624":13.93,"20250625":13.89,"20250626":15.01,"20250627":15.14,"20250628":15.98,"20250629":17.78,"20250630":17.06,"20250701":15.57,"20250702":15.84,"20250703":14.56,"20250704":15.02,"20250705":15.47,"20250706":16.17,"20250707":15.05,"20250708":17.12,"20250709":18.82,"20250710":18.75,"20250711":16.51,"20250712":14.98,"20250713":15.46,"20250714":16.28,"20250715":14.96,"20250716":14.39,"20250717":15.93,"20250718":17.04,"20250719":16.54,"20250720":16.52,"20250721":16.18,"20250722":16.56,"20250723":15.51,"20250724":14.71,"20250725":15.21,"20250726":13.53,"20250727":14.62,"20250728":14.84,"20250729":16.03,"20250730":16.42,"20250731":17.38,"20250801":16.56,"20250802":16.17,"20250803":16.74,"20250804":16.25,"20250805":17.1,"20250806":19.09,"20250807":21.49,"20250808":21.59,"20250809":20.26,"20250810":19.57,"20250811":19.36,"20250812":18.73,"20250813":17.23,"20250814":17.31,"20250815":15.19,"20250816":15.84,"20250817":16.08,"20250818":16.46,"20250819":17.65,"20250820":19.38,"20250821":23.71,"20250822":23.63,"20250823":21.26,"20250824":21.63,"20250825":20.33,"20250826":19.74,"20250827":19.26,"20250828":20.31,"20250829":20.98,"20250830":21.83,"20250831":22.52,"20250901":21.68,"20250902":22.28,"20250903":21.9,"20250904":21.12,"20250905":18.41,"20250906":18.43,"20250907":20.4,"20250908":19.27,"20250909":16.65,"20250910":16.34,"20250911":16.73,"20250912":17.13,"20250913":17.01,"20250914":16.32,"20250915":17.64,"20250916":20.87,"20250917":21.32,"20250918":20.48,"20250919":19.05,"20250920":18.34,"20250921":17.63,"20250922":18.62,"20250923":21.4,"20250924":20.08,"20250925":17.6,"20250926":17.71,"20250927":17.49,"20250928":17.2,"20250929":16.51,"20250930":16.11},"PRECTOTCORR":{"20250401":0.11,"20250402":0.21,"20250403":0.16,"20250404":0.11,"20250405":0.0,"20250406":0.0,"20250407":0.0,"20250408":0.0,"20250409":0.0,"20250410":0.0,"20250411":0.0,"20250412":0.0,"20250413":0.0,"20250414":0.0,"20250415":0.0,"20250416":0.02,"20250417":0.07,"20250418":0.04,"20250419":0.01,"20250420":0.0,"20250421":0.0,"20250422":0.0,"20250423":0.0,"20250424":0.0,"20250425":0.04,"20250426":4.37,"20250427":0.48,"20250428":0.01,"20250429":0.06,"20250430":0.09,"20250501":0.53,"20250502":0.46,"20250503":0.25,"20250504":0.92,"20250505":1.68,"20250506":0.3,"20250507":0.11,"20250508":0.0,"20250509":0.0,"20250510":0.0,"20250511":0.0,"20250512":0.01,"20250513":0.0,"20250514":0.0,"20250515":0.02,"20250516":0.0,"20250517":0.16,"20250518":0.06,"20250519":0.0,"20250520":0.0,"20250521":0.0,"20250522":0.0,"20250523":0.0,"20250524":0.0,"20250525":0.0,"20250526":0.0,"20250527":0.0,"20250528":0.0,"20250529":0.0,"20250530":0.0,"20250531":0.0,"20250601":0.04,"20250602":0.0,"20250603":0.1,"20250604":0.09,"20250605":0.02,"20250606":0.01,"20250607":0.01,"20250608":0.0,"20250609":0.0,"20250610":0.0,"20250611":0.0,"20250612":0.0,"20250613":0.0,"20250614":0.0,"20250615":0.0,"20250616":0.0,"20250617":0.0,"20250618":0.0,"20250619":0.0,"20250620":0.0,"20250621":0.01,"20250622":0.0,"20250623":0.0,"20250624":0.0,"20250625":0.0,"20250626":0.0,"20250627":0.0,"20250628":0.0,"20250629":0.0,"20250630":0.0,"20250701":0.01,"20250702":0.0,"20250703":0.0,"20250704":0.0,"20250705":0.0,"20250706":0.0,"20250707":0.0,"20250708":0.0,"20250709":0.0,"20250710":0.0,"20250711":0.0,"20250712":0.0,"20250713":0.0,"20250714":0.0,"20250715":0.0,"20250716":0.0,"20250717":0.05,"20250718":0.16,"20250719":0.08,"20250720":0.0,"20250721":0.0,"20250722":0.0,"20250723":0.0,"20250724":0.0,"20250725":0.0,"20250726":0.0,"20250727":0.0,"20250728":0.0,"20250729":0.0,"20250730":0.0,"20250731":0.0,"20250801":0.0,"20250802":0.0,"20250803":0.0,"20250804":0.0,"20250805":0.0,"20250806":0.0,"20250807":0.0,"20250808":0.0,"20250809":0.0,"20250810":0.0,"20250811":0.0,"20250812":0.0,"20250813":0.0,"20250814":0.0,"20250815":0.0,"20250816":0.0,"20250817":0.0,"20250818":0.0,"20250819":0.02,"20250820":0.03,"20250821":0.02,"20250822":0.15,"20250823":0.05,"20250824":0.16,"20250825":0.08,"20250826":0.13,"20250827":0.0,"20250828":0.02,"20250829":0.0,"20250830":0.0,"20250831":0.0,"20250901":0.0,"20250902":0.12,"20250903":0.0,"20250904":0.0,"20250905":0.0,"20250906":0.0,"20250907":0.0,"20250908":0.0,"20250909":0.0,"20250910":0.0,"20250911":0.0,"20250912":0.0,"20250913":0.0,"20250914":0.0,"20250915":0.0,"20250916":0.0,"20250917":0.09,"20250918":5.25,"20250919":0.71,"20250920":0.0,"20250921":0.02,"20250922":0.35,"20250923":0.0,"20250924":0.04,"20250925":0.01,"20250926":0.1,"20250927":0.28,"20250928":0.14,"20250929":0.0,"20250930":0.0},"WS10M":{"20250401":5.43,"20250402":5.21,"20250403":2.75,"20250404":2.06,"20250405":3.98,"20250406":3.13,"20250407":2.33,"20250408":2.23,"20250409":2.38,"20250410":1.98,"20250411":2.32,"20250412":2.24,"20250413":2.11,"20250414":2.04,"20250415":1.93,"20250416":2.84,"20250417":3.85,"20250418":3.48,"20250419":2.18,"20250420":2.48,"20250421":2.06,"20250422":2.14,"20250423":2.22,"20250424":3.13,"20250425":3.48,"20250426":4.59,"20250427":3.86,"20250428":2.34,"20250429":2.2,"20250430":2.62,"20250501":1.88,"20250502":2.85,"20250503":2.28,"20250504":3.38,"20250505":2.32,"20250506":2.89,"20250507":2.02,"20250508":1.91,"20250509":1.9,"20250510":2.25,"20250511":2.64,"20250512":2.91,"20250513":3.9,"20250514":2.8,"20250515":2.8,"20250516":2.55,"20250517":3.44,"20250518":2.94,"20250519":2.49,"20250520":2.54,"20250521":2.49,"20250522":2.4,"20250523":2.52,"20250524":2.73,"20250525":2.57,"20250526":2.8,"20250527":2.32,"20250528":2.57,"20250529":2.32,"20250530":2.25,"20250531":2.28,"20250601":2.27,"20250602":3.3,"20250603":1.88,"20250604":2.53,"20250605":2.7,"20250606":2.36,"20250607":2.72,"20250608":2.27,"20250609":2.13,"20250610":2.35,"20250611":2.33,"20250612":2.59,"20250613":2.32,"20250614":2.5,"20250615":2.56,"20250616":2.62,"20250617":2.64,"20250618":2.55,"20250619":2.61,"20250620":2.51,"20250621":3.08,"20250622":2.64,"20250623":3.3,"20250624":2.63,"20250625":2.27,"20250626":2.67,"20250627":2.61,"20250628":2.39,"20250629":2.27,"20250630":2.72,"20250701":2.42,"20250702":2.23,"20250703":2.87,"20250704":2.55,"20250705":2.54,"20250706":2.36,"20250707":2.36,"20250708":2.43,"20250709":2.42,"20250710":2.57,"20250711":2.51,"20250712":2.62,"20250713":2.07,"20250714":2.22,"20250715":2.7,"20250716":2.78,"20250717":2.66,"20250718":2.12,"20250719":2.57,"20250720":2.91,"20250721":2.95,"20250722":2.84,"20250723":2.42,"20250724":2.72,"20250725":2.86,"20250726":2.56,"20250727":2.46,"20250728":2.28,"20250729":2.44,"20250730":2.55,"20250731":2.46,"20250801":2.39,"20250802":2.38,"20250803":2.54,"20250804":2.62,"20250805":2.55,"20250806":2.28,"20250807":2.34,"20250808":2.38,"20250809":2.36,"20250810":2.4,"20250811":2.2,"20250812":2.55,"20250813":2.65,"20250814":2.57,"20250815":2.54,"20250816":2.35,"20250817":2.54,"20250818":2.54,"20250819":2.2,"20250820":2.24,"20250821":2.42,"20250822":2.2,"20250823":2.28,"20250824":2.23,"20250825":2.44,"20250826":2.48,"20250827":2.39,"20250828":2.26,"20250829":1.97,"20250830":2.09,"20250831":1.89,"20250901":2.26,"20250902":2.07,"20250903":2.45,"20250904":2.42,"20250905":2.68,"20250906":2.63,"20250907":2.52,"20250908":2.56,"20250909":2.44,"20250910":2.65,"20250911":2.94,"20250912":2.56,"20250913":2.44,"20250914":2.06,"20250915":2.38,"20250916":2.26,"20250917":2.16,"20250918":2.93,"20250919":2.26,"20250920":1.89,"20250921":2.36,"20250922":1.73,"20250923":2.03,"20250924":2.15,"20250925":2.56,"20250926":2.13,"20250927":2.96,"20250928":2.5,"20250929":2.13,"20250930":2.63},"RH2M":{"20250401":75.31,"20250402":68.05,"20250403":64.3,"20250404":65.04,"20250405":46.76,"20250406":37.08,"20250407":55.93,"20250408":61.41,"20250409":60.19,"20250410":49.8,"20250411":51.41,"20250412":60.09,"20250413":74.62,"20250414":64.24,"20250415":71.02,"20250416":74.18,"20250417":79.68,"20250418":80.78,"20250419":64.35,"20250420":65.16,"20250421":62.47,"20250422":60.02,"20250423":77.66,"20250424":80.57,"20250425":73.21,"20250426":73.62,"20250427":75.32,"20250428":73.49,"20250429":68.93,"20250430":75.46,"20250501":71.84,"20250502":75.25,"20250503":77.91,"20250504":82.4,"20250505":83.5,"20250506":81.78,"20250507":70.57,"20250508":64.39,"20250509":49.04,"20250510":39.2,"20250511":39.59,"20250512":68.09,"20250513":68.99,"20250514":63.97,"20250515":67.73,"20250516":73.87,"20250517":78.53,"20250518":72.93,"20250519":61.9,"20250520":49.17,"20250521":45.83,"20250522":49.71,"20250523":63.97,"20250524":73.26,"20250525":74.16,"20250526":73.5,"20250527":70.97,"20250528":74.26,"20250529":71.87,"20250530":50.82,"20250531":44.96,"20250601":56.68,"20250602":68.93,"20250603":73.56,"20250604":75.22,"20250605":75.55,"20250606":72.18,"20250607":73.34,"20250608":71.54,"20250609":65.98,"20250610":61.6,"20250611":59.45,"20250612":67.51,"20250613":64.57,"20250614":60.48,"20250615":47.78,"20250616":41.51,"20250617":40.76,"20250618":43.5,"20250619":54.58,"20250620":63.6,"20250621":65.6,"20250622":48.45,"20250623":66.53,"20250624":68.43,"20250625":68.07,"20250626":63.75,"20250627":50.64,"20250628":40.53,"20250629":35.31,"20250630":42.1,"20250701":41.77,"20250702":43.65,"20250703":60.99,"20250704":58.8,"20250705":50.51,"20250706":41.74,"20250707":44.93,"20250708":41.8,"20250709":41.6,"20250710":37.12,"20250711":47.42,"20250712":59.38,"20250713":60.26,"20250714":52.69,"20250715":54.32,"20250716":62.31,"20250717":57.71,"20250718":57.92,"20250719":63.88,"20250720":69.31,"20250721":72.55,"20250722":74.31,"20250723":70.88,"20250724":57.5,"20250725":63.02,"20250726":67.98,"20250727":67.5,"20250728":68.98,"20250729":57.45,"20250730":56.08,"20250731":51.98,"20250801":47.33,"20250802":45.43,"20250803":45.17,"20250804":49.83,"20250805":45.14,"20250806":40.62,"20250807":31.8,"20250808":31.32,"20250809":41.09,"20250810":46.73,"20250811":45.0,"20250812":48.95,"20250813":57.15,"20250814":55.7,"20250815":66.34,"20250816":69.09,"20250817":68.26,"20250818":56.38,"20250819":42.36,"20250820":42.66,"20250821":36.37,"20250822":38.65,"20250823":35.0,"20250824":44.2,"20250825":43.62,"20250826":46.72,"20250827":49.39,"20250828":45.59,"20250829":43.33,"20250830":44.09,"20250831":39.7,"20250901":41.95,"20250902":45.3,"20250903":44.45,"20250904":43.57,"20250905":43.85,"20250906":41.34,"20250907":48.84,"20250908":49.12,"20250909":57.76,"20250910":72.58,"20250911":75.61,"20250912":76.61,"20250913":74.76,"20250914":70.24,"20250915":51.84,"20250916":37.39,"20250917":52.23,"20250918":77.34,"20250919":75.86,"20250920":70.49,"20250921":64.6,"20250922":73.89,"20250923":51.59,"20250924":59.59,"20250925":73.31,"20250926":75.73,"20250927":77.03,"20250928":74.95,"20250929":73.56,"20250930":72.41}}},"header":{"title":"NASA/POWER Source Native Resolution Daily Data","api":{"version":"v2.9.6","name":"POWER Daily API"},"sources":["MERRA2","POWER"],"fill_value":-999.0,"time_standard":"UTC","start":"20250401","end":"20250930"},"messages":[],"parameters":{"T2M":{"units":"C","longname":"Temperature at 2 Meters"},"T2M_MAX":{"units":"C","longname":"Temperature at 2 Meters Maximum"},"T2M_MIN":{"units":"C","longname":"Temperature at 2 Meters Minimum"},"PRECTOTCORR":{"units":"mm/day","longname":"Precipitation Corrected"},"WS10M":{"units":"m/s","longname":"Wind Speed at 10 Meters"},"RH2M":{"units":"%","longname":"Relative Humidity at 2 Meters"}},"times":{"data":0.869,"process":0.02}}