{"type":"FeatureCollection","features":[{"type":"Feature","geometry":{"type":"MultiPolygon","coordinates":[[[[-74.25875,40.5001],[-74.25884,40.49887],[-74.25814,40.49739],[-74.25712,40.49524],[-74.25629,40.49351],[-74.25613,40.49318],[-74.25363,40.48792],[-74.2533,40.48722],[-74.25314,40.48689],[-74.25304,40.48666],[-74.24995,40.48554],[-74.24897,40.48518],[-74.24667,40.48434],[-74.24381,40.4833],[-74.24098,40.48227],[-74.23796,40.48117],[-74.23529,40.4802],[-74.22952,40.4781],[-74.2282,40.47762],[-74.22776,40.47746],[-74.22533,40.47658],[-74.21854,40.47775],[-74.2168,40.47805],[-74.20644,40.47982],[-74.2,40.48094],[-74.17633,40.48501],[-74.16221,40.48744],[-74.15882,40.48802],[-74.13706,40.49177],[-74.13058,40.49289],[-74.10255,40.49771],[-74.09804,40.49849],[-74.09468,40.49907],[-74.09273,40.49941],[-74.09191,40.49954],[-74.09126,40.49966],[-74.08562,40.50063],[-74.08324,40.50104],[-74.06972,40.50337],[-74.05673,40.5056],[-74.04378,40.50783],[-74.04228,40.50808],[-74.01352,40.51301],[-73.97787,40.5191],[-73.94779,40.50839],[-73.90214,40.49212],[-73.88965,40.48651],[-73.88665,40.48979],[-73.88654,40.48993],[-73.88227,40.49521],[-73.88184,40.49569],[-73.87678,40.50113],[-73.87003,40.50249],[-73.86061,40.50839],[-73.85484,40.512],[-73.83782,40.51845],[-73.82987,40.52146],[-73.82616,40.52287],[-73.81892,40.5245],[-73.80424,40.52781],[-73.79286,40.53038],[-73.78397,40.53239],[-73.77698,40.53301],[-73.77296,40.53337],[-73.76878,40.53375],[-73.76874,40.53387],[-73.76763,40.53715],[-73.76727,40.53811],[-73.76493,40.5444],[-73.76223,40.5502],[-73.75826,40.55536],[-73.75805,40.55727],[-73.75691,40.56765],[-73.7557,40.57869],[-73.75557,40.58309],[-73.75557,40.58319],[-73.7555,40.58539],[-73.75518,40.58565],[-73.75237,40.58797],[-73.75212,40.58818],[-73.75098,40.58905],[-73.74775,40.5915],[-73.74447,40.5929],[-73.74383,40.59287],[-73.7436,40.59286],[-73.74338,40.59285],[-73.74324,40.59284],[-73.74163,40.59287],[-73.74002,40.59291],[-73.73847,40.59294],[-73.73839,40.59294],[-73.73723,40.59296],[-73.73718,40.59297],[-73.73723,40.59305],[-73.73741,40.59343],[-73.73742,40.59346],[-73.73745,40.5936],[-73.73752,40.59392],[-73.7376,40.59421],[-73.73764,40.59441],[-73.73766,40.59442],[-73.7377,40.59444],[-73.73782,40.59448],[-73.73793,40.59453],[-73.73798,40.59454],[-73.73808,40.59459],[-73.73809,40.59463],[-73.73846,40.59587],[-73.73846,40.59592],[-73.73847,40.59605],[-73.73847,40.59645],[-73.73845,40.59698],[-73.73845,40.59714],[-73.73845,40.59748],[-73.73844,40.59781],[-73.73842,40.59802],[-73.7384,40.59819],[-73.7384,40.59833],[-73.7384,40.59847],[-73.7384,40.59853],[-73.73837,40.59949],[-73.73829,40.60162],[-73.73827,40.60231],[-73.73827,40.60256],[-73.73836,40.60266],[-73.73842,40.60277],[-73.73846,40.60284],[-73.73849,40.60298],[-73.7385,40.60306],[-73.73852,40.60313],[-73.73858,40.60321],[-73.73873,40.6034],[-73.73878,40.60346],[-73.7389,40.60361],[-73.73903,40.60377],[-73.73924,40.60403],[-73.7394,40.60418],[-73.73946,40.60423],[-73.74029,40.6046],[-73.74057,40.60488],[-73.74115,40.60546],[-73.74177,40.60602],[-73.74207,40.60627],[-73.74246,40.60659],[-73.74287,40.60693],[-73.74317,40.60718],[-73.74321,40.6072],[-73.74329,40.60725],[-73.74355,40.60745],[-73.74339,40.60757],[-73.7432,40.6077],[-73.74307,40.60789],[-73.74315,40.60796],[-73.74306,40.608],[-73.74322,40.60823],[-73.74331,40.60838],[-73.74345,40.6086],[-73.74362,40.60887],[-73.74368,40.60896],[-73.74445,40.61017],[-73.74517,40.6113],[-73.74549,40.61181],[-73.74553,40.61187],[-73.74579,40.61177],[-73.74607,40.61166],[-73.74639,40.61154],[-73.74675,40.6114],[-73.74685,40.61157],[-73.74694,40.61178],[-73.74712,40.61204],[-73.74719,40.612],[-73.7475,40.61189],[-73.74761,40.612],[-73.74799,40.61231],[-73.74822,40.61201],[-73.74912,40.61179],[-73.75009,40.61164],[-73.75065,40.61145],[-73.75346,40.61052],[-73.75473,40.6104],[-73.75495,40.6105],[-73.7552,40.61059],[-73.75723,40.61099],[-73.75755,40.61104],[-73.75891,40.61121],[-73.75933,40.61126],[-73.75963,40.6113],[-73.76002,40.61135],[-73.76208,40.61273],[-73.76345,40.61369],[-73.76348,40.61371],[-73.76435,40.61432],[-73.76524,40.61494],[-73.76672,40.615],[-73.76676,40.61528],[-73.76746,40.62051],[-73.76757,40.62148],[-73.76855,40.62315],[-73.76858,40.62331],[-73.76861,40.62337],[-73.76864,40.62343],[-73.76864,40.62349],[-73.76867,40.62359],[-73.76876,40.62376],[-73.76876,40.62382],[-73.76884,40.62395],[-73.7688,40.62403],[-73.76883,40.6241],[-73.76878,40.6242],[-73.76878,40.62429],[-73.76876,40.62435],[-73.76871,40.62439],[-73.76865,40.62447],[-73.76862,40.62459],[-73.7686,40.62473],[-73.76856,40.6248],[-73.7685,40.6249],[-73.76842,40.62499],[-73.76833,40.6251],[-73.76829,40.62524],[-73.76827,40.6253],[-73.76825,40.6254],[-73.76815,40.62545],[-73.76814,40.62546],[-73.76793,40.62576],[-73.76778,40.62591],[-73.76777,40.626],[-73.76776,40.62611],[-73.76771,40.62621],[-73.76751,40.62647],[-73.76742,40.62661],[-73.748,40.63463],[-73.74602,40.63521],[-73.74418,40.63736],[-73.74394,40.63754],[-73.74365,40.63777],[-73.74329,40.63805],[-73.74236,40.63809],[-73.7415,40.63785],[-73.7412,40.63759],[-73.74119,40.63741],[-73.74127,40.63726],[-73.74208,40.63638],[-73.74253,40.63571],[-73.74258,40.63565],[-73.74263,40.63554],[-73.74267,40.63541],[-73.74265,40.63505],[-73.74224,40.63485],[-73.74168,40.63484],[-73.74109,40.63493],[-73.7408,40.63499],[-73.74014,40.63511],[-73.73996,40.63514],[-73.73947,40.63571],[-73.73956,40.63586],[-73.74028,40.63718],[-73.74066,40.63783],[-73.74103,40.63848],[-73.74113,40.63866],[-73.74122,40.63883],[-73.74126,40.63891],[-73.74153,40.63923],[-73.74228,40.64012],[-73.74143,40.6405],[-73.74205,40.64147],[-73.74187,40.6418],[-73.74176,40.64202],[-73.74166,40.6422],[-73.74164,40.64244],[-73.74163,40.64259],[-73.74162,40.64272],[-73.74148,40.64525],[-73.74147,40.64556],[-73.74145,40.64594],[-73.74144,40.64609],[-73.74144,40.64634],[-73.74144,40.64689],[-73.73919,40.64812],[-73.73905,40.6482],[-73.7388,40.6483],[-73.73763,40.64875],[-73.73746,40.64882],[-73.73698,40.64901],[-73.73674,40.6491],[-73.73514,40.64973],[-73.73439,40.64982],[-73.73221,40.65009],[-73.73143,40.65017],[-73.73106,40.65023],[-73.73,40.65048],[-73.72974,40.65056],[-73.7295,40.65064],[-73.72899,40.65084],[-73.7287,40.65092],[-73.72853,40.65097],[-73.72702,40.6515],[-73.72687,40.65154],[-73.72682,40.65158],[-73.72667,40.65169],[-73.72652,40.65175],[-73.72643,40.65179],[-73.72619,40.65186],[-73.72595,40.65196],[-73.72568,40.65206],[-73.7255,40.65211],[-73.72525,40.65219],[-73.72505,40.65234],[-73.72498,40.65268],[-73.72482,40.65302],[-73.72487,40.65345],[-73.72479,40.654],[-73.72534,40.65532],[-73.72576,40.657],[-73.72588,40.65754],[-73.72593,40.65773],[-73.72603,40.658],[-73.72621,40.65848],[-73.72644,40.65916],[-73.72681,40.65979],[-73.72721,40.66042],[-73.72759,40.66109],[-73.72793,40.66175],[-73.72815,40.66245],[-73.72833,40.66304],[-73.72809,40.66307],[-73.72781,40.66322],[-73.72776,40.66399],[-73.72781,40.66469],[-73.72782,40.66481],[-73.72784,40.66505],[-73.72795,40.66534],[-73.72803,40.66552],[-73.72822,40.66596],[-73.72827,40.66644],[-73.72826,40.66661],[-73.72822,40.66731],[-73.72826,40.66807],[-73.72818,40.66872],[-73.7281,40.66944],[-73.728,40.67011],[-73.72794,40.67055],[-73.72794,40.67081],[-73.72791,40.67084],[-73.72789,40.67105],[-73.72786,40.67126],[-73.72784,40.67139],[-73.72783,40.67145],[-73.72783,40.67147],[-73.72781,40.67161],[-73.72779,40.67179],[-73.72773,40.67228],[-73.72768,40.67265],[-73.72763,40.67303],[-73.72758,40.67348],[-73.72753,40.67387],[-73.72755,40.67408],[-73.72756,40.6741],[-73.72754,40.67416],[-73.72744,40.67443],[-73.7273,40.67474],[-73.72714,40.6751],[-73.72694,40.67555],[-73.72685,40.67577],[-73.72671,40.67609],[-73.72654,40.67649],[-73.72646,40.67675],[-73.72635,40.67697],[-73.7262,40.67738],[-73.72601,40.67808],[-73.7259,40.67851],[-73.72584,40.67875],[-73.72579,40.67896],[-73.72563,40.67959],[-73.72569,40.68025],[-73.72571,40.68053],[-73.72575,40.68095],[-73.7258,40.68136],[-73.72582,40.68164],[-73.72591,40.68266],[-73.72586,40.68322],[-73.72584,40.68358],[-73.72582,40.68395],[-73.7258,40.68435],[-73.72588,40.68551],[-73.72591,40.68609],[-73.72592,40.6861],[-73.72593,40.68622],[-73.72594,40.6864],[-73.726,40.68693],[-73.72609,40.68777],[-73.72616,40.68847],[-73.72617,40.68865],[-73.7262,40.68898],[-73.72622,40.68931],[-73.72623,40.68966],[-73.72624,40.68982],[-73.72626,40.69027],[-73.72626,40.69061],[-73.72626,40.69077],[-73.7265,40.69689],[-73.72651,40.69752],[-73.72651,40.69778],[-73.72653,40.69826],[-73.72654,40.69898],[-73.72665,40.70111],[-73.72671,40.70145],[-73.72674,40.70159],[-73.72678,40.70199],[-73.72675,40.70208],[-73.72673,40.70215],[-73.72675,40.70247],[-73.72676,40.70277],[-73.72677,40.70287],[-73.72677,40.70295],[-73.72678,40.70308],[-73.72678,40.70314],[-73.72684,40.70441],[-73.72687,40.70524],[-73.7269,40.7058],[-73.72705,40.7095],[-73.7269,40.70998],[-73.7269,40.71],[-73.72697,40.71071],[-73.72709,40.71126],[-73.72709,40.71129],[-73.72716,40.71159],[-73.72732,40.71222],[-73.72733,40.71227],[-73.72736,40.71239],[-73.72751,40.71295],[-73.7277,40.71366],[-73.72806,40.71505],[-73.72819,40.71552],[-73.72831,40.716],[-73.72842,40.71639],[-73.7285,40.71671],[-73.72855,40.7169],[-73.72858,40.71698],[-73.72894,40.71831],[-73.72918,40.71917],[-73.72926,40.71938],[-73.72943,40.71986],[-73.72966,40.72048],[-73.72969,40.72057],[-73.73033,40.72216],[-73.72988,40.72239],[-73.72965,40.72252],[-73.7295,40.72259],[-73.72923,40.72271],[-73.72878,40.72288],[-73.72826,40.72306],[-73.72817,40.72309],[-73.72807,40.72313],[-73.72798,40.72316],[-73.7275,40.72334],[-73.72733,40.72341],[-73.72721,40.72345],[-73.72693,40.72357],[-73.72647,40.72375],[-73.72645,40.72376],[-73.72603,40.72391],[-73.72568,40.72403],[-73.72553,40.72408],[-73.72508,40.7242],[-73.72485,40.72426],[-73.72472,40.7243],[-73.72455,40.72435],[-73.7244,40.72439],[-73.72414,40.72447],[-73.72403,40.7245],[-73.72375,40.72458],[-73.72343,40.72465],[-73.72293,40.72478],[-73.72291,40.72479],[-73.72258,40.72488],[-73.7225,40.7249],[-73.72205,40.72503],[-73.72134,40.72522],[-73.7212,40.72527],[-73.72092,40.72534],[-73.72039,40.72549],[-73.71999,40.7256],[-73.71829,40.72604],[-73.71785,40.72616],[-73.71753,40.72624],[-73.71727,40.7263],[-73.7169,40.72639],[-73.71649,40.72645],[-73.71595,40.72653],[-73.71587,40.72654],[-73.71497,40.72665],[-73.71488,40.72666],[-73.71414,40.72675],[-73.71408,40.72676],[-73.71345,40.72684],[-73.71276,40.72693],[-73.7124,40.72698],[-73.71178,40.72706],[-73.71091,40.72717],[-73.7105,40.72723],[-73.71048,40.72723],[-73.71031,40.72727],[-73.70994,40.72735],[-73.70976,40.72738],[-73.70968,40.7274],[-73.70912,40.72752],[-73.70858,40.72764],[-73.70794,40.72777],[-73.7079,40.72784],[-73.70775,40.72805],[-73.70716,40.72893],[-73.70669,40.72967],[-73.70654,40.72988],[-73.70586,40.73092],[-73.7053,40.73176],[-73.70518,40.73193],[-73.70467,40.73271],[-73.70456,40.7329],[-73.70402,40.73373],[-73.70373,40.73416],[-73.70351,40.73449],[-73.70346,40.73457],[-73.70337,40.73471],[-73.70312,40.73509],[-73.70303,40.73523],[-73.70274,40.73566],[-73.7027,40.73572],[-73.70233,40.73627],[-73.70223,40.73642],[-73.7022,40.73646],[-73.7021,40.73662],[-73.70207,40.73667],[-73.70183,40.73702],[-73.70159,40.7374],[-73.70149,40.73756],[-73.70127,40.7379],[-73.70103,40.73826],[-73.70095,40.73839],[-73.70085,40.73853],[-73.70071,40.73871],[-73.70064,40.73883],[-73.70053,40.73899],[-73.70051,40.73906],[-73.70038,40.73919],[-73.70017,40.73954],[-73.70036,40.74103],[-73.70058,40.74318],[-73.70077,40.74501],[-73.70079,40.74508],[-73.70099,40.74688],[-73.701,40.74709],[-73.70121,40.74886],[-73.70124,40.74901],[-73.70142,40.75066],[-73.70142,40.75075],[-73.70142,40.7508],[-73.70147,40.75133],[-73.70154,40.75192],[-73.70163,40.75249],[-73.70218,40.75289],[-73.70274,40.75325],[-73.70297,40.75338],[-73.7032,40.75351],[-73.70334,40.7536],[-73.70347,40.75368],[-73.70527,40.75477],[-73.70619,40.7553],[-73.70701,40.75576],[-73.70783,40.75622],[-73.70813,40.75641],[-73.70937,40.75723],[-73.7095,40.75731],[-73.71011,40.75771],[-73.71061,40.75803],[-73.71086,40.7582],[-73.71134,40.75851],[-73.71155,40.75865],[-73.71203,40.75897],[-73.71211,40.75902],[-73.71245,40.75924],[-73.7126,40.75933],[-73.71276,40.75942],[-73.7129,40.75949],[-73.71333,40.75973],[-73.7135,40.75983],[-73.71363,40.75992],[-73.71366,40.75994],[-73.71413,40.76025],[-73.71607,40.76146],[-73.71608,40.76145],[-73.7166,40.76177],[-73.71917,40.76333],[-73.71953,40.76356],[-73.72014,40.76393],[-73.72051,40.76415],[-73.72058,40.7642],[-73.721,40.76445],[-73.72106,40.7645],[-73.72123,40.76461],[-73.72151,40.76477],[-73.72162,40.76484],[-73.72215,40.76518],[-73.72293,40.76566],[-73.72351,40.76602],[-73.72382,40.76621],[-73.72383,40.76622],[-73.7251,40.76699],[-73.72577,40.76739],[-73.7259,40.76746],[-73.72605,40.76753],[-73.72633,40.7677],[-73.72676,40.76798],[-73.72691,40.76808],[-73.72705,40.76817],[-73.72745,40.76843],[-73.72776,40.76863],[-73.72799,40.76878],[-73.72882,40.76928],[-73.72896,40.76937],[-73.72912,40.76947],[-73.72922,40.76953],[-73.72952,40.76973],[-73.72974,40.76987],[-73.73029,40.7702],[-73.73047,40.77031],[-73.73051,40.77034],[-73.73083,40.77054],[-73.73117,40.77075],[-73.73127,40.77082],[-73.73174,40.7711],[-73.73193,40.77122],[-73.73207,40.7713],[-73.73212,40.77132],[-73.73304,40.77188],[-73.73309,40.77192],[-73.73396,40.77245],[-73.73418,40.77258],[-73.73467,40.77288],[-73.73522,40.77322],[-73.73553,40.7734],[-73.73577,40.77355],[-73.73629,40.77387],[-73.73635,40.77391],[-73.73681,40.7742],[-73.73693,40.77427],[-73.73702,40.77435],[-73.73762,40.77474],[-73.73768,40.77476],[-73.73773,40.77479],[-73.73781,40.77482],[-73.73809,40.77499],[-73.73846,40.77522],[-73.73876,40.7754],[-73.73904,40.77557],[-73.73918,40.77567],[-73.73931,40.77574],[-73.73943,40.77582],[-73.73954,40.77581],[-73.73949,40.77585],[-73.73942,40.7759],[-73.73933,40.77596],[-73.73938,40.77601],[-73.7396,40.77608],[-73.74008,40.77621],[-73.74037,40.77639],[-73.74076,40.77669],[-73.74153,40.77711],[-73.74342,40.77822],[-73.74411,40.77864],[-73.74421,40.7787],[-73.74544,40.7795],[-73.74637,40.78012],[-73.7468,40.78038],[-73.74707,40.78055],[-73.74933,40.78191],[-73.74966,40.78211],[-73.7503,40.78248],[-73.75034,40.78251],[-73.75046,40.78261],[-73.75082,40.78289],[-73.75619,40.7887],[-73.7571,40.78969],[-73.76371,40.7938],[-73.76623,40.79676],[-73.7709,40.80225],[-73.77487,40.80691],[-73.77896,40.81171],[-73.78019,40.8264],[-73.77498,40.83088],[-73.77452,40.83127],[-73.77343,40.83221],[-73.7665,40.83818],[-73.76217,40.84191],[-73.76164,40.84237],[-73.75797,40.84554],[-73.7578,40.84568],[-73.75379,40.85641],[-73.75373,40.85656],[-73.74806,40.87172],[-73.74948,40.8721],[-73.76099,40.87518],[-73.7812,40.88048],[-73.78227,40.88073],[-73.78284,40.88087],[-73.78341,40.88101],[-73.78352,40.88103],[-73.78355,40.88104],[-73.7837,40.88108],[-73.7858,40.8816],[-73.79199,40.88317],[-73.79302,40.88336],[-73.79328,40.88342],[-73.79411,40.88363],[-73.79484,40.88382],[-73.79496,40.88385],[-73.79625,40.88419],[-73.79735,40.88447],[-73.79928,40.88496],[-73.80193,40.88565],[-73.80302,40.88593],[-73.8044,40.88628],[-73.805,40.88643],[-73.80537,40.88653],[-73.8064,40.88679],[-73.80758,40.8871],[-73.80876,40.8874],[-73.80965,40.88764],[-73.80992,40.88768],[-73.80994,40.88769],[-73.81041,40.88783],[-73.811,40.88798],[-73.81128,40.88805],[-73.81232,40.88832],[-73.81244,40.88835],[-73.81367,40.88866],[-73.81418,40.8888],[-73.81505,40.88895],[-73.81516,40.889],[-73.81533,40.88907],[-73.8156,40.88918],[-73.8161,40.88928],[-73.81621,40.88932],[-73.81648,40.88939],[-73.81662,40.88942],[-73.81675,40.88945],[-73.8176,40.88968],[-73.81761,40.88968],[-73.8185,40.88988],[-73.81873,40.88994],[-73.81893,40.88999],[-73.81942,40.89013],[-73.8195,40.89015],[-73.81956,40.89016],[-73.81972,40.89021],[-73.82099,40.89054],[-73.8217,40.89073],[-73.82296,40.89106],[-73.823,40.89108],[-73.82324,40.8912],[-73.82328,40.89108],[-73.8233,40.89099],[-73.82326,40.89096],[-73.8232,40.89092],[-73.82313,40.89087],[-73.82311,40.89078],[-73.82312,40.89065],[-73.82317,40.89054],[-73.82324,40.89047],[-73.82322,40.89036],[-73.82328,40.89022],[-73.8233,40.89006],[-73.8231,40.88989],[-73.8229,40.88993],[-73.82267,40.88996],[-73.82251,40.88988],[-73.82236,40.88964],[-73.82238,40.88948],[-73.82357,40.88982],[-73.82364,40.88985],[-73.82378,40.88981],[-73.82396,40.88976],[-73.82402,40.88975],[-73.82404,40.88982],[-73.82405,40.88987],[-73.82401,40.88998],[-73.82402,40.88998],[-73.8244,40.88998],[-73.825,40.89018],[-73.82524,40.89024],[-73.82526,40.89025],[-73.82722,40.89079],[-73.82727,40.8908],[-73.82794,40.89093],[-73.82812,40.89105],[-73.82872,40.89127],[-73.83002,40.89169],[-73.83009,40.8917],[-73.83082,40.89188],[-73.83097,40.89193],[-73.8317,40.89218],[-73.83186,40.89222],[-73.8325,40.89238],[-73.8327,40.89244],[-73.83272,40.89244],[-73.83359,40.89271],[-73.83517,40.89317],[-73.8356,40.89332],[-73.83628,40.89353],[-73.83734,40.89381],[-73.83737,40.89382],[-73.83841,40.89406],[-73.83899,40.8956],[-73.83941,40.89669],[-73.83962,40.89714],[-73.83966,40.89725],[-73.83968,40.89732],[-73.8397,40.89738],[-73.83972,40.89751],[-73.83972,40.89763],[-73.83972,40.89769],[-73.83965,40.89789],[-73.83951,40.89818],[-73.83939,40.89841],[-73.83926,40.89871],[-73.83924,40.89874],[-73.83921,40.89882],[-73.83915,40.89906],[-73.83915,40.8992],[-73.83915,40.89923],[-73.83919,40.89936],[-73.83922,40.89948],[-73.83929,40.89959],[-73.83936,40.89971],[-73.84004,40.90057],[-73.84005,40.90058],[-73.84008,40.90063],[-73.84016,40.90073],[-73.84017,40.90075],[-73.84018,40.90076],[-73.84019,40.90078],[-73.84021,40.9008],[-73.84044,40.90112],[-73.84056,40.90128],[-73.84065,40.90141],[-73.84073,40.90157],[-73.84079,40.90169],[-73.84083,40.90182],[-73.84087,40.90198],[-73.84096,40.90252],[-73.841,40.90281],[-73.84102,40.90298],[-73.84105,40.90316],[-73.84106,40.90321],[-73.84114,40.90349],[-73.84128,40.90389],[-73.84129,40.90391],[-73.84132,40.90399],[-73.84139,40.90417],[-73.84237,40.90417],[-73.8434,40.90417],[-73.84442,40.90417],[-73.84491,40.90419],[-73.84495,40.90471],[-73.8449,40.90508],[-73.84495,40.90556],[-73.84539,40.90565],[-73.84585,40.90576],[-73.84624,40.90589],[-73.84681,40.90605],[-73.84709,40.90614],[-73.84743,40.90624],[-73.84787,40.90644],[-73.84865,40.90678],[-73.84881,40.90686],[-73.85008,40.90747],[-73.85014,40.9075],[-73.85033,40.90728],[-73.85045,40.90718],[-73.85066,40.90693],[-73.85099,40.90654],[-73.85147,40.9067],[-73.85248,40.90707],[-73.85269,40.90714],[-73.85353,40.90747],[-73.85307,40.90802],[-73.85271,40.90845],[-73.85237,40.90888],[-73.85208,40.90889],[-73.85205,40.90896],[-73.85187,40.90916],[-73.85181,40.90923],[-73.85163,40.90943],[-73.85148,40.90959],[-73.85112,40.91001],[-73.85138,40.91004],[-73.85218,40.90951],[-73.85268,40.9099],[-73.8529,40.90992],[-73.85294,40.90992],[-73.85371,40.90945],[-73.854,40.90928],[-73.85404,40.90923],[-73.85423,40.90901],[-73.85434,40.90897],[-73.85488,40.90822],[-73.8548,40.90817],[-73.85477,40.90816],[-73.85449,40.90801],[-73.8543,40.90809],[-73.8542,40.90807],[-73.85398,40.90801],[-73.85382,40.90777],[-73.8538,40.90768],[-73.8538,40.90718],[-73.85401,40.90684],[-73.8541,40.90668],[-73.85413,40.90667],[-73.8547,40.90658],[-73.8551,40.90638],[-73.85532,40.90626],[-73.85553,40.90614],[-73.85557,40.90612],[-73.85569,40.90606],[-73.85574,40.90606],[-73.856,40.90606],[-73.85607,40.90606],[-73.85611,40.90606],[-73.85615,40.90608],[-73.85623,40.90612],[-73.85632,40.90617],[-73.85633,40.90597],[-73.85633,40.9058],[-73.85628,40.90573],[-73.8562,40.90548],[-73.85612,40.90545],[-73.856,40.90541],[-73.85596,40.90539],[-73.85594,40.90526],[-73.85618,40.90511],[-73.8562,40.90509],[-73.85639,40.90505],[-73.85643,40.90503],[-73.8567,40.90491],[-73.85696,40.90495],[-73.8571,40.90498],[-73.85714,40.90498],[-73.85732,40.90502],[-73.85745,40.90484],[-73.85759,40.90467],[-73.85745,40.9046],[-73.8574,40.90458],[-73.85723,40.90449],[-73.85708,40.90442],[-73.857,40.90438],[-73.857,40.90417],[-73.857,40.90404],[-73.857,40.90386],[-73.857,40.90382],[-73.857,40.90374],[-73.857,40.90358],[-73.8572,40.90288],[-73.85771,40.90257],[-73.8578,40.90254],[-73.85783,40.90253],[-73.85792,40.90249],[-73.85804,40.90244],[-73.8582,40.90238],[-73.85822,40.90234],[-73.8583,40.90208],[-73.85847,40.90216],[-73.85901,40.90243],[-73.8591,40.90247],[-73.85911,40.90247],[-73.8596,40.90218],[-73.85939,40.90189],[-73.8593,40.90178],[-73.85902,40.90149],[-73.859,40.90148],[-73.85904,40.90147],[-73.8594,40.90138],[-73.85931,40.90114],[-73.85922,40.90091],[-73.8592,40.90088],[-73.8593,40.90049],[-73.85931,40.90048],[-73.85939,40.90038],[-73.85963,40.90046],[-73.86001,40.90057],[-73.8601,40.90058],[-73.86026,40.90062],[-73.86032,40.90064],[-73.86078,40.90079],[-73.86096,40.90085],[-73.86159,40.90105],[-73.86204,40.9012],[-73.8624,40.90134],[-73.86256,40.90143],[-73.86264,40.90147],[-73.86286,40.90153],[-73.86288,40.90154],[-73.86467,40.90179],[-73.86526,40.90195],[-73.86527,40.90196],[-73.86563,40.90209],[-73.86695,40.90247],[-73.86788,40.90298],[-73.86905,40.90333],[-73.87073,40.90383],[-73.87094,40.90389],[-73.87273,40.90441],[-73.87291,40.90447],[-73.87395,40.90477],[-73.87409,40.90481],[-73.87462,40.90496],[-73.8748,40.90501],[-73.87556,40.90523],[-73.8756,40.90524],[-73.87623,40.90543],[-73.87645,40.9055],[-73.87659,40.90554],[-73.87763,40.90585],[-73.87774,40.90589],[-73.87786,40.90592],[-73.87801,40.90596],[-73.87819,40.90598],[-73.87822,40.90598],[-73.87835,40.90598],[-73.87883,40.90619],[-73.87924,40.90636],[-73.87953,40.90644],[-73.88011,40.90659],[-73.88064,40.90674],[-73.88093,40.90683],[-73.88144,40.907],[-73.88183,40.90713],[-73.88283,40.90738],[-73.88299,40.90742],[-73.88405,40.9075],[-73.88411,40.9075],[-73.88413,40.9075],[-73.88425,40.90751],[-73.88473,40.90768],[-73.88483,40.90772],[-73.8854,40.90798],[-73.88601,40.90798],[-73.88612,40.90802],[-73.88617,40.90803],[-73.88624,40.90805],[-73.88798,40.90859],[-73.88839,40.90872],[-73.89181,40.90978],[-73.89193,40.90981],[-73.89221,40.90988],[-73.8928,40.91006],[-73.89654,40.91129],[-73.89663,40.91132],[-73.89725,40.91165],[-73.89736,40.91167],[-73.89742,40.91169],[-73.89812,40.9118],[-73.89868,40.91187],[-73.89951,40.91198],[-73.89979,40.91207],[-73.89997,40.91213],[-73.9007,40.91238],[-73.90211,40.91288],[-73.90245,40.91298],[-73.90381,40.91335],[-73.90419,40.91346],[-73.90591,40.91394],[-73.90595,40.91395],[-73.9083,40.91461],[-73.90833,40.91462],[-73.90881,40.91475],[-73.90884,40.91475],[-73.90947,40.91492],[-73.9095,40.91493],[-73.91001,40.91508],[-73.91028,40.91519],[-73.91052,40.91528],[-73.91081,40.91537],[-73.91832,40.91771],[-73.91835,40.91763],[-73.91921,40.91545],[-73.91943,40.91489],[-73.91993,40.91362],[-73.91995,40.91359],[-73.92097,40.91101],[-73.92124,40.91032],[-73.92247,40.90724],[-73.92331,40.90506],[-73.92384,40.90367],[-73.92424,40.90274],[-73.92495,40.90102],[-73.92567,40.89915],[-73.92592,40.89848],[-73.92655,40.89688],[-73.92712,40.8955],[-73.92724,40.8952],[-73.92829,40.89256],[-73.92919,40.89031],[-73.92943,40.88969],[-73.92945,40.88962],[-73.92982,40.88868],[-73.93173,40.88558],[-73.93257,40.88421],[-73.93365,40.88246],[-73.93381,40.88221],[-73.93379,40.88221],[-73.93391,40.88201],[-73.93812,40.87513],[-73.93818,40.87504],[-73.93835,40.87475],[-73.93891,40.87384],[-73.93895,40.87378],[-73.94295,40.86724],[-73.94304,40.86709],[-73.94578,40.86262],[-73.94584,40.86252],[-73.94589,40.86245],[-73.94829,40.85852],[-73.94834,40.85845],[-73.94882,40.85765],[-73.9524,40.85181],[-73.95249,40.85167],[-73.95257,40.85154],[-73.95283,40.85111],[-73.95399,40.84847],[-73.95419,40.848],[-73.95431,40.84773],[-73.95566,40.84466],[-73.95573,40.84451],[-73.9578,40.8398],[-73.95783,40.83972],[-73.95802,40.83929],[-73.9587,40.83773],[-73.95882,40.83746],[-73.96009,40.83459],[-73.96014,40.83447],[-73.96121,40.83203],[-73.96126,40.83191],[-73.96133,40.83176],[-73.96165,40.83104],[-73.96168,40.83096],[-73.96246,40.82918],[-73.96259,40.8289],[-73.96265,40.82874],[-73.96358,40.82664],[-73.96379,40.82635],[-73.96381,40.82632],[-73.96502,40.82467],[-73.96514,40.8245],[-73.96517,40.82446],[-73.96559,40.82388],[-73.96572,40.82371],[-73.9659,40.82346],[-73.96598,40.82335],[-73.96647,40.82268],[-73.96656,40.82255],[-73.9678,40.82085],[-73.96787,40.82077],[-73.96789,40.82073],[-73.97069,40.8169],[-73.97112,40.81631],[-73.97115,40.81627],[-73.97162,40.81563],[-73.97349,40.81307],[-73.97509,40.81088],[-73.97717,40.80803],[-73.97886,40.80571],[-73.97909,40.80539],[-73.98063,40.80328],[-73.98252,40.80071],[-73.98265,40.80052],[-73.98436,40.79818],[-73.98474,40.79766],[-73.9849,40.79744],[-73.98626,40.79559],[-73.98628,40.79556],[-73.98815,40.79299],[-73.99001,40.79044],[-73.99137,40.78858],[-73.99169,40.78814],[-73.993,40.78635],[-73.99394,40.78506],[-73.99484,40.78382],[-73.99577,40.78256],[-73.99587,40.78242],[-73.99741,40.78031],[-73.99781,40.77977],[-73.99864,40.77862],[-73.99964,40.77726],[-74.00045,40.77615],[-74.00091,40.77551],[-74.00162,40.77455],[-74.0023,40.77361],[-74.00295,40.77272],[-74.00342,40.77208],[-74.00409,40.77117],[-74.00465,40.77039],[-74.00537,40.76941],[-74.00617,40.76831],[-74.00658,40.76775],[-74.0086,40.76498],[-74.00953,40.76372],[-74.00988,40.76323],[-74.01005,40.76301],[-74.01014,40.76288],[-74.01024,40.76275],[-74.0111,40.76156],[-74.01201,40.76032],[-74.01295,40.75903],[-74.01403,40.75755],[-74.01425,40.75666],[-74.01501,40.75351],[-74.0155,40.75148],[-74.01601,40.7494],[-74.01661,40.74696],[-74.01728,40.74418],[-74.01734,40.74393],[-74.0174,40.74371],[-74.01789,40.7417],[-74.01814,40.74067],[-74.0184,40.73959],[-74.01918,40.73637],[-74.01932,40.73581],[-74.01943,40.73537],[-74.01961,40.73463],[-74.02006,40.73276],[-74.02039,40.73143],[-74.02064,40.73039],[-74.02097,40.72904],[-74.021,40.72891],[-74.02102,40.72883],[-74.02131,40.72762],[-74.02133,40.72754],[-74.02135,40.72746],[-74.02183,40.72549],[-74.02186,40.72536],[-74.02189,40.72525],[-74.022,40.72478],[-74.02229,40.72361],[-74.0227,40.72192],[-74.02302,40.72061],[-74.02307,40.72041],[-74.02364,40.71807],[-74.02398,40.71584],[-74.02413,40.71484],[-74.02427,40.71394],[-74.0244,40.71311],[-74.02468,40.71127],[-74.02495,40.70947],[-74.02513,40.70834],[-74.02529,40.70726],[-74.02568,40.70476],[-74.02615,40.70165],[-74.02639,40.7001],[-74.03355,40.68826],[-74.03544,40.68512],[-74.03579,40.68455],[-74.03746,40.68178],[-74.04277,40.673],[-74.04345,40.67187],[-74.04352,40.67175],[-74.04585,40.66789],[-74.04597,40.66769],[-74.04733,40.66544],[-74.04769,40.66485],[-74.04796,40.66441],[-74.04825,40.66392],[-74.04898,40.66272],[-74.04963,40.66163],[-74.04999,40.66104],[-74.05066,40.65992],[-74.05074,40.65981],[-74.05129,40.65889],[-74.05172,40.65817],[-74.05305,40.65598],[-74.05323,40.65566],[-74.05348,40.6552],[-74.0542,40.65407],[-74.05442,40.6537],[-74.05452,40.65354],[-74.0546,40.6534],[-74.05535,40.65214],[-74.05575,40.65148],[-74.05577,40.65148],[-74.06978,40.65149],[-74.07166,40.6515],[-74.07256,40.65149],[-74.08699,40.65151],[-74.09062,40.64957],[-74.09113,40.6493],[-74.09344,40.64806],[-74.09419,40.64806],[-74.10024,40.64806],[-74.10393,40.64806],[-74.10504,40.64806],[-74.10614,40.64806],[-74.10985,40.64806],[-74.11929,40.64461],[-74.12096,40.644],[-74.12164,40.64375],[-74.12344,40.64309],[-74.12546,40.64236],[-74.12602,40.64215],[-74.12808,40.64261],[-74.13022,40.64309],[-74.13182,40.64344],[-74.13292,40.64368],[-74.13427,40.64346],[-74.13584,40.6432],[-74.1362,40.64314],[-74.13654,40.64308],[-74.1418,40.64221],[-74.142,40.64217],[-74.14224,40.64214],[-74.14311,40.64199],[-74.1491,40.6427],[-74.15794,40.64374],[-74.15811,40.64376],[-74.1599,40.64397],[-74.16121,40.64412],[-74.16133,40.64414],[-74.16143,40.64415],[-74.16154,40.64416],[-74.16212,40.64423],[-74.17062,40.64523],[-74.17737,40.64602],[-74.1776,40.64605],[-74.18165,40.64653],[-74.18564,40.64604],[-74.18569,40.64601],[-74.18699,40.64511],[-74.18776,40.64457],[-74.18922,40.64356],[-74.19143,40.64202],[-74.19524,40.6386],[-74.1962,40.63773],[-74.19625,40.63769],[-74.19739,40.63596],[-74.19742,40.63592],[-74.19745,40.63587],[-74.19816,40.63479],[-74.20018,40.63327],[-74.20067,40.6329],[-74.2024,40.63159],[-74.20233,40.62991],[-74.20228,40.62878],[-74.20271,40.62764],[-74.20346,40.62562],[-74.20362,40.6252],[-74.20393,40.62437],[-74.20255,40.61738],[-74.20242,40.61677],[-74.20257,40.61652],[-74.20389,40.61428],[-74.20483,40.60606],[-74.20368,40.60482],[-74.20237,40.60339],[-74.19959,40.60038],[-74.19959,40.59785],[-74.2003,40.59692],[-74.20246,40.59412],[-74.20329,40.59304],[-74.2036,40.59264],[-74.20424,40.59181],[-74.20488,40.59099],[-74.20724,40.58791],[-74.20738,40.58722],[-74.20892,40.57969],[-74.20909,40.57885],[-74.20954,40.57667],[-74.21014,40.57372],[-74.21067,40.57217],[-74.21188,40.56854],[-74.21203,40.56811],[-74.21457,40.56053],[-74.2165,40.55859],[-74.218,40.55706],[-74.22741,40.55855],[-74.22831,40.55869],[-74.23142,40.55918],[-74.23213,40.55874],[-74.23913,40.55447],[-74.23964,40.55417],[-74.24748,40.54938],[-74.24753,40.54927],[-74.24898,40.54559],[-74.24919,40.54506],[-74.25028,40.5423],[-74.24994,40.54056],[-74.24973,40.53955],[-74.24746,40.52817],[-74.24683,40.52503],[-74.24678,40.52477],[-74.24608,40.52127],[-74.24603,40.521],[-74.24602,40.52096],[-74.25302,40.51637],[-74.25405,40.51569],[-74.25409,40.51566],[-74.25476,40.51452],[-74.25571,40.51288],[-74.25629,40.51189],[-74.25698,40.51069],[-74.25723,40.51026],[-74.25813,40.50872],[-74.25817,40.50816],[-74.25819,40.50792],[-74.25829,40.50649],[-74.25831,40.50618],[-74.25839,40.50508],[-74.25856,40.50278],[-74.25858,40.50255],[-74.2586,40.50228],[-74.2587,40.50079],[-74.25875,40.5001]]],[[[-74.04075,40.70017],[-74.04074,40.70013],[-74.04072,40.7001],[-74.0407,40.70007],[-74.04069,40.70005],[-74.04069,40.70001],[-74.04068,40.69998],[-74.04067,40.69996],[-74.04067,40.69993],[-74.04066,40.69991],[-74.04064,40.69988],[-74.04062,40.69986],[-74.04061,40.69983],[-74.04062,40.6998],[-74.04061,40.69977],[-74.0406,40.69974],[-74.04058,40.69971],[-74.04055,40.69968],[-74.04053,40.69966],[-74.04051,40.69963],[-74.04048,40.69959],[-74.04047,40.69956],[-74.04047,40.69953],[-74.04047,40.69949],[-74.04045,40.69947],[-74.04044,40.69944],[-74.04043,40.69941],[-74.0404,40.69939],[-74.04035,40.69937],[-74.04032,40.69937],[-74.04028,40.69935],[-74.04024,40.69933],[-74.04021,40.69932],[-74.04019,40.69928],[-74.04019,40.69925],[-74.04019,40.69922],[-74.04016,40.6992],[-74.04007,40.69917],[-74.03998,40.69912],[-74.03995,40.6991],[-74.0399,40.69907],[-74.03986,40.69904],[-74.03985,40.69903],[-74.03982,40.69901],[-74.0398,40.69898],[-74.0398,40.69894],[-74.03982,40.69891],[-74.03987,40.69889],[-74.03991,40.69888],[-74.03995,40.69888],[-74.03999,40.69889],[-74.04003,40.6989],[-74.04004,40.6989],[-74.04006,40.69891],[-74.0401,40.69893],[-74.04015,40.6989],[-74.04021,40.69885],[-74.04023,40.69883],[-74.04008,40.69871],[-74.03993,40.69859],[-74.03967,40.69877],[-74.03965,40.6988],[-74.03963,40.69879],[-74.03958,40.69879],[-74.03954,40.69879],[-74.03951,40.69878],[-74.03949,40.69878],[-74.03947,40.69875],[-74.03944,40.69874],[-74.03941,40.69874],[-74.03938,40.69873],[-74.03937,40.69871],[-74.03934,40.69868],[-74.03932,40.69867],[-74.03929,40.69863],[-74.03924,40.69861],[-74.0392,40.6986],[-74.03917,40.69859],[-74.03912,40.69859],[-74.03906,40.6986],[-74.03901,40.69859],[-74.03896,40.69859],[-74.03893,40.69861],[-74.03888,40.69861],[-74.03883,40.69862],[-74.03878,40.69864],[-74.03874,40.69864],[-74.03871,40.69865],[-74.03868,40.69866],[-74.03865,40.69866],[-74.03863,40.69867],[-74.03862,40.69867],[-74.0386,40.69868],[-74.03862,40.6987],[-74.03861,40.69872],[-74.03857,40.69873],[-74.03853,40.69871],[-74.03851,40.6987],[-74.03845,40.69868],[-74.03842,40.69867],[-74.03839,40.69867],[-74.03837,40.69867],[-74.03837,40.69869],[-74.03838,40.69871],[-74.0384,40.69873],[-74.03843,40.69879],[-74.03845,40.69883],[-74.03847,40.69887],[-74.03846,40.69892],[-74.03846,40.69898],[-74.03847,40.69902],[-74.0385,40.69907],[-74.03849,40.69911],[-74.03851,40.69915],[-74.03853,40.69917],[-74.03856,40.69919],[-74.0386,40.69921],[-74.03863,40.69924],[-74.03866,40.69926],[-74.0387,40.69928],[-74.03872,40.6993],[-74.03874,40.69933],[-74.03876,40.69937],[-74.03877,40.6994],[-74.03878,40.69941],[-74.0388,40.69944],[-74.0388,40.69949],[-74.03881,40.69953],[-74.03884,40.69956],[-74.03888,40.6996],[-74.03889,40.69963],[-74.03894,40.69966],[-74.03899,40.69966],[-74.03902,40.69966],[-74.03907,40.69967],[-74.03912,40.69967],[-74.03916,40.69968],[-74.03925,40.69969],[-74.03929,40.69971],[-74.03933,40.69973],[-74.03938,40.69975],[-74.03943,40.69976],[-74.03948,40.69978],[-74.03951,40.69982],[-74.03955,40.69984],[-74.03959,40.69985],[-74.03962,40.69986],[-74.03966,40.69987],[-74.03969,40.6999],[-74.03971,40.69993],[-74.03975,40.69995],[-74.03978,40.69995],[-74.03982,40.69996],[-74.03986,40.69997],[-74.0399,40.69998],[-74.03993,40.69999],[-74.03997,40.70002],[-74.03999,40.70004],[-74.04002,40.70006],[-74.04005,40.70007],[-74.04008,40.70009],[-74.04012,40.7001],[-74.04015,40.7001],[-74.04019,40.70011],[-74.04025,40.70012],[-74.04028,40.70011],[-74.04033,40.7001],[-74.04038,40.70011],[-74.04041,40.70013],[-74.04046,40.70015],[-74.0405,40.70016],[-74.04053,40.70018],[-74.04057,40.70019],[-74.04061,40.7002],[-74.04065,40.70021],[-74.0407,40.70021],[-74.04073,40.70019],[-74.04075,40.70017]]],[[[-74.04721,40.69089],[-74.04721,40.69084],[-74.0472,40.69079],[-74.04719,40.69079],[-74.04715,40.69072],[-74.04705,40.69063],[-74.04703,40.69059],[-74.04703,40.69056],[-74.04704,40.69048],[-74.04715,40.69043],[-74.04718,40.69041],[-74.04692,40.6901],[-74.04691,40.69008],[-74.04648,40.68959],[-74.04625,40.68932],[-74.04537,40.68888],[-74.04507,40.68874],[-74.04479,40.68859],[-74.04472,40.68858],[-74.04445,40.68853],[-74.04435,40.68851],[-74.04413,40.68854],[-74.04396,40.68857],[-74.04394,40.68857],[-74.04362,40.68876],[-74.0435,40.68917],[-74.04346,40.68963],[-74.04386,40.69017],[-74.04389,40.69019],[-74.04457,40.69056],[-74.04503,40.69073],[-74.04543,40.6909],[-74.04597,40.6911],[-74.04598,40.69111],[-74.04611,40.69113],[-74.04614,40.69112],[-74.04616,40.6911],[-74.04618,40.69109],[-74.04631,40.69109],[-74.04649,40.69108],[-74.04654,40.69108],[-74.04697,40.69105],[-74.04704,40.69104],[-74.0471,40.69102],[-74.04715,40.69099],[-74.04719,40.69094],[-74.04719,40.69093],[-74.04721,40.69089]]]]},"properties":{"GEOID":"3651000","BASENAME":"New York","NAME":"New York city","STATE":"36","PLACE":"51000","AREALAND":"778246959","AREAWATER":"445342187","LSADC":"25","FUNCSTAT":"A"}}]}