{"type":"Feature","geometry":{"type":"Point","coordinates":[-74.006,40.713,10.17]},"properties":{"parameter":{"T2M":{"20250401":8.7,"20250402":4.88,"20250403":9.91,"20250404":13.89,"20250405":8.61,"20250406":7.91,"20250407":6.29,"20250408":5.27,"20250409":3.28,"20250410":5.82,"20250411":6.44,"20250412":3.95,"20250413":6.82,"20250414":9.01,"20250415":10.62,"20250416":8.08,"20250417":7.93,"20250418":9.64,"20250419":12.81,"20250420":13.64,"20250421":9.35,"20250422":13.17,"20250423":13.5,"20250424":13.45,"20250425":13.12,"20250426":13.6,"20250427":11.56,"20250428":12.91,"20250429":13.13,"20250430":15.45,"20250501":12.15,"20250502":14.68,"20250503":15.22,"20250504":13.95,"20250505":13.09,"20250506":14.2,"20250507":15.24,"20250508":15.81,"20250509":14.17,"20250510":13.67,"20250511":16.54,"20250512":15.15,"20250513":15.26,"20250514":14.54,"20250515":15.72,"20250516":16.63,"20250517":17.87,"20250518":17.78,"20250519":15.9,"20250520":13.17,"20250521":12.7,"20250522":11.81,"20250523":11.75,"20250524":13.4,"20250525":13.74,"20250526":15.0,"20250527":15.07,"20250528":14.41,"20250529":15.15,"20250530":16.16,"20250531":16.05,"20250601":13.69,"20250602":15.39,"20250603":17.1,"20250604":17.69,"20250605":19.18,"20250606":19.8,"20250607":19.03,"20250608":18.33,"20250609":17.06,"20250610":18.03,"20250611":20.47,"20250612":21.56,"20250613":20.22,"20250614":17.4,"20250615":16.21,"20250616":16.99,"20250617":17.84,"20250618":19.71,"20250619":21.97,"20250620":21.63,"20250621":22.33,"20250622":23.28,"20250623":26.06,"20250624":27.22,"20250625":27.78,"20250626":24.41,"20250627":20.09,"20250628":21.96,"20250629":24.95,"20250630":24.03,"20250701":24.29,"20250702":23.8,"20250703":24.35,"20250704":23.28,"20250705":23.35,"20250706":23.81,"20250707":24.65,"20250708":25.73,"20250709":25.76,"20250710":24.13,"20250711":24.06,"20250712":24.21,"20250713":23.89,"20250714":24.98,"20250715":25.64,"20250716":26.27,"20250717":26.92,"20250718":26.07,"20250719":25.1,"20250720":26.38,"20250721":25.87,"20250722":23.41,"20250723":23.64,"20250724":24.36,"20250725":26.06,"20250726":25.49,"20250727":24.42,"20250728":27.2,"20250729":27.92,"20250730":28.28,"20250731":27.02,"20250801":21.87,"20250802":22.61,"20250803":22.89,"20250804":23.98,"20250805":23.83,"20250806":22.97,"20250807":22.61,"20250808":22.18,"20250809":22.12,"20250810":23.19,"20250811":23.86,"20250812":24.28,"20250813":25.13,"20250814":25.9,"20250815":26.05,"20250816":24.39,"20250817":25.5,"20250818":23.11,"20250819":21.63,"20250820":21.58,"20250821":20.29,"20250822":21.65,"20250823":22.12,"20250824":22.31,"20250825":23.59,"20250826":22.51,"20250827":21.31,"20250828":21.3,"20250829":21.96,"20250830":20.35,"20250831":20.7,"20250901":21.28,"20250902":20.54,"20250903":20.5,"20250904":21.05,"20250905":22.97,"20250906":23.58,"20250907":19.59,"20250908":19.5,"20250909":19.56,"20250910":19.77,"20250911":21.07,"20250912":21.14,"20250913":20.9,"20250914":21.54,"20250915":21.63,"20250916":20.61,"20250917":20.05,"20250918":21.47,"20250919":22.87,"20250920":20.46,"20250921":18.55,"20250922":18.72,"20250923":21.42,"20250924":21.89,"20250925":22.09,"20250926":22.85,"20250927":22.07,"20250928":22.3,"20250929":21.93,"20250930":21.24},"T2M_MAX":{"20250401":10.46,"20250402":7.04,"20250403":15.01,"20250404":14.85,"20250405":11.94,"20250406":9.5,"20250407":9.26,"20250408":6.44,"20250409":7.09,"20250410":8.22,"20250411":8.28,"20250412":5.63,"20250413":10.94,"20250414":12.52,"20250415":14.56,"20250416":10.34,"20250417":12.77,"20250418":12.56,"20250419":17.74,"20250420":16.04,"20250421":11.6,"20250422":18.05,"20250423":17.19,"20250424":16.71,"20250425":15.8,"20250426":16.1,"20250427":15.35,"20250428":18.35,"20250429":16.34,"20250430":17.95,"20250501":14.09,"20250502":19.41,"20250503":17.89,"20250504":15.05,"20250505":14.44,"20250506":16.3,"20250507":17.88,"20250508":18.3,"20250509":15.99,"20250510":18.3,"20250511":22.44,"20250512":17.78,"20250513":16.13,"20250514":15.73,"20250515":17.73,"20250516":18.72,"20250517":21.1,"20250518":19.74,"20250519":18.35,"20250520":17.13,"20250521":14.81,"20250522":12.77,"20250523":15.29,"20250524":15.99,"20250525":16.69,"20250526":19.28,"20250527":17.7,"20250528":15.74,"20250529":18.3,"20250530":18.26,"20250531":18.47,"20250601":16.59,"20250602":18.47,"20250603":21.06,"20250604":20.62,"20250605":22.17,"20250606":21.88,"20250607":20.98,"20250608":19.79,"20250609":18.35,"20250610":21.05,"20250611":23.19,"20250612":25.52,"20250613":23.32,"20250614":18.0,"20250615":17.05,"20250616":18.28,"20250617":19.11,"20250618":22.5,"20250619":24.43,"20250620":24.28,"20250621":25.2,"20250622":26.07,"20250623":28.65,"20250624":31.97,"20250625":31.02,"20250626":28.58,"20250627":21.14,"20250628":25.76,"20250629":27.76,"20250630":25.8,"20250701":26.58,"20250702":25.79,"20250703":27.47,"20250704":25.97,"20250705":26.63,"20250706":26.52,"20250707":26.69,"20250708":28.6,"20250709":28.51,"20250710":25.62,"20250711":25.71,"20250712":25.77,"20250713":25.97,"20250714":26.47,"20250715":27.57,"20250716":28.13,"20250717":29.27,"20250718":28.2,"20250719":26.65,"20250720":29.19,"20250721":28.18,"20250722":25.26,"20250723":25.61,"20250724":26.98,"20250725":29.06,"20250726":26.91,"20250727":26.44,"20250728":30.96,"20250729":31.18,"20250730":31.03,"20250731":28.87,"20250801":24.75,"20250802":25.09,"20250803":25.31,"20250804":27.84,"20250805":25.79,"20250806":24.65,"20250807":24.72,"20250808":24.96,"20250809":24.83,"20250810":26.89,"20250811":27.15,"20250812":27.6,"20250813":27.98,"20250814":29.94,"20250815":28.03,"20250816":26.07,"20250817":28.7,"20250818":25.6,"20250819":23.15,"20250820":23.06,"20250821":23.44,"20250822":26.7,"20250823":25.0,"20250824":24.76,"20250825":26.8,"20250826":24.82,"20250827":24.12,"20250828":23.99,"20250829":24.4,"20250830":23.52,"20250831":23.94,"20250901":24.0,"20250902":23.17,"20250903":22.8,"20250904":23.99,"20250905":25.76,"20250906":26.11,"20250907":22.88,"20250908":22.5,"20250909":22.08,"20250910":22.24,"20250911":25.16,"20250912":24.15,"20250913":23.1,"20250914":24.39,"20250915":24.48,"20250916":22.27,"20250917":21.52,"20250918":25.37,"20250919":27.11,"20250920":23.05,"20250921":19.73,"20250922":21.79,"20250923":25.13,"20250924":23.66,"20250925":23.25,"20250926":25.63,"20250927":24.81,"20250928":25.68,"20250929":24.49,"20250930":24.61},"T2M_MIN":{"20250401":5.33,"20250402":2.45,"20250403":6.06,"20250404":12.78,"20250405":7.4,"20250406":6.76,"20250407":4.62,"20250408":3.48,"20250409":0.08,"20250410":4.01,"20250411":4.87,"20250412":2.66,"20250413":4.2,"20250414":5.59,"20250415":7.95,"20250416":6.02,"20250417":4.06,"20250418":7.15,"20250419":9.23,"20250420":10.9,"20250421":7.36,"20250422":9.22,"20250423":10.31,"20250424":10.77,"20250425":10.92,"20250426":11.88,"20250427":8.06,"20250428":8.93,"20250429":9.71,"20250430":13.27,"20250501":9.45,"20250502":11.1,"20250503":12.9,"20250504":12.89,"20250505":12.48,"20250506":12.33,"20250507":12.78,"20250508":13.87,"20250509":13.06,"20250510":9.94,"20250511":12.26,"20250512":12.43,"20250513":14.68,"20250514":13.49,"20250515":14.07,"20250516":14.43,"20250517":15.26,"20250518":14.45,"20250519":12.64,"20250520":9.17,"20250521":11.56,"20250522":11.02,"20250523":9.51,"20250524":10.03,"20250525":10.38,"20250526":10.82,"20250527":12.36,"20250528":13.34,"20250529":13.35,"20250530":14.7,"20250531":14.66,"20250601":10.2,"20250602":11.97,"20250603":13.23,"20250604":14.85,"20250605":16.18,"20250606":17.58,"20250607":17.23,"20250608":16.83,"20250609":16.04,"20250610":16.13,"20250611":17.2,"20250612":17.88,"20250613":18.36,"20250614":16.89,"20250615":15.32,"20250616":15.97,"20250617":16.81,"20250618":17.7,"20250619":19.95,"20250620":18.64,"20250621":19.13,"20250622":20.93,"20250623":23.87,"20250624":23.64,"20250625":24.28,"20250626":21.61,"20250627":19.14,"20250628":19.16,"20250629":22.37,"20250630":21.57,"20250701":22.8,"20250702":22.35,"20250703":21.3,"20250704":20.01,"20250705":19.37,"20250706":21.01,"20250707":22.97,"20250708":23.54,"20250709":23.39,"20250710":22.69,"20250711":22.67,"20250712":23.03,"20250713":22.12,"20250714":23.67,"20250715":23.84,"20250716":24.37,"20250717":25.14,"20250718":23.85,"20250719":23.13,"20250720":24.17,"20250721":22.78,"20250722":20.99,"20250723":22.0,"20250724":21.56,"20250725":23.57,"20250726":23.95,"20250727":22.05,"20250728":24.01,"20250729":25.06,"20250730":25.53,"20250731":25.36,"20250801":19.54,"20250802":19.85,"20250803":20.38,"20250804":20.85,"20250805":22.31,"20250806":21.63,"20250807":20.51,"20250808":19.43,"20250809":19.19,"20250810":19.93,"20250811":20.36,"20250812":21.6,"20250813":23.0,"20250814":23.56,"20250815":24.19,"20250816":23.14,"20250817":23.26,"20250818":20.77,"20250819":20.53,"20250820":20.61,"20250821":18.47,"20250822":17.06,"20250823":19.05,"20250824":19.98,"20250825":20.99,"20250826":18.78,"20250827":18.14,"20250828":18.43,"20250829":19.5,"20250830":15.9,"20250831":16.85,"20250901":18.99,"20250902":18.04,"20250903":18.31,"20250904":18.48,"20250905":20.53,"20250906":21.64,"20250907":18.25,"20250908":16.0,"20250909":16.68,"20250910":18.04,"20250911":16.56,"20250912":17.33,"20250913":19.06,"20250914":18.76,"20250915":19.45,"20250916":18.95,"20250917":19.1,"20250918":18.59,"20250919":19.66,"20250920":17.65,"20250921":17.1,"20250922":16.54,"20250923":18.82,"20250924":20.33,"20250925":21.32,"20250926":20.3,"20250927":19.24,"20250928":20.23,"20250929":19.44,"20250930":18.63},"PRECTOTCORR":{"20250401":10.61,"20250402":0.0,"20250403":1.12,"20250404":8.25,"20250405":3.33,"20250406":3.7,"20250407":7.88,"20250408":0.89,"20250409":0.0,"20250410":0.26,"20250411":3.9,"20250412":23.25,"20250413":1.88,"20250414":0.0,"20250415":3.71,"20250416":0.01,"20250417":0.0,"20250418":0.05,"20250419":0.06,"20250420":0.0,"20250421":0.02,"20250422":1.21,"20250423":0.0,"20250424":0.0,"20250425":0.02,"20250426":15.2,"20250427":0.36,"20250428":0.0,"20250429":0.09,"20250430":0.05,"20250501":0.0,"20250502":0.74,"20250503":1.52,"20250504":15.1,"20250505":28.82,"20250506":9.97,"20250507":0.23,"20250508":1.06,"20250509":9.29,"20250510":0.06,"20250511":0.0,"20250512":0.02,"20250513":2.1,"20250514":31.58,"20250515":3.57,"20250516":1.24,"20250517":2.4,"20250518":1.18,"20250519":0.15,"20250520":0.0,"20250521":4.18,"20250522":25.86,"20250523":2.21,"20250524":1.58,"20250525":0.06,"20250526":0.03,"20250527":0.02,"20250528":4.74,"20250529":14.09,"20250530":2.64,"20250531":28.84,"20250601":0.05,"20250602":0.09,"20250603":0.0,"20250604":0.08,"20250605":0.02,"20250606":0.14,"20250607":13.67,"20250608":0.54,"20250609":6.19,"20250610":4.13,"20250611":0.08,"20250612":0.04,"20250613":0.12,"20250614":9.82,"20250615":4.85,"20250616":3.83,"20250617":4.01,"20250618":1.86,"20250619":2.06,"20250620":0.51,"20250621":0.05,"20250622":0.5,"20250623":0.8,"20250624":0.05,"20250625":0.07,"20250626":0.97,"20250627":0.39,"20250628":2.21,"20250629":0.18,"20250630":0.94,"20250701":6.89,"20250702":28.38,"20250703":1.97,"20250704":0.96,"20250705":0.01,"20250706":0.04,"20250707":1.4,"20250708":4.41,"20250709":2.2,"20250710":33.56,"20250711":0.26,"20250712":0.3,"20250713":0.34,"20250714":4.78,"20250715":7.41,"20250716":0.57,"20250717":1.77,"20250718":0.03,"20250719":0.96,"20250720":2.87,"20250721":0.95,"20250722":0.23,"20250723":0.08,"20250724":0.06,"20250725":1.04,"20250726":1.04,"20250727":4.14,"20250728":0.25,"20250729":0.13,"20250730":0.5,"20250731":5.37,"20250801":9.93,"20250802":0.04,"20250803":0.04,"20250804":0.01,"20250805":0.07,"20250806":0.15,"20250807":0.17,"20250808":0.0,"20250809":0.12,"20250810":0.15,"20250811":0.08,"20250812":0.15,"20250813":3.49,"20250814":4.72,"20250815":0.09,"20250816":0.67,"20250817":1.92,"20250818":1.82,"20250819":0.01,"20250820":6.19,"20250821":13.2,"20250822":0.0,"20250823":0.01,"20250824":0.01,"20250825":0.05,"20250826":0.0,"20250827":0.03,"20250828":0.01,"20250829":0.39,"20250830":0.02,"20250831":0.0,"20250901":0.0,"20250902":0.0,"20250903":0.01,"20250904":1.98,"20250905":1.87,"20250906":1.73,"20250907":39.36,"20250908":0.01,"20250909":0.0,"20250910":0.67,"20250911":0.0,"20250912":0.0,"20250913":0.05,"20250914":0.11,"20250915":0.02,"20250916":0.01,"20250917":3.93,"20250918":0.36,"20250919":0.0,"20250920":0.0,"20250921":0.0,"20250922":0.0,"20250923":0.3,"20250924":3.11,"20250925":12.77,"20250926":1.11,"20250927":0.05,"20250928":1.34,"20250929":0.0,"20250930":0.0},"WS10M":{"20250401":7.12,"20250402":6.25,"20250403":7.19,"20250404":4.75,"20250405":5.99,"20250406":3.09,"20250407":4.95,"20250408":6.89,"20250409":6.02,"20250410":4.6,"20250411":6.58,"20250412":10.05,"20250413":6.19,"20250414":4.37,"20250415":5.28,"20250416":8.35,"20250417":5.56,"20250418":4.33,"20250419":7.48,"20250420":6.62,"20250421":4.63,"20250422":4.72,"20250423":3.6,"20250424":3.03,"20250425":5.31,"20250426":7.23,"20250427":8.69,"20250428":4.51,"20250429":6.88,"20250430":6.04,"20250501":4.46,"20250502":5.1,"20250503":5.52,"20250504":5.83,"20250505":3.8,"20250506":5.77,"20250507":3.52,"20250508":2.69,"20250509":4.45,"20250510":7.24,"20250511":2.65,"20250512":4.07,"20250513":3.88,"20250514":7.38,"20250515":2.71,"20250516":2.5,"20250517":4.48,"20250518":5.86,"20250519":7.13,"20250520":5.22,"20250521":6.17,"20250522":8.28,"20250523":2.98,"20250524":5.55,"20250525":5.19,"20250526":3.09,"20250527":3.1,"20250528":2.88,"20250529":4.99,"20250530":4.11,"20250531":7.71,"20250601":6.56,"20250602":3.17,"20250603":2.47,"20250604":4.42,"20250605":4.6,"20250606":4.75,"20250607":2.17,"20250608":5.25,"20250609":5.63,"20250610":2.7,"20250611":3.38,"20250612":4.68,"20250613":3.68,"20250614":5.1,"20250615":4.85,"20250616":4.84,"20250617":3.63,"20250618":3.47,"20250619":4.49,"20250620":6.29,"20250621":3.32,"20250622":5.43,"20250623":2.5,"20250624":3.01,"20250625":2.49,"20250626":4.7,"20250627":7.15,"20250628":4.28,"20250629":3.61,"20250630":1.92,"20250701":4.45,"20250702":3.14,"20250703":3.77,"20250704":3.33,"20250705":2.92,"20250706":5.72,"20250707":5.01,"20250708":3.26,"20250709":3.92,"20250710":2.29,"20250711":2.78,"20250712":2.99,"20250713":3.82,"20250714":4.42,"20250715":3.02,"20250716":3.43,"20250717":5.53,"20250718":4.82,"20250719":2.78,"20250720":3.28,"20250721":3.32,"20250722":4.48,"20250723":3.52,"20250724":5.29,"20250725":5.95,"20250726":4.43,"20250727":4.26,"20250728":2.51,"20250729":2.94,"20250730":3.22,"20250731":2.89,"20250801":7.59,"20250802":2.95,"20250803":2.63,"20250804":2.15,"20250805":2.35,"20250806":4.59,"20250807":5.03,"20250808":3.98,"20250809":3.51,"20250810":2.92,"20250811":3.81,"20250812":4.29,"20250813":4.68,"20250814":2.36,"20250815":4.16,"20250816":3.14,"20250817":5.05,"20250818":6.49,"20250819":5.59,"20250820":6.83,"20250821":9.46,"20250822":5.12,"20250823":5.49,"20250824":5.44,"20250825":3.23,"20250826":4.17,"20250827":4.68,"20250828":3.83,"20250829":4.58,"20250830":3.82,"20250831":3.47,"20250901":4.25,"20250902":4.19,"20250903":2.59,"20250904":5.15,"20250905":6.22,"20250906":6.63,"20250907":3.57,"20250908":4.34,"20250909":5.51,"20250910":7.25,"20250911":3.09,"20250912":3.3,"20250913":3.69,"20250914":3.14,"20250915":3.79,"20250916":6.49,"20250917":7.69,"20250918":3.46,"20250919":3.25,"20250920":5.43,"20250921":5.22,"20250922":3.01,"20250923":5.05,"20250924":3.01,"20250925":5.61,"20250926":3.45,"20250927":3.06,"20250928":2.2,"20250929":3.48,"20250930":3.17},"RH2M":{"20250401":76.92,"20250402":70.44,"20250403":94.56,"20250404":83.78,"20250405":86.94,"20250406":92.75,"20250407":88.35,"20250408":73.98,"20250409":59.92,"20250410":78.12,"20250411":85.24,"20250412":91.8,"20250413":83.95,"20250414":81.32,"20250415":83.77,"20250416":70.34,"20250417":70.16,"20250418":76.32,"20250419":87.43,"20250420":70.71,"20250421":78.76,"20250422":86.25,"20250423":73.05,"20250424":81.51,"20250425":84.88,"20250426":95.65,"20250427":70.82,"20250428":68.26,"20250429":80.71,"20250430":74.43,"20250501":76.77,"20250502":88.33,"20250503":92.33,"20250504":94.12,"20250505":96.27,"20250506":95.45,"20250507":82.44,"20250508":83.42,"20250509":94.71,"20250510":77.46,"20250511":70.26,"20250512":80.24,"20250513":93.49,"20250514":95.27,"20250515":94.92,"20250516":92.94,"20250517":90.44,"20250518":77.53,"20250519":73.31,"20250520":71.0,"20250521":84.05,"20250522":87.49,"20250523":83.51,"20250524":80.0,"20250525":80.02,"20250526":77.6,"20250527":85.16,"20250528":86.82,"20250529":91.27,"20250530":93.82,"20250531":87.02,"20250601":73.78,"20250602":77.15,"20250603":74.69,"20250604":88.73,"20250605":87.3,"20250606":89.18,"20250607":91.2,"20250608":89.96,"20250609":91.93,"20250610":93.17,"20250611":82.4,"20250612":81.13,"20250613":78.56,"20250614":92.17,"20250615":87.7,"20250616":90.96,"20250617":94.8,"20250618":93.51,"20250619":90.33,"20250620":80.64,"20250621":81.29,"20250622":84.59,"20250623":81.77,"20250624":74.84,"20250625":73.05,"20250626":81.4,"20250627":76.7,"20250628":85.41,"20250629":80.24,"20250630":82.05,"20250701":90.21,"20250702":87.34,"20250703":80.27,"20250704":75.98,"20250705":73.59,"20250706":80.39,"20250707":90.96,"20250708":87.15,"20250709":84.91,"20250710":89.28,"20250711":88.21,"20250712":89.22,"20250713":87.44,"20250714":90.08,"20250715":86.74,"20250716":87.48,"20250717":87.45,"20250718":68.98,"20250719":73.96,"20250720":82.11,"20250721":71.95,"20250722":70.14,"20250723":65.6,"20250724":73.15,"20250725":78.4,"20250726":74.04,"20250727":80.42,"20250728":78.38,"20250729":77.15,"20250730":73.41,"20250731":83.99,"20250801":81.17,"20250802":67.66,"20250803":69.28,"20250804":63.17,"20250805":81.57,"20250806":79.94,"20250807":71.77,"20250808":63.14,"20250809":60.95,"20250810":68.12,"20250811":72.33,"20250812":79.8,"20250813":86.26,"20250814":82.77,"20250815":73.59,"20250816":80.06,"20250817":80.44,"20250818":73.35,"20250819":63.31,"20250820":79.89,"20250821":83.15,"20250822":64.22,"20250823":70.81,"20250824":80.35,"20250825":81.84,"20250826":58.7,"20250827":60.97,"20250828":57.29,"20250829":69.79,"20250830":57.27,"20250831":60.45,"20250901":65.59,"20250902":73.14,"20250903":71.15,"20250904":78.51,"20250905":81.07,"20250906":86.71,"20250907":85.19,"20250908":63.78,"20250909":64.42,"20250910":80.26,"20250911":71.67,"20250912":70.93,"20250913":77.24,"20250914":78.69,"20250915":79.11,"20250916":74.92,"20250917":81.13,"20250918":79.83,"20250919":71.2,"20250920":64.2,"20250921":65.95,"20250922":74.11,"20250923":83.99,"20250924":88.72,"20250925":95.33,"20250926":83.43,"20250927":77.45,"20250928":77.94,"20250929":74.51,"20250930":70.47}}},"header":{"title":"NASA/POWER Source Native Resolution Daily Data","api":{"version":"v2.9.6","name":"POWER Daily API"},"sources":["MERRA2","POWER"],"fill_value":-999.0,"time_standard":"UTC","start":"20250401","end":"20250930"},"messages":[],"parameters":{"T2M":{"units":"C","longname":"Temperature at 2 Meters"},"T2M_MAX":{"units":"C","longname":"Temperature at 2 Meters Maximum"},"T2M_MIN":{"units":"C","longname":"Temperature at 2 Meters Minimum"},"PRECTOTCORR":{"units":"mm/day","longname":"Precipitation Corrected"},"WS10M":{"units":"m/s","longname":"Wind Speed at 10 Meters"},"RH2M":{"units":"%","longname":"Relative Humidity at 2 Meters"}},"times":{"data":0.851,"process":0.01}}