{"type":"Feature","geometry":{"type":"Point","coordinates":[28.95,41.014,59.56]},"properties":{"parameter":{"T2M":{"20240101":11.72,"20240102":10.41,"20240103":11.68,"20240104":12.29,"20240105":10.52,"20240106":11.39,"20240107":12.81,"20240108":11.23,"20240109":4.95,"20240110":4.3,"20240111":3.89,"20240112":2.69,"20240113":2.1,"20240114":3.99,"20240115":8.4,"20240116":9.38,"20240117":7.69,"20240118":11.27,"20240119":13.12,"20240120":6.62,"20240121":5.78,"20240122":5.0,"20240123":4.77,"20240124":5.22,"20240125":6.62,"20240126":6.19,"20240127":5.74,"20240128":4.52,"20240129":4.68,"20240130":5.27,"20240131":5.79,"20240201":5.79,"20240202":5.1,"20240203":5.78,"20240204":7.89,"20240205":10.05,"20240206":11.12,"20240207":12.03,"20240208":12.5,"20240209":11.35,"20240210":12.39,"20240211":13.22,"20240212":12.24,"20240213":10.17,"20240214":8.27,"20240215":6.37,"20240216":6.8,"20240217":6.74,"20240218":6.59,"20240219":6.47,"20240220":6.18,"20240221":7.07,"20240222":8.12,"20240223":10.12,"20240224":11.92,"20240225":11.79,"20240226":9.8,"20240227":7.88,"20240228":8.53,"20240229":9.28,"20240301":9.27,"20240302":9.49,"20240303":9.29,"20240304":10.13,"20240305":9.65,"20240306":8.01,"20240307":8.15,"20240308":6.92,"20240309":7.08,"20240310":8.32,"20240311":11.68,"20240312":12.28,"20240313":11.64,"20240314":10.11,"20240315":8.11,"20240316":8.67,"20240317":8.8,"20240318":10.28,"20240319":10.8,"20240320":6.67,"20240321":7.68,"20240322":6.4,"20240323":8.05,"20240324":10.64,"20240325":9.84,"20240326":10.07,"20240327":14.2,"20240328":15.35,"20240329":15.65,"20240330":16.88,"20240331":16.66,"20240401":16.56,"20240402":17.56,"20240403":15.63,"20240404":14.5,"20240405":15.44,"20240406":15.59,"20240407":12.96,"20240408":12.61,"20240409":13.13,"20240410":13.0,"20240411":14.29,"20240412":14.81,"20240413":15.25,"20240414":17.13,"20240415":18.11,"20240416":19.06,"20240417":18.85,"20240418":17.39,"20240419":13.53,"20240420":12.3,"20240421":14.22,"20240422":15.65,"20240423":15.72,"20240424":18.87,"20240425":18.18,"20240426":15.88,"20240427":14.31,"20240428":13.79,"20240429":13.89,"20240430":15.35,"20240501":14.22,"20240502":14.87,"20240503":15.4,"20240504":13.59,"20240505":13.9,"20240506":15.03,"20240507":17.38,"20240508":17.7,"20240509":15.23,"20240510":15.02,"20240511":13.53,"20240512":15.32,"20240513":12.79,"20240514":13.66,"20240515":14.42,"20240516":14.77,"20240517":15.93,"20240518":16.9,"20240519":16.06,"20240520":17.07,"20240521":16.95,"20240522":18.33,"20240523":17.55,"20240524":17.07,"20240525":17.93,"20240526":17.54,"20240527":16.76,"20240528":17.45,"20240529":19.73,"20240530":20.81,"20240531":22.65,"20240601":23.64,"20240602":25.21,"20240603":25.94,"20240604":26.72,"20240605":24.95,"20240606":24.19,"20240607":22.87,"20240608":23.1,"20240609":23.82,"20240610":25.53,"20240611":27.58,"20240612":26.63,"20240613":27.84,"20240614":24.67,"20240615":22.19,"20240616":23.9,"20240617":24.73,"20240618":25.14,"20240619":24.63,"20240620":25.17,"20240621":24.83,"20240622":23.37,"20240623":23.78,"20240624":23.68,"20240625":24.28,"20240626":24.05,"20240627":23.72,"20240628":24.04,"20240629":24.25,"20240630":25.12,"20240701":25.12,"20240702":26.52,"20240703":25.9,"20240704":23.94,"20240705":24.3,"20240706":25.1,"20240707":25.69,"20240708":26.4,"20240709":27.89,"20240710":26.56,"20240711":26.09,"20240712":27.06,"20240713":27.44,"20240714":27.07,"20240715":27.51,"20240716":27.89,"20240717":29.07,"20240718":29.23,"20240719":28.63,"20240720":28.54,"20240721":28.67,"20240722":29.39,"20240723":28.21,"20240724":28.16,"20240725":27.14,"20240726":25.6,"20240727":25.74,"20240728":27.16,"20240729":27.95,"20240730":26.45,"20240731":25.93,"20240801":25.5,"20240802":26.19,"20240803":27.45,"20240804":27.78,"20240805":26.51,"20240806":27.56,"20240807":26.02,"20240808":26.07,"20240809":26.82,"20240810":26.9,"20240811":27.39,"20240812":27.49,"20240813":28.33,"20240814":27.95,"20240815":26.95,"20240816":25.87,"20240817":26.01,"20240818":25.64,"20240819":26.25,"20240820":27.29,"20240821":25.2,"20240822":26.85,"20240823":27.0,"20240824":26.56,"20240825":26.23,"20240826":26.8,"20240827":26.82,"20240828":25.26,"20240829":25.96,"20240830":25.35,"20240831":25.49,"20240901":24.99,"20240902":25.14,"20240903":26.46,"20240904":25.52,"20240905":25.48,"20240906":25.59,"20240907":24.57,"20240908":24.34,"20240909":24.75,"20240910":25.23,"20240911":25.22,"20240912":25.4,"20240913":26.4,"20240914":26.49,"20240915":21.9,"20240916":22.56,"20240917":22.24,"20240918":21.99,"20240919":21.52,"20240920":22.64,"20240921":21.38,"20240922":21.42,"20240923":21.56,"20240924":22.23,"20240925":22.63,"20240926":22.46,"20240927":22.78,"20240928":23.14,"20240929":23.09,"20240930":17.98,"20241001":17.78,"20241002":18.91,"20241003":20.58,"20241004":22.52,"20241005":24.52,"20241006":23.18,"20241007":20.33,"20241008":20.26,"20241009":21.36,"20241010":21.99,"20241011":22.95,"20241012":20.32,"20241013":17.64,"20241014":18.35,"20241015":18.17,"20241016":17.43,"20241017":15.05,"20241018":14.45,"20241019":14.02,"20241020":14.54,"20241021":14.05,"20241022":14.73,"20241023":15.17,"20241024":15.64,"20241025":15.36,"20241026":14.69,"20241027":15.27,"20241028":15.32,"20241029":16.26,"20241030":15.06,"20241031":14.99,"20241101":15.23,"20241102":15.08,"20241103":13.47,"20241104":12.28,"20241105":12.26,"20241106":11.96,"20241107":13.11,"20241108":13.37,"20241109":12.87,"20241110":11.67,"20241111":13.46,"20241112":14.33,"20241113":13.34,"20241114":13.33,"20241115":12.57,"20241116":10.88,"20241117":11.39,"20241118":11.06,"20241119":11.02,"20241120":13.76,"20241121":13.09,"20241122":13.97,"20241123":9.34,"20241124":6.48,"20241125":6.79,"20241126":8.22,"20241127":9.48,"20241128":10.38,"20241129":10.99,"20241130":10.71,"20241201":10.9,"20241202":10.89,"20241203":10.57,"20241204":9.98,"20241205":9.68,"20241206":10.31,"20241207":12.42,"20241208":12.77,"20241209":14.78,"20241210":14.3,"20241211":9.67,"20241212":7.82,"20241213":6.78,"20241214":5.97,"20241215":8.96,"20241216":6.83,"20241217":8.52,"20241218":9.96,"20241219":9.88,"20241220":11.47,"20241221":11.61,"20241222":6.54,"20241223":9.27,"20241224":10.72,"20241225":11.6,"20241226":10.56,"20241227":6.61,"20241228":7.57,"20241229":7.64,"20241230":6.53,"20241231":7.57},"T2M_MAX":{"20240101":14.39,"20240102":12.57,"20240103":14.53,"20240104":15.19,"20240105":14.18,"20240106":14.52,"20240107":15.33,"20240108":14.54,"20240109":6.23,"20240110":5.19,"20240111":6.27,"20240112":5.31,"20240113":4.07,"20240114":6.19,"20240115":11.11,"20240116":13.34,"20240117":10.46,"20240118":13.11,"20240119":15.19,"20240120":10.96,"20240121":7.53,"20240122":6.81,"20240123":8.11,"20240124":8.11,"20240125":10.95,"20240126":9.82,"20240127":8.15,"20240128":6.07,"20240129":5.78,"20240130":6.61,"20240131":7.52,"20240201":8.28,"20240202":8.17,"20240203":8.74,"20240204":10.44,"20240205":14.66,"20240206":15.54,"20240207":15.79,"20240208":15.96,"20240209":14.65,"20240210":15.3,"20240211":15.95,"20240212":14.32,"20240213":11.94,"20240214":9.5,"20240215":7.15,"20240216":7.78,"20240217":7.95,"20240218":9.02,"20240219":9.52,"20240220":9.61,"20240221":10.57,"20240222":11.48,"20240223":14.62,"20240224":16.39,"20240225":16.1,"20240226":12.99,"20240227":11.17,"20240228":12.88,"20240229":14.16,"20240301":11.88,"20240302":13.86,"20240303":12.16,"20240304":13.74,"20240305":12.11,"20240306":10.45,"20240307":11.27,"20240308":8.59,"20240309":8.65,"20240310":10.97,"20240311":16.09,"20240312":15.38,"20240313":13.71,"20240314":12.54,"20240315":10.38,"20240316":11.9,"20240317":12.81,"20240318":14.78,"20240319":14.95,"20240320":8.34,"20240321":10.66,"20240322":9.18,"20240323":12.22,"20240324":14.98,"20240325":15.52,"20240326":13.02,"20240327":19.49,"20240328":19.78,"20240329":20.4,"20240330":21.78,"20240331":21.54,"20240401":20.94,"20240402":23.15,"20240403":18.98,"20240404":18.67,"20240405":19.94,"20240406":19.64,"20240407":14.72,"20240408":16.72,"20240409":17.91,"20240410":17.29,"20240411":18.92,"20240412":19.49,"20240413":20.02,"20240414":21.46,"20240415":22.76,"20240416":24.29,"20240417":23.93,"20240418":20.06,"20240419":15.5,"20240420":14.88,"20240421":18.19,"20240422":18.1,"20240423":18.64,"20240424":21.94,"20240425":20.76,"20240426":19.25,"20240427":17.79,"20240428":15.73,"20240429":15.43,"20240430":18.24,"20240501":16.46,"20240502":17.64,"20240503":18.92,"20240504":16.16,"20240505":17.04,"20240506":19.3,"20240507":21.65,"20240508":23.92,"20240509":17.55,"20240510":17.66,"20240511":15.61,"20240512":20.07,"20240513":14.76,"20240514":17.4,"20240515":18.38,"20240516":18.18,"20240517":20.19,"20240518":21.36,"20240519":17.77,"20240520":21.65,"20240521":21.1,"20240522":23.14,"20240523":21.26,"20240524":20.3,"20240525":21.95,"20240526":20.83,"20240527":19.75,"20240528":20.31,"20240529":23.08,"20240530":24.52,"20240531":26.26,"20240601":27.65,"20240602":29.71,"20240603":31.25,"20240604":32.69,"20240605":29.25,"20240606":28.09,"20240607":25.05,"20240608":26.88,"20240609":28.33,"20240610":30.79,"20240611":32.56,"20240612":32.0,"20240613":32.69,"20240614":29.55,"20240615":25.54,"20240616":27.9,"20240617":29.23,"20240618":29.87,"20240619":28.58,"20240620":29.34,"20240621":28.57,"20240622":26.75,"20240623":27.7,"20240624":27.43,"20240625":28.49,"20240626":27.73,"20240627":27.38,"20240628":27.27,"20240629":27.45,"20240630":29.06,"20240701":29.1,"20240702":31.37,"20240703":30.04,"20240704":25.92,"20240705":27.38,"20240706":28.84,"20240707":29.76,"20240708":30.41,"20240709":32.87,"20240710":29.08,"20240711":28.83,"20240712":30.92,"20240713":31.5,"20240714":31.01,"20240715":32.06,"20240716":32.0,"20240717":33.86,"20240718":34.28,"20240719":32.82,"20240720":32.69,"20240721":33.23,"20240722":34.01,"20240723":31.75,"20240724":31.69,"20240725":30.54,"20240726":28.28,"20240727":28.91,"20240728":31.15,"20240729":32.12,"20240730":30.11,"20240731":29.45,"20240801":29.38,"20240802":30.89,"20240803":32.39,"20240804":31.67,"20240805":30.22,"20240806":31.28,"20240807":28.9,"20240808":29.66,"20240809":30.29,"20240810":30.37,"20240811":31.4,"20240812":31.56,"20240813":33.41,"20240814":32.5,"20240815":30.78,"20240816":29.28,"20240817":29.49,"20240818":29.57,"20240819":30.4,"20240820":32.41,"20240821":26.78,"20240822":31.65,"20240823":31.37,"20240824":30.58,"20240825":29.71,"20240826":30.8,"20240827":30.39,"20240828":28.65,"20240829":29.73,"20240830":28.63,"20240831":28.75,"20240901":27.03,"20240902":27.19,"20240903":30.66,"20240904":29.11,"20240905":29.61,"20240906":29.88,"20240907":27.35,"20240908":26.68,"20240909":28.01,"20240910":29.32,"20240911":28.37,"20240912":28.64,"20240913":29.05,"20240914":30.49,"20240915":24.0,"20240916":25.94,"20240917":24.92,"20240918":25.47,"20240919":24.92,"20240920":25.68,"20240921":23.36,"20240922":24.67,"20240923":24.95,"20240924":25.85,"20240925":26.64,"20240926":26.58,"20240927":27.33,"20240928":27.58,"20240929":26.84,"20240930":20.46,"20241001":20.82,"20241002":22.26,"20241003":24.01,"20241004":26.62,"20241005":29.46,"20241006":26.33,"20241007":23.82,"20241008":24.89,"20241009":24.87,"20241010":25.16,"20241011":26.47,"20241012":23.55,"20241013":20.64,"20241014":22.46,"20241015":22.71,"20241016":21.06,"20241017":16.83,"20241018":16.85,"20241019":16.85,"20241020":17.73,"20241021":17.13,"20241022":18.4,"20241023":19.33,"20241024":19.03,"20241025":18.32,"20241026":18.77,"20241027":20.23,"20241028":19.44,"20241029":20.37,"20241030":17.99,"20241031":18.57,"20241101":19.49,"20241102":19.41,"20241103":15.88,"20241104":15.09,"20241105":15.29,"20241106":14.81,"20241107":16.87,"20241108":17.52,"20241109":16.39,"20241110":13.65,"20241111":15.15,"20241112":16.59,"20241113":14.81,"20241114":16.01,"20241115":14.92,"20241116":12.39,"20241117":13.41,"20241118":13.97,"20241119":15.03,"20241120":17.51,"20241121":18.47,"20241122":18.12,"20241123":17.66,"20241124":9.31,"20241125":10.12,"20241126":10.56,"20241127":12.67,"20241128":12.6,"20241129":13.96,"20241130":14.95,"20241201":12.37,"20241202":12.07,"20241203":11.46,"20241204":11.07,"20241205":12.27,"20241206":13.71,"20241207":16.14,"20241208":14.58,"20241209":17.79,"20241210":17.65,"20241211":10.83,"20241212":10.85,"20241213":9.05,"20241214":8.29,"20241215":10.35,"20241216":9.06,"20241217":11.49,"20241218":13.44,"20241219":13.2,"20241220":14.39,"20241221":15.72,"20241222":7.69,"20241223":12.54,"20241224":12.22,"20241225":13.95,"20241226":12.52,"20241227":8.29,"20241228":8.95,"20241229":8.73,"20241230":8.37,"20241231":10.45},"T2M_MIN":{"20240101":9.79,"20240102":7.17,"20240103":7.95,"20240104":9.33,"20240105":7.24,"20240106":8.75,"20240107":10.45,"20240108":5.49,"20240109":4.09,"20240110":3.43,"20240111":1.08,"20240112":0.06,"20240113":0.3,"20240114":1.67,"20240115":4.75,"20240116":5.37,"20240117":4.52,"20240118":8.05,"20240119":10.65,"20240120":4.31,"20240121":4.46,"20240122":3.23,"20240123":2.78,"20240124":3.18,"20240125":3.22,"20240126":3.91,"20240127":3.47,"20240128":3.28,"20240129":3.61,"20240130":4.38,"20240131":4.59,"20240201":3.84,"20240202":1.71,"20240203":3.48,"20240204":5.16,"20240205":5.89,"20240206":7.73,"20240207":8.56,"20240208":10.06,"20240209":8.66,"20240210":9.68,"20240211":10.95,"20240212":9.74,"20240213":8.8,"20240214":6.83,"20240215":5.34,"20240216":6.14,"20240217":5.41,"20240218":5.09,"20240219":4.15,"20240220":3.72,"20240221":4.34,"20240222":5.25,"20240223":5.44,"20240224":8.22,"20240225":8.51,"20240226":7.48,"20240227":5.9,"20240228":5.59,"20240229":6.87,"20240301":7.53,"20240302":7.3,"20240303":7.86,"20240304":7.74,"20240305":7.83,"20240306":5.6,"20240307":5.54,"20240308":5.76,"20240309":6.27,"20240310":6.3,"20240311":7.28,"20240312":9.75,"20240313":8.88,"20240314":7.85,"20240315":6.64,"20240316":6.26,"20240317":6.23,"20240318":5.69,"20240319":7.62,"20240320":5.01,"20240321":4.74,"20240322":3.97,"20240323":3.75,"20240324":5.74,"20240325":6.3,"20240326":5.83,"20240327":8.62,"20240328":10.96,"20240329":11.28,"20240330":12.77,"20240331":12.35,"20240401":12.62,"20240402":12.95,"20240403":12.78,"20240404":11.13,"20240405":11.31,"20240406":10.53,"20240407":9.69,"20240408":9.12,"20240409":9.27,"20240410":9.54,"20240411":10.06,"20240412":11.15,"20240413":11.63,"20240414":12.83,"20240415":13.14,"20240416":14.54,"20240417":15.93,"20240418":13.38,"20240419":12.2,"20240420":9.29,"20240421":8.71,"20240422":13.4,"20240423":13.85,"20240424":15.88,"20240425":15.35,"20240426":12.6,"20240427":11.83,"20240428":11.84,"20240429":11.85,"20240430":13.22,"20240501":12.65,"20240502":12.69,"20240503":12.85,"20240504":11.48,"20240505":10.13,"20240506":9.93,"20240507":12.77,"20240508":14.02,"20240509":13.68,"20240510":13.32,"20240511":10.86,"20240512":10.82,"20240513":10.18,"20240514":9.94,"20240515":10.79,"20240516":10.98,"20240517":12.86,"20240518":12.47,"20240519":14.42,"20240520":13.46,"20240521":13.16,"20240522":14.27,"20240523":14.7,"20240524":14.35,"20240525":14.35,"20240526":14.05,"20240527":13.47,"20240528":13.8,"20240529":15.13,"20240530":15.88,"20240531":17.72,"20240601":18.66,"20240602":20.03,"20240603":21.05,"20240604":20.92,"20240605":21.34,"20240606":21.07,"20240607":20.16,"20240608":19.35,"20240609":19.12,"20240610":19.47,"20240611":22.12,"20240612":22.74,"20240613":23.14,"20240614":18.97,"20240615":18.21,"20240616":19.61,"20240617":20.09,"20240618":20.51,"20240619":20.97,"20240620":21.01,"20240621":21.6,"20240622":20.33,"20240623":20.06,"20240624":19.9,"20240625":20.23,"20240626":20.44,"20240627":20.25,"20240628":20.26,"20240629":21.25,"20240630":21.07,"20240701":21.05,"20240702":21.56,"20240703":22.75,"20240704":21.65,"20240705":21.29,"20240706":21.19,"20240707":22.2,"20240708":22.03,"20240709":23.28,"20240710":24.23,"20240711":23.86,"20240712":23.78,"20240713":23.65,"20240714":23.54,"20240715":23.21,"20240716":24.66,"20240717":24.61,"20240718":25.18,"20240719":25.09,"20240720":25.14,"20240721":24.75,"20240722":24.79,"20240723":25.41,"20240724":25.22,"20240725":24.13,"20240726":22.73,"20240727":23.0,"20240728":23.38,"20240729":24.06,"20240730":22.96,"20240731":22.48,"20240801":21.98,"20240802":22.04,"20240803":22.1,"20240804":23.7,"20240805":23.84,"20240806":23.18,"20240807":22.94,"20240808":22.56,"20240809":23.46,"20240810":23.97,"20240811":23.55,"20240812":23.97,"20240813":24.02,"20240814":23.91,"20240815":23.46,"20240816":22.7,"20240817":22.88,"20240818":22.37,"20240819":22.26,"20240820":22.66,"20240821":23.41,"20240822":22.78,"20240823":23.0,"20240824":23.03,"20240825":22.68,"20240826":23.66,"20240827":23.91,"20240828":22.51,"20240829":22.29,"20240830":22.75,"20240831":22.77,"20240901":23.49,"20240902":23.57,"20240903":22.85,"20240904":23.03,"20240905":22.37,"20240906":21.97,"20240907":22.47,"20240908":22.77,"20240909":22.0,"20240910":21.57,"20240911":22.11,"20240912":21.39,"20240913":23.62,"20240914":23.13,"20240915":19.59,"20240916":20.06,"20240917":20.4,"20240918":20.08,"20240919":19.68,"20240920":19.86,"20240921":19.29,"20240922":19.27,"20240923":18.62,"20240924":19.04,"20240925":19.65,"20240926":19.52,"20240927":19.38,"20240928":20.14,"20240929":18.52,"20240930":15.65,"20241001":14.2,"20241002":16.13,"20241003":17.52,"20241004":18.6,"20241005":20.09,"20241006":19.9,"20241007":17.48,"20241008":16.86,"20241009":18.17,"20241010":18.95,"20241011":19.56,"20241012":17.33,"20241013":15.56,"20241014":15.65,"20241015":15.0,"20241016":15.23,"20241017":13.99,"20241018":12.86,"20241019":12.06,"20241020":11.95,"20241021":11.72,"20241022":11.6,"20241023":12.15,"20241024":12.95,"20241025":12.36,"20241026":12.18,"20241027":11.93,"20241028":11.56,"20241029":13.04,"20241030":13.06,"20241031":12.46,"20241101":12.64,"20241102":11.92,"20241103":10.69,"20241104":9.96,"20241105":10.41,"20241106":10.33,"20241107":10.59,"20241108":10.72,"20241109":10.47,"20241110":10.58,"20241111":11.09,"20241112":13.19,"20241113":11.5,"20241114":11.4,"20241115":10.37,"20241116":9.68,"20241117":9.53,"20241118":8.22,"20241119":6.97,"20241120":9.56,"20241121":8.05,"20241122":7.9,"20241123":5.38,"20241124":4.6,"20241125":4.16,"20241126":5.66,"20241127":6.97,"20241128":8.58,"20241129":8.36,"20241130":8.26,"20241201":9.29,"20241202":9.96,"20241203":9.67,"20241204":9.16,"20241205":7.67,"20241206":6.94,"20241207":10.37,"20241208":10.87,"20241209":12.19,"20241210":9.83,"20241211":7.85,"20241212":5.9,"20241213":4.45,"20241214":3.21,"20241215":7.21,"20241216":5.35,"20241217":5.31,"20241218":7.14,"20241219":7.98,"20241220":8.08,"20241221":7.6,"20241222":5.74,"20241223":5.92,"20241224":9.41,"20241225":9.38,"20241226":8.57,"20241227":5.39,"20241228":6.07,"20241229":6.65,"20241230":5.38,"20241231":5.87},"PRECTOTCORR":{"20240101":0.03,"20240102":6.77,"20240103":1.03,"20240104":1.45,"20240105":0.38,"20240106":0.06,"20240107":13.25,"20240108":3.08,"20240109":23.78,"20240110":9.09,"20240111":0.02,"20240112":0.33,"20240113":0.11,"20240114":0.0,"20240115":1.36,"20240116":4.32,"20240117":0.0,"20240118":0.73,"20240119":0.71,"20240120":17.35,"20240121":5.57,"20240122":0.39,"20240123":0.02,"20240124":0.23,"20240125":0.33,"20240126":1.84,"20240127":4.98,"20240128":4.02,"20240129":8.55,"20240130":2.52,"20240131":1.52,"20240201":0.24,"20240202":0.72,"20240203":0.02,"20240204":0.02,"20240205":0.0,"20240206":0.0,"20240207":0.0,"20240208":0.0,"20240209":0.0,"20240210":0.01,"20240211":0.01,"20240212":5.03,"20240213":0.61,"20240214":2.75,"20240215":7.54,"20240216":1.35,"20240217":0.36,"20240218":0.01,"20240219":0.03,"20240220":0.0,"20240221":0.0,"20240222":0.0,"20240223":0.0,"20240224":0.0,"20240225":0.0,"20240226":0.0,"20240227":0.0,"20240228":0.0,"20240229":0.0,"20240301":0.0,"20240302":0.18,"20240303":0.9,"20240304":0.01,"20240305":3.95,"20240306":1.0,"20240307":0.05,"20240308":7.64,"20240309":0.81,"20240310":0.0,"20240311":0.0,"20240312":7.46,"20240313":6.78,"20240314":3.48,"20240315":3.21,"20240316":0.17,"20240317":0.0,"20240318":0.0,"20240319":0.32,"20240320":4.37,"20240321":2.35,"20240322":1.09,"20240323":0.0,"20240324":0.0,"20240325":11.06,"20240326":0.2,"20240327":0.6,"20240328":0.0,"20240329":0.0,"20240330":0.0,"20240331":0.0,"20240401":0.0,"20240402":0.0,"20240403":0.01,"20240404":0.0,"20240405":0.0,"20240406":0.01,"20240407":5.07,"20240408":0.01,"20240409":0.02,"20240410":0.02,"20240411":0.01,"20240412":0.02,"20240413":0.01,"20240414":0.0,"20240415":0.0,"20240416":0.0,"20240417":0.14,"20240418":0.84,"20240419":5.17,"20240420":20.12,"20240421":1.4,"20240422":0.18,"20240423":0.42,"20240424":0.07,"20240425":0.15,"20240426":0.01,"20240427":0.01,"20240428":1.86,"20240429":0.2,"20240430":0.36,"20240501":0.76,"20240502":0.39,"20240503":7.17,"20240504":10.68,"20240505":0.25,"20240506":0.0,"20240507":0.0,"20240508":0.04,"20240509":0.2,"20240510":0.63,"20240511":2.4,"20240512":0.95,"20240513":2.09,"20240514":0.0,"20240515":0.0,"20240516":0.01,"20240517":0.04,"20240518":0.0,"20240519":0.28,"20240520":0.0,"20240521":0.1,"20240522":1.53,"20240523":3.52,"20240524":5.97,"20240525":0.19,"20240526":0.01,"20240527":0.01,"20240528":0.06,"20240529":0.05,"20240530":0.14,"20240531":0.0,"20240601":0.0,"20240602":0.0,"20240603":0.0,"20240604":0.0,"20240605":0.0,"20240606":0.0,"20240607":0.04,"20240608":0.0,"20240609":0.0,"20240610":0.0,"20240611":0.0,"20240612":0.0,"20240613":0.01,"20240614":2.42,"20240615":1.66,"20240616":0.0,"20240617":0.0,"20240618":0.0,"20240619":0.01,"20240620":0.01,"20240621":0.01,"20240622":0.0,"20240623":0.0,"20240624":0.04,"20240625":0.05,"20240626":0.0,"20240627":0.0,"20240628":0.0,"20240629":0.02,"20240630":0.26,"20240701":0.17,"20240702":0.01,"20240703":0.22,"20240704":10.37,"20240705":0.24,"20240706":0.7,"20240707":0.0,"20240708":0.0,"20240709":0.94,"20240710":3.47,"20240711":2.18,"20240712":0.06,"20240713":0.05,"20240714":0.0,"20240715":0.0,"20240716":0.0,"20240717":0.0,"20240718":0.0,"20240719":0.02,"20240720":0.05,"20240721":0.0,"20240722":0.53,"20240723":0.48,"20240724":0.07,"20240725":1.58,"20240726":3.65,"20240727":3.01,"20240728":0.0,"20240729":0.0,"20240730":0.01,"20240731":0.0,"20240801":0.0,"20240802":0.0,"20240803":0.0,"20240804":0.15,"20240805":0.61,"20240806":0.03,"20240807":0.01,"20240808":0.0,"20240809":0.02,"20240810":0.07,"20240811":0.0,"20240812":0.0,"20240813":0.0,"20240814":0.0,"20240815":0.0,"20240816":0.0,"20240817":0.0,"20240818":0.0,"20240819":0.0,"20240820":0.01,"20240821":0.14,"20240822":0.0,"20240823":0.0,"20240824":0.01,"20240825":0.03,"20240826":0.05,"20240827":0.11,"20240828":0.88,"20240829":0.11,"20240830":0.32,"20240831":0.55,"20240901":1.49,"20240902":0.96,"20240903":0.22,"20240904":0.57,"20240905":0.02,"20240906":0.0,"20240907":2.95,"20240908":2.29,"20240909":0.02,"20240910":0.34,"20240911":0.78,"20240912":0.63,"20240913":0.02,"20240914":1.7,"20240915":10.63,"20240916":3.79,"20240917":2.46,"20240918":0.64,"20240919":0.02,"20240920":3.06,"20240921":4.88,"20240922":1.06,"20240923":0.99,"20240924":0.02,"20240925":0.0,"20240926":0.0,"20240927":0.01,"20240928":0.07,"20240929":14.22,"20240930":4.44,"20241001":0.07,"20241002":0.0,"20241003":0.0,"20241004":0.0,"20241005":0.02,"20241006":1.15,"20241007":0.25,"20241008":0.0,"20241009":0.0,"20241010":0.0,"20241011":0.02,"20241012":9.04,"20241013":0.29,"20241014":0.0,"20241015":0.0,"20241016":0.39,"20241017":0.99,"20241018":0.24,"20241019":0.07,"20241020":0.01,"20241021":0.0,"20241022":0.0,"20241023":0.0,"20241024":0.0,"20241025":0.0,"20241026":0.0,"20241027":0.0,"20241028":0.01,"20241029":0.28,"20241030":0.13,"20241031":0.0,"20241101":0.0,"20241102":0.01,"20241103":0.75,"20241104":0.0,"20241105":0.0,"20241106":0.0,"20241107":0.0,"20241108":0.0,"20241109":0.14,"20241110":1.05,"20241111":0.26,"20241112":0.12,"20241113":1.67,"20241114":2.27,"20241115":8.5,"20241116":1.26,"20241117":0.76,"20241118":0.07,"20241119":0.0,"20241120":0.94,"20241121":14.16,"20241122":0.01,"20241123":33.18,"20241124":0.91,"20241125":0.43,"20241126":0.03,"20241127":0.15,"20241128":0.02,"20241129":0.0,"20241130":0.01,"20241201":0.4,"20241202":4.06,"20241203":2.09,"20241204":1.14,"20241205":0.1,"20241206":0.0,"20241207":0.23,"20241208":5.23,"20241209":6.26,"20241210":16.37,"20241211":5.6,"20241212":1.08,"20241213":0.78,"20241214":0.0,"20241215":20.36,"20241216":1.45,"20241217":0.0,"20241218":0.01,"20241219":0.0,"20241220":0.16,"20241221":10.08,"20241222":6.61,"20241223":0.06,"20241224":7.16,"20241225":1.02,"20241226":2.53,"20241227":3.94,"20241228":3.38,"20241229":3.04,"20241230":0.56,"20241231":0.02},"WS10M":{"20240101":4.74,"20240102":5.16,"20240103":6.05,"20240104":6.44,"20240105":3.93,"20240106":4.2,"20240107":7.87,"20240108":7.54,"20240109":11.69,"20240110":10.82,"20240111":3.95,"20240112":5.94,"20240113":3.23,"20240114":4.58,"20240115":7.59,"20240116":6.31,"20240117":3.4,"20240118":8.15,"20240119":7.17,"20240120":8.45,"20240121":10.41,"20240122":8.49,"20240123":5.06,"20240124":4.35,"20240125":5.04,"20240126":3.44,"20240127":4.29,"20240128":6.68,"20240129":8.08,"20240130":9.92,"20240131":8.37,"20240201":3.27,"20240202":4.28,"20240203":3.6,"20240204":6.02,"20240205":7.6,"20240206":5.77,"20240207":6.77,"20240208":6.09,"20240209":5.56,"20240210":7.67,"20240211":6.97,"20240212":5.54,"20240213":3.13,"20240214":7.02,"20240215":7.82,"20240216":5.83,"20240217":5.49,"20240218":3.21,"20240219":4.41,"20240220":4.25,"20240221":2.06,"20240222":3.1,"20240223":5.62,"20240224":5.06,"20240225":2.77,"20240226":3.07,"20240227":3.49,"20240228":3.4,"20240229":3.68,"20240301":2.06,"20240302":2.41,"20240303":1.93,"20240304":1.52,"20240305":3.28,"20240306":3.85,"20240307":2.77,"20240308":5.49,"20240309":2.67,"20240310":2.08,"20240311":3.51,"20240312":4.55,"20240313":3.81,"20240314":2.84,"20240315":3.4,"20240316":2.46,"20240317":3.67,"20240318":1.58,"20240319":3.77,"20240320":6.51,"20240321":2.77,"20240322":4.59,"20240323":2.31,"20240324":5.53,"20240325":6.73,"20240326":3.72,"20240327":3.29,"20240328":3.03,"20240329":3.25,"20240330":2.15,"20240331":4.12,"20240401":4.77,"20240402":5.52,"20240403":2.88,"20240404":3.62,"20240405":1.96,"20240406":2.08,"20240407":5.48,"20240408":6.93,"20240409":5.06,"20240410":4.46,"20240411":5.26,"20240412":4.81,"20240413":3.87,"20240414":2.19,"20240415":3.48,"20240416":5.83,"20240417":4.7,"20240418":4.12,"20240419":5.67,"20240420":6.52,"20240421":2.74,"20240422":4.6,"20240423":5.1,"20240424":3.42,"20240425":2.65,"20240426":2.73,"20240427":8.14,"20240428":6.7,"20240429":5.84,"20240430":6.79,"20240501":6.82,"20240502":2.0,"20240503":2.25,"20240504":2.62,"20240505":6.74,"20240506":1.44,"20240507":2.59,"20240508":3.84,"20240509":6.51,"20240510":10.78,"20240511":7.66,"20240512":3.49,"20240513":5.55,"20240514":2.78,"20240515":4.78,"20240516":4.77,"20240517":5.1,"20240518":3.1,"20240519":5.67,"20240520":4.97,"20240521":4.15,"20240522":3.78,"20240523":3.94,"20240524":3.57,"20240525":5.92,"20240526":7.68,"20240527":4.73,"20240528":2.02,"20240529":2.43,"20240530":2.88,"20240531":2.6,"20240601":2.67,"20240602":1.52,"20240603":2.61,"20240604":2.06,"20240605":3.67,"20240606":3.91,"20240607":4.65,"20240608":5.54,"20240609":4.37,"20240610":2.27,"20240611":2.47,"20240612":3.49,"20240613":2.0,"20240614":4.41,"20240615":3.29,"20240616":3.38,"20240617":4.1,"20240618":6.2,"20240619":7.12,"20240620":6.07,"20240621":7.55,"20240622":7.36,"20240623":7.09,"20240624":6.25,"20240625":7.35,"20240626":6.87,"20240627":6.5,"20240628":7.88,"20240629":7.82,"20240630":5.87,"20240701":5.12,"20240702":3.1,"20240703":4.82,"20240704":3.87,"20240705":4.14,"20240706":6.27,"20240707":6.55,"20240708":6.54,"20240709":7.11,"20240710":5.3,"20240711":5.36,"20240712":5.34,"20240713":5.92,"20240714":6.14,"20240715":6.21,"20240716":5.82,"20240717":5.36,"20240718":6.1,"20240719":6.74,"20240720":6.29,"20240721":5.44,"20240722":4.16,"20240723":5.85,"20240724":6.53,"20240725":6.73,"20240726":5.04,"20240727":5.13,"20240728":5.9,"20240729":6.22,"20240730":7.11,"20240731":6.83,"20240801":6.83,"20240802":5.18,"20240803":2.41,"20240804":2.93,"20240805":5.68,"20240806":2.87,"20240807":5.73,"20240808":5.81,"20240809":5.31,"20240810":6.0,"20240811":6.28,"20240812":6.59,"20240813":5.95,"20240814":8.87,"20240815":7.92,"20240816":7.44,"20240817":7.45,"20240818":5.7,"20240819":2.58,"20240820":3.15,"20240821":5.38,"20240822":4.18,"20240823":5.52,"20240824":6.06,"20240825":6.27,"20240826":5.87,"20240827":5.24,"20240828":2.57,"20240829":2.54,"20240830":2.99,"20240831":3.02,"20240901":3.88,"20240902":2.1,"20240903":2.4,"20240904":4.67,"20240905":3.73,"20240906":3.85,"20240907":4.95,"20240908":7.04,"20240909":4.33,"20240910":2.79,"20240911":4.29,"20240912":3.21,"20240913":3.01,"20240914":4.78,"20240915":2.95,"20240916":2.35,"20240917":4.86,"20240918":5.39,"20240919":5.62,"20240920":5.48,"20240921":6.47,"20240922":5.55,"20240923":2.75,"20240924":1.66,"20240925":2.2,"20240926":2.89,"20240927":3.78,"20240928":3.32,"20240929":2.29,"20240930":5.26,"20241001":5.16,"20241002":3.21,"20241003":2.25,"20241004":3.77,"20241005":2.48,"20241006":2.98,"20241007":3.51,"20241008":4.4,"20241009":3.52,"20241010":4.12,"20241011":3.61,"20241012":5.37,"20241013":4.3,"20241014":2.7,"20241015":4.41,"20241016":6.41,"20241017":7.6,"20241018":6.15,"20241019":5.22,"20241020":5.93,"20241021":5.43,"20241022":4.8,"20241023":5.3,"20241024":5.77,"20241025":6.48,"20241026":5.9,"20241027":5.08,"20241028":2.75,"20241029":5.18,"20241030":5.63,"20241031":5.44,"20241101":4.69,"20241102":2.11,"20241103":8.09,"20241104":3.4,"20241105":7.04,"20241106":6.81,"20241107":7.25,"20241108":6.44,"20241109":7.08,"20241110":6.07,"20241111":4.45,"20241112":6.23,"20241113":4.79,"20241114":4.08,"20241115":6.68,"20241116":8.36,"20241117":5.81,"20241118":2.72,"20241119":1.96,"20241120":8.0,"20241121":7.98,"20241122":7.87,"20241123":8.41,"20241124":6.9,"20241125":5.32,"20241126":2.79,"20241127":3.53,"20241128":1.19,"20241129":2.98,"20241130":4.86,"20241201":9.2,"20241202":7.16,"20241203":6.45,"20241204":3.47,"20241205":4.69,"20241206":3.05,"20241207":4.23,"20241208":4.88,"20241209":6.12,"20241210":6.48,"20241211":3.24,"20241212":3.94,"20241213":4.54,"20241214":3.52,"20241215":5.72,"20241216":3.97,"20241217":5.85,"20241218":2.14,"20241219":2.45,"20241220":5.7,"20241221":4.56,"20241222":3.76,"20241223":4.91,"20241224":4.06,"20241225":4.4,"20241226":9.49,"20241227":9.45,"20241228":9.5,"20241229":9.35,"20241230":5.01,"20241231":2.03},"RH2M":{"20240101":90.37,"20240102":93.84,"20240103":90.8,"20240104":88.88,"20240105":82.0,"20240106":75.71,"20240107":84.11,"20240108":85.76,"20240109":90.26,"20240110":83.73,"20240111":79.18,"20240112":76.0,"20240113":66.65,"20240114":71.25,"20240115":81.66,"20240116":83.32,"20240117":92.0,"20240118":90.96,"20240119":87.13,"20240120":92.82,"20240121":75.88,"20240122":78.06,"20240123":79.11,"20240124":84.38,"20240125":82.61,"20240126":85.32,"20240127":85.83,"20240128":83.48,"20240129":86.91,"20240130":82.13,"20240131":81.78,"20240201":75.88,"20240202":83.43,"20240203":72.77,"20240204":84.39,"20240205":89.22,"20240206":83.77,"20240207":88.21,"20240208":86.28,"20240209":85.73,"20240210":83.53,"20240211":77.5,"20240212":82.91,"20240213":86.9,"20240214":91.77,"20240215":92.3,"20240216":90.27,"20240217":88.01,"20240218":81.41,"20240219":84.63,"20240220":84.27,"20240221":76.33,"20240222":72.17,"20240223":80.69,"20240224":81.52,"20240225":73.46,"20240226":85.62,"20240227":92.25,"20240228":92.26,"20240229":91.82,"20240301":92.5,"20240302":90.13,"20240303":89.04,"20240304":84.46,"20240305":89.54,"20240306":85.49,"20240307":78.42,"20240308":90.01,"20240309":84.09,"20240310":75.15,"20240311":69.58,"20240312":79.78,"20240313":85.59,"20240314":90.67,"20240315":84.77,"20240316":83.77,"20240317":84.69,"20240318":76.4,"20240319":77.18,"20240320":82.38,"20240321":76.73,"20240322":84.9,"20240323":75.7,"20240324":78.26,"20240325":83.44,"20240326":71.99,"20240327":71.49,"20240328":70.98,"20240329":75.48,"20240330":68.35,"20240331":76.72,"20240401":75.38,"20240402":72.27,"20240403":67.4,"20240404":66.82,"20240405":65.6,"20240406":64.53,"20240407":81.43,"20240408":83.38,"20240409":83.3,"20240410":83.26,"20240411":84.37,"20240412":82.88,"20240413":78.22,"20240414":65.21,"20240415":66.26,"20240416":65.37,"20240417":62.53,"20240418":75.03,"20240419":83.43,"20240420":86.46,"20240421":72.03,"20240422":76.67,"20240423":80.06,"20240424":73.37,"20240425":81.25,"20240426":79.79,"20240427":80.56,"20240428":88.72,"20240429":90.32,"20240430":88.03,"20240501":87.35,"20240502":84.19,"20240503":85.97,"20240504":83.98,"20240505":70.81,"20240506":61.3,"20240507":67.64,"20240508":75.51,"20240509":85.25,"20240510":80.45,"20240511":73.61,"20240512":74.24,"20240513":78.94,"20240514":63.43,"20240515":68.2,"20240516":71.08,"20240517":76.65,"20240518":79.8,"20240519":85.98,"20240520":79.58,"20240521":81.57,"20240522":83.29,"20240523":79.15,"20240524":83.9,"20240525":83.69,"20240526":77.19,"20240527":75.43,"20240528":74.62,"20240529":67.92,"20240530":66.7,"20240531":61.54,"20240601":58.76,"20240602":60.38,"20240603":62.26,"20240604":64.41,"20240605":66.96,"20240606":74.07,"20240607":77.83,"20240608":72.94,"20240609":72.06,"20240610":64.46,"20240611":55.59,"20240612":68.07,"20240613":68.08,"20240614":73.41,"20240615":69.48,"20240616":62.51,"20240617":61.22,"20240618":65.68,"20240619":69.84,"20240620":71.33,"20240621":76.14,"20240622":68.17,"20240623":69.07,"20240624":73.22,"20240625":70.43,"20240626":65.87,"20240627":64.92,"20240628":68.65,"20240629":68.79,"20240630":69.89,"20240701":69.29,"20240702":60.77,"20240703":64.0,"20240704":73.94,"20240705":67.33,"20240706":65.92,"20240707":63.95,"20240708":70.01,"20240709":69.56,"20240710":77.77,"20240711":78.34,"20240712":73.72,"20240713":73.22,"20240714":63.29,"20240715":62.78,"20240716":65.71,"20240717":66.19,"20240718":67.98,"20240719":71.16,"20240720":66.8,"20240721":62.96,"20240722":59.27,"20240723":66.56,"20240724":64.1,"20240725":65.06,"20240726":65.91,"20240727":67.08,"20240728":66.12,"20240729":62.7,"20240730":63.19,"20240731":57.0,"20240801":61.99,"20240802":62.19,"20240803":57.39,"20240804":58.81,"20240805":67.7,"20240806":56.15,"20240807":61.74,"20240808":65.24,"20240809":66.97,"20240810":64.3,"20240811":66.01,"20240812":64.91,"20240813":61.11,"20240814":60.75,"20240815":57.69,"20240816":61.33,"20240817":55.77,"20240818":63.93,"20240819":64.23,"20240820":64.39,"20240821":74.07,"20240822":67.62,"20240823":69.12,"20240824":62.27,"20240825":66.65,"20240826":67.65,"20240827":61.28,"20240828":67.19,"20240829":64.21,"20240830":70.21,"20240831":69.09,"20240901":75.54,"20240902":71.17,"20240903":64.36,"20240904":72.7,"20240905":63.17,"20240906":61.8,"20240907":71.61,"20240908":70.79,"20240909":64.43,"20240910":70.95,"20240911":69.65,"20240912":66.46,"20240913":63.48,"20240914":62.55,"20240915":77.55,"20240916":65.39,"20240917":70.37,"20240918":70.75,"20240919":70.64,"20240920":69.15,"20240921":66.71,"20240922":64.54,"20240923":66.84,"20240924":69.97,"20240925":69.32,"20240926":75.89,"20240927":80.86,"20240928":84.26,"20240929":80.8,"20240930":70.24,"20241001":65.24,"20241002":71.85,"20241003":68.27,"20241004":64.83,"20241005":61.96,"20241006":71.86,"20241007":75.08,"20241008":68.43,"20241009":71.52,"20241010":77.06,"20241011":74.11,"20241012":83.15,"20241013":74.62,"20241014":68.19,"20241015":77.01,"20241016":76.4,"20241017":70.12,"20241018":68.48,"20241019":67.48,"20241020":70.43,"20241021":73.87,"20241022":77.45,"20241023":80.23,"20241024":79.67,"20241025":75.63,"20241026":78.2,"20241027":84.1,"20241028":81.39,"20241029":84.29,"20241030":75.41,"20241031":76.79,"20241101":80.89,"20241102":79.3,"20241103":68.71,"20241104":62.87,"20241105":65.44,"20241106":67.4,"20241107":77.19,"20241108":81.58,"20241109":77.36,"20241110":79.91,"20241111":85.05,"20241112":82.61,"20241113":84.61,"20241114":83.25,"20241115":84.76,"20241116":74.93,"20241117":80.57,"20241118":78.05,"20241119":67.03,"20241120":79.43,"20241121":75.84,"20241122":75.2,"20241123":74.99,"20241124":68.9,"20241125":73.57,"20241126":63.42,"20241127":81.56,"20241128":79.02,"20241129":77.96,"20241130":81.78,"20241201":82.97,"20241202":84.03,"20241203":84.66,"20241204":86.86,"20241205":87.43,"20241206":80.03,"20241207":82.05,"20241208":85.77,"20241209":87.45,"20241210":83.55,"20241211":84.64,"20241212":82.5,"20241213":78.43,"20241214":66.3,"20241215":88.7,"20241216":73.24,"20241217":81.22,"20241218":86.7,"20241219":88.54,"20241220":85.28,"20241221":90.3,"20241222":82.97,"20241223":84.35,"20241224":88.14,"20241225":86.12,"20241226":88.99,"20241227":81.52,"20241228":84.09,"20241229":86.07,"20241230":85.84,"20241231":77.45}}},"header":{"title":"NASA/POWER Source Native Resolution Daily Data","api":{"version":"v2.9.6","name":"POWER Daily API"},"sources":["MERRA2","POWER"],"fill_value":-999.0,"time_standard":"UTC","start":"20240101","end":"20241231"},"messages":[],"parameters":{"T2M":{"units":"C","longname":"Temperature at 2 Meters"},"T2M_MAX":{"units":"C","longname":"Temperature at 2 Meters Maximum"},"T2M_MIN":{"units":"C","longname":"Temperature at 2 Meters Minimum"},"PRECTOTCORR":{"units":"mm/day","longname":"Precipitation Corrected"},"WS10M":{"units":"m/s","longname":"Wind Speed at 10 Meters"},"RH2M":{"units":"%","longname":"Relative Humidity at 2 Meters"}},"times":{"data":0.923,"process":0.01}}