{"type":"Feature","geometry":{"type":"Point","coordinates":[114.175,22.278,53.17]},"properties":{"parameter":{"T2M":{"20240101":18.47,"20240102":18.44,"20240103":16.02,"20240104":16.4,"20240105":18.71,"20240106":19.98,"20240107":19.19,"20240108":18.91,"20240109":19.81,"20240110":18.77,"20240111":18.54,"20240112":19.17,"20240113":19.3,"20240114":19.67,"20240115":19.47,"20240116":18.21,"20240117":19.23,"20240118":20.32,"20240119":20.64,"20240120":17.99,"20240121":16.87,"20240122":10.39,"20240123":8.18,"20240124":9.48,"20240125":11.7,"20240126":14.17,"20240127":14.0,"20240128":14.45,"20240129":16.43,"20240130":18.97,"20240131":20.94,"20240201":21.41,"20240202":21.08,"20240203":20.38,"20240204":19.95,"20240205":19.38,"20240206":18.96,"20240207":13.48,"20240208":11.67,"20240209":13.13,"20240210":14.86,"20240211":16.98,"20240212":17.6,"20240213":19.42,"20240214":20.61,"20240215":20.96,"20240216":19.44,"20240217":20.76,"20240218":22.17,"20240219":22.09,"20240220":23.44,"20240221":23.48,"20240222":22.21,"20240223":18.59,"20240224":17.27,"20240225":16.28,"20240226":16.77,"20240227":17.23,"20240228":19.29,"20240229":16.27,"20240301":12.96,"20240302":14.93,"20240303":19.02,"20240304":22.42,"20240305":23.52,"20240306":20.76,"20240307":18.04,"20240308":18.6,"20240309":16.37,"20240310":17.57,"20240311":17.63,"20240312":18.88,"20240313":20.05,"20240314":20.0,"20240315":20.74,"20240316":22.18,"20240317":23.1,"20240318":21.77,"20240319":19.98,"20240320":19.88,"20240321":21.2,"20240322":22.86,"20240323":24.12,"20240324":24.61,"20240325":24.85,"20240326":24.87,"20240327":23.42,"20240328":24.61,"20240329":24.8,"20240330":25.6,"20240331":25.83,"20240401":26.18,"20240402":26.07,"20240403":26.65,"20240404":26.37,"20240405":25.53,"20240406":25.02,"20240407":25.54,"20240408":24.56,"20240409":22.91,"20240410":23.95,"20240411":25.12,"20240412":25.98,"20240413":26.12,"20240414":26.71,"20240415":26.63,"20240416":27.28,"20240417":27.24,"20240418":26.26,"20240419":26.66,"20240420":26.22,"20240421":25.92,"20240422":26.14,"20240423":25.78,"20240424":26.31,"20240425":26.34,"20240426":26.81,"20240427":27.41,"20240428":26.56,"20240429":27.06,"20240430":26.59,"20240501":22.2,"20240502":24.76,"20240503":24.98,"20240504":24.99,"20240505":26.14,"20240506":27.44,"20240507":26.29,"20240508":25.86,"20240509":24.72,"20240510":25.05,"20240511":25.95,"20240512":25.87,"20240513":24.96,"20240514":24.31,"20240515":25.78,"20240516":24.62,"20240517":25.15,"20240518":25.47,"20240519":25.41,"20240520":25.55,"20240521":25.91,"20240522":25.95,"20240523":25.94,"20240524":25.65,"20240525":26.4,"20240526":26.94,"20240527":27.73,"20240528":26.61,"20240529":24.93,"20240530":26.95,"20240531":27.69,"20240601":26.95,"20240602":27.61,"20240603":25.69,"20240604":24.93,"20240605":26.12,"20240606":26.14,"20240607":26.64,"20240608":27.4,"20240609":27.3,"20240610":27.52,"20240611":27.75,"20240612":28.32,"20240613":28.41,"20240614":28.12,"20240615":27.88,"20240616":28.53,"20240617":28.8,"20240618":28.78,"20240619":28.94,"20240620":29.29,"20240621":29.46,"20240622":29.52,"20240623":29.37,"20240624":29.21,"20240625":28.94,"20240626":28.64,"20240627":29.44,"20240628":29.69,"20240629":29.04,"20240630":29.34,"20240701":29.43,"20240702":29.18,"20240703":29.38,"20240704":29.73,"20240705":29.91,"20240706":30.2,"20240707":29.87,"20240708":29.66,"20240709":29.63,"20240710":29.79,"20240711":29.63,"20240712":29.63,"20240713":29.85,"20240714":30.14,"20240715":29.59,"20240716":29.55,"20240717":29.52,"20240718":29.06,"20240719":29.46,"20240720":29.8,"20240721":29.56,"20240722":29.6,"20240723":29.77,"20240724":29.53,"20240725":29.95,"20240726":29.35,"20240727":28.99,"20240728":28.18,"20240729":27.8,"20240730":27.66,"20240731":28.74,"20240801":29.0,"20240802":28.94,"20240803":29.21,"20240804":30.12,"20240805":30.73,"20240806":30.21,"20240807":29.81,"20240808":29.49,"20240809":29.58,"20240810":29.47,"20240811":29.21,"20240812":28.73,"20240813":29.16,"20240814":28.73,"20240815":28.39,"20240816":27.89,"20240817":28.17,"20240818":28.45,"20240819":28.37,"20240820":28.01,"20240821":27.91,"20240822":28.39,"20240823":28.51,"20240824":28.74,"20240825":28.66,"20240826":29.06,"20240827":29.35,"20240828":29.03,"20240829":28.63,"20240830":28.92,"20240831":28.72,"20240901":29.72,"20240902":29.79,"20240903":29.74,"20240904":29.27,"20240905":28.86,"20240906":28.76,"20240907":28.71,"20240908":28.1,"20240909":28.2,"20240910":29.09,"20240911":29.42,"20240912":29.55,"20240913":29.45,"20240914":28.63,"20240915":28.78,"20240916":28.72,"20240917":29.5,"20240918":29.08,"20240919":29.19,"20240920":28.55,"20240921":28.01,"20240922":26.52,"20240923":26.24,"20240924":27.33,"20240925":28.17,"20240926":28.55,"20240927":29.07,"20240928":28.55,"20240929":28.69,"20240930":28.9,"20241001":26.07,"20241002":23.4,"20241003":23.27,"20241004":24.67,"20241005":25.64,"20241006":27.3,"20241007":26.17,"20241008":25.6,"20241009":24.99,"20241010":25.74,"20241011":25.56,"20241012":25.91,"20241013":26.6,"20241014":26.86,"20241015":26.99,"20241016":26.62,"20241017":27.02,"20241018":27.39,"20241019":27.79,"20241020":26.47,"20241021":26.46,"20241022":25.31,"20241023":22.32,"20241024":22.02,"20241025":24.54,"20241026":25.15,"20241027":24.87,"20241028":24.3,"20241029":24.27,"20241030":23.99,"20241031":24.82,"20241101":24.16,"20241102":24.38,"20241103":24.82,"20241104":24.61,"20241105":24.58,"20241106":23.25,"20241107":21.88,"20241108":23.47,"20241109":24.77,"20241110":24.08,"20241111":24.34,"20241112":25.11,"20241113":24.31,"20241114":25.01,"20241115":25.8,"20241116":25.6,"20241117":23.43,"20241118":22.82,"20241119":19.5,"20241120":18.41,"20241121":19.16,"20241122":19.17,"20241123":19.91,"20241124":19.5,"20241125":20.19,"20241126":17.21,"20241127":16.73,"20241128":16.33,"20241129":16.83,"20241130":18.61,"20241201":19.82,"20241202":20.0,"20241203":20.99,"20241204":20.87,"20241205":19.74,"20241206":19.11,"20241207":17.66,"20241208":17.19,"20241209":18.18,"20241210":20.16,"20241211":17.97,"20241212":17.23,"20241213":14.77,"20241214":13.53,"20241215":13.35,"20241216":15.19,"20241217":16.57,"20241218":15.05,"20241219":13.1,"20241220":13.73,"20241221":14.61,"20241222":15.11,"20241223":14.92,"20241224":15.71,"20241225":17.08,"20241226":17.41,"20241227":16.97,"20241228":13.92,"20241229":14.37,"20241230":16.89,"20241231":17.7},"T2M_MAX":{"20240101":21.27,"20240102":21.41,"20240103":21.28,"20240104":19.13,"20240105":21.84,"20240106":24.07,"20240107":22.82,"20240108":21.88,"20240109":24.1,"20240110":23.3,"20240111":21.64,"20240112":22.36,"20240113":22.8,"20240114":23.38,"20240115":24.49,"20240116":21.52,"20240117":22.28,"20240118":24.04,"20240119":24.84,"20240120":24.33,"20240121":21.49,"20240122":16.01,"20240123":12.91,"20240124":12.92,"20240125":14.47,"20240126":17.42,"20240127":16.97,"20240128":15.96,"20240129":18.05,"20240130":22.17,"20240131":24.26,"20240201":25.35,"20240202":25.06,"20240203":23.89,"20240204":24.03,"20240205":23.47,"20240206":22.68,"20240207":16.52,"20240208":15.54,"20240209":15.43,"20240210":19.01,"20240211":22.54,"20240212":21.62,"20240213":23.17,"20240214":24.18,"20240215":26.44,"20240216":23.58,"20240217":23.57,"20240218":25.71,"20240219":24.85,"20240220":26.8,"20240221":26.78,"20240222":27.24,"20240223":23.67,"20240224":21.95,"20240225":20.07,"20240226":20.89,"20240227":20.07,"20240228":21.86,"20240229":22.93,"20240301":16.97,"20240302":17.36,"20240303":20.56,"20240304":24.81,"20240305":26.71,"20240306":25.42,"20240307":20.93,"20240308":22.1,"20240309":18.16,"20240310":19.49,"20240311":22.1,"20240312":23.84,"20240313":23.19,"20240314":22.58,"20240315":23.74,"20240316":25.5,"20240317":26.47,"20240318":25.34,"20240319":24.38,"20240320":23.01,"20240321":23.84,"20240322":25.59,"20240323":26.69,"20240324":28.25,"20240325":28.44,"20240326":29.65,"20240327":26.18,"20240328":27.65,"20240329":28.91,"20240330":28.31,"20240331":28.4,"20240401":28.8,"20240402":28.58,"20240403":29.04,"20240404":28.92,"20240405":28.68,"20240406":27.71,"20240407":28.05,"20240408":29.03,"20240409":26.38,"20240410":27.41,"20240411":28.67,"20240412":29.44,"20240413":29.17,"20240414":29.9,"20240415":29.37,"20240416":30.69,"20240417":29.82,"20240418":27.96,"20240419":28.52,"20240420":27.74,"20240421":27.85,"20240422":28.21,"20240423":27.94,"20240424":29.11,"20240425":27.86,"20240426":28.78,"20240427":29.83,"20240428":28.02,"20240429":28.42,"20240430":29.12,"20240501":23.6,"20240502":27.18,"20240503":26.44,"20240504":26.25,"20240505":28.15,"20240506":30.34,"20240507":29.03,"20240508":28.1,"20240509":26.74,"20240510":26.88,"20240511":27.33,"20240512":28.43,"20240513":28.43,"20240514":27.03,"20240515":28.62,"20240516":26.92,"20240517":27.71,"20240518":27.96,"20240519":27.13,"20240520":26.81,"20240521":27.75,"20240522":27.75,"20240523":27.58,"20240524":27.19,"20240525":27.98,"20240526":28.77,"20240527":29.37,"20240528":29.97,"20240529":26.42,"20240530":28.35,"20240531":29.03,"20240601":28.41,"20240602":29.5,"20240603":27.28,"20240604":26.16,"20240605":27.79,"20240606":27.42,"20240607":28.07,"20240608":28.9,"20240609":28.46,"20240610":28.68,"20240611":28.87,"20240612":29.7,"20240613":29.49,"20240614":29.02,"20240615":29.25,"20240616":29.76,"20240617":29.98,"20240618":30.03,"20240619":30.34,"20240620":31.0,"20240621":31.29,"20240622":31.43,"20240623":30.77,"20240624":30.57,"20240625":30.23,"20240626":30.29,"20240627":31.12,"20240628":31.64,"20240629":29.89,"20240630":30.36,"20240701":30.89,"20240702":31.11,"20240703":31.07,"20240704":31.52,"20240705":31.39,"20240706":32.07,"20240707":31.72,"20240708":31.83,"20240709":31.81,"20240710":31.93,"20240711":31.41,"20240712":31.11,"20240713":31.38,"20240714":31.96,"20240715":31.13,"20240716":30.86,"20240717":31.26,"20240718":30.4,"20240719":30.67,"20240720":31.43,"20240721":30.97,"20240722":31.31,"20240723":32.22,"20240724":31.41,"20240725":32.09,"20240726":30.45,"20240727":30.17,"20240728":29.27,"20240729":29.1,"20240730":28.64,"20240731":30.23,"20240801":30.54,"20240802":30.74,"20240803":31.69,"20240804":32.77,"20240805":33.64,"20240806":32.57,"20240807":31.93,"20240808":31.8,"20240809":31.65,"20240810":31.62,"20240811":31.44,"20240812":30.42,"20240813":31.22,"20240814":30.3,"20240815":30.56,"20240816":29.2,"20240817":28.98,"20240818":29.71,"20240819":29.38,"20240820":28.53,"20240821":28.99,"20240822":29.94,"20240823":30.44,"20240824":31.97,"20240825":31.43,"20240826":31.47,"20240827":31.62,"20240828":31.9,"20240829":30.98,"20240830":30.47,"20240831":30.28,"20240901":32.18,"20240902":32.55,"20240903":32.38,"20240904":31.66,"20240905":30.63,"20240906":29.55,"20240907":30.0,"20240908":29.58,"20240909":29.65,"20240910":31.08,"20240911":31.64,"20240912":32.02,"20240913":31.65,"20240914":31.04,"20240915":31.08,"20240916":30.67,"20240917":32.32,"20240918":31.69,"20240919":30.65,"20240920":30.87,"20240921":29.92,"20240922":29.58,"20240923":27.3,"20240924":28.96,"20240925":30.12,"20240926":31.03,"20240927":31.3,"20240928":31.37,"20240929":31.21,"20240930":31.9,"20241001":31.14,"20241002":27.32,"20241003":26.58,"20241004":27.71,"20241005":28.67,"20241006":30.37,"20241007":30.39,"20241008":29.1,"20241009":27.61,"20241010":28.43,"20241011":27.87,"20241012":28.58,"20241013":29.34,"20241014":29.73,"20241015":29.32,"20241016":28.84,"20241017":29.44,"20241018":29.72,"20241019":31.01,"20241020":29.23,"20241021":29.84,"20241022":30.02,"20241023":27.15,"20241024":26.42,"20241025":28.28,"20241026":28.58,"20241027":29.08,"20241028":27.81,"20241029":26.71,"20241030":28.36,"20241031":29.56,"20241101":29.35,"20241102":27.36,"20241103":27.3,"20241104":27.6,"20241105":28.14,"20241106":26.99,"20241107":26.08,"20241108":27.26,"20241109":28.21,"20241110":26.95,"20241111":27.92,"20241112":29.41,"20241113":26.73,"20241114":27.33,"20241115":28.08,"20241116":28.58,"20241117":25.48,"20241118":26.85,"20241119":21.03,"20241120":20.55,"20241121":22.41,"20241122":23.04,"20241123":22.72,"20241124":20.49,"20241125":23.5,"20241126":22.15,"20241127":21.26,"20241128":21.17,"20241129":20.8,"20241130":21.13,"20241201":22.53,"20241202":23.68,"20241203":24.13,"20241204":24.27,"20241205":23.63,"20241206":23.22,"20241207":23.19,"20241208":20.2,"20241209":21.22,"20241210":23.34,"20241211":23.6,"20241212":21.63,"20241213":20.2,"20241214":18.29,"20241215":16.78,"20241216":18.85,"20241217":20.94,"20241218":21.15,"20241219":17.97,"20241220":18.06,"20241221":20.48,"20241222":18.93,"20241223":17.69,"20241224":19.59,"20241225":20.94,"20241226":21.82,"20241227":21.62,"20241228":19.28,"20241229":17.51,"20241230":21.88,"20241231":21.96},"T2M_MIN":{"20240101":15.77,"20240102":13.91,"20240103":12.28,"20240104":13.91,"20240105":15.54,"20240106":15.87,"20240107":16.54,"20240108":16.63,"20240109":15.9,"20240110":15.69,"20240111":15.7,"20240112":16.24,"20240113":16.94,"20240114":15.98,"20240115":15.26,"20240116":15.77,"20240117":17.61,"20240118":17.21,"20240119":17.62,"20240120":12.66,"20240121":13.36,"20240122":5.6,"20240123":5.54,"20240124":6.33,"20240125":8.91,"20240126":12.12,"20240127":11.38,"20240128":12.49,"20240129":15.02,"20240130":17.11,"20240131":18.81,"20240201":18.64,"20240202":17.86,"20240203":18.04,"20240204":14.22,"20240205":15.15,"20240206":14.08,"20240207":10.61,"20240208":8.91,"20240209":10.64,"20240210":10.89,"20240211":12.77,"20240212":15.14,"20240213":16.47,"20240214":17.47,"20240215":15.24,"20240216":16.68,"20240217":19.18,"20240218":20.16,"20240219":20.26,"20240220":20.91,"20240221":21.32,"20240222":15.66,"20240223":14.11,"20240224":12.06,"20240225":13.13,"20240226":12.34,"20240227":13.4,"20240228":17.24,"20240229":11.12,"20240301":9.6,"20240302":10.48,"20240303":15.99,"20240304":20.6,"20240305":19.29,"20240306":16.31,"20240307":14.81,"20240308":16.23,"20240309":14.98,"20240310":15.56,"20240311":13.15,"20240312":15.61,"20240313":18.14,"20240314":18.25,"20240315":19.12,"20240316":19.82,"20240317":20.6,"20240318":16.51,"20240319":16.76,"20240320":17.1,"20240321":19.6,"20240322":21.01,"20240323":22.74,"20240324":22.2,"20240325":21.21,"20240326":21.23,"20240327":21.93,"20240328":22.28,"20240329":22.46,"20240330":23.98,"20240331":23.88,"20240401":24.7,"20240402":24.5,"20240403":24.96,"20240404":24.77,"20240405":23.38,"20240406":23.62,"20240407":23.46,"20240408":19.93,"20240409":20.47,"20240410":21.36,"20240411":22.52,"20240412":23.54,"20240413":24.19,"20240414":24.43,"20240415":24.59,"20240416":24.93,"20240417":25.35,"20240418":25.38,"20240419":25.44,"20240420":24.92,"20240421":24.88,"20240422":24.83,"20240423":23.01,"20240424":24.82,"20240425":25.23,"20240426":25.42,"20240427":26.09,"20240428":25.65,"20240429":26.19,"20240430":22.28,"20240501":21.24,"20240502":23.07,"20240503":24.1,"20240504":24.04,"20240505":24.62,"20240506":25.13,"20240507":24.13,"20240508":23.36,"20240509":23.27,"20240510":24.0,"20240511":24.92,"20240512":22.28,"20240513":22.39,"20240514":21.97,"20240515":23.33,"20240516":22.4,"20240517":22.55,"20240518":24.04,"20240519":24.34,"20240520":24.53,"20240521":24.61,"20240522":24.65,"20240523":24.67,"20240524":24.37,"20240525":25.16,"20240526":25.6,"20240527":26.79,"20240528":23.4,"20240529":23.48,"20240530":26.09,"20240531":26.91,"20240601":26.15,"20240602":25.91,"20240603":24.04,"20240604":24.23,"20240605":25.0,"20240606":25.14,"20240607":25.41,"20240608":26.13,"20240609":26.38,"20240610":26.55,"20240611":26.86,"20240612":27.23,"20240613":27.6,"20240614":27.41,"20240615":26.61,"20240616":27.45,"20240617":27.84,"20240618":27.63,"20240619":27.86,"20240620":27.85,"20240621":28.13,"20240622":28.04,"20240623":28.37,"20240624":28.17,"20240625":27.49,"20240626":26.91,"20240627":28.21,"20240628":28.3,"20240629":28.22,"20240630":28.58,"20240701":28.43,"20240702":27.35,"20240703":27.92,"20240704":28.33,"20240705":28.54,"20240706":28.82,"20240707":28.28,"20240708":27.81,"20240709":28.01,"20240710":28.2,"20240711":28.22,"20240712":28.38,"20240713":28.48,"20240714":28.81,"20240715":28.19,"20240716":28.4,"20240717":28.12,"20240718":28.04,"20240719":28.58,"20240720":28.41,"20240721":28.47,"20240722":28.28,"20240723":27.69,"20240724":28.42,"20240725":28.5,"20240726":28.78,"20240727":28.26,"20240728":27.21,"20240729":26.65,"20240730":26.82,"20240731":27.86,"20240801":27.82,"20240802":27.3,"20240803":26.75,"20240804":28.1,"20240805":28.53,"20240806":27.92,"20240807":28.05,"20240808":27.34,"20240809":28.03,"20240810":27.78,"20240811":27.25,"20240812":27.11,"20240813":27.32,"20240814":27.22,"20240815":26.95,"20240816":26.96,"20240817":27.53,"20240818":27.68,"20240819":27.73,"20240820":27.52,"20240821":27.15,"20240822":26.91,"20240823":26.88,"20240824":26.71,"20240825":26.44,"20240826":27.04,"20240827":27.64,"20240828":26.53,"20240829":27.04,"20240830":27.64,"20240831":27.49,"20240901":27.88,"20240902":27.46,"20240903":27.07,"20240904":27.01,"20240905":27.55,"20240906":28.37,"20240907":27.66,"20240908":26.89,"20240909":26.62,"20240910":27.51,"20240911":27.25,"20240912":27.09,"20240913":27.52,"20240914":26.03,"20240915":26.42,"20240916":27.47,"20240917":26.48,"20240918":27.18,"20240919":27.22,"20240920":27.05,"20240921":26.28,"20240922":23.1,"20240923":23.65,"20240924":26.35,"20240925":26.27,"20240926":26.33,"20240927":27.15,"20240928":26.43,"20240929":26.06,"20240930":26.22,"20241001":20.79,"20241002":20.17,"20241003":20.8,"20241004":21.9,"20241005":23.28,"20241006":23.77,"20241007":22.18,"20241008":21.96,"20241009":22.22,"20241010":23.11,"20241011":23.53,"20241012":23.77,"20241013":24.57,"20241014":24.46,"20241015":25.29,"20241016":24.84,"20241017":25.15,"20241018":25.21,"20241019":25.12,"20241020":23.58,"20241021":23.29,"20241022":20.52,"20241023":18.26,"20241024":18.81,"20241025":21.22,"20241026":22.03,"20241027":20.8,"20241028":21.84,"20241029":21.73,"20241030":20.31,"20241031":21.27,"20241101":20.7,"20241102":22.09,"20241103":22.73,"20241104":21.85,"20241105":21.3,"20241106":19.15,"20241107":17.76,"20241108":20.29,"20241109":22.78,"20241110":21.16,"20241111":21.34,"20241112":21.87,"20241113":22.48,"20241114":23.44,"20241115":23.78,"20241116":22.74,"20241117":20.93,"20241118":19.56,"20241119":18.1,"20241120":16.76,"20241121":16.48,"20241122":16.26,"20241123":17.64,"20241124":18.78,"20241125":15.16,"20241126":13.47,"20241127":13.48,"20241128":12.18,"20241129":13.88,"20241130":15.79,"20241201":17.01,"20241202":16.69,"20241203":18.8,"20241204":17.71,"20241205":15.98,"20241206":15.85,"20241207":13.39,"20241208":14.66,"20241209":15.71,"20241210":17.82,"20241211":13.18,"20241212":13.06,"20241213":11.08,"20241214":10.37,"20241215":11.03,"20241216":12.2,"20241217":13.01,"20241218":9.96,"20241219":9.14,"20241220":10.24,"20241221":10.42,"20241222":11.74,"20241223":12.55,"20241224":12.34,"20241225":13.45,"20241226":14.2,"20241227":12.4,"20241228":9.78,"20241229":11.82,"20241230":12.69,"20241231":14.46},"PRECTOTCORR":{"20240101":0.01,"20240102":0.02,"20240103":0.0,"20240104":0.01,"20240105":0.01,"20240106":0.0,"20240107":0.04,"20240108":0.12,"20240109":0.16,"20240110":0.01,"20240111":0.0,"20240112":0.0,"20240113":0.01,"20240114":0.0,"20240115":0.02,"20240116":0.06,"20240117":0.22,"20240118":0.05,"20240119":0.02,"20240120":0.01,"20240121":0.88,"20240122":2.31,"20240123":1.1,"20240124":0.06,"20240125":0.0,"20240126":0.03,"20240127":2.39,"20240128":1.34,"20240129":0.45,"20240130":0.27,"20240131":0.13,"20240201":0.11,"20240202":0.2,"20240203":0.15,"20240204":0.65,"20240205":0.39,"20240206":1.69,"20240207":4.37,"20240208":4.82,"20240209":1.28,"20240210":0.05,"20240211":0.0,"20240212":0.03,"20240213":0.02,"20240214":0.0,"20240215":0.0,"20240216":0.03,"20240217":0.04,"20240218":0.01,"20240219":0.01,"20240220":0.02,"20240221":0.02,"20240222":0.04,"20240223":0.08,"20240224":0.03,"20240225":0.08,"20240226":0.16,"20240227":0.14,"20240228":0.6,"20240229":0.5,"20240301":1.61,"20240302":1.27,"20240303":1.78,"20240304":1.07,"20240305":1.72,"20240306":2.58,"20240307":5.07,"20240308":1.09,"20240309":12.96,"20240310":15.59,"20240311":11.6,"20240312":0.64,"20240313":0.33,"20240314":2.57,"20240315":1.13,"20240316":0.37,"20240317":0.12,"20240318":1.4,"20240319":0.49,"20240320":0.05,"20240321":0.09,"20240322":0.05,"20240323":0.11,"20240324":0.04,"20240325":0.03,"20240326":0.02,"20240327":0.4,"20240328":0.69,"20240329":1.55,"20240330":1.5,"20240331":1.93,"20240401":2.08,"20240402":0.74,"20240403":1.26,"20240404":7.1,"20240405":10.93,"20240406":14.71,"20240407":11.56,"20240408":4.34,"20240409":1.85,"20240410":0.03,"20240411":0.0,"20240412":0.02,"20240413":0.18,"20240414":0.44,"20240415":0.38,"20240416":1.44,"20240417":14.42,"20240418":25.21,"20240419":15.98,"20240420":27.15,"20240421":27.85,"20240422":22.73,"20240423":30.67,"20240424":26.3,"20240425":27.08,"20240426":16.21,"20240427":38.42,"20240428":13.19,"20240429":4.35,"20240430":19.12,"20240501":72.06,"20240502":2.72,"20240503":8.14,"20240504":29.18,"20240505":4.42,"20240506":4.42,"20240507":2.64,"20240508":3.62,"20240509":0.31,"20240510":0.15,"20240511":4.17,"20240512":15.26,"20240513":7.33,"20240514":0.19,"20240515":0.0,"20240516":0.15,"20240517":3.25,"20240518":2.57,"20240519":10.48,"20240520":43.64,"20240521":13.94,"20240522":9.43,"20240523":16.94,"20240524":73.84,"20240525":10.56,"20240526":5.12,"20240527":9.0,"20240528":6.44,"20240529":4.98,"20240530":7.34,"20240531":30.78,"20240601":39.19,"20240602":9.33,"20240603":18.37,"20240604":16.02,"20240605":5.07,"20240606":13.09,"20240607":13.88,"20240608":16.85,"20240609":14.57,"20240610":6.49,"20240611":4.94,"20240612":8.55,"20240613":14.15,"20240614":21.13,"20240615":31.07,"20240616":19.01,"20240617":10.12,"20240618":8.4,"20240619":6.76,"20240620":1.36,"20240621":0.97,"20240622":2.53,"20240623":6.43,"20240624":5.71,"20240625":4.98,"20240626":3.04,"20240627":2.42,"20240628":3.42,"20240629":5.64,"20240630":7.26,"20240701":2.99,"20240702":3.43,"20240703":2.19,"20240704":3.04,"20240705":2.72,"20240706":1.44,"20240707":1.35,"20240708":1.71,"20240709":0.99,"20240710":1.26,"20240711":2.64,"20240712":4.09,"20240713":2.9,"20240714":4.91,"20240715":11.1,"20240716":11.46,"20240717":12.36,"20240718":11.45,"20240719":7.71,"20240720":4.36,"20240721":54.37,"20240722":4.45,"20240723":1.46,"20240724":2.25,"20240725":17.53,"20240726":17.79,"20240727":25.94,"20240728":27.83,"20240729":9.99,"20240730":40.94,"20240731":10.95,"20240801":5.78,"20240802":2.34,"20240803":0.64,"20240804":0.42,"20240805":2.1,"20240806":3.64,"20240807":0.49,"20240808":0.17,"20240809":0.76,"20240810":4.13,"20240811":5.83,"20240812":10.87,"20240813":10.77,"20240814":15.78,"20240815":15.24,"20240816":124.37,"20240817":27.63,"20240818":51.91,"20240819":22.32,"20240820":53.02,"20240821":14.81,"20240822":3.71,"20240823":2.47,"20240824":1.49,"20240825":1.31,"20240826":0.93,"20240827":2.49,"20240828":7.99,"20240829":6.6,"20240830":6.44,"20240831":8.91,"20240901":5.93,"20240902":4.07,"20240903":0.84,"20240904":4.03,"20240905":15.62,"20240906":38.45,"20240907":13.06,"20240908":6.88,"20240909":6.3,"20240910":2.12,"20240911":0.93,"20240912":4.74,"20240913":7.17,"20240914":14.96,"20240915":21.08,"20240916":1.08,"20240917":3.48,"20240918":1.79,"20240919":1.35,"20240920":13.89,"20240921":5.66,"20240922":9.52,"20240923":66.79,"20240924":11.45,"20240925":2.12,"20240926":1.61,"20240927":5.13,"20240928":7.07,"20240929":0.63,"20240930":0.06,"20241001":0.15,"20241002":0.04,"20241003":0.0,"20241004":0.03,"20241005":0.04,"20241006":0.04,"20241007":0.06,"20241008":0.91,"20241009":0.58,"20241010":0.61,"20241011":1.41,"20241012":0.13,"20241013":0.02,"20241014":0.04,"20241015":0.33,"20241016":0.5,"20241017":0.06,"20241018":0.14,"20241019":1.14,"20241020":0.11,"20241021":0.08,"20241022":0.06,"20241023":0.0,"20241024":0.0,"20241025":0.53,"20241026":1.08,"20241027":0.64,"20241028":0.62,"20241029":0.16,"20241030":0.0,"20241031":0.0,"20241101":0.01,"20241102":0.05,"20241103":0.05,"20241104":0.14,"20241105":0.25,"20241106":0.02,"20241107":0.0,"20241108":0.12,"20241109":0.57,"20241110":0.59,"20241111":0.0,"20241112":0.01,"20241113":17.06,"20241114":6.07,"20241115":4.44,"20241116":6.91,"20241117":10.45,"20241118":3.92,"20241119":51.11,"20241120":41.19,"20241121":2.77,"20241122":0.29,"20241123":0.8,"20241124":8.78,"20241125":2.77,"20241126":0.25,"20241127":0.0,"20241128":0.0,"20241129":0.0,"20241130":0.0,"20241201":0.0,"20241202":0.0,"20241203":0.03,"20241204":0.01,"20241205":0.0,"20241206":0.0,"20241207":0.01,"20241208":0.14,"20241209":0.02,"20241210":0.06,"20241211":0.01,"20241212":0.01,"20241213":0.0,"20241214":0.0,"20241215":0.0,"20241216":0.0,"20241217":0.0,"20241218":0.0,"20241219":0.0,"20241220":0.0,"20241221":0.0,"20241222":0.01,"20241223":0.11,"20241224":0.07,"20241225":0.16,"20241226":0.19,"20241227":0.23,"20241228":0.0,"20241229":0.0,"20241230":0.0,"20241231":0.17},"WS10M":{"20240101":4.72,"20240102":4.3,"20240103":6.9,"20240104":3.68,"20240105":2.19,"20240106":2.64,"20240107":5.54,"20240108":3.73,"20240109":3.77,"20240110":4.67,"20240111":3.08,"20240112":2.28,"20240113":5.12,"20240114":3.57,"20240115":6.24,"20240116":5.69,"20240117":4.75,"20240118":3.38,"20240119":3.28,"20240120":6.85,"20240121":5.92,"20240122":9.61,"20240123":8.64,"20240124":5.91,"20240125":4.59,"20240126":3.78,"20240127":4.84,"20240128":3.82,"20240129":4.22,"20240130":3.62,"20240131":3.46,"20240201":2.19,"20240202":4.7,"20240203":3.31,"20240204":4.59,"20240205":4.59,"20240206":4.86,"20240207":6.6,"20240208":6.52,"20240209":5.69,"20240210":3.94,"20240211":4.89,"20240212":5.2,"20240213":3.53,"20240214":2.29,"20240215":3.57,"20240216":4.61,"20240217":4.26,"20240218":3.61,"20240219":3.56,"20240220":4.46,"20240221":3.14,"20240222":4.26,"20240223":5.66,"20240224":5.21,"20240225":4.75,"20240226":4.88,"20240227":4.0,"20240228":3.71,"20240229":7.07,"20240301":7.65,"20240302":3.02,"20240303":5.54,"20240304":6.77,"20240305":4.89,"20240306":5.37,"20240307":5.4,"20240308":4.91,"20240309":6.44,"20240310":6.27,"20240311":4.56,"20240312":5.06,"20240313":6.69,"20240314":5.01,"20240315":5.78,"20240316":3.21,"20240317":1.84,"20240318":4.58,"20240319":5.7,"20240320":4.71,"20240321":3.89,"20240322":4.5,"20240323":5.05,"20240324":3.14,"20240325":3.04,"20240326":4.68,"20240327":4.68,"20240328":2.25,"20240329":2.0,"20240330":3.79,"20240331":4.25,"20240401":6.08,"20240402":6.4,"20240403":4.78,"20240404":4.77,"20240405":5.37,"20240406":5.01,"20240407":3.04,"20240408":4.27,"20240409":5.34,"20240410":3.26,"20240411":2.13,"20240412":1.88,"20240413":3.08,"20240414":2.84,"20240415":2.81,"20240416":4.01,"20240417":3.82,"20240418":3.64,"20240419":6.04,"20240420":4.61,"20240421":4.58,"20240422":3.25,"20240423":4.25,"20240424":3.35,"20240425":4.77,"20240426":4.67,"20240427":5.05,"20240428":5.15,"20240429":5.33,"20240430":4.0,"20240501":4.4,"20240502":4.93,"20240503":5.55,"20240504":4.32,"20240505":1.86,"20240506":1.0,"20240507":2.61,"20240508":3.37,"20240509":5.59,"20240510":5.12,"20240511":3.0,"20240512":3.09,"20240513":4.25,"20240514":3.64,"20240515":2.77,"20240516":5.42,"20240517":2.97,"20240518":3.95,"20240519":7.01,"20240520":6.2,"20240521":2.32,"20240522":1.55,"20240523":2.61,"20240524":3.12,"20240525":2.68,"20240526":2.94,"20240527":4.62,"20240528":5.39,"20240529":6.69,"20240530":6.51,"20240531":7.92,"20240601":7.08,"20240602":2.88,"20240603":6.09,"20240604":6.96,"20240605":3.62,"20240606":1.94,"20240607":3.77,"20240608":3.97,"20240609":3.41,"20240610":3.09,"20240611":2.81,"20240612":3.54,"20240613":3.88,"20240614":3.83,"20240615":3.81,"20240616":4.31,"20240617":3.24,"20240618":3.27,"20240619":3.83,"20240620":3.06,"20240621":3.92,"20240622":3.88,"20240623":5.08,"20240624":4.73,"20240625":3.16,"20240626":3.12,"20240627":3.65,"20240628":3.7,"20240629":5.65,"20240630":5.97,"20240701":6.12,"20240702":5.25,"20240703":3.68,"20240704":2.26,"20240705":3.02,"20240706":3.12,"20240707":3.5,"20240708":3.21,"20240709":3.18,"20240710":3.65,"20240711":3.52,"20240712":3.98,"20240713":3.73,"20240714":4.93,"20240715":4.7,"20240716":5.16,"20240717":5.15,"20240718":4.06,"20240719":3.74,"20240720":4.81,"20240721":4.87,"20240722":3.36,"20240723":3.19,"20240724":4.97,"20240725":9.24,"20240726":6.48,"20240727":5.47,"20240728":5.49,"20240729":4.32,"20240730":4.26,"20240731":4.94,"20240801":4.44,"20240802":3.64,"20240803":2.87,"20240804":2.48,"20240805":2.4,"20240806":1.77,"20240807":2.87,"20240808":3.66,"20240809":3.84,"20240810":3.09,"20240811":2.18,"20240812":1.95,"20240813":1.98,"20240814":2.09,"20240815":2.42,"20240816":3.72,"20240817":4.0,"20240818":5.05,"20240819":4.87,"20240820":5.59,"20240821":4.16,"20240822":2.86,"20240823":2.61,"20240824":2.09,"20240825":2.07,"20240826":2.44,"20240827":2.97,"20240828":2.56,"20240829":2.96,"20240830":3.42,"20240831":3.79,"20240901":2.02,"20240902":1.51,"20240903":1.98,"20240904":4.47,"20240905":11.28,"20240906":8.73,"20240907":4.29,"20240908":2.09,"20240909":1.93,"20240910":1.61,"20240911":1.55,"20240912":1.56,"20240913":1.66,"20240914":1.86,"20240915":2.05,"20240916":3.59,"20240917":4.5,"20240918":5.36,"20240919":2.49,"20240920":2.48,"20240921":3.78,"20240922":7.08,"20240923":4.66,"20240924":3.77,"20240925":2.26,"20240926":2.5,"20240927":2.5,"20240928":3.18,"20240929":2.56,"20240930":4.69,"20241001":9.26,"20241002":7.73,"20241003":5.65,"20241004":4.56,"20241005":3.94,"20241006":2.9,"20241007":5.09,"20241008":4.32,"20241009":3.93,"20241010":2.91,"20241011":3.94,"20241012":4.11,"20241013":4.05,"20241014":4.07,"20241015":3.15,"20241016":4.78,"20241017":3.99,"20241018":2.66,"20241019":3.71,"20241020":5.33,"20241021":3.83,"20241022":7.02,"20241023":8.12,"20241024":7.33,"20241025":8.29,"20241026":7.09,"20241027":5.84,"20241028":5.49,"20241029":3.87,"20241030":5.02,"20241031":7.18,"20241101":7.07,"20241102":4.44,"20241103":2.95,"20241104":3.9,"20241105":4.66,"20241106":5.42,"20241107":4.75,"20241108":4.47,"20241109":6.91,"20241110":4.76,"20241111":4.44,"20241112":3.95,"20241113":8.94,"20241114":5.9,"20241115":1.04,"20241116":1.35,"20241117":4.95,"20241118":7.18,"20241119":7.71,"20241120":7.12,"20241121":5.96,"20241122":5.44,"20241123":4.57,"20241124":4.75,"20241125":5.49,"20241126":6.94,"20241127":6.52,"20241128":6.59,"20241129":4.62,"20241130":2.36,"20241201":1.86,"20241202":2.61,"20241203":3.58,"20241204":3.88,"20241205":4.17,"20241206":5.07,"20241207":6.86,"20241208":5.31,"20241209":3.56,"20241210":4.2,"20241211":7.1,"20241212":6.09,"20241213":8.62,"20241214":8.16,"20241215":5.47,"20241216":3.63,"20241217":3.95,"20241218":6.46,"20241219":6.21,"20241220":4.48,"20241221":6.85,"20241222":5.27,"20241223":5.72,"20241224":5.34,"20241225":4.25,"20241226":5.04,"20241227":6.13,"20241228":6.65,"20241229":4.1,"20241230":3.98,"20241231":3.95},"RH2M":{"20240101":81.0,"20240102":72.81,"20240103":64.8,"20240104":75.41,"20240105":78.62,"20240106":72.5,"20240107":77.49,"20240108":82.95,"20240109":77.02,"20240110":70.48,"20240111":70.69,"20240112":70.62,"20240113":73.98,"20240114":79.04,"20240115":73.04,"20240116":80.7,"20240117":83.18,"20240118":85.79,"20240119":81.6,"20240120":68.57,"20240121":66.16,"20240122":75.25,"20240123":68.06,"20240124":61.29,"20240125":68.98,"20240126":72.29,"20240127":77.7,"20240128":84.59,"20240129":86.05,"20240130":88.27,"20240131":87.97,"20240201":86.53,"20240202":85.31,"20240203":83.7,"20240204":77.84,"20240205":76.17,"20240206":79.62,"20240207":80.51,"20240208":80.68,"20240209":73.8,"20240210":70.02,"20240211":59.53,"20240212":73.25,"20240213":83.68,"20240214":79.07,"20240215":67.59,"20240216":78.33,"20240217":83.49,"20240218":85.35,"20240219":89.35,"20240220":87.16,"20240221":84.68,"20240222":72.66,"20240223":71.24,"20240224":70.34,"20240225":73.01,"20240226":73.71,"20240227":72.89,"20240228":85.07,"20240229":74.21,"20240301":72.51,"20240302":72.89,"20240303":82.97,"20240304":87.74,"20240305":86.36,"20240306":69.22,"20240307":71.22,"20240308":66.67,"20240309":78.18,"20240310":84.14,"20240311":85.95,"20240312":65.26,"20240313":76.03,"20240314":83.36,"20240315":86.27,"20240316":88.52,"20240317":84.69,"20240318":82.27,"20240319":62.12,"20240320":64.64,"20240321":70.79,"20240322":82.65,"20240323":86.17,"20240324":83.98,"20240325":77.35,"20240326":71.4,"20240327":83.29,"20240328":82.54,"20240329":82.24,"20240330":83.73,"20240331":87.32,"20240401":85.97,"20240402":81.77,"20240403":83.57,"20240404":86.54,"20240405":85.15,"20240406":89.33,"20240407":87.92,"20240408":82.39,"20240409":78.03,"20240410":72.65,"20240411":74.84,"20240412":73.48,"20240413":78.99,"20240414":80.75,"20240415":87.46,"20240416":80.57,"20240417":85.58,"20240418":88.74,"20240419":87.39,"20240420":91.01,"20240421":91.93,"20240422":91.06,"20240423":91.63,"20240424":85.46,"20240425":93.85,"20240426":92.33,"20240427":89.68,"20240428":92.24,"20240429":91.46,"20240430":91.79,"20240501":88.05,"20240502":85.91,"20240503":88.49,"20240504":93.98,"20240505":89.6,"20240506":84.2,"20240507":87.16,"20240508":82.34,"20240509":78.61,"20240510":85.69,"20240511":91.38,"20240512":86.6,"20240513":81.95,"20240514":71.26,"20240515":69.38,"20240516":72.67,"20240517":76.93,"20240518":77.84,"20240519":88.43,"20240520":92.71,"20240521":90.75,"20240522":87.88,"20240523":90.42,"20240524":88.89,"20240525":90.55,"20240526":87.39,"20240527":91.48,"20240528":82.48,"20240529":87.3,"20240530":91.84,"20240531":92.12,"20240601":92.83,"20240602":89.04,"20240603":89.75,"20240604":89.75,"20240605":91.79,"20240606":88.54,"20240607":90.82,"20240608":89.78,"20240609":93.03,"20240610":92.2,"20240611":92.03,"20240612":91.94,"20240613":92.79,"20240614":92.69,"20240615":93.37,"20240616":92.25,"20240617":89.19,"20240618":90.71,"20240619":89.03,"20240620":87.64,"20240621":80.9,"20240622":85.75,"20240623":85.48,"20240624":85.78,"20240625":85.05,"20240626":77.67,"20240627":83.87,"20240628":83.56,"20240629":86.83,"20240630":87.71,"20240701":84.94,"20240702":81.95,"20240703":81.37,"20240704":76.91,"20240705":81.14,"20240706":79.85,"20240707":80.53,"20240708":78.1,"20240709":78.74,"20240710":79.97,"20240711":82.56,"20240712":82.91,"20240713":83.58,"20240714":83.57,"20240715":85.09,"20240716":85.37,"20240717":83.89,"20240718":86.29,"20240719":85.42,"20240720":85.31,"20240721":86.64,"20240722":85.2,"20240723":83.78,"20240724":84.24,"20240725":86.4,"20240726":90.62,"20240727":90.91,"20240728":91.44,"20240729":89.48,"20240730":88.9,"20240731":88.03,"20240801":85.75,"20240802":85.96,"20240803":81.75,"20240804":79.44,"20240805":77.8,"20240806":78.52,"20240807":82.5,"20240808":83.45,"20240809":83.39,"20240810":87.42,"20240811":85.64,"20240812":82.52,"20240813":82.18,"20240814":84.06,"20240815":87.09,"20240816":86.53,"20240817":90.2,"20240818":90.28,"20240819":90.43,"20240820":91.16,"20240821":89.36,"20240822":89.25,"20240823":87.9,"20240824":82.63,"20240825":80.3,"20240826":81.5,"20240827":82.07,"20240828":85.56,"20240829":86.54,"20240830":87.25,"20240831":85.57,"20240901":82.52,"20240902":79.8,"20240903":77.02,"20240904":78.42,"20240905":84.54,"20240906":89.62,"20240907":90.25,"20240908":85.94,"20240909":81.15,"20240910":80.34,"20240911":79.64,"20240912":80.88,"20240913":79.97,"20240914":73.18,"20240915":77.82,"20240916":80.77,"20240917":82.76,"20240918":83.45,"20240919":78.92,"20240920":86.85,"20240921":87.93,"20240922":88.79,"20240923":90.72,"20240924":89.49,"20240925":84.11,"20240926":81.17,"20240927":82.09,"20240928":80.34,"20240929":75.91,"20240930":76.68,"20241001":75.74,"20241002":72.74,"20241003":68.38,"20241004":72.46,"20241005":77.87,"20241006":74.95,"20241007":76.38,"20241008":77.57,"20241009":77.68,"20241010":75.14,"20241011":78.32,"20241012":75.26,"20241013":78.79,"20241014":80.37,"20241015":80.27,"20241016":81.66,"20241017":83.47,"20241018":78.97,"20241019":80.56,"20241020":80.93,"20241021":78.76,"20241022":75.16,"20241023":70.23,"20241024":66.74,"20241025":73.0,"20241026":83.12,"20241027":78.09,"20241028":77.51,"20241029":77.93,"20241030":72.33,"20241031":72.17,"20241101":73.31,"20241102":75.94,"20241103":73.19,"20241104":75.94,"20241105":71.75,"20241106":68.88,"20241107":59.7,"20241108":65.05,"20241109":78.18,"20241110":82.71,"20241111":78.86,"20241112":77.39,"20241113":83.91,"20241114":89.22,"20241115":82.76,"20241116":83.81,"20241117":84.42,"20241118":74.11,"20241119":84.78,"20241120":87.78,"20241121":84.35,"20241122":78.97,"20241123":77.37,"20241124":83.81,"20241125":80.4,"20241126":66.61,"20241127":62.22,"20241128":59.55,"20241129":54.82,"20241130":59.91,"20241201":66.53,"20241202":77.27,"20241203":83.83,"20241204":81.18,"20241205":76.48,"20241206":77.67,"20241207":74.89,"20241208":75.89,"20241209":77.42,"20241210":80.62,"20241211":72.52,"20241212":73.5,"20241213":66.68,"20241214":61.64,"20241215":58.25,"20241216":56.7,"20241217":62.03,"20241218":59.4,"20241219":60.8,"20241220":59.08,"20241221":60.16,"20241222":63.84,"20241223":67.19,"20241224":72.29,"20241225":78.88,"20241226":72.12,"20241227":63.55,"20241228":55.49,"20241229":73.08,"20241230":67.42,"20241231":66.53}}},"header":{"title":"NASA/POWER Source Native Resolution Daily Data","api":{"version":"v2.9.6","name":"POWER Daily API"},"sources":["MERRA2","POWER"],"fill_value":-999.0,"time_standard":"UTC","start":"20240101","end":"20241231"},"messages":[],"parameters":{"T2M":{"units":"C","longname":"Temperature at 2 Meters"},"T2M_MAX":{"units":"C","longname":"Temperature at 2 Meters Maximum"},"T2M_MIN":{"units":"C","longname":"Temperature at 2 Meters Minimum"},"PRECTOTCORR":{"units":"mm/day","longname":"Precipitation Corrected"},"WS10M":{"units":"m/s","longname":"Wind Speed at 10 Meters"},"RH2M":{"units":"%","longname":"Relative Humidity at 2 Meters"}},"times":{"data":0.946,"process":0.01}}