{"type":"Feature","geometry":{"type":"Point","coordinates":[3.395,6.454,25.49]},"properties":{"parameter":{"T2M":{"20240101":27.57,"20240102":27.82,"20240103":27.96,"20240104":28.18,"20240105":27.89,"20240106":27.93,"20240107":28.0,"20240108":28.15,"20240109":28.01,"20240110":28.07,"20240111":28.15,"20240112":27.67,"20240113":27.78,"20240114":28.05,"20240115":27.96,"20240116":27.16,"20240117":27.2,"20240118":26.79,"20240119":27.31,"20240120":27.59,"20240121":27.28,"20240122":27.24,"20240123":27.8,"20240124":28.35,"20240125":26.36,"20240126":26.56,"20240127":26.44,"20240128":25.8,"20240129":26.23,"20240130":27.1,"20240131":27.61,"20240201":27.78,"20240202":27.97,"20240203":26.61,"20240204":26.35,"20240205":26.45,"20240206":26.13,"20240207":25.58,"20240208":25.61,"20240209":26.54,"20240210":27.41,"20240211":28.26,"20240212":27.83,"20240213":28.17,"20240214":28.78,"20240215":29.01,"20240216":28.59,"20240217":28.1,"20240218":28.43,"20240219":28.76,"20240220":28.67,"20240221":28.25,"20240222":28.3,"20240223":28.25,"20240224":28.25,"20240225":28.57,"20240226":28.51,"20240227":28.56,"20240228":28.17,"20240229":28.33,"20240301":28.29,"20240302":28.18,"20240303":27.93,"20240304":27.81,"20240305":28.06,"20240306":28.16,"20240307":28.0,"20240308":27.97,"20240309":27.85,"20240310":28.16,"20240311":28.48,"20240312":28.66,"20240313":28.52,"20240314":28.23,"20240315":29.06,"20240316":28.74,"20240317":28.83,"20240318":28.65,"20240319":28.84,"20240320":29.05,"20240321":28.88,"20240322":28.81,"20240323":28.68,"20240324":28.72,"20240325":28.72,"20240326":28.7,"20240327":29.02,"20240328":29.23,"20240329":29.14,"20240330":29.08,"20240331":28.91,"20240401":29.08,"20240402":28.83,"20240403":28.61,"20240404":28.9,"20240405":28.58,"20240406":28.53,"20240407":28.33,"20240408":28.26,"20240409":28.57,"20240410":28.7,"20240411":28.7,"20240412":28.77,"20240413":28.76,"20240414":28.7,"20240415":28.95,"20240416":28.74,"20240417":28.47,"20240418":28.65,"20240419":28.82,"20240420":28.94,"20240421":28.46,"20240422":28.53,"20240423":28.53,"20240424":28.51,"20240425":28.52,"20240426":28.58,"20240427":28.85,"20240428":28.65,"20240429":28.46,"20240430":28.79,"20240501":28.16,"20240502":27.89,"20240503":28.25,"20240504":28.76,"20240505":28.76,"20240506":28.61,"20240507":28.45,"20240508":28.65,"20240509":28.78,"20240510":28.75,"20240511":28.58,"20240512":28.1,"20240513":28.12,"20240514":28.14,"20240515":28.73,"20240516":27.87,"20240517":27.93,"20240518":28.24,"20240519":28.61,"20240520":28.59,"20240521":28.29,"20240522":27.94,"20240523":27.65,"20240524":27.64,"20240525":27.04,"20240526":28.13,"20240527":27.78,"20240528":27.76,"20240529":28.31,"20240530":28.13,"20240531":28.01,"20240601":28.08,"20240602":27.35,"20240603":27.41,"20240604":27.93,"20240605":27.38,"20240606":27.19,"20240607":26.76,"20240608":27.13,"20240609":27.18,"20240610":27.26,"20240611":27.4,"20240612":27.11,"20240613":27.57,"20240614":27.07,"20240615":26.23,"20240616":26.25,"20240617":27.21,"20240618":27.58,"20240619":27.4,"20240620":26.98,"20240621":26.45,"20240622":26.66,"20240623":26.56,"20240624":26.79,"20240625":26.66,"20240626":26.27,"20240627":26.81,"20240628":26.79,"20240629":26.33,"20240630":26.64,"20240701":26.64,"20240702":26.5,"20240703":26.06,"20240704":26.17,"20240705":26.2,"20240706":25.89,"20240707":26.16,"20240708":25.74,"20240709":25.79,"20240710":25.89,"20240711":25.76,"20240712":25.73,"20240713":25.47,"20240714":25.92,"20240715":25.77,"20240716":25.33,"20240717":25.57,"20240718":25.68,"20240719":25.53,"20240720":25.32,"20240721":25.55,"20240722":25.43,"20240723":25.42,"20240724":25.56,"20240725":25.37,"20240726":25.52,"20240727":25.53,"20240728":25.54,"20240729":25.48,"20240730":25.4,"20240731":25.43,"20240801":25.36,"20240802":25.47,"20240803":25.42,"20240804":25.41,"20240805":25.39,"20240806":25.31,"20240807":25.4,"20240808":25.46,"20240809":25.31,"20240810":25.49,"20240811":25.41,"20240812":25.44,"20240813":25.66,"20240814":25.74,"20240815":25.63,"20240816":25.35,"20240817":25.45,"20240818":25.28,"20240819":25.07,"20240820":25.19,"20240821":25.58,"20240822":25.86,"20240823":25.18,"20240824":25.09,"20240825":25.47,"20240826":25.14,"20240827":25.55,"20240828":25.59,"20240829":25.41,"20240830":25.33,"20240831":25.1,"20240901":25.23,"20240902":25.32,"20240903":25.33,"20240904":25.59,"20240905":25.4,"20240906":25.61,"20240907":25.09,"20240908":25.69,"20240909":26.04,"20240910":25.63,"20240911":25.59,"20240912":25.76,"20240913":25.59,"20240914":25.47,"20240915":25.98,"20240916":26.12,"20240917":26.07,"20240918":25.54,"20240919":26.0,"20240920":25.91,"20240921":26.09,"20240922":26.13,"20240923":26.18,"20240924":26.07,"20240925":25.48,"20240926":26.09,"20240927":26.31,"20240928":26.28,"20240929":26.04,"20240930":26.44,"20241001":26.47,"20241002":26.58,"20241003":26.3,"20241004":26.23,"20241005":25.81,"20241006":25.92,"20241007":26.08,"20241008":26.35,"20241009":26.07,"20241010":26.47,"20241011":26.32,"20241012":26.14,"20241013":26.3,"20241014":25.65,"20241015":26.57,"20241016":25.77,"20241017":25.77,"20241018":26.35,"20241019":26.43,"20241020":26.37,"20241021":26.45,"20241022":26.64,"20241023":26.72,"20241024":27.16,"20241025":26.48,"20241026":27.01,"20241027":27.18,"20241028":26.91,"20241029":27.18,"20241030":27.15,"20241031":27.74,"20241101":27.32,"20241102":26.76,"20241103":27.19,"20241104":27.79,"20241105":26.99,"20241106":27.2,"20241107":27.16,"20241108":27.05,"20241109":26.98,"20241110":27.0,"20241111":27.33,"20241112":27.86,"20241113":27.71,"20241114":27.54,"20241115":27.38,"20241116":27.73,"20241117":27.31,"20241118":27.68,"20241119":27.09,"20241120":26.77,"20241121":27.21,"20241122":27.49,"20241123":27.04,"20241124":26.8,"20241125":26.3,"20241126":26.21,"20241127":26.41,"20241128":26.68,"20241129":26.57,"20241130":26.09,"20241201":25.89,"20241202":26.6,"20241203":26.61,"20241204":26.91,"20241205":26.98,"20241206":26.85,"20241207":26.27,"20241208":26.17,"20241209":26.71,"20241210":26.37,"20241211":25.98,"20241212":27.63,"20241213":27.78,"20241214":26.87,"20241215":26.96,"20241216":26.37,"20241217":26.41,"20241218":25.99,"20241219":25.52,"20241220":24.69,"20241221":24.14,"20241222":24.74,"20241223":25.99,"20241224":26.32,"20241225":26.56,"20241226":26.55,"20241227":26.65,"20241228":26.62,"20241229":26.56,"20241230":27.24,"20241231":27.33},"T2M_MAX":{"20240101":30.79,"20240102":30.73,"20240103":30.76,"20240104":31.05,"20240105":29.94,"20240106":30.13,"20240107":30.4,"20240108":30.68,"20240109":30.77,"20240110":31.01,"20240111":30.07,"20240112":30.68,"20240113":31.19,"20240114":31.25,"20240115":30.69,"20240116":30.42,"20240117":30.39,"20240118":30.41,"20240119":30.79,"20240120":30.76,"20240121":31.11,"20240122":31.34,"20240123":30.74,"20240124":31.74,"20240125":28.87,"20240126":29.89,"20240127":29.56,"20240128":29.94,"20240129":30.27,"20240130":30.78,"20240131":30.88,"20240201":30.61,"20240202":30.67,"20240203":28.65,"20240204":29.45,"20240205":28.82,"20240206":28.96,"20240207":28.9,"20240208":28.99,"20240209":30.31,"20240210":30.56,"20240211":31.63,"20240212":29.7,"20240213":30.65,"20240214":31.93,"20240215":31.96,"20240216":31.84,"20240217":30.58,"20240218":31.66,"20240219":31.65,"20240220":31.27,"20240221":29.95,"20240222":30.27,"20240223":30.29,"20240224":30.74,"20240225":31.86,"20240226":30.79,"20240227":31.02,"20240228":29.8,"20240229":30.05,"20240301":30.1,"20240302":30.03,"20240303":29.35,"20240304":30.2,"20240305":30.47,"20240306":30.44,"20240307":29.83,"20240308":30.04,"20240309":29.78,"20240310":30.14,"20240311":30.77,"20240312":31.04,"20240313":30.45,"20240314":29.98,"20240315":32.88,"20240316":31.47,"20240317":30.78,"20240318":30.51,"20240319":31.21,"20240320":31.73,"20240321":30.87,"20240322":30.89,"20240323":30.42,"20240324":30.67,"20240325":30.49,"20240326":30.54,"20240327":30.96,"20240328":31.92,"20240329":31.39,"20240330":30.98,"20240331":30.4,"20240401":30.78,"20240402":30.87,"20240403":30.14,"20240404":31.05,"20240405":30.35,"20240406":30.27,"20240407":30.17,"20240408":29.9,"20240409":30.58,"20240410":30.68,"20240411":31.26,"20240412":30.33,"20240413":30.64,"20240414":30.24,"20240415":31.25,"20240416":30.72,"20240417":30.11,"20240418":30.5,"20240419":30.12,"20240420":31.1,"20240421":29.85,"20240422":30.57,"20240423":29.63,"20240424":30.17,"20240425":30.17,"20240426":30.2,"20240427":30.77,"20240428":30.23,"20240429":29.86,"20240430":30.63,"20240501":29.49,"20240502":29.54,"20240503":29.66,"20240504":31.14,"20240505":30.51,"20240506":29.98,"20240507":29.89,"20240508":30.27,"20240509":30.59,"20240510":30.7,"20240511":30.67,"20240512":29.69,"20240513":29.9,"20240514":30.16,"20240515":30.9,"20240516":29.38,"20240517":30.14,"20240518":29.99,"20240519":30.6,"20240520":30.46,"20240521":29.6,"20240522":29.06,"20240523":28.97,"20240524":29.13,"20240525":27.73,"20240526":30.46,"20240527":29.35,"20240528":29.18,"20240529":30.22,"20240530":29.5,"20240531":29.33,"20240601":29.87,"20240602":28.67,"20240603":29.1,"20240604":29.99,"20240605":28.78,"20240606":28.32,"20240607":28.02,"20240608":29.37,"20240609":29.29,"20240610":29.01,"20240611":29.56,"20240612":28.91,"20240613":29.6,"20240614":28.3,"20240615":27.11,"20240616":27.79,"20240617":29.77,"20240618":30.05,"20240619":29.06,"20240620":28.13,"20240621":27.68,"20240622":29.21,"20240623":27.74,"20240624":28.67,"20240625":28.3,"20240626":28.05,"20240627":29.14,"20240628":28.64,"20240629":27.86,"20240630":28.59,"20240701":28.62,"20240702":27.81,"20240703":27.42,"20240704":28.2,"20240705":27.87,"20240706":27.04,"20240707":28.24,"20240708":27.34,"20240709":28.02,"20240710":28.25,"20240711":27.72,"20240712":27.09,"20240713":26.65,"20240714":28.01,"20240715":27.95,"20240716":27.0,"20240717":27.75,"20240718":28.04,"20240719":27.62,"20240720":26.79,"20240721":27.86,"20240722":27.89,"20240723":27.57,"20240724":27.83,"20240725":27.71,"20240726":28.08,"20240727":28.23,"20240728":27.33,"20240729":27.55,"20240730":27.75,"20240731":28.08,"20240801":27.62,"20240802":27.82,"20240803":28.14,"20240804":28.1,"20240805":28.04,"20240806":27.62,"20240807":27.92,"20240808":27.97,"20240809":27.81,"20240810":28.04,"20240811":27.51,"20240812":27.96,"20240813":28.07,"20240814":28.37,"20240815":28.35,"20240816":27.46,"20240817":27.31,"20240818":27.07,"20240819":26.77,"20240820":26.69,"20240821":28.07,"20240822":28.58,"20240823":26.6,"20240824":26.48,"20240825":27.49,"20240826":26.41,"20240827":27.98,"20240828":28.01,"20240829":28.06,"20240830":27.38,"20240831":26.94,"20240901":27.78,"20240902":28.11,"20240903":28.07,"20240904":28.46,"20240905":28.44,"20240906":28.58,"20240907":26.83,"20240908":28.22,"20240909":28.99,"20240910":27.41,"20240911":27.44,"20240912":27.85,"20240913":27.18,"20240914":27.0,"20240915":28.11,"20240916":28.35,"20240917":28.27,"20240918":27.07,"20240919":28.5,"20240920":27.95,"20240921":28.73,"20240922":28.04,"20240923":28.25,"20240924":28.21,"20240925":27.14,"20240926":28.73,"20240927":28.83,"20240928":28.47,"20240929":27.67,"20240930":28.94,"20241001":28.83,"20241002":29.11,"20241003":28.09,"20241004":27.8,"20241005":27.34,"20241006":27.94,"20241007":28.37,"20241008":29.16,"20241009":28.37,"20241010":29.45,"20241011":28.42,"20241012":27.22,"20241013":28.63,"20241014":27.11,"20241015":28.93,"20241016":26.75,"20241017":26.95,"20241018":28.81,"20241019":28.32,"20241020":28.12,"20241021":28.15,"20241022":28.6,"20241023":28.54,"20241024":29.66,"20241025":27.56,"20241026":29.49,"20241027":29.55,"20241028":28.11,"20241029":29.08,"20241030":29.57,"20241031":30.58,"20241101":29.3,"20241102":28.17,"20241103":29.08,"20241104":30.59,"20241105":30.26,"20241106":30.02,"20241107":29.08,"20241108":30.17,"20241109":28.93,"20241110":29.03,"20241111":29.79,"20241112":30.75,"20241113":30.27,"20241114":29.66,"20241115":29.48,"20241116":30.58,"20241117":29.76,"20241118":30.66,"20241119":29.73,"20241120":29.89,"20241121":30.48,"20241122":29.91,"20241123":29.54,"20241124":29.85,"20241125":28.83,"20241126":29.08,"20241127":29.28,"20241128":29.62,"20241129":29.51,"20241130":29.38,"20241201":29.16,"20241202":30.12,"20241203":29.98,"20241204":29.64,"20241205":30.27,"20241206":29.83,"20241207":29.61,"20241208":29.18,"20241209":29.34,"20241210":29.78,"20241211":29.01,"20241212":30.92,"20241213":30.63,"20241214":29.97,"20241215":30.3,"20241216":29.8,"20241217":29.66,"20241218":29.6,"20241219":28.73,"20241220":28.32,"20241221":27.98,"20241222":28.41,"20241223":29.53,"20241224":29.05,"20241225":30.45,"20241226":30.47,"20241227":30.04,"20241228":30.26,"20241229":29.05,"20241230":30.27,"20241231":30.95},"T2M_MIN":{"20240101":24.87,"20240102":25.9,"20240103":25.71,"20240104":25.98,"20240105":26.34,"20240106":26.25,"20240107":26.08,"20240108":26.15,"20240109":25.99,"20240110":25.76,"20240111":26.1,"20240112":25.08,"20240113":25.22,"20240114":25.33,"20240115":25.28,"20240116":24.05,"20240117":24.68,"20240118":24.43,"20240119":24.09,"20240120":24.17,"20240121":23.89,"20240122":24.28,"20240123":25.3,"20240124":25.92,"20240125":24.09,"20240126":22.19,"20240127":21.87,"20240128":21.75,"20240129":22.94,"20240130":23.71,"20240131":24.98,"20240201":25.66,"20240202":25.92,"20240203":24.75,"20240204":23.36,"20240205":24.7,"20240206":23.19,"20240207":21.68,"20240208":22.13,"20240209":23.3,"20240210":24.89,"20240211":25.85,"20240212":26.34,"20240213":26.45,"20240214":26.29,"20240215":26.81,"20240216":26.33,"20240217":26.1,"20240218":25.64,"20240219":26.45,"20240220":26.82,"20240221":26.72,"20240222":26.92,"20240223":26.75,"20240224":26.51,"20240225":26.05,"20240226":26.99,"20240227":26.72,"20240228":26.97,"20240229":27.08,"20240301":27.04,"20240302":26.81,"20240303":26.65,"20240304":25.93,"20240305":26.37,"20240306":26.61,"20240307":26.73,"20240308":26.53,"20240309":26.44,"20240310":26.44,"20240311":26.98,"20240312":26.94,"20240313":27.18,"20240314":27.06,"20240315":26.07,"20240316":26.6,"20240317":27.17,"20240318":27.19,"20240319":26.95,"20240320":27.07,"20240321":27.25,"20240322":27.29,"20240323":27.53,"20240324":27.16,"20240325":27.41,"20240326":27.08,"20240327":27.45,"20240328":27.0,"20240329":27.39,"20240330":27.69,"20240331":27.56,"20240401":27.79,"20240402":27.0,"20240403":27.52,"20240404":27.24,"20240405":27.55,"20240406":27.32,"20240407":26.66,"20240408":27.1,"20240409":26.77,"20240410":27.27,"20240411":26.4,"20240412":27.46,"20240413":27.38,"20240414":26.9,"20240415":27.26,"20240416":27.22,"20240417":27.08,"20240418":27.01,"20240419":27.75,"20240420":27.06,"20240421":27.29,"20240422":26.93,"20240423":27.54,"20240424":27.29,"20240425":27.28,"20240426":27.22,"20240427":27.2,"20240428":27.31,"20240429":27.42,"20240430":27.26,"20240501":26.86,"20240502":26.26,"20240503":27.1,"20240504":26.68,"20240505":27.07,"20240506":27.64,"20240507":27.14,"20240508":27.29,"20240509":27.02,"20240510":27.13,"20240511":27.17,"20240512":26.99,"20240513":26.6,"20240514":26.01,"20240515":26.88,"20240516":26.64,"20240517":26.38,"20240518":26.78,"20240519":26.93,"20240520":27.19,"20240521":26.94,"20240522":27.08,"20240523":26.64,"20240524":26.46,"20240525":26.38,"20240526":26.46,"20240527":25.99,"20240528":26.47,"20240529":26.86,"20240530":26.91,"20240531":27.14,"20240601":26.57,"20240602":26.22,"20240603":25.87,"20240604":26.3,"20240605":26.44,"20240606":26.52,"20240607":25.77,"20240608":25.35,"20240609":25.89,"20240610":25.92,"20240611":26.0,"20240612":25.58,"20240613":26.07,"20240614":26.18,"20240615":25.21,"20240616":24.93,"20240617":24.81,"20240618":25.42,"20240619":26.25,"20240620":26.16,"20240621":25.18,"20240622":24.5,"20240623":25.13,"20240624":25.36,"20240625":25.58,"20240626":24.99,"20240627":24.71,"20240628":25.61,"20240629":25.23,"20240630":25.04,"20240701":25.11,"20240702":25.8,"20240703":25.01,"20240704":24.74,"20240705":24.8,"20240706":24.92,"20240707":24.63,"20240708":24.62,"20240709":24.4,"20240710":24.08,"20240711":24.65,"20240712":24.71,"20240713":24.69,"20240714":24.48,"20240715":24.42,"20240716":24.4,"20240717":24.23,"20240718":24.16,"20240719":24.36,"20240720":24.44,"20240721":24.17,"20240722":23.64,"20240723":23.88,"20240724":23.93,"20240725":23.8,"20240726":23.87,"20240727":23.53,"20240728":24.24,"20240729":24.16,"20240730":23.75,"20240731":23.82,"20240801":23.85,"20240802":23.87,"20240803":23.65,"20240804":23.48,"20240805":23.61,"20240806":23.88,"20240807":23.7,"20240808":23.92,"20240809":23.59,"20240810":23.76,"20240811":23.86,"20240812":23.67,"20240813":24.11,"20240814":24.13,"20240815":23.68,"20240816":23.93,"20240817":24.23,"20240818":23.92,"20240819":23.96,"20240820":24.14,"20240821":23.77,"20240822":23.84,"20240823":24.48,"20240824":24.08,"20240825":23.84,"20240826":24.42,"20240827":24.16,"20240828":23.91,"20240829":23.8,"20240830":24.1,"20240831":24.08,"20240901":23.6,"20240902":23.38,"20240903":23.61,"20240904":23.66,"20240905":23.1,"20240906":23.38,"20240907":24.03,"20240908":23.87,"20240909":23.68,"20240910":24.55,"20240911":24.34,"20240912":24.36,"20240913":24.51,"20240914":24.54,"20240915":24.43,"20240916":24.74,"20240917":24.61,"20240918":24.38,"20240919":24.26,"20240920":24.44,"20240921":24.35,"20240922":25.03,"20240923":24.92,"20240924":24.48,"20240925":24.16,"20240926":23.75,"20240927":24.5,"20240928":24.93,"20240929":24.79,"20240930":24.81,"20241001":25.16,"20241002":24.97,"20241003":25.33,"20241004":25.24,"20241005":24.83,"20241006":24.52,"20241007":24.33,"20241008":24.32,"20241009":24.28,"20241010":24.71,"20241011":24.52,"20241012":25.34,"20241013":25.08,"20241014":24.45,"20241015":24.88,"20241016":24.86,"20241017":24.86,"20241018":24.55,"20241019":25.09,"20241020":25.15,"20241021":25.26,"20241022":25.25,"20241023":25.54,"20241024":25.11,"20241025":25.74,"20241026":25.18,"20241027":25.48,"20241028":25.97,"20241029":25.85,"20241030":25.59,"20241031":25.47,"20241101":25.55,"20241102":25.68,"20241103":25.55,"20241104":25.25,"20241105":23.73,"20241106":24.39,"20241107":25.92,"20241108":24.66,"20241109":25.62,"20241110":25.74,"20241111":25.69,"20241112":25.21,"20241113":25.48,"20241114":25.85,"20241115":25.73,"20241116":25.59,"20241117":25.61,"20241118":25.24,"20241119":24.73,"20241120":23.49,"20241121":24.26,"20241122":25.36,"20241123":25.16,"20241124":24.14,"20241125":23.84,"20241126":23.63,"20241127":23.72,"20241128":23.35,"20241129":23.63,"20241130":21.48,"20241201":21.94,"20241202":23.01,"20241203":23.54,"20241204":24.68,"20241205":23.81,"20241206":24.09,"20241207":22.8,"20241208":22.56,"20241209":23.24,"20241210":22.91,"20241211":23.31,"20241212":24.97,"20241213":25.36,"20241214":23.9,"20241215":23.54,"20241216":22.66,"20241217":22.69,"20241218":22.28,"20241219":21.45,"20241220":18.89,"20241221":18.39,"20241222":20.05,"20241223":22.24,"20241224":22.7,"20241225":23.24,"20241226":23.49,"20241227":23.31,"20241228":23.52,"20241229":25.0,"20241230":24.82,"20241231":24.38},"PRECTOTCORR":{"20240101":0.04,"20240102":0.13,"20240103":0.04,"20240104":0.05,"20240105":0.08,"20240106":0.41,"20240107":0.51,"20240108":0.51,"20240109":0.91,"20240110":0.86,"20240111":0.0,"20240112":0.0,"20240113":0.0,"20240114":0.0,"20240115":0.0,"20240116":0.0,"20240117":0.0,"20240118":0.0,"20240119":0.0,"20240120":0.0,"20240121":0.18,"20240122":0.35,"20240123":0.16,"20240124":0.57,"20240125":0.82,"20240126":0.0,"20240127":0.0,"20240128":0.0,"20240129":0.0,"20240130":0.0,"20240131":0.0,"20240201":0.0,"20240202":0.0,"20240203":0.0,"20240204":0.0,"20240205":0.0,"20240206":0.0,"20240207":0.0,"20240208":0.0,"20240209":0.0,"20240210":0.05,"20240211":0.09,"20240212":0.16,"20240213":0.26,"20240214":0.26,"20240215":0.63,"20240216":0.19,"20240217":0.29,"20240218":0.18,"20240219":0.52,"20240220":8.41,"20240221":17.08,"20240222":27.69,"20240223":1.95,"20240224":1.46,"20240225":0.02,"20240226":0.06,"20240227":0.08,"20240228":0.07,"20240229":0.16,"20240301":0.09,"20240302":4.78,"20240303":2.57,"20240304":1.19,"20240305":2.91,"20240306":3.31,"20240307":2.99,"20240308":3.53,"20240309":3.47,"20240310":1.86,"20240311":3.8,"20240312":0.54,"20240313":0.8,"20240314":1.43,"20240315":0.28,"20240316":0.68,"20240317":1.4,"20240318":1.65,"20240319":1.75,"20240320":0.8,"20240321":1.14,"20240322":0.14,"20240323":0.53,"20240324":0.27,"20240325":0.24,"20240326":0.19,"20240327":0.91,"20240328":1.39,"20240329":1.45,"20240330":1.32,"20240331":1.24,"20240401":1.3,"20240402":2.31,"20240403":4.62,"20240404":2.5,"20240405":6.31,"20240406":3.44,"20240407":1.39,"20240408":2.69,"20240409":0.33,"20240410":0.6,"20240411":2.95,"20240412":1.21,"20240413":3.21,"20240414":1.36,"20240415":3.17,"20240416":0.53,"20240417":0.28,"20240418":0.27,"20240419":0.54,"20240420":0.32,"20240421":9.96,"20240422":4.87,"20240423":11.56,"20240424":2.73,"20240425":2.9,"20240426":6.45,"20240427":3.63,"20240428":4.46,"20240429":13.38,"20240430":9.46,"20240501":20.29,"20240502":0.92,"20240503":6.04,"20240504":2.14,"20240505":2.99,"20240506":0.79,"20240507":0.36,"20240508":0.14,"20240509":0.56,"20240510":0.99,"20240511":7.48,"20240512":4.38,"20240513":2.52,"20240514":0.65,"20240515":3.52,"20240516":7.67,"20240517":6.58,"20240518":4.59,"20240519":3.65,"20240520":10.56,"20240521":9.86,"20240522":22.18,"20240523":8.75,"20240524":16.33,"20240525":23.24,"20240526":0.51,"20240527":3.04,"20240528":1.42,"20240529":0.77,"20240530":3.84,"20240531":2.66,"20240601":3.91,"20240602":5.62,"20240603":2.87,"20240604":5.03,"20240605":9.69,"20240606":17.95,"20240607":7.23,"20240608":3.25,"20240609":5.06,"20240610":6.36,"20240611":11.71,"20240612":3.0,"20240613":10.71,"20240614":13.15,"20240615":7.5,"20240616":3.22,"20240617":0.47,"20240618":0.81,"20240619":2.38,"20240620":7.53,"20240621":14.85,"20240622":2.47,"20240623":0.83,"20240624":4.52,"20240625":37.63,"20240626":55.39,"20240627":0.4,"20240628":9.7,"20240629":17.21,"20240630":7.55,"20240701":3.64,"20240702":34.47,"20240703":31.97,"20240704":5.3,"20240705":0.47,"20240706":0.44,"20240707":0.54,"20240708":1.9,"20240709":0.65,"20240710":2.63,"20240711":3.45,"20240712":4.23,"20240713":5.88,"20240714":1.73,"20240715":2.81,"20240716":1.49,"20240717":1.29,"20240718":0.77,"20240719":1.6,"20240720":2.58,"20240721":3.36,"20240722":0.71,"20240723":1.22,"20240724":0.58,"20240725":0.19,"20240726":0.1,"20240727":0.11,"20240728":0.53,"20240729":0.43,"20240730":1.27,"20240731":1.72,"20240801":1.72,"20240802":2.31,"20240803":0.6,"20240804":0.09,"20240805":0.13,"20240806":0.2,"20240807":0.21,"20240808":0.12,"20240809":0.02,"20240810":0.04,"20240811":0.09,"20240812":0.08,"20240813":0.19,"20240814":0.32,"20240815":0.16,"20240816":0.29,"20240817":0.31,"20240818":0.18,"20240819":26.02,"20240820":8.35,"20240821":1.25,"20240822":0.93,"20240823":14.35,"20240824":5.82,"20240825":3.82,"20240826":4.44,"20240827":4.08,"20240828":1.87,"20240829":1.67,"20240830":5.13,"20240831":2.62,"20240901":1.65,"20240902":0.39,"20240903":0.67,"20240904":0.66,"20240905":0.55,"20240906":0.88,"20240907":12.23,"20240908":2.03,"20240909":1.06,"20240910":30.43,"20240911":9.42,"20240912":11.72,"20240913":8.14,"20240914":9.04,"20240915":3.56,"20240916":4.8,"20240917":6.59,"20240918":9.44,"20240919":1.81,"20240920":0.76,"20240921":1.01,"20240922":1.73,"20240923":4.71,"20240924":6.0,"20240925":4.69,"20240926":1.02,"20240927":3.18,"20240928":2.35,"20240929":4.06,"20240930":7.45,"20241001":8.31,"20241002":4.54,"20241003":16.81,"20241004":10.01,"20241005":23.64,"20241006":3.12,"20241007":2.22,"20241008":15.16,"20241009":28.9,"20241010":1.63,"20241011":3.23,"20241012":8.34,"20241013":13.52,"20241014":7.51,"20241015":6.38,"20241016":12.88,"20241017":18.62,"20241018":4.62,"20241019":10.89,"20241020":8.69,"20241021":4.93,"20241022":7.28,"20241023":11.27,"20241024":5.55,"20241025":19.2,"20241026":2.74,"20241027":4.43,"20241028":7.84,"20241029":6.57,"20241030":1.85,"20241031":3.25,"20241101":3.8,"20241102":9.56,"20241103":6.55,"20241104":6.0,"20241105":1.32,"20241106":6.44,"20241107":3.01,"20241108":2.27,"20241109":3.96,"20241110":3.31,"20241111":2.38,"20241112":0.91,"20241113":1.33,"20241114":2.55,"20241115":1.11,"20241116":0.87,"20241117":1.07,"20241118":0.41,"20241119":0.22,"20241120":0.64,"20241121":0.37,"20241122":1.0,"20241123":0.67,"20241124":0.17,"20241125":0.2,"20241126":0.31,"20241127":0.0,"20241128":0.0,"20241129":0.0,"20241130":0.0,"20241201":0.0,"20241202":0.0,"20241203":0.01,"20241204":0.05,"20241205":0.04,"20241206":0.06,"20241207":0.0,"20241208":0.0,"20241209":0.0,"20241210":0.0,"20241211":0.01,"20241212":0.2,"20241213":0.19,"20241214":0.1,"20241215":0.02,"20241216":0.08,"20241217":0.0,"20241218":0.0,"20241219":0.0,"20241220":0.0,"20241221":0.0,"20241222":0.0,"20241223":0.0,"20241224":0.0,"20241225":0.0,"20241226":0.0,"20241227":0.0,"20241228":0.0,"20241229":0.0,"20241230":0.0,"20241231":0.0},"WS10M":{"20240101":2.34,"20240102":2.55,"20240103":3.02,"20240104":2.76,"20240105":2.62,"20240106":2.28,"20240107":2.31,"20240108":2.31,"20240109":2.69,"20240110":2.81,"20240111":2.28,"20240112":2.23,"20240113":2.22,"20240114":2.08,"20240115":1.77,"20240116":1.85,"20240117":2.25,"20240118":1.64,"20240119":1.81,"20240120":1.82,"20240121":2.09,"20240122":2.4,"20240123":3.11,"20240124":2.06,"20240125":2.91,"20240126":2.03,"20240127":2.32,"20240128":2.21,"20240129":1.97,"20240130":2.0,"20240131":2.22,"20240201":2.54,"20240202":2.19,"20240203":1.99,"20240204":2.38,"20240205":2.27,"20240206":2.48,"20240207":2.63,"20240208":1.78,"20240209":2.01,"20240210":2.47,"20240211":2.51,"20240212":2.38,"20240213":3.01,"20240214":3.31,"20240215":3.06,"20240216":2.88,"20240217":2.53,"20240218":2.82,"20240219":2.88,"20240220":2.9,"20240221":3.28,"20240222":3.41,"20240223":2.43,"20240224":1.82,"20240225":2.33,"20240226":2.84,"20240227":2.86,"20240228":3.52,"20240229":4.81,"20240301":3.88,"20240302":3.74,"20240303":2.9,"20240304":3.05,"20240305":3.81,"20240306":4.33,"20240307":3.9,"20240308":3.89,"20240309":3.1,"20240310":2.53,"20240311":3.54,"20240312":3.82,"20240313":3.82,"20240314":3.91,"20240315":2.18,"20240316":3.2,"20240317":2.61,"20240318":2.18,"20240319":2.32,"20240320":3.42,"20240321":2.98,"20240322":3.6,"20240323":3.64,"20240324":3.03,"20240325":3.47,"20240326":2.7,"20240327":2.54,"20240328":3.35,"20240329":3.99,"20240330":4.03,"20240331":3.65,"20240401":3.64,"20240402":3.05,"20240403":3.24,"20240404":3.44,"20240405":3.79,"20240406":3.45,"20240407":2.81,"20240408":3.62,"20240409":2.47,"20240410":2.6,"20240411":3.09,"20240412":3.12,"20240413":4.07,"20240414":2.07,"20240415":2.13,"20240416":2.74,"20240417":3.23,"20240418":2.98,"20240419":3.5,"20240420":2.83,"20240421":3.65,"20240422":2.68,"20240423":2.78,"20240424":3.06,"20240425":3.35,"20240426":3.29,"20240427":2.64,"20240428":3.03,"20240429":3.55,"20240430":2.91,"20240501":3.43,"20240502":3.27,"20240503":2.57,"20240504":2.61,"20240505":2.91,"20240506":2.99,"20240507":2.51,"20240508":2.81,"20240509":3.28,"20240510":3.26,"20240511":2.78,"20240512":2.53,"20240513":2.11,"20240514":1.54,"20240515":2.79,"20240516":2.98,"20240517":2.83,"20240518":3.54,"20240519":3.48,"20240520":2.88,"20240521":3.17,"20240522":3.02,"20240523":2.89,"20240524":3.58,"20240525":3.03,"20240526":2.53,"20240527":2.36,"20240528":3.2,"20240529":3.14,"20240530":2.88,"20240531":3.57,"20240601":2.49,"20240602":3.25,"20240603":2.7,"20240604":3.19,"20240605":3.46,"20240606":4.0,"20240607":3.06,"20240608":2.71,"20240609":3.9,"20240610":3.77,"20240611":3.41,"20240612":2.3,"20240613":3.25,"20240614":4.1,"20240615":4.32,"20240616":2.26,"20240617":1.76,"20240618":2.28,"20240619":3.63,"20240620":3.52,"20240621":3.46,"20240622":2.61,"20240623":2.91,"20240624":3.24,"20240625":3.83,"20240626":2.9,"20240627":2.55,"20240628":3.35,"20240629":2.99,"20240630":3.29,"20240701":2.86,"20240702":4.06,"20240703":4.02,"20240704":3.53,"20240705":3.25,"20240706":3.18,"20240707":3.54,"20240708":3.55,"20240709":3.19,"20240710":3.81,"20240711":4.25,"20240712":4.19,"20240713":3.83,"20240714":3.92,"20240715":4.58,"20240716":3.92,"20240717":4.61,"20240718":4.79,"20240719":4.74,"20240720":5.32,"20240721":4.36,"20240722":3.82,"20240723":3.59,"20240724":3.59,"20240725":4.2,"20240726":4.04,"20240727":3.96,"20240728":4.85,"20240729":4.68,"20240730":4.39,"20240731":4.45,"20240801":4.51,"20240802":3.84,"20240803":3.74,"20240804":3.86,"20240805":3.93,"20240806":4.42,"20240807":4.53,"20240808":3.95,"20240809":3.2,"20240810":4.18,"20240811":4.12,"20240812":4.43,"20240813":4.88,"20240814":3.86,"20240815":3.92,"20240816":4.35,"20240817":4.09,"20240818":2.99,"20240819":4.98,"20240820":4.76,"20240821":3.29,"20240822":3.95,"20240823":6.14,"20240824":3.29,"20240825":2.75,"20240826":4.83,"20240827":4.35,"20240828":3.44,"20240829":3.68,"20240830":5.17,"20240831":4.37,"20240901":3.85,"20240902":3.36,"20240903":3.47,"20240904":3.98,"20240905":3.38,"20240906":3.75,"20240907":4.09,"20240908":3.16,"20240909":3.09,"20240910":4.19,"20240911":3.77,"20240912":3.46,"20240913":3.8,"20240914":4.22,"20240915":3.19,"20240916":3.5,"20240917":3.71,"20240918":3.77,"20240919":3.9,"20240920":2.95,"20240921":3.23,"20240922":4.0,"20240923":3.41,"20240924":2.82,"20240925":2.86,"20240926":2.6,"20240927":3.74,"20240928":3.45,"20240929":2.62,"20240930":3.44,"20241001":3.5,"20241002":3.52,"20241003":4.11,"20241004":4.23,"20241005":4.04,"20241006":2.83,"20241007":2.56,"20241008":1.97,"20241009":2.53,"20241010":1.81,"20241011":3.0,"20241012":2.24,"20241013":2.24,"20241014":2.14,"20241015":1.87,"20241016":2.47,"20241017":2.88,"20241018":2.29,"20241019":2.91,"20241020":3.37,"20241021":2.84,"20241022":2.25,"20241023":1.77,"20241024":3.13,"20241025":2.69,"20241026":1.67,"20241027":1.69,"20241028":2.56,"20241029":2.12,"20241030":2.23,"20241031":1.95,"20241101":2.03,"20241102":2.37,"20241103":1.79,"20241104":1.64,"20241105":2.09,"20241106":1.75,"20241107":1.82,"20241108":2.52,"20241109":2.77,"20241110":2.32,"20241111":1.54,"20241112":1.51,"20241113":2.36,"20241114":3.06,"20241115":2.62,"20241116":1.87,"20241117":2.11,"20241118":1.7,"20241119":1.95,"20241120":2.13,"20241121":2.26,"20241122":2.26,"20241123":1.89,"20241124":1.77,"20241125":2.15,"20241126":2.42,"20241127":2.05,"20241128":1.96,"20241129":2.23,"20241130":2.15,"20241201":1.99,"20241202":1.94,"20241203":2.25,"20241204":1.85,"20241205":1.85,"20241206":1.82,"20241207":1.98,"20241208":2.04,"20241209":1.19,"20241210":2.01,"20241211":2.77,"20241212":2.24,"20241213":1.78,"20241214":1.59,"20241215":1.99,"20241216":2.05,"20241217":1.84,"20241218":1.89,"20241219":2.25,"20241220":2.74,"20241221":2.87,"20241222":2.37,"20241223":1.77,"20241224":1.39,"20241225":2.3,"20241226":2.48,"20241227":2.02,"20241228":1.68,"20241229":2.1,"20241230":2.06,"20241231":2.16},"RH2M":{"20240101":82.84,"20240102":83.86,"20240103":83.46,"20240104":82.49,"20240105":84.42,"20240106":83.29,"20240107":84.24,"20240108":84.74,"20240109":85.61,"20240110":82.56,"20240111":81.51,"20240112":77.57,"20240113":83.62,"20240114":82.51,"20240115":80.92,"20240116":79.82,"20240117":78.26,"20240118":70.59,"20240119":76.74,"20240120":77.78,"20240121":78.06,"20240122":79.92,"20240123":79.95,"20240124":78.38,"20240125":71.53,"20240126":62.02,"20240127":56.86,"20240128":61.26,"20240129":70.22,"20240130":79.92,"20240131":83.61,"20240201":85.07,"20240202":83.6,"20240203":81.62,"20240204":76.84,"20240205":78.52,"20240206":68.34,"20240207":64.03,"20240208":69.44,"20240209":84.25,"20240210":87.19,"20240211":86.43,"20240212":88.21,"20240213":88.65,"20240214":86.16,"20240215":84.76,"20240216":84.63,"20240217":85.03,"20240218":82.73,"20240219":82.5,"20240220":83.4,"20240221":88.87,"20240222":87.3,"20240223":85.33,"20240224":81.89,"20240225":79.89,"20240226":82.98,"20240227":84.04,"20240228":86.58,"20240229":86.43,"20240301":84.18,"20240302":86.77,"20240303":85.84,"20240304":85.47,"20240305":86.56,"20240306":86.98,"20240307":87.05,"20240308":86.64,"20240309":87.33,"20240310":86.53,"20240311":86.19,"20240312":85.07,"20240313":86.36,"20240314":86.56,"20240315":79.25,"20240316":85.68,"20240317":84.99,"20240318":84.66,"20240319":83.35,"20240320":82.57,"20240321":85.09,"20240322":82.98,"20240323":84.1,"20240324":83.02,"20240325":84.27,"20240326":84.87,"20240327":83.96,"20240328":82.82,"20240329":84.68,"20240330":84.73,"20240331":84.65,"20240401":83.08,"20240402":85.7,"20240403":86.69,"20240404":84.15,"20240405":87.23,"20240406":85.86,"20240407":85.3,"20240408":86.8,"20240409":82.63,"20240410":82.43,"20240411":81.37,"20240412":83.72,"20240413":83.8,"20240414":80.45,"20240415":82.21,"20240416":84.32,"20240417":87.32,"20240418":85.57,"20240419":87.25,"20240420":85.42,"20240421":88.49,"20240422":85.47,"20240423":87.34,"20240424":86.72,"20240425":85.78,"20240426":86.65,"20240427":85.33,"20240428":87.11,"20240429":89.33,"20240430":87.52,"20240501":89.33,"20240502":85.38,"20240503":83.61,"20240504":82.55,"20240505":85.19,"20240506":86.18,"20240507":83.47,"20240508":84.8,"20240509":82.85,"20240510":83.83,"20240511":86.23,"20240512":88.35,"20240513":82.54,"20240514":77.1,"20240515":83.72,"20240516":88.9,"20240517":86.51,"20240518":86.1,"20240519":86.8,"20240520":86.24,"20240521":88.82,"20240522":89.31,"20240523":88.53,"20240524":87.55,"20240525":85.57,"20240526":78.83,"20240527":84.14,"20240528":88.14,"20240529":86.26,"20240530":87.33,"20240531":87.98,"20240601":84.6,"20240602":90.24,"20240603":88.16,"20240604":86.86,"20240605":90.27,"20240606":90.48,"20240607":87.92,"20240608":86.04,"20240609":88.7,"20240610":88.02,"20240611":86.95,"20240612":86.28,"20240613":86.32,"20240614":90.67,"20240615":92.03,"20240616":86.39,"20240617":80.5,"20240618":84.55,"20240619":88.96,"20240620":90.94,"20240621":92.83,"20240622":85.05,"20240623":88.33,"20240624":88.8,"20240625":89.99,"20240626":86.77,"20240627":85.68,"20240628":88.77,"20240629":88.67,"20240630":86.71,"20240701":86.49,"20240702":90.0,"20240703":90.03,"20240704":88.84,"20240705":88.79,"20240706":89.01,"20240707":89.39,"20240708":89.18,"20240709":87.36,"20240710":88.44,"20240711":89.58,"20240712":90.36,"20240713":91.03,"20240714":88.17,"20240715":89.0,"20240716":89.95,"20240717":88.67,"20240718":87.91,"20240719":88.95,"20240720":90.24,"20240721":88.03,"20240722":87.05,"20240723":87.23,"20240724":87.62,"20240725":88.69,"20240726":88.24,"20240727":87.83,"20240728":88.6,"20240729":87.8,"20240730":87.33,"20240731":87.01,"20240801":88.01,"20240802":86.53,"20240803":86.23,"20240804":86.36,"20240805":85.49,"20240806":86.36,"20240807":85.34,"20240808":83.68,"20240809":86.1,"20240810":86.77,"20240811":85.86,"20240812":85.24,"20240813":86.91,"20240814":86.25,"20240815":87.79,"20240816":88.49,"20240817":88.4,"20240818":89.44,"20240819":91.78,"20240820":91.03,"20240821":89.05,"20240822":88.31,"20240823":91.96,"20240824":91.75,"20240825":90.2,"20240826":92.93,"20240827":90.3,"20240828":89.87,"20240829":89.38,"20240830":89.99,"20240831":89.77,"20240901":88.14,"20240902":87.74,"20240903":89.19,"20240904":87.33,"20240905":86.11,"20240906":86.11,"20240907":90.52,"20240908":87.63,"20240909":86.61,"20240910":91.21,"20240911":91.18,"20240912":90.95,"20240913":91.93,"20240914":92.52,"20240915":89.83,"20240916":90.06,"20240917":90.25,"20240918":91.32,"20240919":88.29,"20240920":88.29,"20240921":89.22,"20240922":90.16,"20240923":88.86,"20240924":88.68,"20240925":89.19,"20240926":86.63,"20240927":87.65,"20240928":87.54,"20240929":88.83,"20240930":88.51,"20241001":87.97,"20241002":87.9,"20241003":91.46,"20241004":91.14,"20241005":91.84,"20241006":88.93,"20241007":87.35,"20241008":89.04,"20241009":86.54,"20241010":83.58,"20241011":88.75,"20241012":91.43,"20241013":90.35,"20241014":87.76,"20241015":86.18,"20241016":90.59,"20241017":91.68,"20241018":87.39,"20241019":90.33,"20241020":90.37,"20241021":89.14,"20241022":88.83,"20241023":88.27,"20241024":88.3,"20241025":92.08,"20241026":84.8,"20241027":86.98,"20241028":91.25,"20241029":87.58,"20241030":87.08,"20241031":84.38,"20241101":86.19,"20241102":89.55,"20241103":85.97,"20241104":82.13,"20241105":78.12,"20241106":81.22,"20241107":80.18,"20241108":81.32,"20241109":89.38,"20241110":86.83,"20241111":83.22,"20241112":81.7,"20241113":85.58,"20241114":87.21,"20241115":86.19,"20241116":83.56,"20241117":84.53,"20241118":81.59,"20241119":78.13,"20241120":72.73,"20241121":79.86,"20241122":82.77,"20241123":81.76,"20241124":77.83,"20241125":80.41,"20241126":77.36,"20241127":78.03,"20241128":76.94,"20241129":68.69,"20241130":65.06,"20241201":67.12,"20241202":70.85,"20241203":79.59,"20241204":82.37,"20241205":78.91,"20241206":78.86,"20241207":70.05,"20241208":72.06,"20241209":68.37,"20241210":66.58,"20241211":80.85,"20241212":82.28,"20241213":82.33,"20241214":80.12,"20241215":74.67,"20241216":70.26,"20241217":66.74,"20241218":67.75,"20241219":65.84,"20241220":57.89,"20241221":61.68,"20241222":61.78,"20241223":62.0,"20241224":70.89,"20241225":76.11,"20241226":76.17,"20241227":79.42,"20241228":79.69,"20241229":84.03,"20241230":82.38,"20241231":82.65}}},"header":{"title":"NASA/POWER Source Native Resolution Daily Data","api":{"version":"v2.9.6","name":"POWER Daily API"},"sources":["MERRA2","POWER"],"fill_value":-999.0,"time_standard":"UTC","start":"20240101","end":"20241231"},"messages":[],"parameters":{"T2M":{"units":"C","longname":"Temperature at 2 Meters"},"T2M_MAX":{"units":"C","longname":"Temperature at 2 Meters Maximum"},"T2M_MIN":{"units":"C","longname":"Temperature at 2 Meters Minimum"},"PRECTOTCORR":{"units":"mm/day","longname":"Precipitation Corrected"},"WS10M":{"units":"m/s","longname":"Wind Speed at 10 Meters"},"RH2M":{"units":"%","longname":"Relative Humidity at 2 Meters"}},"times":{"data":0.766,"process":0.01}}