{"type":"Feature","geometry":{"type":"Point","coordinates":[-46.636,-23.547,790.19]},"properties":{"parameter":{"T2M":{"20240101":23.12,"20240102":23.84,"20240103":24.11,"20240104":23.75,"20240105":23.24,"20240106":23.76,"20240107":25.52,"20240108":27.16,"20240109":27.23,"20240110":26.67,"20240111":26.1,"20240112":24.04,"20240113":21.94,"20240114":23.58,"20240115":26.04,"20240116":27.02,"20240117":27.52,"20240118":26.42,"20240119":25.04,"20240120":23.8,"20240121":23.38,"20240122":21.73,"20240123":19.62,"20240124":20.09,"20240125":19.14,"20240126":19.18,"20240127":21.38,"20240128":22.7,"20240129":23.4,"20240130":24.62,"20240131":24.21,"20240201":22.38,"20240202":22.1,"20240203":23.03,"20240204":23.57,"20240205":23.69,"20240206":23.53,"20240207":24.23,"20240208":24.71,"20240209":24.46,"20240210":25.31,"20240211":25.76,"20240212":26.35,"20240213":26.49,"20240214":23.01,"20240215":21.34,"20240216":21.95,"20240217":22.35,"20240218":21.83,"20240219":22.96,"20240220":22.88,"20240221":22.81,"20240222":23.54,"20240223":25.15,"20240224":24.8,"20240225":24.18,"20240226":23.68,"20240227":24.88,"20240228":26.02,"20240229":24.75,"20240301":24.12,"20240302":22.57,"20240303":23.03,"20240304":24.67,"20240305":25.11,"20240306":23.17,"20240307":23.06,"20240308":23.6,"20240309":24.63,"20240310":24.52,"20240311":22.68,"20240312":21.33,"20240313":23.15,"20240314":25.3,"20240315":26.15,"20240316":27.7,"20240317":27.92,"20240318":25.63,"20240319":25.14,"20240320":25.92,"20240321":26.89,"20240322":21.83,"20240323":18.78,"20240324":20.0,"20240325":21.74,"20240326":21.2,"20240327":20.26,"20240328":20.59,"20240329":22.14,"20240330":22.72,"20240331":22.18,"20240401":21.68,"20240402":23.61,"20240403":24.19,"20240404":24.53,"20240405":24.07,"20240406":22.06,"20240407":22.49,"20240408":23.73,"20240409":23.12,"20240410":23.44,"20240411":22.85,"20240412":22.32,"20240413":22.98,"20240414":21.92,"20240415":22.64,"20240416":22.79,"20240417":23.54,"20240418":19.73,"20240419":17.37,"20240420":19.4,"20240421":20.37,"20240422":20.8,"20240423":22.37,"20240424":23.15,"20240425":23.14,"20240426":23.36,"20240427":23.64,"20240428":24.12,"20240429":24.44,"20240430":24.46,"20240501":24.41,"20240502":23.91,"20240503":24.48,"20240504":24.52,"20240505":24.12,"20240506":23.64,"20240507":24.14,"20240508":24.04,"20240509":23.69,"20240510":23.68,"20240511":23.2,"20240512":22.91,"20240513":23.16,"20240514":20.19,"20240515":17.91,"20240516":20.93,"20240517":23.62,"20240518":22.7,"20240519":21.52,"20240520":21.22,"20240521":20.06,"20240522":21.66,"20240523":21.4,"20240524":21.11,"20240525":17.17,"20240526":14.78,"20240527":17.26,"20240528":17.16,"20240529":12.75,"20240530":13.32,"20240531":14.61,"20240601":16.58,"20240602":17.64,"20240603":18.91,"20240604":16.63,"20240605":17.42,"20240606":18.16,"20240607":18.63,"20240608":19.28,"20240609":19.31,"20240610":19.87,"20240611":20.65,"20240612":18.7,"20240613":18.45,"20240614":18.56,"20240615":19.67,"20240616":20.57,"20240617":18.95,"20240618":18.47,"20240619":19.28,"20240620":19.63,"20240621":18.16,"20240622":18.91,"20240623":20.46,"20240624":20.81,"20240625":17.96,"20240626":20.35,"20240627":19.95,"20240628":19.63,"20240629":19.02,"20240630":14.76,"20240701":15.46,"20240702":16.48,"20240703":18.2,"20240704":19.97,"20240705":19.94,"20240706":17.46,"20240707":18.61,"20240708":15.92,"20240709":15.5,"20240710":15.76,"20240711":18.48,"20240712":16.19,"20240713":14.55,"20240714":17.07,"20240715":16.13,"20240716":17.44,"20240717":18.06,"20240718":18.22,"20240719":16.38,"20240720":14.77,"20240721":16.43,"20240722":17.24,"20240723":16.39,"20240724":16.91,"20240725":17.53,"20240726":19.5,"20240727":18.89,"20240728":20.01,"20240729":19.5,"20240730":14.68,"20240731":17.22,"20240801":18.3,"20240802":18.67,"20240803":19.65,"20240804":20.52,"20240805":21.84,"20240806":21.58,"20240807":21.67,"20240808":22.0,"20240809":18.52,"20240810":12.51,"20240811":12.2,"20240812":12.65,"20240813":10.05,"20240814":13.47,"20240815":17.94,"20240816":23.23,"20240817":22.57,"20240818":22.89,"20240819":22.19,"20240820":23.41,"20240821":20.84,"20240822":21.68,"20240823":22.71,"20240824":19.03,"20240825":13.54,"20240826":11.24,"20240827":10.85,"20240828":15.28,"20240829":18.69,"20240830":21.37,"20240831":21.18,"20240901":22.21,"20240902":22.03,"20240903":22.11,"20240904":24.03,"20240905":22.28,"20240906":18.13,"20240907":22.4,"20240908":25.02,"20240909":24.7,"20240910":24.3,"20240911":26.09,"20240912":25.11,"20240913":24.77,"20240914":25.46,"20240915":19.15,"20240916":16.78,"20240917":16.29,"20240918":17.71,"20240919":19.76,"20240920":23.75,"20240921":22.79,"20240922":23.36,"20240923":24.04,"20240924":24.28,"20240925":25.67,"20240926":27.16,"20240927":23.77,"20240928":18.57,"20240929":21.61,"20240930":23.81,"20241001":26.91,"20241002":27.81,"20241003":19.82,"20241004":16.97,"20241005":19.32,"20241006":20.56,"20241007":20.16,"20241008":22.95,"20241009":19.69,"20241010":19.74,"20241011":24.0,"20241012":23.78,"20241013":20.49,"20241014":20.09,"20241015":21.87,"20241016":23.03,"20241017":22.87,"20241018":22.5,"20241019":18.69,"20241020":16.58,"20241021":21.53,"20241022":24.49,"20241023":24.95,"20241024":24.02,"20241025":23.5,"20241026":23.82,"20241027":18.83,"20241028":18.96,"20241029":20.94,"20241030":21.25,"20241031":20.83,"20241101":22.01,"20241102":22.46,"20241103":20.88,"20241104":21.29,"20241105":22.37,"20241106":23.35,"20241107":21.95,"20241108":21.68,"20241109":18.9,"20241110":19.05,"20241111":20.64,"20241112":22.07,"20241113":17.96,"20241114":18.56,"20241115":20.32,"20241116":21.82,"20241117":22.4,"20241118":23.51,"20241119":22.55,"20241120":24.41,"20241121":22.12,"20241122":20.86,"20241123":20.66,"20241124":19.87,"20241125":22.01,"20241126":24.34,"20241127":26.11,"20241128":26.81,"20241129":24.66,"20241130":25.48,"20241201":25.77,"20241202":25.45,"20241203":22.31,"20241204":19.41,"20241205":22.18,"20241206":24.95,"20241207":25.09,"20241208":23.19,"20241209":22.45,"20241210":21.95,"20241211":20.4,"20241212":20.54,"20241213":20.94,"20241214":21.4,"20241215":23.71,"20241216":23.78,"20241217":22.49,"20241218":21.73,"20241219":23.93,"20241220":24.47,"20241221":22.48,"20241222":23.05,"20241223":22.19,"20241224":22.14,"20241225":23.82,"20241226":23.22,"20241227":22.8,"20241228":23.48,"20241229":22.8,"20241230":22.04,"20241231":22.67},"T2M_MAX":{"20240101":32.04,"20240102":32.91,"20240103":32.64,"20240104":30.81,"20240105":30.45,"20240106":32.13,"20240107":34.14,"20240108":35.71,"20240109":34.9,"20240110":34.22,"20240111":31.3,"20240112":29.54,"20240113":26.03,"20240114":30.89,"20240115":32.47,"20240116":34.15,"20240117":34.92,"20240118":33.18,"20240119":28.83,"20240120":27.21,"20240121":28.38,"20240122":27.35,"20240123":22.29,"20240124":25.67,"20240125":25.18,"20240126":24.82,"20240127":27.55,"20240128":29.11,"20240129":30.54,"20240130":31.49,"20240131":30.29,"20240201":28.48,"20240202":28.79,"20240203":28.81,"20240204":28.14,"20240205":30.35,"20240206":30.64,"20240207":31.32,"20240208":32.45,"20240209":32.72,"20240210":32.5,"20240211":33.95,"20240212":33.38,"20240213":32.54,"20240214":25.06,"20240215":26.35,"20240216":28.64,"20240217":29.12,"20240218":26.37,"20240219":28.44,"20240220":28.87,"20240221":28.48,"20240222":29.55,"20240223":31.45,"20240224":29.29,"20240225":29.17,"20240226":29.29,"20240227":30.88,"20240228":31.39,"20240229":30.61,"20240301":28.53,"20240302":28.79,"20240303":31.99,"20240304":33.72,"20240305":33.19,"20240306":28.42,"20240307":29.48,"20240308":29.06,"20240309":29.79,"20240310":29.31,"20240311":28.34,"20240312":29.56,"20240313":31.67,"20240314":33.28,"20240315":33.73,"20240316":34.9,"20240317":34.55,"20240318":30.12,"20240319":30.04,"20240320":31.7,"20240321":33.42,"20240322":24.93,"20240323":22.14,"20240324":25.96,"20240325":28.15,"20240326":26.84,"20240327":24.95,"20240328":25.06,"20240329":28.48,"20240330":29.55,"20240331":29.77,"20240401":29.77,"20240402":31.14,"20240403":31.59,"20240404":33.65,"20240405":33.25,"20240406":28.92,"20240407":30.59,"20240408":31.29,"20240409":29.14,"20240410":30.94,"20240411":30.26,"20240412":29.67,"20240413":29.85,"20240414":26.28,"20240415":28.24,"20240416":28.56,"20240417":30.08,"20240418":24.28,"20240419":24.89,"20240420":28.45,"20240421":29.1,"20240422":29.26,"20240423":30.56,"20240424":31.33,"20240425":30.5,"20240426":31.49,"20240427":31.88,"20240428":31.63,"20240429":32.92,"20240430":32.08,"20240501":32.2,"20240502":32.62,"20240503":32.28,"20240504":32.88,"20240505":33.14,"20240506":33.06,"20240507":32.81,"20240508":31.66,"20240509":31.72,"20240510":31.31,"20240511":30.73,"20240512":31.17,"20240513":31.46,"20240514":25.94,"20240515":22.83,"20240516":29.73,"20240517":31.49,"20240518":31.19,"20240519":28.74,"20240520":28.31,"20240521":29.05,"20240522":30.06,"20240523":29.55,"20240524":29.86,"20240525":22.61,"20240526":17.43,"20240527":24.02,"20240528":22.46,"20240529":20.34,"20240530":19.87,"20240531":21.06,"20240601":25.26,"20240602":25.37,"20240603":25.83,"20240604":21.69,"20240605":25.13,"20240606":26.72,"20240607":27.37,"20240608":27.77,"20240609":27.98,"20240610":28.07,"20240611":28.63,"20240612":28.1,"20240613":27.61,"20240614":27.67,"20240615":28.0,"20240616":28.32,"20240617":27.76,"20240618":27.21,"20240619":28.34,"20240620":28.62,"20240621":27.89,"20240622":27.11,"20240623":28.64,"20240624":29.24,"20240625":22.77,"20240626":29.23,"20240627":26.46,"20240628":27.91,"20240629":26.86,"20240630":19.82,"20240701":24.58,"20240702":26.1,"20240703":26.48,"20240704":27.69,"20240705":27.43,"20240706":24.17,"20240707":27.57,"20240708":21.81,"20240709":21.68,"20240710":20.32,"20240711":26.52,"20240712":18.65,"20240713":18.45,"20240714":25.45,"20240715":22.22,"20240716":24.49,"20240717":25.14,"20240718":25.76,"20240719":25.06,"20240720":23.7,"20240721":26.39,"20240722":27.19,"20240723":26.47,"20240724":27.89,"20240725":26.24,"20240726":27.12,"20240727":26.46,"20240728":28.98,"20240729":27.87,"20240730":18.51,"20240731":26.26,"20240801":27.39,"20240802":27.89,"20240803":28.34,"20240804":28.48,"20240805":29.52,"20240806":30.14,"20240807":29.61,"20240808":30.81,"20240809":22.29,"20240810":15.56,"20240811":22.12,"20240812":21.27,"20240813":17.08,"20240814":23.65,"20240815":29.11,"20240816":31.29,"20240817":31.82,"20240818":32.69,"20240819":32.3,"20240820":32.22,"20240821":31.35,"20240822":32.19,"20240823":32.98,"20240824":29.34,"20240825":18.58,"20240826":19.92,"20240827":22.22,"20240828":27.41,"20240829":30.03,"20240830":31.62,"20240831":31.96,"20240901":32.74,"20240902":30.86,"20240903":32.94,"20240904":34.46,"20240905":31.53,"20240906":27.08,"20240907":34.52,"20240908":35.43,"20240909":34.64,"20240910":34.11,"20240911":34.52,"20240912":34.89,"20240913":34.11,"20240914":34.8,"20240915":24.43,"20240916":19.24,"20240917":22.18,"20240918":27.06,"20240919":29.09,"20240920":35.02,"20240921":31.44,"20240922":33.05,"20240923":34.59,"20240924":35.09,"20240925":36.31,"20240926":36.92,"20240927":31.61,"20240928":26.94,"20240929":33.73,"20240930":34.81,"20241001":36.15,"20241002":37.5,"20241003":25.46,"20241004":20.97,"20241005":29.01,"20241006":32.9,"20241007":30.81,"20241008":35.9,"20241009":27.57,"20241010":24.87,"20241011":31.72,"20241012":30.94,"20241013":29.02,"20241014":29.92,"20241015":32.92,"20241016":30.94,"20241017":32.68,"20241018":33.21,"20241019":23.43,"20241020":18.98,"20241021":29.61,"20241022":32.19,"20241023":31.11,"20241024":28.55,"20241025":27.96,"20241026":28.72,"20241027":24.63,"20241028":25.21,"20241029":28.45,"20241030":28.9,"20241031":28.71,"20241101":30.29,"20241102":27.9,"20241103":23.98,"20241104":24.9,"20241105":27.71,"20241106":28.26,"20241107":24.83,"20241108":24.68,"20241109":23.83,"20241110":25.29,"20241111":28.3,"20241112":29.87,"20241113":22.88,"20241114":26.74,"20241115":27.75,"20241116":28.33,"20241117":29.74,"20241118":31.83,"20241119":31.34,"20241120":34.06,"20241121":29.14,"20241122":26.23,"20241123":27.98,"20241124":27.1,"20241125":31.15,"20241126":33.01,"20241127":33.08,"20241128":34.04,"20241129":30.44,"20241130":31.57,"20241201":34.36,"20241202":29.55,"20241203":25.45,"20241204":22.12,"20241205":29.08,"20241206":30.83,"20241207":29.48,"20241208":28.02,"20241209":27.0,"20241210":26.21,"20241211":26.17,"20241212":27.28,"20241213":27.46,"20241214":26.08,"20241215":29.2,"20241216":30.93,"20241217":30.43,"20241218":29.68,"20241219":32.27,"20241220":28.82,"20241221":25.6,"20241222":28.02,"20241223":27.76,"20241224":28.89,"20241225":30.85,"20241226":26.33,"20241227":26.5,"20241228":29.43,"20241229":28.59,"20241230":27.7,"20241231":28.72},"T2M_MIN":{"20240101":17.68,"20240102":18.27,"20240103":19.44,"20240104":19.82,"20240105":18.7,"20240106":18.29,"20240107":18.03,"20240108":19.84,"20240109":20.26,"20240110":21.21,"20240111":21.54,"20240112":20.46,"20240113":19.01,"20240114":18.21,"20240115":20.7,"20240116":20.9,"20240117":21.45,"20240118":21.36,"20240119":21.93,"20240120":21.68,"20240121":20.09,"20240122":18.23,"20240123":17.97,"20240124":16.17,"20240125":15.57,"20240126":15.51,"20240127":16.78,"20240128":17.42,"20240129":17.11,"20240130":18.93,"20240131":19.79,"20240201":17.49,"20240202":18.02,"20240203":18.23,"20240204":19.65,"20240205":18.88,"20240206":17.71,"20240207":17.62,"20240208":18.77,"20240209":17.93,"20240210":20.68,"20240211":19.18,"20240212":20.47,"20240213":21.37,"20240214":21.03,"20240215":18.97,"20240216":17.9,"20240217":18.35,"20240218":18.18,"20240219":18.89,"20240220":18.44,"20240221":19.1,"20240222":18.5,"20240223":19.83,"20240224":20.56,"20240225":20.73,"20240226":20.72,"20240227":19.7,"20240228":21.43,"20240229":20.6,"20240301":20.94,"20240302":18.52,"20240303":16.35,"20240304":18.18,"20240305":19.78,"20240306":20.42,"20240307":19.49,"20240308":19.88,"20240309":20.52,"20240310":21.53,"20240311":18.79,"20240312":15.57,"20240313":17.2,"20240314":19.3,"20240315":19.97,"20240316":21.65,"20240317":22.0,"20240318":22.66,"20240319":22.01,"20240320":21.24,"20240321":21.54,"20240322":18.21,"20240323":17.02,"20240324":16.72,"20240325":17.1,"20240326":17.58,"20240327":18.16,"20240328":17.99,"20240329":17.81,"20240330":17.98,"20240331":16.96,"20240401":15.89,"20240402":17.76,"20240403":18.31,"20240404":18.58,"20240405":17.56,"20240406":18.48,"20240407":17.56,"20240408":18.99,"20240409":19.19,"20240410":18.21,"20240411":19.03,"20240412":18.6,"20240413":18.67,"20240414":19.22,"20240415":19.47,"20240416":18.97,"20240417":18.81,"20240418":16.08,"20240419":12.26,"20240420":13.99,"20240421":14.11,"20240422":13.74,"20240423":14.84,"20240424":16.23,"20240425":19.02,"20240426":18.31,"20240427":17.8,"20240428":17.58,"20240429":17.6,"20240430":17.47,"20240501":17.31,"20240502":16.84,"20240503":18.51,"20240504":17.06,"20240505":17.23,"20240506":16.08,"20240507":16.81,"20240508":18.49,"20240509":17.13,"20240510":18.59,"20240511":17.29,"20240512":16.14,"20240513":16.81,"20240514":16.77,"20240515":15.19,"20240516":15.13,"20240517":17.53,"20240518":16.02,"20240519":17.32,"20240520":16.94,"20240521":14.56,"20240522":14.96,"20240523":15.46,"20240524":15.94,"20240525":13.57,"20240526":13.2,"20240527":13.15,"20240528":14.0,"20240529":6.64,"20240530":9.65,"20240531":11.08,"20240601":10.87,"20240602":10.76,"20240603":13.15,"20240604":14.03,"20240605":13.19,"20240606":12.45,"20240607":12.43,"20240608":12.76,"20240609":13.19,"20240610":13.44,"20240611":14.63,"20240612":11.53,"20240613":11.79,"20240614":11.81,"20240615":13.39,"20240616":13.6,"20240617":12.42,"20240618":11.41,"20240619":11.88,"20240620":13.09,"20240621":10.61,"20240622":12.94,"20240623":14.01,"20240624":14.44,"20240625":15.46,"20240626":14.12,"20240627":14.12,"20240628":12.96,"20240629":13.25,"20240630":11.56,"20240701":10.89,"20240702":9.03,"20240703":11.73,"20240704":13.53,"20240705":13.4,"20240706":12.79,"20240707":12.9,"20240708":12.41,"20240709":12.58,"20240710":11.66,"20240711":14.14,"20240712":14.56,"20240713":12.41,"20240714":12.02,"20240715":12.36,"20240716":13.36,"20240717":12.94,"20240718":13.04,"20240719":11.09,"20240720":9.49,"20240721":10.58,"20240722":10.81,"20240723":9.31,"20240724":9.17,"20240725":10.17,"20240726":13.66,"20240727":13.34,"20240728":11.95,"20240729":13.35,"20240730":12.72,"20240731":12.55,"20240801":12.06,"20240802":10.9,"20240803":12.86,"20240804":13.64,"20240805":14.5,"20240806":14.07,"20240807":15.14,"20240808":14.81,"20240809":16.0,"20240810":8.28,"20240811":6.28,"20240812":5.59,"20240813":4.89,"20240814":5.63,"20240815":8.75,"20240816":17.16,"20240817":13.8,"20240818":14.42,"20240819":13.84,"20240820":16.26,"20240821":13.87,"20240822":13.89,"20240823":14.87,"20240824":13.97,"20240825":9.26,"20240826":4.99,"20240827":2.98,"20240828":7.86,"20240829":11.57,"20240830":14.33,"20240831":13.89,"20240901":14.47,"20240902":15.51,"20240903":14.57,"20240904":16.13,"20240905":14.56,"20240906":13.09,"20240907":14.34,"20240908":18.14,"20240909":17.42,"20240910":15.94,"20240911":18.19,"20240912":17.24,"20240913":16.26,"20240914":18.54,"20240915":16.71,"20240916":14.35,"20240917":13.32,"20240918":12.91,"20240919":13.73,"20240920":15.7,"20240921":16.48,"20240922":16.12,"20240923":16.34,"20240924":15.71,"20240925":17.19,"20240926":18.65,"20240927":15.76,"20240928":13.69,"20240929":14.33,"20240930":15.42,"20241001":19.55,"20241002":19.1,"20241003":16.66,"20241004":14.47,"20241005":13.84,"20241006":13.53,"20241007":14.09,"20241008":14.84,"20241009":14.6,"20241010":16.36,"20241011":17.97,"20241012":17.74,"20241013":15.83,"20241014":15.64,"20241015":15.53,"20241016":17.08,"20241017":16.33,"20241018":15.94,"20241019":15.41,"20241020":14.68,"20241021":16.55,"20241022":18.81,"20241023":20.5,"20241024":20.68,"20241025":20.51,"20241026":18.08,"20241027":15.63,"20241028":15.22,"20241029":16.24,"20241030":16.45,"20241031":15.88,"20241101":15.97,"20241102":18.79,"20241103":18.76,"20241104":19.24,"20241105":17.84,"20241106":19.8,"20241107":20.49,"20241108":18.57,"20241109":16.24,"20241110":14.35,"20241111":13.48,"20241112":16.25,"20241113":14.94,"20241114":13.29,"20241115":16.03,"20241116":18.79,"20241117":16.76,"20241118":16.72,"20241119":15.6,"20241120":17.02,"20241121":18.21,"20241122":17.44,"20241123":16.58,"20241124":15.46,"20241125":14.58,"20241126":16.27,"20241127":19.09,"20241128":20.22,"20241129":21.58,"20241130":21.33,"20241201":19.4,"20241202":22.28,"20241203":18.73,"20241204":17.66,"20241205":17.45,"20241206":19.72,"20241207":20.92,"20241208":20.2,"20241209":19.29,"20241210":18.32,"20241211":16.61,"20241212":15.91,"20241213":16.26,"20241214":18.15,"20241215":19.61,"20241216":17.84,"20241217":16.28,"20241218":16.04,"20241219":16.57,"20241220":21.24,"20241221":20.55,"20241222":19.73,"20241223":18.68,"20241224":17.71,"20241225":17.58,"20241226":20.64,"20241227":20.36,"20241228":19.08,"20241229":18.65,"20241230":17.85,"20241231":17.05},"PRECTOTCORR":{"20240101":0.07,"20240102":0.34,"20240103":4.47,"20240104":4.57,"20240105":2.45,"20240106":1.38,"20240107":0.28,"20240108":6.84,"20240109":3.87,"20240110":7.26,"20240111":4.79,"20240112":24.43,"20240113":9.39,"20240114":0.59,"20240115":0.3,"20240116":0.07,"20240117":5.58,"20240118":11.22,"20240119":14.02,"20240120":14.48,"20240121":16.41,"20240122":4.05,"20240123":16.13,"20240124":2.44,"20240125":4.87,"20240126":2.55,"20240127":2.41,"20240128":5.59,"20240129":1.36,"20240130":0.63,"20240131":9.02,"20240201":3.29,"20240202":5.64,"20240203":6.28,"20240204":9.3,"20240205":0.4,"20240206":0.06,"20240207":0.13,"20240208":0.18,"20240209":0.72,"20240210":0.38,"20240211":0.78,"20240212":1.15,"20240213":5.14,"20240214":21.16,"20240215":5.69,"20240216":0.47,"20240217":3.48,"20240218":8.44,"20240219":3.12,"20240220":8.25,"20240221":16.54,"20240222":3.4,"20240223":3.64,"20240224":11.13,"20240225":4.97,"20240226":0.76,"20240227":0.39,"20240228":1.42,"20240229":3.45,"20240301":3.1,"20240302":0.76,"20240303":0.13,"20240304":1.21,"20240305":4.35,"20240306":18.98,"20240307":2.36,"20240308":15.8,"20240309":3.97,"20240310":4.46,"20240311":1.1,"20240312":0.98,"20240313":1.69,"20240314":0.04,"20240315":0.02,"20240316":0.18,"20240317":0.84,"20240318":4.43,"20240319":4.13,"20240320":2.42,"20240321":0.92,"20240322":9.37,"20240323":9.06,"20240324":4.0,"20240325":0.15,"20240326":0.23,"20240327":1.46,"20240328":7.44,"20240329":1.1,"20240330":0.08,"20240331":0.01,"20240401":0.06,"20240402":0.1,"20240403":0.0,"20240404":0.0,"20240405":0.05,"20240406":3.36,"20240407":0.52,"20240408":1.39,"20240409":4.1,"20240410":0.17,"20240411":0.57,"20240412":0.16,"20240413":0.17,"20240414":0.9,"20240415":5.11,"20240416":9.14,"20240417":1.02,"20240418":1.84,"20240419":0.01,"20240420":0.06,"20240421":0.13,"20240422":0.28,"20240423":0.01,"20240424":0.07,"20240425":0.42,"20240426":0.13,"20240427":0.0,"20240428":0.01,"20240429":0.03,"20240430":0.0,"20240501":0.0,"20240502":0.0,"20240503":0.04,"20240504":0.0,"20240505":0.01,"20240506":0.0,"20240507":0.07,"20240508":0.0,"20240509":0.09,"20240510":0.17,"20240511":0.01,"20240512":0.02,"20240513":0.02,"20240514":2.52,"20240515":1.68,"20240516":0.09,"20240517":0.0,"20240518":0.03,"20240519":1.92,"20240520":0.55,"20240521":0.14,"20240522":0.04,"20240523":0.02,"20240524":2.46,"20240525":4.98,"20240526":23.89,"20240527":4.19,"20240528":1.87,"20240529":0.05,"20240530":0.48,"20240531":0.03,"20240601":0.06,"20240602":0.01,"20240603":0.0,"20240604":2.28,"20240605":0.42,"20240606":0.08,"20240607":0.01,"20240608":0.05,"20240609":0.02,"20240610":0.03,"20240611":0.08,"20240612":0.05,"20240613":0.02,"20240614":0.0,"20240615":0.01,"20240616":0.06,"20240617":0.0,"20240618":0.04,"20240619":0.04,"20240620":0.07,"20240621":0.03,"20240622":0.01,"20240623":0.03,"20240624":0.07,"20240625":0.53,"20240626":0.03,"20240627":0.21,"20240628":0.01,"20240629":4.7,"20240630":2.29,"20240701":0.11,"20240702":0.17,"20240703":0.02,"20240704":0.03,"20240705":0.01,"20240706":0.27,"20240707":0.07,"20240708":2.83,"20240709":26.6,"20240710":3.83,"20240711":0.37,"20240712":1.08,"20240713":0.49,"20240714":0.1,"20240715":0.05,"20240716":0.03,"20240717":0.05,"20240718":0.02,"20240719":0.04,"20240720":0.07,"20240721":0.05,"20240722":0.03,"20240723":0.0,"20240724":0.02,"20240725":0.02,"20240726":0.0,"20240727":0.01,"20240728":0.11,"20240729":0.19,"20240730":4.79,"20240731":0.61,"20240801":0.02,"20240802":0.03,"20240803":0.01,"20240804":0.02,"20240805":0.01,"20240806":0.01,"20240807":0.0,"20240808":0.02,"20240809":13.67,"20240810":13.0,"20240811":0.07,"20240812":0.04,"20240813":0.04,"20240814":0.01,"20240815":0.03,"20240816":0.0,"20240817":0.0,"20240818":0.02,"20240819":0.01,"20240820":0.0,"20240821":0.0,"20240822":0.0,"20240823":0.01,"20240824":3.57,"20240825":3.46,"20240826":0.18,"20240827":0.03,"20240828":0.01,"20240829":0.04,"20240830":0.03,"20240831":0.01,"20240901":0.01,"20240902":0.03,"20240903":0.02,"20240904":0.0,"20240905":0.09,"20240906":0.31,"20240907":0.02,"20240908":0.02,"20240909":0.02,"20240910":0.06,"20240911":0.02,"20240912":0.01,"20240913":0.0,"20240914":0.05,"20240915":2.7,"20240916":8.54,"20240917":0.93,"20240918":0.15,"20240919":2.25,"20240920":1.16,"20240921":3.68,"20240922":0.0,"20240923":0.02,"20240924":0.0,"20240925":0.0,"20240926":0.01,"20240927":1.36,"20240928":0.64,"20240929":0.03,"20240930":0.06,"20241001":0.0,"20241002":0.07,"20241003":5.83,"20241004":3.82,"20241005":0.54,"20241006":0.01,"20241007":0.01,"20241008":0.02,"20241009":0.51,"20241010":6.95,"20241011":2.26,"20241012":3.25,"20241013":0.35,"20241014":0.19,"20241015":0.0,"20241016":0.13,"20241017":0.02,"20241018":0.2,"20241019":7.91,"20241020":19.26,"20241021":0.32,"20241022":0.17,"20241023":14.32,"20241024":25.27,"20241025":2.82,"20241026":0.42,"20241027":3.99,"20241028":4.32,"20241029":0.05,"20241030":0.04,"20241031":0.04,"20241101":0.0,"20241102":23.68,"20241103":22.73,"20241104":9.24,"20241105":4.3,"20241106":15.19,"20241107":19.0,"20241108":12.08,"20241109":6.5,"20241110":0.08,"20241111":0.01,"20241112":0.78,"20241113":2.37,"20241114":0.02,"20241115":0.15,"20241116":0.68,"20241117":0.06,"20241118":0.01,"20241119":0.03,"20241120":0.05,"20241121":0.83,"20241122":0.51,"20241123":0.5,"20241124":0.12,"20241125":0.0,"20241126":0.0,"20241127":0.0,"20241128":4.14,"20241129":3.54,"20241130":0.31,"20241201":0.12,"20241202":3.4,"20241203":32.06,"20241204":1.28,"20241205":2.58,"20241206":0.43,"20241207":0.36,"20241208":3.42,"20241209":3.25,"20241210":16.81,"20241211":1.66,"20241212":0.08,"20241213":0.03,"20241214":1.81,"20241215":2.93,"20241216":0.05,"20241217":0.05,"20241218":0.07,"20241219":0.08,"20241220":14.37,"20241221":8.95,"20241222":6.57,"20241223":4.12,"20241224":0.5,"20241225":2.6,"20241226":37.73,"20241227":13.27,"20241228":4.64,"20241229":3.43,"20241230":1.57,"20241231":1.68},"WS10M":{"20240101":4.34,"20240102":3.0,"20240103":3.63,"20240104":4.62,"20240105":3.76,"20240106":3.84,"20240107":2.95,"20240108":2.7,"20240109":2.48,"20240110":1.9,"20240111":4.75,"20240112":3.93,"20240113":5.16,"20240114":2.18,"20240115":2.73,"20240116":3.93,"20240117":4.06,"20240118":2.4,"20240119":3.71,"20240120":4.89,"20240121":5.25,"20240122":5.1,"20240123":5.65,"20240124":4.95,"20240125":4.94,"20240126":5.46,"20240127":3.04,"20240128":2.65,"20240129":2.91,"20240130":2.36,"20240131":1.69,"20240201":2.78,"20240202":3.43,"20240203":2.12,"20240204":1.91,"20240205":2.51,"20240206":2.52,"20240207":2.25,"20240208":3.03,"20240209":3.64,"20240210":3.85,"20240211":2.45,"20240212":4.12,"20240213":3.74,"20240214":3.53,"20240215":4.29,"20240216":2.65,"20240217":2.4,"20240218":2.26,"20240219":2.0,"20240220":2.3,"20240221":2.42,"20240222":2.52,"20240223":2.19,"20240224":2.37,"20240225":3.62,"20240226":4.94,"20240227":3.02,"20240228":2.9,"20240229":2.47,"20240301":3.24,"20240302":4.61,"20240303":2.97,"20240304":2.81,"20240305":3.25,"20240306":3.49,"20240307":4.47,"20240308":2.82,"20240309":3.24,"20240310":3.56,"20240311":4.03,"20240312":3.17,"20240313":2.61,"20240314":2.28,"20240315":2.8,"20240316":2.96,"20240317":3.11,"20240318":1.76,"20240319":2.13,"20240320":1.89,"20240321":4.07,"20240322":6.72,"20240323":7.17,"20240324":3.85,"20240325":2.72,"20240326":4.42,"20240327":3.67,"20240328":2.39,"20240329":2.03,"20240330":2.56,"20240331":2.31,"20240401":2.58,"20240402":2.13,"20240403":2.33,"20240404":2.79,"20240405":2.57,"20240406":4.24,"20240407":3.15,"20240408":2.67,"20240409":2.24,"20240410":1.93,"20240411":3.27,"20240412":4.64,"20240413":3.18,"20240414":2.02,"20240415":2.33,"20240416":2.24,"20240417":3.15,"20240418":4.98,"20240419":4.48,"20240420":3.14,"20240421":2.25,"20240422":2.32,"20240423":2.56,"20240424":3.1,"20240425":3.23,"20240426":2.67,"20240427":3.35,"20240428":3.23,"20240429":1.93,"20240430":2.51,"20240501":3.12,"20240502":4.62,"20240503":2.22,"20240504":2.57,"20240505":2.47,"20240506":2.95,"20240507":2.55,"20240508":4.23,"20240509":3.2,"20240510":3.07,"20240511":3.52,"20240512":4.5,"20240513":5.55,"20240514":2.54,"20240515":3.08,"20240516":3.01,"20240517":3.93,"20240518":2.78,"20240519":2.21,"20240520":2.56,"20240521":3.23,"20240522":2.72,"20240523":3.74,"20240524":5.6,"20240525":3.15,"20240526":4.61,"20240527":3.41,"20240528":5.27,"20240529":2.69,"20240530":3.3,"20240531":4.25,"20240601":2.8,"20240602":2.61,"20240603":2.52,"20240604":4.66,"20240605":2.67,"20240606":1.76,"20240607":1.95,"20240608":1.8,"20240609":3.31,"20240610":4.07,"20240611":1.72,"20240612":2.38,"20240613":3.71,"20240614":4.44,"20240615":4.2,"20240616":2.87,"20240617":4.33,"20240618":4.32,"20240619":3.68,"20240620":1.98,"20240621":2.38,"20240622":3.72,"20240623":4.36,"20240624":4.46,"20240625":3.54,"20240626":4.49,"20240627":3.27,"20240628":4.81,"20240629":3.68,"20240630":3.45,"20240701":2.69,"20240702":2.14,"20240703":3.22,"20240704":2.25,"20240705":2.51,"20240706":3.33,"20240707":3.12,"20240708":2.56,"20240709":2.32,"20240710":3.1,"20240711":2.32,"20240712":3.96,"20240713":4.49,"20240714":3.98,"20240715":2.24,"20240716":2.53,"20240717":2.02,"20240718":2.24,"20240719":2.48,"20240720":2.87,"20240721":2.64,"20240722":2.74,"20240723":2.52,"20240724":2.48,"20240725":2.96,"20240726":1.31,"20240727":1.91,"20240728":2.74,"20240729":3.65,"20240730":5.43,"20240731":3.57,"20240801":2.73,"20240802":2.68,"20240803":3.85,"20240804":3.59,"20240805":3.0,"20240806":2.36,"20240807":4.5,"20240808":4.23,"20240809":2.28,"20240810":3.17,"20240811":2.49,"20240812":4.28,"20240813":4.13,"20240814":2.85,"20240815":2.57,"20240816":1.32,"20240817":1.79,"20240818":2.14,"20240819":3.03,"20240820":2.79,"20240821":3.31,"20240822":4.3,"20240823":5.51,"20240824":4.37,"20240825":3.26,"20240826":3.81,"20240827":4.44,"20240828":4.18,"20240829":2.42,"20240830":1.89,"20240831":2.15,"20240901":4.09,"20240902":3.32,"20240903":2.49,"20240904":2.69,"20240905":4.09,"20240906":5.4,"20240907":2.26,"20240908":2.62,"20240909":2.73,"20240910":2.84,"20240911":3.47,"20240912":4.39,"20240913":3.75,"20240914":4.63,"20240915":5.98,"20240916":4.53,"20240917":6.5,"20240918":4.33,"20240919":3.24,"20240920":4.1,"20240921":2.85,"20240922":2.75,"20240923":2.54,"20240924":2.92,"20240925":2.61,"20240926":3.11,"20240927":3.93,"20240928":5.81,"20240929":4.25,"20240930":3.21,"20241001":3.9,"20241002":4.06,"20241003":6.68,"20241004":6.24,"20241005":5.21,"20241006":4.09,"20241007":5.33,"20241008":4.35,"20241009":5.51,"20241010":3.59,"20241011":4.38,"20241012":4.75,"20241013":5.72,"20241014":6.05,"20241015":3.99,"20241016":3.32,"20241017":3.74,"20241018":3.88,"20241019":5.19,"20241020":5.04,"20241021":3.93,"20241022":2.55,"20241023":2.13,"20241024":4.86,"20241025":7.59,"20241026":4.48,"20241027":5.94,"20241028":4.21,"20241029":3.88,"20241030":4.83,"20241031":4.74,"20241101":3.81,"20241102":2.52,"20241103":2.09,"20241104":2.9,"20241105":1.92,"20241106":2.08,"20241107":4.1,"20241108":5.27,"20241109":4.49,"20241110":4.15,"20241111":2.9,"20241112":3.92,"20241113":4.86,"20241114":4.45,"20241115":4.04,"20241116":4.31,"20241117":2.5,"20241118":2.48,"20241119":3.45,"20241120":2.98,"20241121":6.07,"20241122":6.28,"20241123":6.11,"20241124":5.61,"20241125":3.22,"20241126":3.31,"20241127":3.54,"20241128":4.15,"20241129":3.59,"20241130":3.46,"20241201":2.87,"20241202":4.8,"20241203":4.0,"20241204":6.42,"20241205":3.35,"20241206":4.18,"20241207":4.17,"20241208":1.97,"20241209":2.93,"20241210":4.79,"20241211":5.42,"20241212":4.21,"20241213":2.75,"20241214":5.16,"20241215":6.87,"20241216":6.09,"20241217":3.04,"20241218":3.99,"20241219":2.98,"20241220":5.18,"20241221":4.62,"20241222":2.11,"20241223":5.5,"20241224":4.81,"20241225":2.9,"20241226":1.97,"20241227":3.59,"20241228":2.44,"20241229":4.09,"20241230":3.48,"20241231":2.45},"RH2M":{"20240101":69.53,"20240102":69.31,"20240103":74.57,"20240104":77.04,"20240105":75.4,"20240106":71.84,"20240107":64.96,"20240108":62.69,"20240109":62.91,"20240110":68.39,"20240111":72.32,"20240112":81.09,"20240113":85.99,"20240114":78.96,"20240115":73.99,"20240116":66.67,"20240117":62.44,"20240118":75.06,"20240119":81.44,"20240120":87.53,"20240121":85.12,"20240122":83.59,"20240123":89.41,"20240124":82.05,"20240125":85.6,"20240126":82.08,"20240127":78.35,"20240128":75.8,"20240129":72.67,"20240130":66.45,"20240131":73.2,"20240201":75.39,"20240202":81.26,"20240203":79.69,"20240204":76.93,"20240205":70.34,"20240206":75.21,"20240207":72.0,"20240208":72.13,"20240209":74.06,"20240210":71.49,"20240211":68.56,"20240212":68.44,"20240213":68.61,"20240214":87.0,"20240215":86.8,"20240216":81.28,"20240217":82.12,"20240218":83.54,"20240219":80.0,"20240220":81.44,"20240221":84.08,"20240222":79.46,"20240223":78.16,"20240224":81.72,"20240225":84.27,"20240226":83.53,"20240227":79.22,"20240228":75.23,"20240229":82.27,"20240301":84.1,"20240302":76.69,"20240303":73.7,"20240304":74.2,"20240305":75.53,"20240306":85.72,"20240307":83.9,"20240308":82.64,"20240309":82.77,"20240310":83.4,"20240311":80.63,"20240312":79.3,"20240313":79.53,"20240314":75.94,"20240315":74.26,"20240316":65.08,"20240317":65.39,"20240318":80.6,"20240319":83.09,"20240320":77.07,"20240321":72.5,"20240322":86.68,"20240323":85.81,"20240324":85.82,"20240325":81.49,"20240326":82.07,"20240327":85.66,"20240328":86.2,"20240329":82.84,"20240330":78.1,"20240331":73.63,"20240401":74.54,"20240402":72.63,"20240403":71.55,"20240404":72.37,"20240405":68.46,"20240406":79.97,"20240407":77.23,"20240408":71.9,"20240409":76.08,"20240410":75.0,"20240411":79.26,"20240412":79.11,"20240413":76.68,"20240414":82.18,"20240415":80.57,"20240416":78.83,"20240417":76.0,"20240418":82.0,"20240419":73.44,"20240420":76.77,"20240421":73.31,"20240422":66.31,"20240423":55.94,"20240424":60.96,"20240425":78.13,"20240426":75.25,"20240427":68.2,"20240428":63.71,"20240429":68.9,"20240430":57.24,"20240501":52.95,"20240502":53.44,"20240503":54.47,"20240504":58.4,"20240505":51.67,"20240506":54.3,"20240507":51.96,"20240508":57.16,"20240509":57.23,"20240510":69.51,"20240511":54.69,"20240512":49.61,"20240513":43.99,"20240514":72.78,"20240515":83.71,"20240516":73.8,"20240517":56.53,"20240518":57.81,"20240519":78.94,"20240520":78.25,"20240521":74.74,"20240522":69.38,"20240523":57.14,"20240524":52.33,"20240525":85.18,"20240526":91.73,"20240527":87.15,"20240528":83.08,"20240529":71.13,"20240530":81.84,"20240531":80.91,"20240601":75.63,"20240602":65.97,"20240603":66.92,"20240604":84.5,"20240605":80.69,"20240606":73.23,"20240607":70.97,"20240608":67.68,"20240609":68.0,"20240610":62.7,"20240611":58.43,"20240612":70.17,"20240613":58.7,"20240614":56.03,"20240615":60.94,"20240616":61.47,"20240617":61.12,"20240618":52.09,"20240619":52.94,"20240620":50.83,"20240621":62.06,"20240622":60.58,"20240623":56.63,"20240624":56.49,"20240625":84.37,"20240626":70.29,"20240627":66.65,"20240628":59.87,"20240629":67.19,"20240630":83.21,"20240701":73.04,"20240702":66.66,"20240703":57.93,"20240704":56.14,"20240705":52.61,"20240706":73.39,"20240707":72.62,"20240708":82.79,"20240709":89.5,"20240710":87.57,"20240711":81.63,"20240712":93.2,"20240713":88.9,"20240714":78.33,"20240715":83.85,"20240716":81.47,"20240717":74.72,"20240718":64.72,"20240719":74.32,"20240720":75.77,"20240721":72.98,"20240722":63.37,"20240723":64.71,"20240724":62.93,"20240725":59.03,"20240726":48.86,"20240727":55.5,"20240728":52.7,"20240729":59.73,"20240730":87.72,"20240731":77.93,"20240801":72.75,"20240802":67.5,"20240803":58.83,"20240804":58.33,"20240805":56.56,"20240806":52.68,"20240807":49.94,"20240808":43.12,"20240809":79.49,"20240810":84.97,"20240811":67.41,"20240812":56.48,"20240813":77.24,"20240814":70.13,"20240815":58.41,"20240816":33.4,"20240817":41.55,"20240818":42.16,"20240819":43.48,"20240820":43.16,"20240821":65.73,"20240822":47.02,"20240823":42.53,"20240824":72.27,"20240825":81.24,"20240826":65.64,"20240827":67.86,"20240828":70.8,"20240829":69.83,"20240830":56.43,"20240831":49.95,"20240901":46.31,"20240902":53.78,"20240903":61.09,"20240904":41.11,"20240905":47.81,"20240906":74.51,"20240907":65.51,"20240908":52.55,"20240909":44.01,"20240910":37.15,"20240911":31.98,"20240912":28.93,"20240913":32.1,"20240914":35.9,"20240915":82.01,"20240916":90.36,"20240917":79.93,"20240918":78.29,"20240919":74.48,"20240920":67.86,"20240921":69.73,"20240922":65.49,"20240923":57.56,"20240924":54.98,"20240925":51.46,"20240926":38.63,"20240927":54.8,"20240928":71.37,"20240929":66.17,"20240930":61.99,"20241001":41.83,"20241002":35.37,"20241003":79.6,"20241004":82.88,"20241005":73.81,"20241006":65.94,"20241007":64.21,"20241008":57.94,"20241009":75.02,"20241010":82.54,"20241011":70.52,"20241012":65.52,"20241013":73.3,"20241014":74.69,"20241015":66.14,"20241016":67.01,"20241017":66.29,"20241018":65.95,"20241019":81.59,"20241020":88.72,"20241021":78.41,"20241022":72.37,"20241023":75.16,"20241024":83.47,"20241025":84.1,"20241026":80.24,"20241027":81.15,"20241028":83.7,"20241029":78.83,"20241030":75.86,"20241031":73.96,"20241101":71.27,"20241102":76.71,"20241103":90.88,"20241104":89.13,"20241105":83.21,"20241106":83.53,"20241107":91.27,"20241108":87.94,"20241109":84.93,"20241110":79.67,"20241111":72.14,"20241112":71.74,"20241113":83.25,"20241114":78.63,"20241115":81.2,"20241116":78.78,"20241117":74.62,"20241118":70.09,"20241119":71.01,"20241120":66.53,"20241121":76.92,"20241122":77.05,"20241123":75.15,"20241124":72.14,"20241125":66.71,"20241126":62.71,"20241127":58.75,"20241128":61.29,"20241129":81.47,"20241130":76.02,"20241201":67.48,"20241202":74.42,"20241203":89.84,"20241204":86.55,"20241205":81.94,"20241206":77.89,"20241207":76.3,"20241208":82.69,"20241209":85.55,"20241210":88.68,"20241211":80.01,"20241212":75.68,"20241213":77.01,"20241214":81.87,"20241215":76.63,"20241216":65.18,"20241217":63.24,"20241218":71.11,"20241219":67.98,"20241220":75.38,"20241221":86.91,"20241222":85.04,"20241223":82.89,"20241224":78.74,"20241225":75.23,"20241226":86.28,"20241227":87.97,"20241228":82.35,"20241229":81.01,"20241230":79.88,"20241231":77.64}}},"header":{"title":"NASA/POWER Source Native Resolution Daily Data","api":{"version":"v2.9.6","name":"POWER Daily API"},"sources":["MERRA2","POWER"],"fill_value":-999.0,"time_standard":"UTC","start":"20240101","end":"20241231"},"messages":[],"parameters":{"T2M":{"units":"C","longname":"Temperature at 2 Meters"},"T2M_MAX":{"units":"C","longname":"Temperature at 2 Meters Maximum"},"T2M_MIN":{"units":"C","longname":"Temperature at 2 Meters Minimum"},"PRECTOTCORR":{"units":"mm/day","longname":"Precipitation Corrected"},"WS10M":{"units":"m/s","longname":"Wind Speed at 10 Meters"},"RH2M":{"units":"%","longname":"Relative Humidity at 2 Meters"}},"times":{"data":0.628,"process":0.02}}