{"type":"Feature","geometry":{"type":"Point","coordinates":[-0.126,51.509,73.15]},"properties":{"parameter":{"T2M":{"20240101":7.56,"20240102":10.54,"20240103":8.6,"20240104":6.85,"20240105":4.98,"20240106":3.03,"20240107":1.08,"20240108":0.7,"20240109":-0.63,"20240110":-0.59,"20240111":0.91,"20240112":3.46,"20240113":0.95,"20240114":1.52,"20240115":-1.87,"20240116":-1.35,"20240117":-0.56,"20240118":-2.35,"20240119":-1.06,"20240120":1.6,"20240121":7.86,"20240122":8.45,"20240123":7.79,"20240124":8.2,"20240125":8.46,"20240126":6.49,"20240127":3.74,"20240128":5.87,"20240129":8.69,"20240130":6.8,"20240131":6.0,"20240201":4.37,"20240202":7.6,"20240203":10.52,"20240204":10.16,"20240205":8.89,"20240206":10.66,"20240207":5.18,"20240208":7.15,"20240209":9.94,"20240210":8.38,"20240211":6.35,"20240212":4.71,"20240213":7.34,"20240214":11.0,"20240215":11.5,"20240216":9.54,"20240217":9.45,"20240218":10.53,"20240219":8.26,"20240220":7.59,"20240221":9.38,"20240222":7.78,"20240223":5.05,"20240224":4.24,"20240225":4.86,"20240226":5.0,"20240227":4.15,"20240228":7.96,"20240229":8.77,"20240301":5.23,"20240302":4.75,"20240303":3.58,"20240304":5.0,"20240305":5.73,"20240306":5.98,"20240307":6.37,"20240308":6.28,"20240309":8.77,"20240310":8.07,"20240311":6.91,"20240312":9.11,"20240313":10.46,"20240314":10.8,"20240315":10.92,"20240316":8.42,"20240317":10.98,"20240318":9.53,"20240319":9.95,"20240320":11.32,"20240321":9.44,"20240322":8.37,"20240323":5.48,"20240324":7.12,"20240325":7.48,"20240326":8.26,"20240327":7.49,"20240328":8.14,"20240329":8.97,"20240330":8.75,"20240331":9.52,"20240401":9.62,"20240402":10.28,"20240403":10.62,"20240404":11.98,"20240405":13.09,"20240406":13.92,"20240407":11.68,"20240408":11.52,"20240409":8.75,"20240410":8.99,"20240411":13.94,"20240412":13.07,"20240413":12.98,"20240414":9.65,"20240415":7.87,"20240416":8.2,"20240417":6.49,"20240418":8.08,"20240419":9.07,"20240420":5.9,"20240421":6.03,"20240422":5.41,"20240423":5.8,"20240424":5.98,"20240425":6.93,"20240426":7.29,"20240427":8.28,"20240428":8.18,"20240429":10.27,"20240430":11.87,"20240501":13.47,"20240502":13.32,"20240503":10.34,"20240504":10.99,"20240505":11.77,"20240506":12.05,"20240507":12.7,"20240508":12.44,"20240509":15.42,"20240510":14.95,"20240511":14.92,"20240512":16.72,"20240513":14.9,"20240514":14.1,"20240515":14.48,"20240516":12.81,"20240517":15.2,"20240518":15.11,"20240519":14.78,"20240520":13.63,"20240521":13.42,"20240522":14.04,"20240523":13.59,"20240524":13.29,"20240525":14.8,"20240526":14.73,"20240527":12.46,"20240528":13.87,"20240529":15.05,"20240530":13.18,"20240531":12.27,"20240601":13.03,"20240602":14.6,"20240603":15.44,"20240604":15.77,"20240605":11.87,"20240606":13.16,"20240607":13.73,"20240608":13.45,"20240609":12.76,"20240610":11.89,"20240611":11.29,"20240612":12.38,"20240613":11.91,"20240614":14.56,"20240615":13.47,"20240616":14.57,"20240617":15.51,"20240618":15.81,"20240619":14.73,"20240620":14.84,"20240621":16.81,"20240622":16.8,"20240623":17.91,"20240624":19.84,"20240625":20.07,"20240626":20.68,"20240627":18.1,"20240628":15.92,"20240629":17.06,"20240630":15.74,"20240701":15.75,"20240702":15.27,"20240703":15.65,"20240704":15.18,"20240705":16.89,"20240706":14.08,"20240707":13.84,"20240708":14.69,"20240709":17.18,"20240710":17.28,"20240711":16.73,"20240712":14.53,"20240713":14.31,"20240714":16.0,"20240715":16.27,"20240716":17.07,"20240717":17.66,"20240718":19.8,"20240719":21.98,"20240720":19.13,"20240721":18.25,"20240722":18.45,"20240723":18.95,"20240724":18.35,"20240725":17.81,"20240726":17.93,"20240727":17.11,"20240728":18.31,"20240729":19.76,"20240730":20.99,"20240731":20.9,"20240801":21.76,"20240802":21.06,"20240803":18.86,"20240804":16.78,"20240805":19.07,"20240806":18.98,"20240807":17.01,"20240808":17.61,"20240809":19.74,"20240810":19.33,"20240811":20.65,"20240812":23.19,"20240813":19.57,"20240814":19.81,"20240815":18.87,"20240816":19.0,"20240817":16.72,"20240818":16.75,"20240819":16.72,"20240820":18.32,"20240821":15.87,"20240822":17.59,"20240823":18.16,"20240824":14.76,"20240825":15.07,"20240826":17.11,"20240827":17.35,"20240828":19.55,"20240829":16.6,"20240830":16.34,"20240831":16.88,"20240901":20.73,"20240902":19.58,"20240903":18.24,"20240904":15.97,"20240905":16.71,"20240906":18.55,"20240907":17.77,"20240908":16.8,"20240909":14.58,"20240910":13.76,"20240911":10.78,"20240912":9.74,"20240913":10.89,"20240914":12.19,"20240915":13.38,"20240916":14.26,"20240917":14.47,"20240918":16.91,"20240919":17.76,"20240920":17.09,"20240921":17.68,"20240922":17.65,"20240923":15.98,"20240924":14.52,"20240925":13.64,"20240926":14.28,"20240927":10.45,"20240928":9.34,"20240929":10.91,"20240930":14.17,"20241001":12.01,"20241002":13.29,"20241003":11.31,"20241004":11.44,"20241005":12.0,"20241006":13.18,"20241007":14.24,"20241008":14.66,"20241009":13.63,"20241010":8.67,"20241011":7.01,"20241012":10.43,"20241013":7.06,"20241014":9.85,"20241015":13.18,"20241016":16.75,"20241017":13.16,"20241018":11.48,"20241019":13.06,"20241020":13.39,"20241021":11.96,"20241022":10.73,"20241023":11.27,"20241024":12.15,"20241025":13.96,"20241026":11.09,"20241027":9.82,"20241028":13.04,"20241029":12.35,"20241030":11.0,"20241031":10.7,"20241101":10.01,"20241102":11.62,"20241103":10.77,"20241104":9.18,"20241105":8.76,"20241106":8.7,"20241107":9.57,"20241108":7.93,"20241109":6.56,"20241110":6.84,"20241111":7.25,"20241112":7.97,"20241113":7.76,"20241114":7.91,"20241115":6.34,"20241116":6.96,"20241117":6.93,"20241118":6.0,"20241119":4.49,"20241120":-0.03,"20241121":-0.99,"20241122":1.42,"20241123":8.19,"20241124":14.76,"20241125":8.72,"20241126":6.15,"20241127":5.75,"20241128":2.05,"20241129":5.31,"20241130":9.64,"20241201":10.91,"20241202":8.11,"20241203":4.15,"20241204":4.89,"20241205":10.97,"20241206":6.58,"20241207":7.03,"20241208":6.51,"20241209":6.14,"20241210":5.36,"20241211":5.49,"20241212":5.57,"20241213":3.14,"20241214":3.73,"20241215":7.92,"20241216":8.46,"20241217":7.64,"20241218":11.75,"20241219":5.26,"20241220":4.82,"20241221":7.34,"20241222":4.84,"20241223":3.73,"20241224":7.54,"20241225":6.97,"20241226":6.32,"20241227":5.49,"20241228":3.15,"20241229":4.85,"20241230":6.1,"20241231":8.46},"T2M_MAX":{"20240101":10.59,"20240102":12.66,"20240103":9.65,"20240104":8.04,"20240105":6.84,"20240106":5.82,"20240107":4.55,"20240108":2.92,"20240109":2.9,"20240110":4.18,"20240111":4.31,"20240112":5.78,"20240113":3.43,"20240114":4.49,"20240115":1.74,"20240116":3.36,"20240117":1.49,"20240118":2.05,"20240119":3.28,"20240120":4.37,"20240121":11.31,"20240122":11.63,"20240123":11.54,"20240124":11.35,"20240125":11.23,"20240126":11.54,"20240127":8.58,"20240128":10.05,"20240129":11.53,"20240130":9.8,"20240131":9.5,"20240201":8.65,"20240202":11.89,"20240203":13.49,"20240204":13.34,"20240205":11.48,"20240206":12.03,"20240207":8.69,"20240208":10.9,"20240209":11.97,"20240210":11.13,"20240211":10.02,"20240212":9.13,"20240213":10.77,"20240214":12.88,"20240215":15.49,"20240216":12.84,"20240217":12.91,"20240218":14.67,"20240219":12.71,"20240220":11.24,"20240221":10.86,"20240222":11.92,"20240223":8.25,"20240224":7.77,"20240225":8.36,"20240226":7.29,"20240227":7.74,"20240228":11.5,"20240229":10.76,"20240301":7.88,"20240302":7.6,"20240303":7.96,"20240304":10.91,"20240305":8.15,"20240306":10.74,"20240307":10.86,"20240308":9.71,"20240309":12.4,"20240310":10.47,"20240311":9.21,"20240312":13.14,"20240313":12.94,"20240314":13.75,"20240315":14.31,"20240316":13.11,"20240317":15.05,"20240318":14.22,"20240319":12.46,"20240320":15.55,"20240321":14.35,"20240322":10.98,"20240323":8.74,"20240324":11.56,"20240325":11.31,"20240326":11.38,"20240327":10.72,"20240328":10.45,"20240329":12.14,"20240330":13.7,"20240331":12.76,"20240401":13.1,"20240402":14.19,"20240403":13.15,"20240404":14.97,"20240405":16.67,"20240406":16.76,"20240407":15.4,"20240408":16.12,"20240409":11.57,"20240410":12.38,"20240411":19.16,"20240412":18.79,"20240413":18.32,"20240414":14.39,"20240415":10.75,"20240416":12.52,"20240417":10.58,"20240418":13.21,"20240419":13.64,"20240420":11.62,"20240421":11.45,"20240422":8.8,"20240423":10.93,"20240424":10.38,"20240425":11.86,"20240426":12.91,"20240427":12.35,"20240428":10.53,"20240429":15.02,"20240430":16.75,"20240501":18.8,"20240502":18.96,"20240503":12.38,"20240504":15.47,"20240505":17.13,"20240506":16.19,"20240507":18.56,"20240508":19.06,"20240509":21.98,"20240510":21.14,"20240511":21.31,"20240512":22.94,"20240513":18.26,"20240514":16.7,"20240515":19.41,"20240516":15.66,"20240517":20.1,"20240518":19.87,"20240519":21.2,"20240520":19.6,"20240521":17.13,"20240522":16.55,"20240523":17.8,"20240524":18.39,"20240525":19.56,"20240526":18.84,"20240527":16.07,"20240528":17.8,"20240529":19.4,"20240530":16.57,"20240531":15.72,"20240601":17.98,"20240602":20.98,"20240603":18.82,"20240604":20.29,"20240605":16.38,"20240606":17.32,"20240607":19.04,"20240608":18.26,"20240609":17.28,"20240610":14.72,"20240611":15.49,"20240612":16.42,"20240613":15.03,"20240614":18.16,"20240615":18.05,"20240616":19.23,"20240617":20.74,"20240618":20.3,"20240619":19.47,"20240620":21.01,"20240621":22.86,"20240622":21.39,"20240623":23.65,"20240624":25.21,"20240625":26.32,"20240626":27.09,"20240627":23.26,"20240628":21.05,"20240629":22.88,"20240630":19.0,"20240701":20.75,"20240702":18.99,"20240703":19.41,"20240704":19.7,"20240705":22.1,"20240706":15.91,"20240707":17.62,"20240708":18.11,"20240709":20.0,"20240710":21.34,"20240711":22.04,"20240712":18.43,"20240713":18.55,"20240714":21.08,"20240715":20.51,"20240716":21.17,"20240717":23.5,"20240718":26.06,"20240719":28.43,"20240720":23.05,"20240721":22.08,"20240722":23.81,"20240723":23.13,"20240724":23.72,"20240725":21.73,"20240726":23.02,"20240727":22.58,"20240728":24.68,"20240729":26.03,"20240730":28.23,"20240731":27.1,"20240801":27.47,"20240802":26.56,"20240803":23.89,"20240804":21.42,"20240805":25.21,"20240806":23.36,"20240807":22.88,"20240808":21.84,"20240809":24.32,"20240810":25.0,"20240811":26.48,"20240812":29.93,"20240813":25.94,"20240814":25.14,"20240815":23.82,"20240816":24.25,"20240817":22.7,"20240818":22.95,"20240819":22.32,"20240820":23.04,"20240821":21.34,"20240822":21.22,"20240823":22.4,"20240824":17.72,"20240825":20.26,"20240826":22.63,"20240827":21.77,"20240828":26.17,"20240829":22.3,"20240830":22.21,"20240831":21.19,"20240901":26.97,"20240902":24.21,"20240903":23.61,"20240904":20.32,"20240905":21.22,"20240906":23.04,"20240907":23.51,"20240908":19.85,"20240909":17.66,"20240910":18.4,"20240911":15.29,"20240912":14.41,"20240913":16.95,"20240914":18.91,"20240915":19.89,"20240916":19.99,"20240917":20.38,"20240918":22.77,"20240919":23.49,"20240920":22.42,"20240921":22.19,"20240922":21.26,"20240923":18.83,"20240924":18.55,"20240925":17.52,"20240926":18.13,"20240927":14.18,"20240928":15.26,"20240929":14.79,"20240930":18.46,"20241001":14.55,"20241002":17.05,"20241003":16.52,"20241004":16.37,"20241005":17.04,"20241006":15.35,"20241007":18.3,"20241008":17.75,"20241009":16.94,"20241010":12.52,"20241011":13.07,"20241012":15.47,"20241013":10.4,"20241014":12.53,"20241015":17.18,"20241016":21.06,"20241017":15.9,"20241018":16.96,"20241019":16.45,"20241020":17.6,"20241021":15.3,"20241022":15.85,"20241023":16.93,"20241024":16.88,"20241025":18.15,"20241026":13.59,"20241027":14.82,"20241028":16.58,"20241029":16.29,"20241030":15.41,"20241031":16.14,"20241101":13.52,"20241102":14.7,"20241103":13.11,"20241104":12.6,"20241105":12.11,"20241106":10.63,"20241107":11.9,"20241108":10.65,"20241109":8.83,"20241110":11.27,"20241111":10.56,"20241112":11.91,"20241113":11.87,"20241114":11.52,"20241115":9.66,"20241116":10.44,"20241117":10.12,"20241118":8.44,"20241119":10.07,"20241120":4.53,"20241121":1.57,"20241122":6.27,"20241123":13.34,"20241124":16.3,"20241125":11.78,"20241126":9.54,"20241127":10.3,"20241128":5.37,"20241129":9.03,"20241130":13.18,"20241201":13.71,"20241202":10.71,"20241203":7.0,"20241204":8.24,"20241205":12.58,"20241206":10.21,"20241207":11.73,"20241208":6.74,"20241209":7.05,"20241210":6.88,"20241211":7.03,"20241212":6.84,"20241213":5.18,"20241214":6.89,"20241215":10.89,"20241216":10.38,"20241217":9.42,"20241218":12.94,"20241219":12.07,"20241220":7.89,"20241221":11.08,"20241222":5.83,"20241223":5.52,"20241224":11.75,"20241225":8.46,"20241226":7.45,"20241227":6.42,"20241228":3.83,"20241229":6.16,"20241230":7.5,"20241231":10.21},"T2M_MIN":{"20240101":5.68,"20240102":8.23,"20240103":7.38,"20240104":4.71,"20240105":3.89,"20240106":0.77,"20240107":-0.5,"20240108":-1.45,"20240109":-2.44,"20240110":-2.59,"20240111":-2.66,"20240112":1.3,"20240113":-1.3,"20240114":-1.12,"20240115":-3.7,"20240116":-3.71,"20240117":-3.71,"20240118":-4.79,"20240119":-3.12,"20240120":-0.69,"20240121":1.95,"20240122":5.04,"20240123":3.08,"20240124":5.23,"20240125":4.7,"20240126":0.57,"20240127":-0.5,"20240128":3.02,"20240129":7.07,"20240130":3.28,"20240131":1.04,"20240201":0.17,"20240202":2.6,"20240203":8.96,"20240204":8.6,"20240205":7.19,"20240206":9.31,"20240207":2.66,"20240208":2.7,"20240209":8.55,"20240210":5.79,"20240211":3.76,"20240212":2.94,"20240213":3.06,"20240214":9.81,"20240215":9.35,"20240216":7.41,"20240217":6.33,"20240218":6.96,"20240219":5.22,"20240220":3.91,"20240221":8.24,"20240222":2.91,"20240223":2.88,"20240224":1.84,"20240225":1.24,"20240226":2.52,"20240227":0.1,"20240228":4.67,"20240229":4.63,"20240301":3.76,"20240302":0.92,"20240303":0.62,"20240304":-0.4,"20240305":3.32,"20240306":3.09,"20240307":3.99,"20240308":3.02,"20240309":6.27,"20240310":6.23,"20240311":4.73,"20240312":4.77,"20240313":9.01,"20240314":8.09,"20240315":6.39,"20240316":4.33,"20240317":8.26,"20240318":6.06,"20240319":7.66,"20240320":8.11,"20240321":6.05,"20240322":4.0,"20240323":2.88,"20240324":3.22,"20240325":2.84,"20240326":5.26,"20240327":5.1,"20240328":5.3,"20240329":5.88,"20240330":5.31,"20240331":6.54,"20240401":6.85,"20240402":7.52,"20240403":8.34,"20240404":10.01,"20240405":11.06,"20240406":11.65,"20240407":8.32,"20240408":8.31,"20240409":4.84,"20240410":4.04,"20240411":10.36,"20240412":8.38,"20240413":9.03,"20240414":5.38,"20240415":5.36,"20240416":3.4,"20240417":3.24,"20240418":3.65,"20240419":3.0,"20240420":0.82,"20240421":1.3,"20240422":1.95,"20240423":1.77,"20240424":1.87,"20240425":0.84,"20240426":1.24,"20240427":5.31,"20240428":5.65,"20240429":5.64,"20240430":6.22,"20240501":6.86,"20240502":8.97,"20240503":7.54,"20240504":6.36,"20240505":6.04,"20240506":7.28,"20240507":7.08,"20240508":5.33,"20240509":8.37,"20240510":9.6,"20240511":9.27,"20240512":10.84,"20240513":10.13,"20240514":12.26,"20240515":9.99,"20240516":9.7,"20240517":8.84,"20240518":11.0,"20240519":8.81,"20240520":7.85,"20240521":9.51,"20240522":11.79,"20240523":8.18,"20240524":5.77,"20240525":8.87,"20240526":10.86,"20240527":8.92,"20240528":8.93,"20240529":11.23,"20240530":9.43,"20240531":9.21,"20240601":8.82,"20240602":7.84,"20240603":9.89,"20240604":9.6,"20240605":5.96,"20240606":8.08,"20240607":6.59,"20240608":8.05,"20240609":5.44,"20240610":8.35,"20240611":6.43,"20240612":7.5,"20240613":6.14,"20240614":10.91,"20240615":9.07,"20240616":9.97,"20240617":8.63,"20240618":10.85,"20240619":9.66,"20240620":8.04,"20240621":10.2,"20240622":12.18,"20240623":9.6,"20240624":13.38,"20240625":13.22,"20240626":12.66,"20240627":11.81,"20240628":10.27,"20240629":9.41,"20240630":12.53,"20240701":10.81,"20240702":11.36,"20240703":11.11,"20240704":10.58,"20240705":12.32,"20240706":9.88,"20240707":8.91,"20240708":8.78,"20240709":14.87,"20240710":12.23,"20240711":10.54,"20240712":10.36,"20240713":10.12,"20240714":9.73,"20240715":11.64,"20240716":12.92,"20240717":11.17,"20240718":12.58,"20240719":15.57,"20240720":14.09,"20240721":13.56,"20240722":11.61,"20240723":15.5,"20240724":13.94,"20240725":14.65,"20240726":13.17,"20240727":11.34,"20240728":12.21,"20240729":13.1,"20240730":13.82,"20240731":15.9,"20240801":16.85,"20240802":15.81,"20240803":14.25,"20240804":12.02,"20240805":12.75,"20240806":13.06,"20240807":10.91,"20240808":10.93,"20240809":13.89,"20240810":12.85,"20240811":14.96,"20240812":17.17,"20240813":13.21,"20240814":14.57,"20240815":12.68,"20240816":13.95,"20240817":10.07,"20240818":10.63,"20240819":11.44,"20240820":12.41,"20240821":10.44,"20240822":13.68,"20240823":13.45,"20240824":10.6,"20240825":9.59,"20240826":13.1,"20240827":13.64,"20240828":14.18,"20240829":11.54,"20240830":10.75,"20240831":12.82,"20240901":15.9,"20240902":16.72,"20240903":14.03,"20240904":12.52,"20240905":12.47,"20240906":14.41,"20240907":12.74,"20240908":14.05,"20240909":10.3,"20240910":9.46,"20240911":7.17,"20240912":6.12,"20240913":4.44,"20240914":5.88,"20240915":7.08,"20240916":9.37,"20240917":9.03,"20240918":12.08,"20240919":14.04,"20240920":13.78,"20240921":14.63,"20240922":15.58,"20240923":13.75,"20240924":11.74,"20240925":9.64,"20240926":11.08,"20240927":5.56,"20240928":4.51,"20240929":5.98,"20240930":10.92,"20241001":9.06,"20241002":9.77,"20241003":7.43,"20241004":8.28,"20241005":7.9,"20241006":10.67,"20241007":10.56,"20241008":11.68,"20241009":10.86,"20241010":3.67,"20241011":1.83,"20241012":6.72,"20241013":3.57,"20241014":6.97,"20241015":10.01,"20241016":13.91,"20241017":8.86,"20241018":7.45,"20241019":9.34,"20241020":10.07,"20241021":7.97,"20241022":7.11,"20241023":7.65,"20241024":8.52,"20241025":11.05,"20241026":8.42,"20241027":6.25,"20241028":10.09,"20241029":9.41,"20241030":8.07,"20241031":6.11,"20241101":8.25,"20241102":9.74,"20241103":9.28,"20241104":6.35,"20241105":6.51,"20241106":6.91,"20241107":8.1,"20241108":6.23,"20241109":4.03,"20241110":3.01,"20241111":4.85,"20241112":4.94,"20241113":4.62,"20241114":5.97,"20241115":2.31,"20241116":3.46,"20241117":4.71,"20241118":4.92,"20241119":-1.01,"20241120":-2.2,"20241121":-3.25,"20241122":-1.27,"20241123":0.19,"20241124":12.65,"20241125":5.5,"20241126":4.59,"20241127":2.12,"20241128":0.35,"20241129":2.44,"20241130":6.06,"20241201":9.0,"20241202":4.63,"20241203":2.94,"20241204":1.06,"20241205":7.55,"20241206":3.64,"20241207":5.29,"20241208":6.27,"20241209":5.3,"20241210":4.54,"20241211":4.82,"20241212":4.28,"20241213":0.77,"20241214":1.64,"20241215":3.07,"20241216":6.74,"20241217":6.07,"20241218":9.44,"20241219":2.1,"20241220":1.26,"20241221":4.39,"20241222":3.69,"20241223":1.23,"20241224":5.19,"20241225":5.63,"20241226":5.43,"20241227":3.34,"20241228":2.08,"20241229":3.69,"20241230":4.82,"20241231":6.15},"PRECTOTCORR":{"20240101":12.31,"20240102":6.39,"20240103":1.68,"20240104":16.64,"20240105":3.44,"20240106":0.37,"20240107":0.07,"20240108":0.61,"20240109":0.01,"20240110":0.02,"20240111":0.14,"20240112":0.26,"20240113":0.21,"20240114":0.38,"20240115":0.04,"20240116":0.0,"20240117":0.05,"20240118":0.0,"20240119":0.03,"20240120":0.07,"20240121":3.77,"20240122":2.19,"20240123":3.75,"20240124":0.37,"20240125":0.97,"20240126":1.21,"20240127":0.02,"20240128":0.05,"20240129":0.31,"20240130":0.13,"20240131":1.3,"20240201":0.02,"20240202":0.14,"20240203":0.3,"20240204":0.26,"20240205":0.15,"20240206":10.48,"20240207":3.51,"20240208":18.06,"20240209":2.08,"20240210":3.19,"20240211":1.29,"20240212":0.22,"20240213":3.25,"20240214":3.91,"20240215":1.64,"20240216":0.66,"20240217":5.05,"20240218":12.07,"20240219":0.45,"20240220":0.17,"20240221":7.5,"20240222":8.26,"20240223":3.17,"20240224":1.82,"20240225":3.86,"20240226":2.98,"20240227":0.17,"20240228":1.65,"20240229":5.79,"20240301":6.88,"20240302":2.06,"20240303":1.31,"20240304":2.07,"20240305":4.72,"20240306":0.62,"20240307":0.18,"20240308":0.03,"20240309":2.65,"20240310":7.78,"20240311":2.4,"20240312":11.95,"20240313":1.85,"20240314":0.49,"20240315":2.13,"20240316":0.88,"20240317":4.86,"20240318":0.98,"20240319":0.43,"20240320":0.48,"20240321":0.11,"20240322":1.05,"20240323":1.11,"20240324":0.6,"20240325":0.11,"20240326":7.91,"20240327":1.41,"20240328":8.47,"20240329":1.8,"20240330":0.14,"20240331":1.58,"20240401":1.35,"20240402":6.61,"20240403":4.83,"20240404":3.94,"20240405":1.08,"20240406":0.14,"20240407":0.18,"20240408":0.71,"20240409":1.36,"20240410":2.21,"20240411":0.39,"20240412":0.04,"20240413":0.05,"20240414":0.01,"20240415":3.02,"20240416":1.04,"20240417":0.81,"20240418":1.52,"20240419":1.69,"20240420":0.6,"20240421":0.02,"20240422":0.46,"20240423":0.9,"20240424":0.32,"20240425":2.58,"20240426":1.88,"20240427":19.88,"20240428":6.64,"20240429":0.23,"20240430":0.2,"20240501":3.77,"20240502":1.87,"20240503":5.83,"20240504":1.86,"20240505":0.55,"20240506":12.2,"20240507":1.04,"20240508":0.01,"20240509":0.03,"20240510":0.0,"20240511":0.07,"20240512":0.07,"20240513":0.77,"20240514":8.95,"20240515":0.89,"20240516":5.5,"20240517":0.87,"20240518":1.15,"20240519":0.07,"20240520":0.07,"20240521":5.41,"20240522":6.35,"20240523":0.32,"20240524":0.01,"20240525":0.39,"20240526":6.28,"20240527":1.1,"20240528":3.6,"20240529":1.05,"20240530":2.83,"20240531":1.77,"20240601":0.23,"20240602":0.04,"20240603":0.19,"20240604":2.03,"20240605":0.02,"20240606":0.31,"20240607":0.01,"20240608":0.46,"20240609":0.81,"20240610":4.78,"20240611":0.88,"20240612":0.78,"20240613":1.7,"20240614":2.94,"20240615":3.01,"20240616":2.06,"20240617":0.18,"20240618":0.07,"20240619":0.06,"20240620":0.0,"20240621":0.04,"20240622":0.59,"20240623":0.07,"20240624":0.02,"20240625":0.0,"20240626":0.01,"20240627":0.01,"20240628":0.01,"20240629":0.0,"20240630":0.57,"20240701":0.24,"20240702":0.66,"20240703":1.99,"20240704":0.14,"20240705":11.05,"20240706":6.98,"20240707":6.29,"20240708":8.59,"20240709":9.47,"20240710":0.8,"20240711":0.33,"20240712":1.48,"20240713":1.04,"20240714":0.15,"20240715":5.38,"20240716":4.2,"20240717":0.05,"20240718":0.02,"20240719":0.0,"20240720":0.77,"20240721":0.63,"20240722":0.69,"20240723":2.45,"20240724":0.19,"20240725":2.12,"20240726":0.19,"20240727":0.01,"20240728":0.0,"20240729":0.03,"20240730":0.01,"20240731":0.12,"20240801":2.29,"20240802":1.2,"20240803":0.52,"20240804":0.08,"20240805":0.04,"20240806":1.87,"20240807":1.05,"20240808":1.07,"20240809":0.5,"20240810":0.06,"20240811":0.1,"20240812":0.06,"20240813":1.05,"20240814":0.32,"20240815":1.04,"20240816":2.1,"20240817":0.01,"20240818":0.01,"20240819":0.11,"20240820":0.39,"20240821":0.08,"20240822":1.21,"20240823":0.64,"20240824":33.16,"20240825":2.6,"20240826":0.3,"20240827":0.09,"20240828":0.01,"20240829":0.03,"20240830":0.0,"20240831":0.28,"20240901":0.33,"20240902":1.09,"20240903":0.97,"20240904":1.23,"20240905":8.16,"20240906":1.76,"20240907":1.54,"20240908":3.17,"20240909":1.27,"20240910":3.87,"20240911":0.75,"20240912":1.24,"20240913":0.05,"20240914":0.0,"20240915":0.17,"20240916":0.56,"20240917":0.12,"20240918":0.15,"20240919":0.2,"20240920":0.64,"20240921":2.13,"20240922":12.38,"20240923":15.83,"20240924":0.62,"20240925":3.86,"20240926":7.21,"20240927":7.58,"20240928":1.36,"20240929":2.73,"20240930":10.21,"20241001":6.69,"20241002":2.34,"20241003":0.33,"20241004":0.02,"20241005":0.0,"20241006":1.67,"20241007":3.65,"20241008":7.72,"20241009":2.67,"20241010":0.93,"20241011":0.09,"20241012":2.74,"20241013":0.21,"20241014":11.99,"20241015":1.33,"20241016":8.46,"20241017":0.39,"20241018":0.42,"20241019":7.18,"20241020":3.34,"20241021":2.54,"20241022":0.34,"20241023":0.55,"20241024":0.34,"20241025":1.32,"20241026":1.58,"20241027":0.18,"20241028":1.16,"20241029":0.36,"20241030":0.11,"20241031":0.07,"20241101":0.14,"20241102":0.67,"20241103":0.35,"20241104":0.06,"20241105":0.12,"20241106":0.47,"20241107":0.41,"20241108":0.23,"20241109":0.08,"20241110":0.14,"20241111":0.05,"20241112":0.43,"20241113":0.15,"20241114":0.35,"20241115":0.05,"20241116":0.67,"20241117":0.79,"20241118":10.43,"20241119":4.39,"20241120":0.57,"20241121":0.16,"20241122":0.09,"20241123":11.11,"20241124":5.55,"20241125":3.16,"20241126":1.25,"20241127":15.05,"20241128":0.26,"20241129":0.06,"20241130":0.47,"20241201":3.16,"20241202":1.11,"20241203":0.11,"20241204":0.69,"20241205":8.79,"20241206":0.92,"20241207":7.22,"20241208":3.25,"20241209":2.29,"20241210":0.9,"20241211":0.59,"20241212":0.9,"20241213":0.44,"20241214":0.21,"20241215":0.13,"20241216":0.19,"20241217":0.32,"20241218":5.65,"20241219":1.14,"20241220":1.08,"20241221":1.24,"20241222":0.77,"20241223":1.24,"20241224":0.33,"20241225":0.41,"20241226":0.5,"20241227":0.56,"20241228":0.51,"20241229":0.37,"20241230":0.25,"20241231":0.65},"WS10M":{"20240101":8.07,"20240102":9.9,"20240103":7.78,"20240104":4.78,"20240105":6.07,"20240106":4.19,"20240107":5.67,"20240108":6.1,"20240109":6.05,"20240110":4.99,"20240111":4.77,"20240112":3.61,"20240113":2.74,"20240114":3.87,"20240115":4.67,"20240116":3.09,"20240117":3.57,"20240118":4.65,"20240119":3.91,"20240120":6.48,"20240121":12.5,"20240122":10.99,"20240123":9.36,"20240124":8.63,"20240125":5.28,"20240126":6.83,"20240127":4.22,"20240128":5.32,"20240129":5.39,"20240130":5.03,"20240131":6.11,"20240201":3.69,"20240202":7.22,"20240203":6.78,"20240204":7.97,"20240205":9.34,"20240206":10.92,"20240207":2.99,"20240208":6.07,"20240209":8.02,"20240210":2.69,"20240211":3.23,"20240212":4.38,"20240213":6.96,"20240214":7.13,"20240215":5.81,"20240216":5.15,"20240217":5.61,"20240218":5.9,"20240219":5.05,"20240220":6.09,"20240221":8.54,"20240222":8.2,"20240223":5.33,"20240224":2.3,"20240225":5.95,"20240226":10.34,"20240227":3.67,"20240228":5.0,"20240229":5.53,"20240301":7.26,"20240302":6.12,"20240303":1.82,"20240304":4.97,"20240305":2.74,"20240306":2.33,"20240307":5.7,"20240308":6.94,"20240309":5.79,"20240310":3.19,"20240311":3.86,"20240312":5.83,"20240313":7.11,"20240314":6.6,"20240315":7.51,"20240316":3.6,"20240317":5.06,"20240318":4.81,"20240319":5.48,"20240320":2.6,"20240321":4.06,"20240322":4.92,"20240323":7.4,"20240324":6.02,"20240325":4.94,"20240326":3.15,"20240327":6.4,"20240328":11.16,"20240329":7.55,"20240330":2.86,"20240331":4.69,"20240401":5.04,"20240402":6.31,"20240403":7.77,"20240404":7.78,"20240405":8.09,"20240406":9.84,"20240407":9.16,"20240408":5.11,"20240409":9.22,"20240410":6.81,"20240411":5.66,"20240412":6.46,"20240413":6.08,"20240414":3.92,"20240415":9.87,"20240416":7.18,"20240417":5.55,"20240418":5.02,"20240419":6.67,"20240420":4.89,"20240421":5.53,"20240422":3.32,"20240423":3.49,"20240424":4.39,"20240425":3.86,"20240426":3.15,"20240427":4.82,"20240428":4.55,"20240429":5.89,"20240430":4.89,"20240501":2.63,"20240502":4.25,"20240503":6.08,"20240504":2.83,"20240505":2.7,"20240506":3.14,"20240507":3.55,"20240508":2.27,"20240509":1.65,"20240510":2.57,"20240511":4.6,"20240512":3.73,"20240513":5.29,"20240514":4.66,"20240515":3.24,"20240516":1.94,"20240517":1.17,"20240518":2.76,"20240519":4.23,"20240520":4.25,"20240521":2.6,"20240522":5.65,"20240523":5.09,"20240524":1.94,"20240525":2.03,"20240526":5.25,"20240527":4.86,"20240528":6.4,"20240529":4.9,"20240530":5.92,"20240531":7.92,"20240601":6.69,"20240602":4.01,"20240603":2.67,"20240604":5.33,"20240605":3.64,"20240606":3.11,"20240607":4.51,"20240608":4.63,"20240609":4.38,"20240610":6.03,"20240611":3.54,"20240612":1.73,"20240613":5.49,"20240614":6.79,"20240615":7.16,"20240616":5.52,"20240617":3.38,"20240618":3.47,"20240619":4.71,"20240620":2.89,"20240621":3.92,"20240622":3.82,"20240623":2.1,"20240624":2.13,"20240625":2.23,"20240626":2.49,"20240627":5.31,"20240628":4.84,"20240629":1.78,"20240630":3.65,"20240701":4.06,"20240702":4.08,"20240703":4.61,"20240704":6.24,"20240705":6.06,"20240706":6.93,"20240707":5.01,"20240708":3.44,"20240709":5.57,"20240710":6.2,"20240711":3.72,"20240712":4.49,"20240713":3.26,"20240714":3.08,"20240715":3.63,"20240716":4.88,"20240717":2.36,"20240718":3.05,"20240719":3.36,"20240720":3.97,"20240721":3.21,"20240722":6.16,"20240723":3.61,"20240724":4.15,"20240725":5.88,"20240726":3.86,"20240727":3.05,"20240728":2.24,"20240729":3.33,"20240730":3.25,"20240731":4.68,"20240801":2.19,"20240802":2.77,"20240803":4.42,"20240804":2.85,"20240805":4.73,"20240806":4.77,"20240807":4.66,"20240808":6.82,"20240809":6.11,"20240810":4.76,"20240811":4.73,"20240812":5.21,"20240813":3.58,"20240814":1.93,"20240815":6.83,"20240816":2.26,"20240817":2.71,"20240818":3.8,"20240819":4.9,"20240820":6.27,"20240821":5.99,"20240822":9.3,"20240823":7.61,"20240824":4.23,"20240825":6.37,"20240826":5.09,"20240827":4.33,"20240828":3.78,"20240829":3.78,"20240830":3.93,"20240831":6.57,"20240901":4.21,"20240902":4.55,"20240903":3.41,"20240904":2.72,"20240905":6.03,"20240906":1.91,"20240907":2.2,"20240908":2.89,"20240909":5.7,"20240910":6.86,"20240911":6.59,"20240912":4.82,"20240913":2.94,"20240914":2.99,"20240915":3.58,"20240916":4.14,"20240917":5.68,"20240918":6.58,"20240919":6.47,"20240920":5.94,"20240921":4.35,"20240922":3.49,"20240923":4.78,"20240924":4.15,"20240925":3.72,"20240926":6.47,"20240927":7.0,"20240928":2.96,"20240929":7.04,"20240930":8.82,"20241001":7.75,"20241002":6.95,"20241003":4.27,"20241004":2.55,"20241005":4.86,"20241006":5.71,"20241007":5.3,"20241008":6.44,"20241009":5.31,"20241010":4.71,"20241011":2.23,"20241012":5.35,"20241013":3.37,"20241014":4.88,"20241015":5.45,"20241016":5.88,"20241017":3.27,"20241018":3.4,"20241019":4.57,"20241020":8.05,"20241021":4.28,"20241022":4.2,"20241023":3.62,"20241024":5.12,"20241025":3.58,"20241026":1.6,"20241027":3.02,"20241028":6.05,"20241029":2.54,"20241030":1.95,"20241031":1.33,"20241101":2.57,"20241102":3.14,"20241103":2.96,"20241104":2.49,"20241105":1.13,"20241106":1.33,"20241107":2.95,"20241108":2.74,"20241109":1.21,"20241110":2.33,"20241111":4.42,"20241112":6.69,"20241113":3.91,"20241114":3.48,"20241115":1.83,"20241116":4.28,"20241117":5.21,"20241118":2.28,"20241119":5.81,"20241120":5.53,"20241121":3.07,"20241122":5.87,"20241123":10.27,"20241124":14.58,"20241125":6.42,"20241126":3.61,"20241127":5.26,"20241128":2.63,"20241129":5.69,"20241130":4.57,"20241201":6.49,"20241202":6.31,"20241203":1.9,"20241204":3.9,"20241205":9.49,"20241206":7.31,"20241207":14.21,"20241208":12.33,"20241209":8.73,"20241210":6.71,"20241211":4.78,"20241212":2.03,"20241213":2.05,"20241214":4.47,"20241215":6.28,"20241216":6.08,"20241217":5.52,"20241218":10.73,"20241219":7.78,"20241220":5.78,"20241221":8.12,"20241222":10.7,"20241223":5.47,"20241224":3.56,"20241225":2.38,"20241226":1.26,"20241227":0.79,"20241228":1.46,"20241229":3.38,"20241230":5.07,"20241231":9.02},"RH2M":{"20240101":91.06,"20240102":93.28,"20240103":92.54,"20240104":95.15,"20240105":95.79,"20240106":95.33,"20240107":89.17,"20240108":83.57,"20240109":83.52,"20240110":87.49,"20240111":95.95,"20240112":93.16,"20240113":95.89,"20240114":95.95,"20240115":90.14,"20240116":89.72,"20240117":90.21,"20240118":92.97,"20240119":95.36,"20240120":86.54,"20240121":93.9,"20240122":86.89,"20240123":95.99,"20240124":88.15,"20240125":97.42,"20240126":88.06,"20240127":92.33,"20240128":92.84,"20240129":96.81,"20240130":89.94,"20240131":91.16,"20240201":91.77,"20240202":94.1,"20240203":92.98,"20240204":93.38,"20240205":89.68,"20240206":90.66,"20240207":88.5,"20240208":96.15,"20240209":94.19,"20240210":94.62,"20240211":94.48,"20240212":89.39,"20240213":94.09,"20240214":95.4,"20240215":91.61,"20240216":91.61,"20240217":95.23,"20240218":92.2,"20240219":91.65,"20240220":93.51,"20240221":94.4,"20240222":92.67,"20240223":91.31,"20240224":91.48,"20240225":93.43,"20240226":86.13,"20240227":89.67,"20240228":93.53,"20240229":92.69,"20240301":89.76,"20240302":91.21,"20240303":89.04,"20240304":87.31,"20240305":95.21,"20240306":90.83,"20240307":89.48,"20240308":84.91,"20240309":86.9,"20240310":92.83,"20240311":94.29,"20240312":95.81,"20240313":91.9,"20240314":92.01,"20240315":90.75,"20240316":85.5,"20240317":93.54,"20240318":92.41,"20240319":92.65,"20240320":89.03,"20240321":91.67,"20240322":87.42,"20240323":85.25,"20240324":81.53,"20240325":85.74,"20240326":89.18,"20240327":88.27,"20240328":86.01,"20240329":88.48,"20240330":86.13,"20240331":91.01,"20240401":86.04,"20240402":88.23,"20240403":88.41,"20240404":87.14,"20240405":85.72,"20240406":80.36,"20240407":81.33,"20240408":88.92,"20240409":83.82,"20240410":88.02,"20240411":88.16,"20240412":85.91,"20240413":85.15,"20240414":77.14,"20240415":78.48,"20240416":79.56,"20240417":79.38,"20240418":78.23,"20240419":82.48,"20240420":76.86,"20240421":76.46,"20240422":82.73,"20240423":86.77,"20240424":74.94,"20240425":82.6,"20240426":77.25,"20240427":89.13,"20240428":89.12,"20240429":81.0,"20240430":83.84,"20240501":86.04,"20240502":87.85,"20240503":90.97,"20240504":84.0,"20240505":84.37,"20240506":91.08,"20240507":84.09,"20240508":79.05,"20240509":76.74,"20240510":77.64,"20240511":82.22,"20240512":79.99,"20240513":84.82,"20240514":88.82,"20240515":82.9,"20240516":90.34,"20240517":78.19,"20240518":86.07,"20240519":78.32,"20240520":78.37,"20240521":90.23,"20240522":88.73,"20240523":82.04,"20240524":74.82,"20240525":75.71,"20240526":83.7,"20240527":82.63,"20240528":91.33,"20240529":81.3,"20240530":84.15,"20240531":86.43,"20240601":79.14,"20240602":77.58,"20240603":81.41,"20240604":83.58,"20240605":71.93,"20240606":74.84,"20240607":75.65,"20240608":77.77,"20240609":74.4,"20240610":79.15,"20240611":80.14,"20240612":76.0,"20240613":80.21,"20240614":80.14,"20240615":79.49,"20240616":79.56,"20240617":75.05,"20240618":79.33,"20240619":77.41,"20240620":73.66,"20240621":73.75,"20240622":78.09,"20240623":78.32,"20240624":76.49,"20240625":75.42,"20240626":76.37,"20240627":74.35,"20240628":73.08,"20240629":69.88,"20240630":78.69,"20240701":77.25,"20240702":77.2,"20240703":80.1,"20240704":67.86,"20240705":85.39,"20240706":78.55,"20240707":83.06,"20240708":85.37,"20240709":90.45,"20240710":79.29,"20240711":75.12,"20240712":79.89,"20240713":80.64,"20240714":77.24,"20240715":85.22,"20240716":83.56,"20240717":77.39,"20240718":77.4,"20240719":74.31,"20240720":86.07,"20240721":79.13,"20240722":81.89,"20240723":81.34,"20240724":78.99,"20240725":88.64,"20240726":74.92,"20240727":71.76,"20240728":71.1,"20240729":73.8,"20240730":72.8,"20240731":76.03,"20240801":79.79,"20240802":76.28,"20240803":78.52,"20240804":74.69,"20240805":78.4,"20240806":79.9,"20240807":74.3,"20240808":83.37,"20240809":73.62,"20240810":78.87,"20240811":80.46,"20240812":76.68,"20240813":71.5,"20240814":78.11,"20240815":79.15,"20240816":75.05,"20240817":66.64,"20240818":73.53,"20240819":78.47,"20240820":71.29,"20240821":71.49,"20240822":84.09,"20240823":70.85,"20240824":87.76,"20240825":77.45,"20240826":78.87,"20240827":82.03,"20240828":77.74,"20240829":74.03,"20240830":75.99,"20240831":80.82,"20240901":84.19,"20240902":84.39,"20240903":83.15,"20240904":79.73,"20240905":92.13,"20240906":89.6,"20240907":82.19,"20240908":83.99,"20240909":82.62,"20240910":85.97,"20240911":76.21,"20240912":80.06,"20240913":69.29,"20240914":75.11,"20240915":79.74,"20240916":79.63,"20240917":82.56,"20240918":84.42,"20240919":83.94,"20240920":84.77,"20240921":86.72,"20240922":90.51,"20240923":89.46,"20240924":81.78,"20240925":86.56,"20240926":87.46,"20240927":81.91,"20240928":77.1,"20240929":77.53,"20240930":88.38,"20241001":90.54,"20241002":86.84,"20241003":82.04,"20241004":79.88,"20241005":80.11,"20241006":89.6,"20241007":87.78,"20241008":89.24,"20241009":87.81,"20241010":81.0,"20241011":79.33,"20241012":85.87,"20241013":79.85,"20241014":91.7,"20241015":93.95,"20241016":93.14,"20241017":92.69,"20241018":90.05,"20241019":91.64,"20241020":93.46,"20241021":90.98,"20241022":92.55,"20241023":93.51,"20241024":93.35,"20241025":93.96,"20241026":94.69,"20241027":90.12,"20241028":92.41,"20241029":92.7,"20241030":92.04,"20241031":91.23,"20241101":91.76,"20241102":94.67,"20241103":90.04,"20241104":91.44,"20241105":93.67,"20241106":95.3,"20241107":94.22,"20241108":89.36,"20241109":85.85,"20241110":94.12,"20241111":93.84,"20241112":91.17,"20241113":90.5,"20241114":91.72,"20241115":89.64,"20241116":96.21,"20241117":91.95,"20241118":96.41,"20241119":95.31,"20241120":92.04,"20241121":94.19,"20241122":94.37,"20241123":94.57,"20241124":82.18,"20241125":87.56,"20241126":93.49,"20241127":96.24,"20241128":96.55,"20241129":90.01,"20241130":98.35,"20241201":96.48,"20241202":92.28,"20241203":91.84,"20241204":96.59,"20241205":94.02,"20241206":87.84,"20241207":86.88,"20241208":91.15,"20241209":92.28,"20241210":92.79,"20241211":94.51,"20241212":98.38,"20241213":93.83,"20241214":97.57,"20241215":96.9,"20241216":95.41,"20241217":94.86,"20241218":92.11,"20241219":91.46,"20241220":96.02,"20241221":94.37,"20241222":83.75,"20241223":91.04,"20241224":98.69,"20241225":98.2,"20241226":97.63,"20241227":97.67,"20241228":96.55,"20241229":98.22,"20241230":95.52,"20241231":94.96}}},"header":{"title":"NASA/POWER Source Native Resolution Daily Data","api":{"version":"v2.9.6","name":"POWER Daily API"},"sources":["MERRA2","POWER"],"fill_value":-999.0,"time_standard":"UTC","start":"20240101","end":"20241231"},"messages":[],"parameters":{"T2M":{"units":"C","longname":"Temperature at 2 Meters"},"T2M_MAX":{"units":"C","longname":"Temperature at 2 Meters Maximum"},"T2M_MIN":{"units":"C","longname":"Temperature at 2 Meters Minimum"},"PRECTOTCORR":{"units":"mm/day","longname":"Precipitation Corrected"},"WS10M":{"units":"m/s","longname":"Wind Speed at 10 Meters"},"RH2M":{"units":"%","longname":"Relative Humidity at 2 Meters"}},"times":{"data":1.034,"process":0.01}}