{"type":"Feature","geometry":{"type":"Point","coordinates":[72.883,19.073,97.15]},"properties":{"parameter":{"T2M":{"20240101":24.58,"20240102":23.99,"20240103":23.55,"20240104":22.19,"20240105":21.58,"20240106":23.57,"20240107":24.83,"20240108":26.09,"20240109":25.56,"20240110":26.23,"20240111":26.48,"20240112":26.29,"20240113":25.79,"20240114":24.12,"20240115":22.0,"20240116":21.69,"20240117":22.05,"20240118":21.72,"20240119":22.69,"20240120":22.13,"20240121":23.17,"20240122":22.77,"20240123":21.53,"20240124":21.88,"20240125":22.72,"20240126":23.81,"20240127":25.05,"20240128":24.98,"20240129":24.95,"20240130":24.43,"20240131":24.05,"20240201":22.81,"20240202":24.09,"20240203":26.66,"20240204":27.35,"20240205":26.82,"20240206":26.65,"20240207":26.26,"20240208":26.34,"20240209":25.9,"20240210":24.93,"20240211":25.13,"20240212":25.39,"20240213":25.1,"20240214":25.79,"20240215":27.04,"20240216":28.31,"20240217":28.61,"20240218":28.14,"20240219":27.24,"20240220":26.14,"20240221":25.04,"20240222":24.72,"20240223":24.53,"20240224":24.31,"20240225":26.05,"20240226":28.79,"20240227":29.01,"20240228":30.21,"20240229":31.2,"20240301":29.86,"20240302":27.66,"20240303":24.06,"20240304":23.93,"20240305":25.11,"20240306":25.7,"20240307":27.47,"20240308":28.45,"20240309":28.67,"20240310":28.36,"20240311":29.1,"20240312":28.9,"20240313":27.61,"20240314":26.59,"20240315":25.94,"20240316":26.54,"20240317":27.45,"20240318":27.86,"20240319":27.86,"20240320":30.51,"20240321":30.19,"20240322":29.66,"20240323":29.75,"20240324":29.94,"20240325":30.12,"20240326":30.66,"20240327":30.8,"20240328":30.93,"20240329":31.49,"20240330":31.1,"20240331":31.41,"20240401":30.52,"20240402":30.07,"20240403":30.29,"20240404":30.75,"20240405":31.18,"20240406":31.72,"20240407":30.5,"20240408":30.89,"20240409":30.92,"20240410":30.94,"20240411":31.7,"20240412":30.82,"20240413":29.71,"20240414":30.91,"20240415":34.23,"20240416":36.76,"20240417":34.71,"20240418":34.09,"20240419":32.89,"20240420":32.35,"20240421":31.61,"20240422":31.35,"20240423":31.57,"20240424":31.64,"20240425":32.61,"20240426":32.85,"20240427":34.08,"20240428":34.88,"20240429":34.15,"20240430":33.8,"20240501":31.79,"20240502":31.36,"20240503":31.02,"20240504":31.43,"20240505":32.47,"20240506":31.68,"20240507":31.7,"20240508":31.84,"20240509":31.45,"20240510":32.14,"20240511":32.47,"20240512":31.38,"20240513":32.2,"20240514":32.45,"20240515":32.52,"20240516":33.02,"20240517":32.0,"20240518":32.99,"20240519":33.15,"20240520":32.84,"20240521":32.55,"20240522":33.3,"20240523":33.25,"20240524":32.49,"20240525":31.86,"20240526":31.67,"20240527":31.94,"20240528":32.14,"20240529":31.83,"20240530":31.98,"20240531":32.42,"20240601":32.57,"20240602":32.27,"20240603":31.56,"20240604":30.81,"20240605":30.88,"20240606":31.1,"20240607":30.23,"20240608":29.22,"20240609":28.18,"20240610":28.64,"20240611":28.36,"20240612":29.19,"20240613":29.45,"20240614":29.26,"20240615":29.57,"20240616":29.59,"20240617":29.25,"20240618":28.61,"20240619":28.86,"20240620":28.92,"20240621":29.35,"20240622":29.59,"20240623":28.39,"20240624":29.13,"20240625":28.08,"20240626":28.39,"20240627":27.69,"20240628":27.43,"20240629":28.4,"20240630":28.32,"20240701":28.37,"20240702":28.08,"20240703":28.3,"20240704":28.13,"20240705":27.97,"20240706":27.99,"20240707":27.78,"20240708":27.48,"20240709":26.47,"20240710":26.79,"20240711":27.61,"20240712":27.21,"20240713":26.95,"20240714":27.23,"20240715":26.81,"20240716":25.91,"20240717":26.93,"20240718":26.74,"20240719":26.7,"20240720":26.51,"20240721":26.59,"20240722":26.35,"20240723":26.55,"20240724":26.41,"20240725":25.81,"20240726":26.54,"20240727":26.45,"20240728":26.22,"20240729":26.35,"20240730":26.74,"20240731":27.14,"20240801":26.68,"20240802":26.27,"20240803":26.01,"20240804":25.98,"20240805":26.33,"20240806":26.27,"20240807":26.61,"20240808":26.52,"20240809":26.75,"20240810":26.64,"20240811":26.51,"20240812":26.8,"20240813":26.96,"20240814":27.1,"20240815":27.18,"20240816":27.21,"20240817":27.39,"20240818":27.56,"20240819":26.88,"20240820":27.09,"20240821":27.74,"20240822":27.89,"20240823":27.69,"20240824":26.3,"20240825":26.4,"20240826":26.49,"20240827":26.53,"20240828":26.69,"20240829":26.71,"20240830":26.74,"20240831":26.44,"20240901":26.37,"20240902":25.16,"20240903":25.49,"20240904":26.82,"20240905":26.8,"20240906":26.65,"20240907":26.52,"20240908":26.5,"20240909":26.81,"20240910":26.55,"20240911":26.38,"20240912":26.21,"20240913":25.85,"20240914":26.26,"20240915":26.31,"20240916":26.16,"20240917":25.76,"20240918":26.16,"20240919":26.17,"20240920":26.72,"20240921":26.6,"20240922":26.91,"20240923":27.36,"20240924":26.78,"20240925":26.24,"20240926":26.47,"20240927":26.15,"20240928":26.29,"20240929":26.25,"20240930":27.4,"20241001":28.03,"20241002":27.76,"20241003":26.98,"20241004":26.61,"20241005":26.67,"20241006":27.77,"20241007":27.8,"20241008":27.84,"20241009":26.13,"20241010":27.01,"20241011":27.75,"20241012":28.24,"20241013":28.23,"20241014":28.43,"20241015":27.98,"20241016":28.27,"20241017":27.67,"20241018":27.78,"20241019":26.65,"20241020":27.78,"20241021":26.76,"20241022":27.72,"20241023":27.44,"20241024":26.86,"20241025":25.98,"20241026":25.59,"20241027":25.64,"20241028":26.41,"20241029":26.55,"20241030":26.76,"20241031":26.83,"20241101":26.32,"20241102":25.84,"20241103":25.45,"20241104":25.73,"20241105":25.42,"20241106":24.97,"20241107":24.87,"20241108":25.02,"20241109":24.95,"20241110":24.8,"20241111":23.92,"20241112":23.3,"20241113":23.87,"20241114":25.05,"20241115":25.71,"20241116":26.44,"20241117":24.92,"20241118":22.85,"20241119":22.15,"20241120":22.0,"20241121":22.27,"20241122":22.66,"20241123":23.03,"20241124":22.78,"20241125":21.9,"20241126":21.06,"20241127":20.89,"20241128":20.49,"20241129":20.12,"20241130":22.0,"20241201":24.24,"20241202":25.62,"20241203":26.64,"20241204":26.79,"20241205":26.63,"20241206":26.14,"20241207":23.61,"20241208":20.87,"20241209":19.63,"20241210":21.74,"20241211":22.56,"20241212":21.74,"20241213":20.99,"20241214":20.79,"20241215":21.15,"20241216":20.97,"20241217":21.19,"20241218":21.62,"20241219":21.89,"20241220":21.61,"20241221":22.26,"20241222":22.37,"20241223":21.77,"20241224":21.42,"20241225":22.21,"20241226":22.88,"20241227":23.5,"20241228":23.96,"20241229":24.74,"20241230":24.54,"20241231":24.64},"T2M_MAX":{"20240101":32.8,"20240102":32.39,"20240103":31.84,"20240104":30.19,"20240105":29.32,"20240106":32.18,"20240107":31.75,"20240108":33.74,"20240109":32.4,"20240110":32.22,"20240111":33.9,"20240112":34.97,"20240113":34.47,"20240114":32.99,"20240115":31.48,"20240116":30.62,"20240117":29.29,"20240118":29.41,"20240119":30.46,"20240120":29.74,"20240121":32.55,"20240122":32.35,"20240123":31.41,"20240124":31.96,"20240125":32.85,"20240126":33.9,"20240127":34.96,"20240128":34.38,"20240129":34.21,"20240130":33.18,"20240131":32.36,"20240201":30.33,"20240202":32.46,"20240203":36.15,"20240204":36.59,"20240205":35.53,"20240206":36.01,"20240207":35.76,"20240208":36.82,"20240209":35.86,"20240210":34.62,"20240211":35.01,"20240212":34.81,"20240213":34.25,"20240214":35.96,"20240215":37.08,"20240216":37.5,"20240217":37.78,"20240218":37.12,"20240219":36.24,"20240220":34.35,"20240221":32.6,"20240222":32.91,"20240223":33.49,"20240224":34.73,"20240225":36.44,"20240226":38.04,"20240227":37.33,"20240228":39.29,"20240229":40.05,"20240301":38.31,"20240302":34.93,"20240303":30.41,"20240304":32.61,"20240305":35.13,"20240306":34.49,"20240307":37.65,"20240308":38.15,"20240309":38.82,"20240310":38.0,"20240311":39.31,"20240312":38.82,"20240313":36.51,"20240314":35.59,"20240315":34.75,"20240316":34.82,"20240317":36.04,"20240318":36.71,"20240319":37.48,"20240320":40.65,"20240321":40.15,"20240322":39.41,"20240323":38.39,"20240324":39.08,"20240325":39.93,"20240326":40.59,"20240327":40.74,"20240328":39.67,"20240329":39.65,"20240330":40.13,"20240331":39.75,"20240401":39.26,"20240402":39.27,"20240403":39.57,"20240404":40.1,"20240405":40.47,"20240406":40.59,"20240407":39.51,"20240408":40.39,"20240409":39.92,"20240410":40.06,"20240411":40.84,"20240412":38.93,"20240413":38.19,"20240414":39.64,"20240415":43.01,"20240416":43.22,"20240417":43.41,"20240418":41.84,"20240419":39.78,"20240420":40.53,"20240421":38.4,"20240422":38.59,"20240423":39.32,"20240424":39.91,"20240425":40.94,"20240426":40.55,"20240427":43.04,"20240428":44.11,"20240429":43.21,"20240430":43.06,"20240501":40.28,"20240502":40.56,"20240503":39.41,"20240504":39.44,"20240505":40.86,"20240506":39.3,"20240507":39.5,"20240508":40.67,"20240509":39.29,"20240510":40.22,"20240511":40.45,"20240512":37.58,"20240513":39.44,"20240514":40.26,"20240515":38.95,"20240516":40.1,"20240517":37.52,"20240518":40.04,"20240519":40.47,"20240520":40.37,"20240521":39.31,"20240522":40.68,"20240523":40.08,"20240524":39.69,"20240525":37.26,"20240526":37.53,"20240527":36.98,"20240528":37.1,"20240529":36.73,"20240530":37.55,"20240531":38.53,"20240601":38.1,"20240602":38.26,"20240603":36.51,"20240604":35.38,"20240605":35.45,"20240606":36.18,"20240607":34.21,"20240608":32.65,"20240609":30.29,"20240610":31.67,"20240611":31.44,"20240612":32.44,"20240613":33.03,"20240614":32.43,"20240615":33.28,"20240616":33.66,"20240617":32.69,"20240618":32.06,"20240619":31.35,"20240620":31.28,"20240621":31.94,"20240622":32.5,"20240623":31.42,"20240624":33.78,"20240625":31.88,"20240626":31.05,"20240627":29.75,"20240628":28.33,"20240629":31.07,"20240630":30.87,"20240701":30.71,"20240702":29.97,"20240703":31.09,"20240704":30.15,"20240705":29.92,"20240706":29.98,"20240707":29.94,"20240708":29.42,"20240709":28.84,"20240710":29.6,"20240711":30.0,"20240712":28.62,"20240713":28.1,"20240714":28.52,"20240715":29.09,"20240716":27.43,"20240717":28.62,"20240718":28.1,"20240719":27.93,"20240720":27.34,"20240721":27.73,"20240722":27.48,"20240723":27.88,"20240724":27.58,"20240725":26.82,"20240726":27.94,"20240727":27.92,"20240728":27.3,"20240729":27.61,"20240730":28.81,"20240731":29.24,"20240801":28.42,"20240802":27.45,"20240803":27.08,"20240804":26.97,"20240805":28.33,"20240806":28.27,"20240807":28.9,"20240808":28.79,"20240809":29.28,"20240810":29.22,"20240811":28.64,"20240812":29.38,"20240813":29.7,"20240814":30.21,"20240815":29.92,"20240816":29.96,"20240817":30.76,"20240818":30.55,"20240819":28.39,"20240820":29.48,"20240821":31.07,"20240822":31.55,"20240823":30.61,"20240824":27.81,"20240825":27.69,"20240826":27.52,"20240827":28.37,"20240828":28.43,"20240829":28.82,"20240830":29.17,"20240831":28.91,"20240901":28.31,"20240902":26.87,"20240903":26.54,"20240904":29.04,"20240905":28.89,"20240906":29.35,"20240907":29.23,"20240908":29.05,"20240909":29.7,"20240910":29.15,"20240911":29.09,"20240912":29.05,"20240913":28.71,"20240914":29.15,"20240915":29.57,"20240916":29.65,"20240917":29.32,"20240918":29.39,"20240919":29.39,"20240920":30.15,"20240921":29.96,"20240922":30.28,"20240923":30.16,"20240924":28.13,"20240925":27.55,"20240926":28.61,"20240927":27.73,"20240928":28.73,"20240929":28.97,"20240930":31.21,"20241001":32.41,"20241002":31.36,"20241003":30.39,"20241004":30.2,"20241005":30.78,"20241006":32.44,"20241007":32.93,"20241008":32.34,"20241009":28.52,"20241010":31.04,"20241011":31.98,"20241012":32.5,"20241013":31.73,"20241014":33.17,"20241015":31.48,"20241016":32.19,"20241017":31.37,"20241018":31.73,"20241019":29.16,"20241020":31.41,"20241021":30.19,"20241022":32.15,"20241023":32.14,"20241024":32.68,"20241025":32.41,"20241026":31.79,"20241027":30.62,"20241028":31.12,"20241029":31.4,"20241030":31.94,"20241031":32.59,"20241101":32.31,"20241102":32.94,"20241103":31.45,"20241104":31.8,"20241105":31.24,"20241106":32.36,"20241107":31.64,"20241108":31.12,"20241109":31.38,"20241110":31.28,"20241111":29.92,"20241112":29.72,"20241113":30.73,"20241114":31.18,"20241115":30.09,"20241116":32.27,"20241117":31.31,"20241118":30.2,"20241119":29.07,"20241120":29.23,"20241121":29.31,"20241122":29.51,"20241123":29.81,"20241124":29.62,"20241125":29.01,"20241126":28.49,"20241127":28.31,"20241128":28.22,"20241129":28.21,"20241130":29.68,"20241201":30.18,"20241202":31.16,"20241203":31.88,"20241204":31.9,"20241205":32.12,"20241206":31.61,"20241207":30.41,"20241208":28.58,"20241209":28.4,"20241210":29.63,"20241211":30.44,"20241212":29.39,"20241213":29.36,"20241214":29.17,"20241215":30.28,"20241216":30.48,"20241217":30.41,"20241218":30.04,"20241219":30.33,"20241220":28.27,"20241221":28.53,"20241222":27.7,"20241223":26.76,"20241224":28.14,"20241225":29.54,"20241226":29.44,"20241227":29.39,"20241228":30.2,"20241229":31.72,"20241230":31.87,"20241231":32.93},"T2M_MIN":{"20240101":18.68,"20240102":18.17,"20240103":17.7,"20240104":15.67,"20240105":15.48,"20240106":16.18,"20240107":18.75,"20240108":20.81,"20240109":20.68,"20240110":20.29,"20240111":20.92,"20240112":20.35,"20240113":19.04,"20240114":16.68,"20240115":14.76,"20240116":14.44,"20240117":15.56,"20240118":15.79,"20240119":15.24,"20240120":15.64,"20240121":15.05,"20240122":15.43,"20240123":13.99,"20240124":13.72,"20240125":13.91,"20240126":15.71,"20240127":17.78,"20240128":18.21,"20240129":18.09,"20240130":18.03,"20240131":17.65,"20240201":16.96,"20240202":16.68,"20240203":18.7,"20240204":20.45,"20240205":20.14,"20240206":19.8,"20240207":19.12,"20240208":18.53,"20240209":18.43,"20240210":17.29,"20240211":16.88,"20240212":17.92,"20240213":17.55,"20240214":17.9,"20240215":18.46,"20240216":21.15,"20240217":22.14,"20240218":21.64,"20240219":19.57,"20240220":19.21,"20240221":19.9,"20240222":18.24,"20240223":17.26,"20240224":15.86,"20240225":15.55,"20240226":19.64,"20240227":23.38,"20240228":23.13,"20240229":23.13,"20240301":23.44,"20240302":23.01,"20240303":17.95,"20240304":16.56,"20240305":16.1,"20240306":18.37,"20240307":17.86,"20240308":20.27,"20240309":20.4,"20240310":20.17,"20240311":20.65,"20240312":21.18,"20240313":20.9,"20240314":19.58,"20240315":19.07,"20240316":19.8,"20240317":20.45,"20240318":21.17,"20240319":20.22,"20240320":20.08,"20240321":22.09,"20240322":22.01,"20240323":21.74,"20240324":23.02,"20240325":22.86,"20240326":23.15,"20240327":24.63,"20240328":24.87,"20240329":24.63,"20240330":24.45,"20240331":24.73,"20240401":23.48,"20240402":23.28,"20240403":23.26,"20240404":22.9,"20240405":24.02,"20240406":24.17,"20240407":23.15,"20240408":22.73,"20240409":24.34,"20240410":23.76,"20240411":23.64,"20240412":24.27,"20240413":23.26,"20240414":23.04,"20240415":25.27,"20240416":30.17,"20240417":27.76,"20240418":27.47,"20240419":28.02,"20240420":26.9,"20240421":26.63,"20240422":25.23,"20240423":25.0,"20240424":25.29,"20240425":26.22,"20240426":26.93,"20240427":26.64,"20240428":27.45,"20240429":26.48,"20240430":26.08,"20240501":24.75,"20240502":24.08,"20240503":23.84,"20240504":24.36,"20240505":26.27,"20240506":26.33,"20240507":26.22,"20240508":25.74,"20240509":25.5,"20240510":26.48,"20240511":26.9,"20240512":26.82,"20240513":26.52,"20240514":26.32,"20240515":26.88,"20240516":28.05,"20240517":28.08,"20240518":27.92,"20240519":28.15,"20240520":28.13,"20240521":28.33,"20240522":28.23,"20240523":27.78,"20240524":27.82,"20240525":27.99,"20240526":28.57,"20240527":28.58,"20240528":28.86,"20240529":28.36,"20240530":27.9,"20240531":27.76,"20240601":28.47,"20240602":28.44,"20240603":28.21,"20240604":27.89,"20240605":27.91,"20240606":27.91,"20240607":26.98,"20240608":26.87,"20240609":26.55,"20240610":26.62,"20240611":26.6,"20240612":26.59,"20240613":26.71,"20240614":26.74,"20240615":26.7,"20240616":26.72,"20240617":26.88,"20240618":26.75,"20240619":27.11,"20240620":27.05,"20240621":27.53,"20240622":27.32,"20240623":25.68,"20240624":25.59,"20240625":25.27,"20240626":25.39,"20240627":26.63,"20240628":26.7,"20240629":26.46,"20240630":26.53,"20240701":26.93,"20240702":26.73,"20240703":26.45,"20240704":26.47,"20240705":26.7,"20240706":26.53,"20240707":26.33,"20240708":25.75,"20240709":24.29,"20240710":24.4,"20240711":25.14,"20240712":26.23,"20240713":26.05,"20240714":26.04,"20240715":24.8,"20240716":24.57,"20240717":25.81,"20240718":25.9,"20240719":25.84,"20240720":25.9,"20240721":25.42,"20240722":25.45,"20240723":25.81,"20240724":25.75,"20240725":25.07,"20240726":25.32,"20240727":25.34,"20240728":25.31,"20240729":25.56,"20240730":25.16,"20240731":25.19,"20240801":25.48,"20240802":25.22,"20240803":25.26,"20240804":25.3,"20240805":25.01,"20240806":24.67,"20240807":24.67,"20240808":24.89,"20240809":24.83,"20240810":24.73,"20240811":24.95,"20240812":24.82,"20240813":24.76,"20240814":24.77,"20240815":24.8,"20240816":25.2,"20240817":24.79,"20240818":24.74,"20240819":25.54,"20240820":25.14,"20240821":25.15,"20240822":25.3,"20240823":25.66,"20240824":25.19,"20240825":25.26,"20240826":25.69,"20240827":25.08,"20240828":25.03,"20240829":25.33,"20240830":24.72,"20240831":24.58,"20240901":24.53,"20240902":23.51,"20240903":23.77,"20240904":25.44,"20240905":25.41,"20240906":24.7,"20240907":24.59,"20240908":24.65,"20240909":24.7,"20240910":24.71,"20240911":24.67,"20240912":23.79,"20240913":23.7,"20240914":24.03,"20240915":23.96,"20240916":23.4,"20240917":23.36,"20240918":23.36,"20240919":24.16,"20240920":24.24,"20240921":24.19,"20240922":24.52,"20240923":25.23,"20240924":26.07,"20240925":25.01,"20240926":24.97,"20240927":24.9,"20240928":24.15,"20240929":24.05,"20240930":24.36,"20241001":24.17,"20241002":25.06,"20241003":24.1,"20241004":24.02,"20241005":23.21,"20241006":22.96,"20241007":23.45,"20241008":23.32,"20241009":24.21,"20241010":24.14,"20241011":24.21,"20241012":24.67,"20241013":24.87,"20241014":24.54,"20241015":25.26,"20241016":25.16,"20241017":24.03,"20241018":23.95,"20241019":24.3,"20241020":23.5,"20241021":23.15,"20241022":24.2,"20241023":23.2,"20241024":21.8,"20241025":20.89,"20241026":20.5,"20241027":20.27,"20241028":21.42,"20241029":22.17,"20241030":22.14,"20241031":21.84,"20241101":21.05,"20241102":20.48,"20241103":20.33,"20241104":20.31,"20241105":20.57,"20241106":19.53,"20241107":19.25,"20241108":20.09,"20241109":19.73,"20241110":19.96,"20241111":19.16,"20241112":18.27,"20241113":17.96,"20241114":18.95,"20241115":21.21,"20241116":21.7,"20241117":18.45,"20241118":17.32,"20241119":16.93,"20241120":16.58,"20241121":16.56,"20241122":16.89,"20241123":16.67,"20241124":16.9,"20241125":16.09,"20241126":15.73,"20241127":15.45,"20241128":14.52,"20241129":13.76,"20241130":14.47,"20241201":18.37,"20241202":21.06,"20241203":22.47,"20241204":23.07,"20241205":22.95,"20241206":21.65,"20241207":18.0,"20241208":14.07,"20241209":13.19,"20241210":13.16,"20241211":16.09,"20241212":15.99,"20241213":14.42,"20241214":13.75,"20241215":13.73,"20241216":13.51,"20241217":13.49,"20241218":14.39,"20241219":14.88,"20241220":17.04,"20241221":16.3,"20241222":17.98,"20241223":17.8,"20241224":16.81,"20241225":16.75,"20241226":17.84,"20241227":18.51,"20241228":19.42,"20241229":19.49,"20241230":19.45,"20241231":19.06},"PRECTOTCORR":{"20240101":0.0,"20240102":0.0,"20240103":0.0,"20240104":0.0,"20240105":0.0,"20240106":0.0,"20240107":0.05,"20240108":0.23,"20240109":0.76,"20240110":0.02,"20240111":0.0,"20240112":0.0,"20240113":0.0,"20240114":0.0,"20240115":0.0,"20240116":0.0,"20240117":0.0,"20240118":0.0,"20240119":0.0,"20240120":0.0,"20240121":0.0,"20240122":0.0,"20240123":0.0,"20240124":0.0,"20240125":0.0,"20240126":0.0,"20240127":0.0,"20240128":0.0,"20240129":0.0,"20240130":0.0,"20240131":0.0,"20240201":0.04,"20240202":0.0,"20240203":0.0,"20240204":0.0,"20240205":0.0,"20240206":0.0,"20240207":0.0,"20240208":0.0,"20240209":0.0,"20240210":0.0,"20240211":0.0,"20240212":0.0,"20240213":0.0,"20240214":0.0,"20240215":0.0,"20240216":0.0,"20240217":0.0,"20240218":0.0,"20240219":0.0,"20240220":0.0,"20240221":0.0,"20240222":0.0,"20240223":0.0,"20240224":0.0,"20240225":0.0,"20240226":0.0,"20240227":0.01,"20240228":0.06,"20240229":0.69,"20240301":0.71,"20240302":0.11,"20240303":0.03,"20240304":0.0,"20240305":0.0,"20240306":0.0,"20240307":0.0,"20240308":0.0,"20240309":0.0,"20240310":0.02,"20240311":0.03,"20240312":0.0,"20240313":0.0,"20240314":0.0,"20240315":0.0,"20240316":0.0,"20240317":0.0,"20240318":0.06,"20240319":0.03,"20240320":0.01,"20240321":0.1,"20240322":0.03,"20240323":0.0,"20240324":0.0,"20240325":0.01,"20240326":0.03,"20240327":0.06,"20240328":0.11,"20240329":0.15,"20240330":0.01,"20240331":0.0,"20240401":0.0,"20240402":0.0,"20240403":0.0,"20240404":0.03,"20240405":0.59,"20240406":0.0,"20240407":0.0,"20240408":0.01,"20240409":0.01,"20240410":0.01,"20240411":0.01,"20240412":0.0,"20240413":0.02,"20240414":0.03,"20240415":0.01,"20240416":0.02,"20240417":0.02,"20240418":0.07,"20240419":0.04,"20240420":0.74,"20240421":0.42,"20240422":0.08,"20240423":0.03,"20240424":0.44,"20240425":0.36,"20240426":0.26,"20240427":0.1,"20240428":0.02,"20240429":0.01,"20240430":0.02,"20240501":0.0,"20240502":0.0,"20240503":0.0,"20240504":0.03,"20240505":0.08,"20240506":0.02,"20240507":0.11,"20240508":0.09,"20240509":0.09,"20240510":1.43,"20240511":7.55,"20240512":4.66,"20240513":5.18,"20240514":6.01,"20240515":6.99,"20240516":1.27,"20240517":1.38,"20240518":0.53,"20240519":1.05,"20240520":0.85,"20240521":0.71,"20240522":0.65,"20240523":0.19,"20240524":0.04,"20240525":0.24,"20240526":0.06,"20240527":0.04,"20240528":0.1,"20240529":0.22,"20240530":0.13,"20240531":0.11,"20240601":0.25,"20240602":0.37,"20240603":6.4,"20240604":7.1,"20240605":3.94,"20240606":2.96,"20240607":3.75,"20240608":32.48,"20240609":28.04,"20240610":13.85,"20240611":7.56,"20240612":4.24,"20240613":20.47,"20240614":9.66,"20240615":2.16,"20240616":2.44,"20240617":4.51,"20240618":19.55,"20240619":23.47,"20240620":34.35,"20240621":13.75,"20240622":12.59,"20240623":14.79,"20240624":7.92,"20240625":4.43,"20240626":28.32,"20240627":39.43,"20240628":36.15,"20240629":19.08,"20240630":15.05,"20240701":28.23,"20240702":18.16,"20240703":6.91,"20240704":15.27,"20240705":18.38,"20240706":56.63,"20240707":52.2,"20240708":62.04,"20240709":21.57,"20240710":12.97,"20240711":42.78,"20240712":69.89,"20240713":96.49,"20240714":49.11,"20240715":21.42,"20240716":8.42,"20240717":32.61,"20240718":51.77,"20240719":46.69,"20240720":68.78,"20240721":85.11,"20240722":76.31,"20240723":53.7,"20240724":98.82,"20240725":111.97,"20240726":13.53,"20240727":17.09,"20240728":26.22,"20240729":42.06,"20240730":38.42,"20240731":16.7,"20240801":34.17,"20240802":30.16,"20240803":105.72,"20240804":38.18,"20240805":18.79,"20240806":16.26,"20240807":9.08,"20240808":10.34,"20240809":9.56,"20240810":10.36,"20240811":7.09,"20240812":3.83,"20240813":2.05,"20240814":0.97,"20240815":0.61,"20240816":1.37,"20240817":22.28,"20240818":46.64,"20240819":13.17,"20240820":5.71,"20240821":1.86,"20240822":4.76,"20240823":21.22,"20240824":75.74,"20240825":52.18,"20240826":31.63,"20240827":22.06,"20240828":13.1,"20240829":6.97,"20240830":7.25,"20240831":2.58,"20240901":3.61,"20240902":20.51,"20240903":16.47,"20240904":15.04,"20240905":22.9,"20240906":11.86,"20240907":16.31,"20240908":5.23,"20240909":9.96,"20240910":8.58,"20240911":9.13,"20240912":5.19,"20240913":2.71,"20240914":12.51,"20240915":9.89,"20240916":3.05,"20240917":2.05,"20240918":0.41,"20240919":0.18,"20240920":0.25,"20240921":0.49,"20240922":9.33,"20240923":24.55,"20240924":49.39,"20240925":78.77,"20240926":72.45,"20240927":56.59,"20240928":8.89,"20240929":3.17,"20240930":0.82,"20241001":0.85,"20241002":2.55,"20241003":0.64,"20241004":0.14,"20241005":0.02,"20241006":6.74,"20241007":0.2,"20241008":2.78,"20241009":6.67,"20241010":63.76,"20241011":14.14,"20241012":4.23,"20241013":34.42,"20241014":4.76,"20241015":9.17,"20241016":5.01,"20241017":3.58,"20241018":7.85,"20241019":8.47,"20241020":10.15,"20241021":0.72,"20241022":5.84,"20241023":0.2,"20241024":0.0,"20241025":0.0,"20241026":0.0,"20241027":0.0,"20241028":0.0,"20241029":1.75,"20241030":0.07,"20241031":0.04,"20241101":0.01,"20241102":0.0,"20241103":0.0,"20241104":0.0,"20241105":0.0,"20241106":0.0,"20241107":0.0,"20241108":0.0,"20241109":0.0,"20241110":0.0,"20241111":0.0,"20241112":0.0,"20241113":0.0,"20241114":0.0,"20241115":0.48,"20241116":0.02,"20241117":0.0,"20241118":0.01,"20241119":0.0,"20241120":0.0,"20241121":0.0,"20241122":0.0,"20241123":0.0,"20241124":0.0,"20241125":0.0,"20241126":0.0,"20241127":0.01,"20241128":0.01,"20241129":0.05,"20241130":0.0,"20241201":0.25,"20241202":0.01,"20241203":2.21,"20241204":1.47,"20241205":0.2,"20241206":0.01,"20241207":0.0,"20241208":0.0,"20241209":0.0,"20241210":0.0,"20241211":0.0,"20241212":0.0,"20241213":0.1,"20241214":0.07,"20241215":0.23,"20241216":0.0,"20241217":0.0,"20241218":0.0,"20241219":0.0,"20241220":0.0,"20241221":0.01,"20241222":0.01,"20241223":0.01,"20241224":0.0,"20241225":0.0,"20241226":0.0,"20241227":0.1,"20241228":0.42,"20241229":0.0,"20241230":0.0,"20241231":0.0},"WS10M":{"20240101":2.64,"20240102":2.65,"20240103":2.88,"20240104":2.54,"20240105":2.81,"20240106":3.11,"20240107":3.57,"20240108":3.53,"20240109":3.56,"20240110":2.63,"20240111":2.98,"20240112":3.39,"20240113":3.4,"20240114":3.56,"20240115":3.4,"20240116":2.49,"20240117":2.19,"20240118":2.36,"20240119":2.23,"20240120":2.82,"20240121":2.77,"20240122":3.8,"20240123":4.07,"20240124":3.9,"20240125":3.42,"20240126":3.48,"20240127":2.95,"20240128":3.0,"20240129":3.13,"20240130":2.71,"20240131":2.46,"20240201":2.69,"20240202":3.4,"20240203":3.56,"20240204":2.86,"20240205":2.76,"20240206":2.77,"20240207":3.46,"20240208":3.2,"20240209":3.11,"20240210":3.21,"20240211":2.84,"20240212":2.67,"20240213":2.93,"20240214":3.89,"20240215":3.13,"20240216":3.43,"20240217":2.55,"20240218":2.18,"20240219":2.39,"20240220":2.82,"20240221":2.88,"20240222":2.95,"20240223":3.07,"20240224":3.95,"20240225":3.36,"20240226":2.83,"20240227":2.84,"20240228":3.13,"20240229":2.31,"20240301":2.46,"20240302":3.41,"20240303":4.16,"20240304":3.3,"20240305":3.05,"20240306":2.52,"20240307":3.84,"20240308":4.17,"20240309":3.4,"20240310":3.06,"20240311":3.33,"20240312":3.33,"20240313":3.24,"20240314":3.23,"20240315":2.6,"20240316":2.3,"20240317":2.21,"20240318":2.3,"20240319":3.51,"20240320":3.85,"20240321":3.0,"20240322":2.38,"20240323":3.12,"20240324":2.71,"20240325":2.96,"20240326":2.34,"20240327":2.65,"20240328":2.37,"20240329":2.71,"20240330":3.26,"20240331":3.16,"20240401":3.0,"20240402":2.65,"20240403":2.68,"20240404":3.24,"20240405":3.48,"20240406":3.8,"20240407":3.35,"20240408":2.42,"20240409":2.2,"20240410":2.87,"20240411":2.62,"20240412":2.37,"20240413":2.64,"20240414":2.73,"20240415":3.28,"20240416":4.01,"20240417":2.77,"20240418":3.31,"20240419":3.39,"20240420":3.42,"20240421":3.66,"20240422":3.48,"20240423":3.18,"20240424":2.76,"20240425":3.24,"20240426":3.49,"20240427":3.27,"20240428":3.61,"20240429":3.68,"20240430":3.5,"20240501":3.13,"20240502":2.71,"20240503":2.94,"20240504":3.12,"20240505":3.65,"20240506":3.78,"20240507":3.39,"20240508":2.97,"20240509":3.19,"20240510":3.05,"20240511":3.31,"20240512":1.99,"20240513":2.32,"20240514":2.82,"20240515":2.07,"20240516":2.21,"20240517":2.08,"20240518":2.35,"20240519":2.5,"20240520":2.86,"20240521":3.24,"20240522":2.66,"20240523":2.99,"20240524":3.63,"20240525":4.38,"20240526":4.29,"20240527":5.14,"20240528":5.01,"20240529":4.78,"20240530":4.18,"20240531":4.05,"20240601":3.95,"20240602":3.48,"20240603":3.1,"20240604":2.65,"20240605":2.95,"20240606":3.22,"20240607":3.27,"20240608":3.24,"20240609":2.68,"20240610":2.85,"20240611":3.37,"20240612":3.98,"20240613":3.7,"20240614":3.89,"20240615":3.37,"20240616":2.59,"20240617":3.45,"20240618":4.08,"20240619":5.68,"20240620":5.97,"20240621":4.65,"20240622":3.17,"20240623":2.83,"20240624":2.71,"20240625":3.57,"20240626":4.34,"20240627":8.76,"20240628":7.63,"20240629":6.27,"20240630":7.21,"20240701":9.44,"20240702":8.19,"20240703":6.81,"20240704":6.15,"20240705":6.69,"20240706":7.16,"20240707":5.38,"20240708":4.61,"20240709":3.36,"20240710":3.5,"20240711":4.81,"20240712":5.47,"20240713":6.91,"20240714":5.45,"20240715":2.78,"20240716":3.45,"20240717":6.43,"20240718":7.25,"20240719":6.87,"20240720":6.7,"20240721":5.74,"20240722":6.42,"20240723":6.77,"20240724":6.62,"20240725":7.39,"20240726":7.25,"20240727":6.29,"20240728":6.24,"20240729":5.31,"20240730":5.29,"20240731":4.86,"20240801":6.22,"20240802":6.77,"20240803":7.42,"20240804":6.06,"20240805":5.66,"20240806":4.87,"20240807":4.44,"20240808":4.2,"20240809":4.11,"20240810":4.06,"20240811":4.33,"20240812":4.01,"20240813":3.21,"20240814":2.66,"20240815":2.82,"20240816":2.45,"20240817":1.86,"20240818":2.64,"20240819":2.93,"20240820":2.95,"20240821":2.0,"20240822":1.56,"20240823":2.22,"20240824":5.01,"20240825":6.22,"20240826":6.79,"20240827":7.81,"20240828":7.14,"20240829":6.08,"20240830":4.36,"20240831":3.15,"20240901":3.39,"20240902":3.19,"20240903":2.74,"20240904":4.91,"20240905":5.24,"20240906":4.93,"20240907":3.84,"20240908":3.4,"20240909":3.31,"20240910":3.43,"20240911":3.84,"20240912":4.04,"20240913":3.58,"20240914":3.78,"20240915":3.24,"20240916":2.27,"20240917":2.74,"20240918":1.72,"20240919":1.62,"20240920":1.89,"20240921":2.79,"20240922":3.7,"20240923":3.72,"20240924":4.95,"20240925":4.59,"20240926":3.98,"20240927":5.15,"20240928":3.39,"20240929":2.6,"20240930":1.47,"20241001":2.07,"20241002":2.02,"20241003":2.02,"20241004":2.11,"20241005":2.08,"20241006":2.66,"20241007":3.26,"20241008":2.56,"20241009":2.36,"20241010":2.81,"20241011":2.78,"20241012":2.64,"20241013":1.74,"20241014":2.29,"20241015":2.12,"20241016":2.23,"20241017":2.71,"20241018":2.55,"20241019":1.84,"20241020":2.14,"20241021":2.35,"20241022":2.09,"20241023":2.61,"20241024":2.79,"20241025":3.05,"20241026":3.15,"20241027":2.48,"20241028":1.95,"20241029":2.26,"20241030":2.54,"20241031":3.15,"20241101":3.18,"20241102":3.43,"20241103":3.32,"20241104":3.36,"20241105":3.27,"20241106":3.77,"20241107":3.71,"20241108":3.6,"20241109":3.53,"20241110":3.5,"20241111":3.57,"20241112":4.22,"20241113":3.95,"20241114":3.83,"20241115":2.67,"20241116":2.52,"20241117":3.86,"20241118":4.28,"20241119":4.25,"20241120":3.84,"20241121":3.05,"20241122":2.8,"20241123":2.3,"20241124":2.84,"20241125":4.12,"20241126":4.72,"20241127":4.69,"20241128":5.06,"20241129":4.44,"20241130":3.22,"20241201":3.19,"20241202":3.53,"20241203":3.52,"20241204":3.03,"20241205":2.79,"20241206":2.32,"20241207":3.02,"20241208":3.27,"20241209":4.68,"20241210":3.57,"20241211":2.98,"20241212":3.22,"20241213":5.16,"20241214":5.0,"20241215":4.25,"20241216":3.66,"20241217":3.03,"20241218":2.78,"20241219":2.73,"20241220":2.11,"20241221":2.13,"20241222":2.42,"20241223":2.73,"20241224":2.81,"20241225":2.35,"20241226":2.64,"20241227":2.66,"20241228":2.54,"20241229":2.84,"20241230":3.04,"20241231":3.31},"RH2M":{"20240101":60.32,"20240102":59.42,"20240103":57.94,"20240104":59.17,"20240105":55.3,"20240106":62.18,"20240107":65.41,"20240108":60.02,"20240109":63.97,"20240110":62.03,"20240111":59.07,"20240112":55.19,"20240113":55.62,"20240114":49.55,"20240115":49.09,"20240116":51.37,"20240117":60.57,"20240118":59.46,"20240119":52.9,"20240120":56.7,"20240121":50.4,"20240122":48.73,"20240123":42.36,"20240124":37.51,"20240125":39.63,"20240126":40.37,"20240127":42.32,"20240128":43.5,"20240129":39.73,"20240130":46.2,"20240131":53.14,"20240201":65.71,"20240202":51.1,"20240203":43.29,"20240204":42.88,"20240205":46.12,"20240206":47.28,"20240207":45.65,"20240208":43.56,"20240209":41.45,"20240210":37.6,"20240211":38.23,"20240212":42.18,"20240213":37.47,"20240214":30.36,"20240215":36.03,"20240216":40.94,"20240217":38.72,"20240218":38.67,"20240219":44.59,"20240220":56.99,"20240221":69.87,"20240222":63.71,"20240223":46.32,"20240224":22.83,"20240225":22.49,"20240226":35.25,"20240227":38.01,"20240228":38.98,"20240229":45.12,"20240301":53.74,"20240302":61.69,"20240303":60.76,"20240304":41.37,"20240305":30.46,"20240306":30.47,"20240307":30.82,"20240308":28.94,"20240309":31.92,"20240310":30.46,"20240311":37.76,"20240312":45.67,"20240313":54.27,"20240314":51.72,"20240315":50.07,"20240316":46.5,"20240317":47.51,"20240318":54.77,"20240319":48.99,"20240320":20.53,"20240321":26.23,"20240322":45.3,"20240323":45.78,"20240324":48.65,"20240325":53.4,"20240326":55.4,"20240327":55.52,"20240328":57.21,"20240329":53.93,"20240330":51.43,"20240331":44.26,"20240401":46.43,"20240402":48.2,"20240403":48.87,"20240404":51.04,"20240405":52.58,"20240406":44.04,"20240407":49.61,"20240408":51.59,"20240409":54.34,"20240410":51.76,"20240411":42.4,"20240412":47.11,"20240413":52.68,"20240414":53.38,"20240415":44.64,"20240416":29.1,"20240417":44.94,"20240418":47.4,"20240419":51.3,"20240420":49.48,"20240421":49.67,"20240422":51.6,"20240423":50.33,"20240424":52.74,"20240425":50.26,"20240426":50.68,"20240427":49.56,"20240428":44.2,"20240429":42.25,"20240430":44.83,"20240501":49.68,"20240502":47.65,"20240503":50.43,"20240504":57.16,"20240505":55.77,"20240506":59.27,"20240507":60.27,"20240508":55.73,"20240509":57.84,"20240510":54.14,"20240511":55.88,"20240512":61.37,"20240513":60.18,"20240514":60.0,"20240515":60.16,"20240516":61.59,"20240517":64.85,"20240518":60.43,"20240519":58.37,"20240520":62.18,"20240521":65.02,"20240522":63.2,"20240523":60.4,"20240524":63.15,"20240525":62.78,"20240526":64.56,"20240527":63.32,"20240528":62.59,"20240529":67.36,"20240530":65.97,"20240531":64.97,"20240601":61.47,"20240602":60.43,"20240603":66.54,"20240604":72.9,"20240605":71.7,"20240606":68.87,"20240607":73.11,"20240608":79.45,"20240609":85.73,"20240610":80.86,"20240611":80.45,"20240612":79.99,"20240613":79.67,"20240614":82.56,"20240615":79.12,"20240616":77.73,"20240617":80.88,"20240618":82.64,"20240619":81.9,"20240620":84.81,"20240621":84.96,"20240622":83.02,"20240623":83.25,"20240624":79.43,"20240625":82.16,"20240626":88.63,"20240627":90.87,"20240628":92.33,"20240629":87.15,"20240630":87.11,"20240701":85.89,"20240702":88.14,"20240703":85.9,"20240704":87.37,"20240705":88.54,"20240706":88.76,"20240707":90.34,"20240708":91.13,"20240709":89.97,"20240710":89.09,"20240711":89.77,"20240712":92.81,"20240713":93.06,"20240714":93.87,"20240715":90.41,"20240716":89.34,"20240717":92.27,"20240718":93.63,"20240719":93.14,"20240720":94.45,"20240721":94.2,"20240722":94.03,"20240723":93.77,"20240724":93.83,"20240725":92.05,"20240726":92.24,"20240727":92.22,"20240728":93.75,"20240729":94.02,"20240730":92.27,"20240731":92.14,"20240801":92.58,"20240802":93.16,"20240803":93.7,"20240804":94.42,"20240805":92.25,"20240806":91.56,"20240807":90.61,"20240808":90.47,"20240809":90.97,"20240810":90.58,"20240811":90.79,"20240812":89.93,"20240813":89.54,"20240814":88.15,"20240815":88.25,"20240816":88.28,"20240817":86.59,"20240818":89.29,"20240819":94.23,"20240820":91.61,"20240821":87.81,"20240822":88.66,"20240823":88.91,"20240824":92.82,"20240825":92.26,"20240826":92.73,"20240827":90.32,"20240828":91.29,"20240829":90.87,"20240830":89.87,"20240831":90.33,"20240901":92.14,"20240902":93.42,"20240903":92.79,"20240904":91.24,"20240905":91.13,"20240906":89.83,"20240907":90.72,"20240908":90.89,"20240909":89.38,"20240910":89.82,"20240911":90.3,"20240912":89.67,"20240913":89.12,"20240914":87.67,"20240915":86.47,"20240916":83.76,"20240917":84.64,"20240918":83.81,"20240919":83.54,"20240920":83.43,"20240921":87.54,"20240922":89.88,"20240923":91.61,"20240924":94.29,"20240925":94.78,"20240926":92.63,"20240927":93.15,"20240928":90.32,"20240929":90.64,"20240930":85.78,"20241001":87.34,"20241002":89.54,"20241003":88.79,"20241004":87.0,"20241005":85.9,"20241006":82.34,"20241007":78.51,"20241008":81.06,"20241009":89.21,"20241010":86.85,"20241011":86.23,"20241012":86.27,"20241013":85.29,"20241014":83.56,"20241015":87.42,"20241016":84.89,"20241017":86.49,"20241018":88.65,"20241019":89.27,"20241020":82.56,"20241021":84.86,"20241022":82.35,"20241023":82.76,"20241024":76.8,"20241025":73.39,"20241026":76.91,"20241027":79.46,"20241028":79.64,"20241029":81.31,"20241030":75.45,"20241031":76.78,"20241101":74.18,"20241102":69.51,"20241103":71.87,"20241104":72.06,"20241105":73.29,"20241106":72.65,"20241107":75.21,"20241108":74.78,"20241109":73.99,"20241110":73.58,"20241111":73.16,"20241112":74.48,"20241113":73.35,"20241114":74.82,"20241115":82.29,"20241116":75.22,"20241117":74.94,"20241118":69.38,"20241119":71.94,"20241120":71.86,"20241121":70.8,"20241122":69.67,"20241123":66.71,"20241124":69.95,"20241125":70.56,"20241126":70.47,"20241127":68.3,"20241128":68.22,"20241129":65.98,"20241130":68.61,"20241201":79.4,"20241202":79.85,"20241203":79.59,"20241204":81.89,"20241205":81.76,"20241206":81.14,"20241207":73.56,"20241208":67.4,"20241209":58.46,"20241210":64.64,"20241211":69.84,"20241212":66.88,"20241213":65.12,"20241214":60.81,"20241215":58.1,"20241216":53.65,"20241217":54.66,"20241218":54.14,"20241219":66.01,"20241220":74.79,"20241221":78.76,"20241222":85.86,"20241223":85.51,"20241224":78.16,"20241225":77.26,"20241226":79.05,"20241227":81.04,"20241228":78.39,"20241229":72.3,"20241230":69.15,"20241231":65.89}}},"header":{"title":"NASA/POWER Source Native Resolution Daily Data","api":{"version":"v2.9.6","name":"POWER Daily API"},"sources":["MERRA2","POWER"],"fill_value":-999.0,"time_standard":"UTC","start":"20240101","end":"20241231"},"messages":[],"parameters":{"T2M":{"units":"C","longname":"Temperature at 2 Meters"},"T2M_MAX":{"units":"C","longname":"Temperature at 2 Meters Maximum"},"T2M_MIN":{"units":"C","longname":"Temperature at 2 Meters Minimum"},"PRECTOTCORR":{"units":"mm/day","longname":"Precipitation Corrected"},"WS10M":{"units":"m/s","longname":"Wind Speed at 10 Meters"},"RH2M":{"units":"%","longname":"Relative Humidity at 2 Meters"}},"times":{"data":0.917,"process":0.01}}