{"type":"Feature","geometry":{"type":"Point","coordinates":[44.401,33.341,38.44]},"properties":{"parameter":{"T2M":{"20240101":10.99,"20240102":10.52,"20240103":11.5,"20240104":12.18,"20240105":12.19,"20240106":12.18,"20240107":10.85,"20240108":10.16,"20240109":12.07,"20240110":12.82,"20240111":12.82,"20240112":12.38,"20240113":13.36,"20240114":12.97,"20240115":11.87,"20240116":11.5,"20240117":12.16,"20240118":12.86,"20240119":12.05,"20240120":13.91,"20240121":14.41,"20240122":15.91,"20240123":16.34,"20240124":14.0,"20240125":13.03,"20240126":13.21,"20240127":11.41,"20240128":9.74,"20240129":9.18,"20240130":10.28,"20240131":9.9,"20240201":9.53,"20240202":9.89,"20240203":10.05,"20240204":10.43,"20240205":11.82,"20240206":11.61,"20240207":13.01,"20240208":13.29,"20240209":13.68,"20240210":14.4,"20240211":15.21,"20240212":14.85,"20240213":15.9,"20240214":17.19,"20240215":18.04,"20240216":15.23,"20240217":13.42,"20240218":13.55,"20240219":13.91,"20240220":14.08,"20240221":13.61,"20240222":14.59,"20240223":16.37,"20240224":15.32,"20240225":14.35,"20240226":9.95,"20240227":10.11,"20240228":9.75,"20240229":9.7,"20240301":11.11,"20240302":12.54,"20240303":14.7,"20240304":14.89,"20240305":14.7,"20240306":16.31,"20240307":15.82,"20240308":15.94,"20240309":17.03,"20240310":16.91,"20240311":15.8,"20240312":15.22,"20240313":17.21,"20240314":19.95,"20240315":20.73,"20240316":18.87,"20240317":19.85,"20240318":20.69,"20240319":17.68,"20240320":17.29,"20240321":17.92,"20240322":18.51,"20240323":17.93,"20240324":15.61,"20240325":14.78,"20240326":16.41,"20240327":17.84,"20240328":17.71,"20240329":19.93,"20240330":20.17,"20240331":21.69,"20240401":22.38,"20240402":22.47,"20240403":23.6,"20240404":24.42,"20240405":25.95,"20240406":26.06,"20240407":23.94,"20240408":24.77,"20240409":26.97,"20240410":23.15,"20240411":21.29,"20240412":21.98,"20240413":21.65,"20240414":23.64,"20240415":24.63,"20240416":24.95,"20240417":26.01,"20240418":27.55,"20240419":29.3,"20240420":30.0,"20240421":26.99,"20240422":26.54,"20240423":26.5,"20240424":26.41,"20240425":26.98,"20240426":29.98,"20240427":30.41,"20240428":31.64,"20240429":29.37,"20240430":23.76,"20240501":25.11,"20240502":24.29,"20240503":24.24,"20240504":24.05,"20240505":24.96,"20240506":24.62,"20240507":22.94,"20240508":22.88,"20240509":23.64,"20240510":26.5,"20240511":30.24,"20240512":26.98,"20240513":26.17,"20240514":24.93,"20240515":26.09,"20240516":29.11,"20240517":27.15,"20240518":28.24,"20240519":30.31,"20240520":31.77,"20240521":31.48,"20240522":31.23,"20240523":31.66,"20240524":33.14,"20240525":29.94,"20240526":30.2,"20240527":31.02,"20240528":33.54,"20240529":34.84,"20240530":37.35,"20240531":34.56,"20240601":32.47,"20240602":33.19,"20240603":34.35,"20240604":35.49,"20240605":35.33,"20240606":35.85,"20240607":37.1,"20240608":38.51,"20240609":39.61,"20240610":38.79,"20240611":35.82,"20240612":36.17,"20240613":37.33,"20240614":38.38,"20240615":38.59,"20240616":38.93,"20240617":40.11,"20240618":40.52,"20240619":40.5,"20240620":40.46,"20240621":40.84,"20240622":41.94,"20240623":38.96,"20240624":37.94,"20240625":38.63,"20240626":38.76,"20240627":36.01,"20240628":36.94,"20240629":36.84,"20240630":38.32,"20240701":38.52,"20240702":37.06,"20240703":36.95,"20240704":37.6,"20240705":39.75,"20240706":37.42,"20240707":36.73,"20240708":38.59,"20240709":40.1,"20240710":41.61,"20240711":42.04,"20240712":41.4,"20240713":39.27,"20240714":37.58,"20240715":37.79,"20240716":39.34,"20240717":39.94,"20240718":39.19,"20240719":39.81,"20240720":39.34,"20240721":39.12,"20240722":38.75,"20240723":39.63,"20240724":38.88,"20240725":39.51,"20240726":38.38,"20240727":37.4,"20240728":38.32,"20240729":39.92,"20240730":38.26,"20240731":38.57,"20240801":39.15,"20240802":37.46,"20240803":37.07,"20240804":36.04,"20240805":36.48,"20240806":36.85,"20240807":38.55,"20240808":39.73,"20240809":39.25,"20240810":38.27,"20240811":37.88,"20240812":38.88,"20240813":37.85,"20240814":38.6,"20240815":39.36,"20240816":40.61,"20240817":40.03,"20240818":39.57,"20240819":39.61,"20240820":39.84,"20240821":38.66,"20240822":38.63,"20240823":39.7,"20240824":40.88,"20240825":40.34,"20240826":39.06,"20240827":38.94,"20240828":37.89,"20240829":36.4,"20240830":35.29,"20240831":34.57,"20240901":35.47,"20240902":35.98,"20240903":34.94,"20240904":34.48,"20240905":34.88,"20240906":35.4,"20240907":36.11,"20240908":37.42,"20240909":39.58,"20240910":39.32,"20240911":37.75,"20240912":35.59,"20240913":33.45,"20240914":33.27,"20240915":32.81,"20240916":33.6,"20240917":33.33,"20240918":31.01,"20240919":31.58,"20240920":32.59,"20240921":33.26,"20240922":34.15,"20240923":32.71,"20240924":32.75,"20240925":31.21,"20240926":30.88,"20240927":31.23,"20240928":31.79,"20240929":29.11,"20240930":30.73,"20241001":32.07,"20241002":28.89,"20241003":28.1,"20241004":27.71,"20241005":27.87,"20241006":28.83,"20241007":29.11,"20241008":30.82,"20241009":29.55,"20241010":29.8,"20241011":30.28,"20241012":30.77,"20241013":30.98,"20241014":30.84,"20241015":30.89,"20241016":30.63,"20241017":30.83,"20241018":26.97,"20241019":24.78,"20241020":20.81,"20241021":18.71,"20241022":17.74,"20241023":17.22,"20241024":17.93,"20241025":18.31,"20241026":18.37,"20241027":18.88,"20241028":18.91,"20241029":18.9,"20241030":20.26,"20241031":21.88,"20241101":19.12,"20241102":22.86,"20241103":21.0,"20241104":19.83,"20241105":18.83,"20241106":17.46,"20241107":16.5,"20241108":16.18,"20241109":17.76,"20241110":20.02,"20241111":21.12,"20241112":18.79,"20241113":17.46,"20241114":16.78,"20241115":17.36,"20241116":18.55,"20241117":19.66,"20241118":21.67,"20241119":19.06,"20241120":17.83,"20241121":17.82,"20241122":17.86,"20241123":16.85,"20241124":17.34,"20241125":15.0,"20241126":12.98,"20241127":9.15,"20241128":8.43,"20241129":8.61,"20241130":9.71,"20241201":9.45,"20241202":9.52,"20241203":11.14,"20241204":11.29,"20241205":12.19,"20241206":12.13,"20241207":12.69,"20241208":14.71,"20241209":13.82,"20241210":12.79,"20241211":12.52,"20241212":13.89,"20241213":13.75,"20241214":8.16,"20241215":6.12,"20241216":6.17,"20241217":7.32,"20241218":7.53,"20241219":8.89,"20241220":9.23,"20241221":8.2,"20241222":8.79,"20241223":11.98,"20241224":12.73,"20241225":11.24,"20241226":12.91,"20241227":16.02,"20241228":11.21,"20241229":11.19,"20241230":11.49,"20241231":10.73},"T2M_MAX":{"20240101":18.52,"20240102":16.91,"20240103":17.25,"20240104":18.98,"20240105":20.81,"20240106":20.4,"20240107":20.01,"20240108":17.98,"20240109":18.74,"20240110":18.49,"20240111":19.65,"20240112":18.87,"20240113":19.73,"20240114":21.58,"20240115":19.92,"20240116":19.71,"20240117":18.37,"20240118":20.62,"20240119":20.1,"20240120":21.32,"20240121":21.86,"20240122":23.99,"20240123":25.15,"20240124":20.57,"20240125":20.68,"20240126":19.51,"20240127":16.7,"20240128":16.05,"20240129":16.93,"20240130":18.64,"20240131":17.82,"20240201":16.82,"20240202":15.46,"20240203":16.78,"20240204":18.28,"20240205":18.54,"20240206":17.65,"20240207":20.1,"20240208":20.82,"20240209":21.16,"20240210":20.47,"20240211":24.09,"20240212":24.29,"20240213":23.07,"20240214":20.95,"20240215":25.99,"20240216":24.56,"20240217":20.53,"20240218":20.17,"20240219":19.79,"20240220":19.5,"20240221":20.17,"20240222":22.09,"20240223":24.66,"20240224":20.62,"20240225":21.81,"20240226":18.65,"20240227":18.8,"20240228":17.67,"20240229":19.13,"20240301":21.74,"20240302":21.56,"20240303":23.96,"20240304":23.12,"20240305":22.57,"20240306":25.24,"20240307":24.14,"20240308":22.82,"20240309":24.7,"20240310":24.32,"20240311":23.83,"20240312":23.91,"20240313":26.1,"20240314":28.96,"20240315":30.47,"20240316":25.91,"20240317":27.46,"20240318":29.1,"20240319":25.17,"20240320":23.61,"20240321":26.22,"20240322":25.82,"20240323":26.29,"20240324":24.54,"20240325":21.67,"20240326":24.36,"20240327":25.25,"20240328":25.52,"20240329":29.2,"20240330":28.27,"20240331":31.67,"20240401":32.68,"20240402":32.92,"20240403":32.65,"20240404":33.3,"20240405":34.66,"20240406":34.44,"20240407":32.3,"20240408":33.34,"20240409":35.52,"20240410":32.2,"20240411":27.49,"20240412":29.43,"20240413":30.26,"20240414":32.09,"20240415":30.42,"20240416":33.23,"20240417":35.75,"20240418":36.4,"20240419":37.98,"20240420":38.82,"20240421":33.63,"20240422":33.86,"20240423":35.38,"20240424":35.31,"20240425":36.47,"20240426":39.06,"20240427":39.17,"20240428":40.86,"20240429":35.96,"20240430":29.98,"20240501":30.1,"20240502":29.38,"20240503":29.55,"20240504":30.32,"20240505":32.57,"20240506":33.27,"20240507":30.23,"20240508":30.08,"20240509":31.81,"20240510":35.52,"20240511":39.19,"20240512":35.58,"20240513":34.52,"20240514":32.1,"20240515":34.41,"20240516":36.83,"20240517":35.08,"20240518":36.2,"20240519":38.75,"20240520":41.22,"20240521":40.32,"20240522":39.55,"20240523":39.01,"20240524":41.8,"20240525":38.2,"20240526":38.38,"20240527":39.14,"20240528":42.37,"20240529":43.97,"20240530":47.19,"20240531":43.21,"20240601":40.46,"20240602":41.87,"20240603":43.71,"20240604":44.67,"20240605":44.52,"20240606":45.36,"20240607":45.84,"20240608":47.64,"20240609":48.68,"20240610":48.04,"20240611":43.5,"20240612":43.92,"20240613":45.9,"20240614":46.12,"20240615":46.81,"20240616":48.18,"20240617":48.92,"20240618":49.14,"20240619":49.22,"20240620":49.78,"20240621":50.08,"20240622":50.83,"20240623":46.69,"20240624":45.05,"20240625":45.62,"20240626":46.96,"20240627":44.17,"20240628":45.84,"20240629":46.09,"20240630":47.38,"20240701":47.06,"20240702":43.42,"20240703":43.49,"20240704":44.76,"20240705":47.83,"20240706":45.26,"20240707":44.26,"20240708":45.42,"20240709":47.88,"20240710":49.48,"20240711":50.65,"20240712":49.38,"20240713":46.92,"20240714":44.57,"20240715":44.54,"20240716":45.83,"20240717":47.24,"20240718":46.05,"20240719":46.94,"20240720":46.82,"20240721":45.93,"20240722":46.52,"20240723":47.82,"20240724":46.98,"20240725":46.6,"20240726":45.28,"20240727":44.65,"20240728":45.5,"20240729":47.54,"20240730":46.03,"20240731":46.4,"20240801":46.13,"20240802":45.16,"20240803":45.07,"20240804":44.19,"20240805":45.19,"20240806":45.04,"20240807":47.07,"20240808":47.42,"20240809":47.02,"20240810":46.68,"20240811":46.09,"20240812":46.8,"20240813":44.73,"20240814":46.02,"20240815":47.7,"20240816":49.07,"20240817":49.08,"20240818":48.75,"20240819":47.9,"20240820":47.4,"20240821":46.62,"20240822":47.69,"20240823":49.09,"20240824":49.1,"20240825":49.01,"20240826":47.15,"20240827":46.66,"20240828":45.25,"20240829":43.36,"20240830":42.37,"20240831":42.53,"20240901":43.48,"20240902":44.05,"20240903":42.18,"20240904":42.48,"20240905":43.09,"20240906":43.45,"20240907":44.05,"20240908":46.36,"20240909":47.87,"20240910":49.27,"20240911":46.94,"20240912":43.97,"20240913":40.94,"20240914":41.12,"20240915":41.24,"20240916":41.3,"20240917":40.65,"20240918":37.75,"20240919":38.37,"20240920":39.63,"20240921":40.32,"20240922":42.3,"20240923":40.51,"20240924":40.31,"20240925":38.69,"20240926":39.28,"20240927":39.98,"20240928":41.08,"20240929":38.58,"20240930":39.72,"20241001":40.26,"20241002":36.2,"20241003":35.47,"20241004":35.56,"20241005":36.53,"20241006":39.24,"20241007":39.41,"20241008":39.43,"20241009":40.12,"20241010":39.84,"20241011":39.78,"20241012":40.02,"20241013":40.43,"20241014":39.99,"20241015":39.6,"20241016":39.43,"20241017":39.32,"20241018":35.27,"20241019":32.5,"20241020":28.15,"20241021":26.85,"20241022":25.95,"20241023":25.51,"20241024":25.43,"20241025":27.1,"20241026":26.29,"20241027":28.35,"20241028":28.24,"20241029":27.42,"20241030":28.44,"20241031":29.06,"20241101":24.88,"20241102":29.94,"20241103":25.24,"20241104":26.9,"20241105":25.35,"20241106":24.85,"20241107":24.94,"20241108":25.9,"20241109":26.1,"20241110":27.73,"20241111":29.64,"20241112":26.13,"20241113":25.52,"20241114":25.04,"20241115":25.31,"20241116":26.96,"20241117":27.64,"20241118":28.58,"20241119":26.55,"20241120":25.26,"20241121":25.29,"20241122":25.18,"20241123":24.35,"20241124":24.19,"20241125":19.76,"20241126":19.53,"20241127":15.02,"20241128":16.11,"20241129":16.94,"20241130":18.04,"20241201":17.74,"20241202":17.15,"20241203":18.34,"20241204":19.74,"20241205":21.44,"20241206":21.68,"20241207":22.24,"20241208":21.76,"20241209":22.21,"20241210":22.25,"20241211":21.79,"20241212":21.62,"20241213":22.14,"20241214":17.1,"20241215":15.52,"20241216":15.23,"20241217":16.48,"20241218":16.4,"20241219":18.21,"20241220":13.75,"20241221":13.27,"20241222":16.56,"20241223":18.8,"20241224":19.3,"20241225":19.42,"20241226":20.66,"20241227":21.21,"20241228":17.76,"20241229":19.06,"20241230":19.45,"20241231":17.52},"T2M_MIN":{"20240101":4.83,"20240102":4.42,"20240103":6.92,"20240104":6.68,"20240105":6.26,"20240106":6.6,"20240107":5.6,"20240108":5.84,"20240109":5.05,"20240110":8.93,"20240111":7.12,"20240112":6.82,"20240113":9.05,"20240114":7.76,"20240115":6.83,"20240116":5.66,"20240117":5.1,"20240118":7.72,"20240119":6.76,"20240120":7.43,"20240121":8.89,"20240122":9.43,"20240123":10.59,"20240124":9.0,"20240125":8.59,"20240126":8.55,"20240127":6.53,"20240128":3.85,"20240129":3.02,"20240130":3.36,"20240131":3.95,"20240201":3.12,"20240202":5.26,"20240203":3.75,"20240204":2.99,"20240205":4.62,"20240206":7.19,"20240207":7.42,"20240208":7.32,"20240209":6.71,"20240210":10.91,"20240211":8.28,"20240212":7.36,"20240213":9.42,"20240214":13.04,"20240215":11.51,"20240216":9.73,"20240217":6.95,"20240218":9.32,"20240219":9.64,"20240220":9.99,"20240221":8.94,"20240222":7.93,"20240223":9.28,"20240224":12.13,"20240225":6.54,"20240226":3.34,"20240227":2.14,"20240228":2.81,"20240229":2.61,"20240301":3.63,"20240302":3.49,"20240303":4.9,"20240304":7.56,"20240305":6.05,"20240306":7.24,"20240307":9.68,"20240308":9.11,"20240309":11.07,"20240310":10.76,"20240311":8.88,"20240312":6.93,"20240313":8.31,"20240314":9.94,"20240315":13.45,"20240316":13.11,"20240317":12.34,"20240318":14.56,"20240319":11.63,"20240320":10.41,"20240321":10.07,"20240322":11.84,"20240323":11.57,"20240324":10.99,"20240325":9.78,"20240326":8.55,"20240327":12.15,"20240328":10.73,"20240329":11.58,"20240330":13.36,"20240331":12.45,"20240401":13.55,"20240402":12.87,"20240403":15.3,"20240404":13.76,"20240405":19.24,"20240406":17.44,"20240407":16.93,"20240408":16.41,"20240409":17.11,"20240410":16.21,"20240411":14.94,"20240412":15.51,"20240413":14.07,"20240414":13.24,"20240415":18.16,"20240416":16.58,"20240417":17.05,"20240418":18.23,"20240419":20.9,"20240420":21.46,"20240421":21.19,"20240422":19.7,"20240423":17.18,"20240424":18.06,"20240425":16.13,"20240426":20.32,"20240427":21.98,"20240428":22.36,"20240429":23.87,"20240430":18.86,"20240501":19.21,"20240502":19.33,"20240503":19.12,"20240504":18.0,"20240505":17.6,"20240506":16.57,"20240507":15.92,"20240508":15.09,"20240509":15.95,"20240510":15.63,"20240511":20.67,"20240512":20.43,"20240513":19.1,"20240514":17.98,"20240515":17.8,"20240516":19.37,"20240517":20.36,"20240518":19.02,"20240519":21.97,"20240520":23.48,"20240521":22.89,"20240522":23.26,"20240523":22.44,"20240524":24.99,"20240525":22.22,"20240526":20.84,"20240527":22.39,"20240528":23.41,"20240529":26.16,"20240530":25.98,"20240531":26.58,"20240601":25.3,"20240602":24.33,"20240603":24.0,"20240604":25.9,"20240605":26.0,"20240606":25.22,"20240607":27.78,"20240608":27.42,"20240609":29.83,"20240610":29.59,"20240611":28.39,"20240612":28.05,"20240613":27.25,"20240614":29.03,"20240615":29.98,"20240616":29.98,"20240617":29.48,"20240618":31.89,"20240619":30.41,"20240620":30.65,"20240621":29.4,"20240622":31.72,"20240623":31.9,"20240624":29.83,"20240625":30.78,"20240626":31.06,"20240627":28.25,"20240628":27.5,"20240629":27.72,"20240630":28.1,"20240701":29.08,"20240702":30.3,"20240703":29.31,"20240704":29.3,"20240705":30.82,"20240706":29.81,"20240707":29.48,"20240708":29.88,"20240709":32.97,"20240710":33.19,"20240711":33.15,"20240712":32.75,"20240713":32.25,"20240714":31.95,"20240715":31.49,"20240716":31.46,"20240717":32.5,"20240718":32.54,"20240719":32.03,"20240720":32.46,"20240721":32.08,"20240722":31.09,"20240723":31.56,"20240724":31.43,"20240725":32.82,"20240726":31.76,"20240727":31.0,"20240728":31.77,"20240729":30.24,"20240730":31.26,"20240731":30.4,"20240801":32.34,"20240802":30.6,"20240803":29.64,"20240804":28.73,"20240805":28.65,"20240806":27.52,"20240807":29.57,"20240808":31.97,"20240809":31.77,"20240810":31.5,"20240811":29.92,"20240812":30.82,"20240813":31.66,"20240814":31.84,"20240815":29.84,"20240816":32.18,"20240817":31.75,"20240818":30.54,"20240819":31.05,"20240820":32.54,"20240821":31.89,"20240822":30.14,"20240823":29.79,"20240824":31.61,"20240825":33.01,"20240826":31.66,"20240827":31.21,"20240828":30.7,"20240829":30.03,"20240830":29.24,"20240831":27.92,"20240901":26.9,"20240902":27.49,"20240903":28.66,"20240904":26.64,"20240905":26.94,"20240906":27.31,"20240907":28.34,"20240908":28.8,"20240909":31.14,"20240910":31.21,"20240911":29.32,"20240912":28.36,"20240913":26.39,"20240914":26.94,"20240915":25.03,"20240916":27.49,"20240917":26.25,"20240918":25.16,"20240919":24.59,"20240920":27.46,"20240921":25.56,"20240922":27.5,"20240923":25.49,"20240924":26.05,"20240925":24.72,"20240926":22.67,"20240927":22.96,"20240928":23.58,"20240929":20.94,"20240930":21.49,"20241001":24.83,"20241002":23.29,"20241003":22.12,"20241004":21.0,"20241005":19.8,"20241006":20.11,"20241007":20.33,"20241008":22.15,"20241009":20.74,"20241010":21.01,"20241011":21.5,"20241012":23.25,"20241013":23.8,"20241014":23.77,"20241015":24.37,"20241016":23.55,"20241017":23.24,"20241018":20.46,"20241019":18.95,"20241020":14.65,"20241021":12.39,"20241022":10.58,"20241023":9.97,"20241024":11.25,"20241025":11.37,"20241026":11.65,"20241027":10.84,"20241028":12.12,"20241029":10.78,"20241030":14.32,"20241031":15.47,"20241101":16.66,"20241102":16.95,"20241103":17.74,"20241104":15.31,"20241105":13.75,"20241106":12.47,"20241107":11.02,"20241108":9.95,"20241109":10.44,"20241110":14.31,"20241111":16.7,"20241112":14.16,"20241113":12.14,"20241114":11.21,"20241115":10.49,"20241116":11.75,"20241117":12.77,"20241118":16.75,"20241119":13.81,"20241120":12.99,"20241121":12.73,"20241122":12.28,"20241123":12.01,"20241124":11.32,"20241125":9.88,"20241126":7.89,"20241127":4.79,"20241128":3.59,"20241129":2.46,"20241130":3.95,"20241201":4.32,"20241202":2.51,"20241203":5.9,"20241204":6.23,"20241205":6.32,"20241206":6.3,"20241207":6.68,"20241208":8.52,"20241209":8.49,"20241210":7.34,"20241211":6.41,"20241212":8.98,"20241213":6.71,"20241214":1.58,"20241215":-0.32,"20241216":0.26,"20241217":0.31,"20241218":1.89,"20241219":1.56,"20241220":6.43,"20241221":4.62,"20241222":3.61,"20241223":5.11,"20241224":7.07,"20241225":5.19,"20241226":6.22,"20241227":8.75,"20241228":6.52,"20241229":6.5,"20241230":6.85,"20241231":5.84},"PRECTOTCORR":{"20240101":0.0,"20240102":0.0,"20240103":0.0,"20240104":0.0,"20240105":0.01,"20240106":0.13,"20240107":0.0,"20240108":0.0,"20240109":0.0,"20240110":0.36,"20240111":0.1,"20240112":0.08,"20240113":0.23,"20240114":0.1,"20240115":0.07,"20240116":0.0,"20240117":0.0,"20240118":0.0,"20240119":0.0,"20240120":0.0,"20240121":0.11,"20240122":0.22,"20240123":0.03,"20240124":0.01,"20240125":0.29,"20240126":0.01,"20240127":5.51,"20240128":0.37,"20240129":0.09,"20240130":0.02,"20240131":0.01,"20240201":5.32,"20240202":2.61,"20240203":0.12,"20240204":0.0,"20240205":1.07,"20240206":0.27,"20240207":0.0,"20240208":0.0,"20240209":0.01,"20240210":2.62,"20240211":1.15,"20240212":0.0,"20240213":0.0,"20240214":2.17,"20240215":2.75,"20240216":5.55,"20240217":1.87,"20240218":0.38,"20240219":0.34,"20240220":2.43,"20240221":0.21,"20240222":0.0,"20240223":0.0,"20240224":3.52,"20240225":0.18,"20240226":0.0,"20240227":0.0,"20240228":0.0,"20240229":0.0,"20240301":0.0,"20240302":0.0,"20240303":0.02,"20240304":0.19,"20240305":0.01,"20240306":0.0,"20240307":0.0,"20240308":0.0,"20240309":0.01,"20240310":0.0,"20240311":0.0,"20240312":0.0,"20240313":0.0,"20240314":0.0,"20240315":1.33,"20240316":0.31,"20240317":0.06,"20240318":5.3,"20240319":7.8,"20240320":2.56,"20240321":0.0,"20240322":2.54,"20240323":0.08,"20240324":28.5,"20240325":5.13,"20240326":0.0,"20240327":0.0,"20240328":0.0,"20240329":0.0,"20240330":0.0,"20240331":0.0,"20240401":0.0,"20240402":0.0,"20240403":0.0,"20240404":0.0,"20240405":0.0,"20240406":0.0,"20240407":6.03,"20240408":0.01,"20240409":4.95,"20240410":1.99,"20240411":0.55,"20240412":0.0,"20240413":0.0,"20240414":0.0,"20240415":0.0,"20240416":0.0,"20240417":0.0,"20240418":0.0,"20240419":0.0,"20240420":0.07,"20240421":0.27,"20240422":0.03,"20240423":0.0,"20240424":0.0,"20240425":0.0,"20240426":0.0,"20240427":0.06,"20240428":0.03,"20240429":0.33,"20240430":18.98,"20240501":0.7,"20240502":0.37,"20240503":18.77,"20240504":19.57,"20240505":0.0,"20240506":2.04,"20240507":1.71,"20240508":0.01,"20240509":0.0,"20240510":0.0,"20240511":0.02,"20240512":0.04,"20240513":0.03,"20240514":0.0,"20240515":0.0,"20240516":0.0,"20240517":0.0,"20240518":0.0,"20240519":0.0,"20240520":0.42,"20240521":0.19,"20240522":0.0,"20240523":0.0,"20240524":0.0,"20240525":0.0,"20240526":0.0,"20240527":0.0,"20240528":0.0,"20240529":0.0,"20240530":0.0,"20240531":0.0,"20240601":0.0,"20240602":0.0,"20240603":0.0,"20240604":0.0,"20240605":0.0,"20240606":0.0,"20240607":0.0,"20240608":0.0,"20240609":0.0,"20240610":0.04,"20240611":0.01,"20240612":0.0,"20240613":0.0,"20240614":0.0,"20240615":0.0,"20240616":0.0,"20240617":0.0,"20240618":0.0,"20240619":0.0,"20240620":0.0,"20240621":0.0,"20240622":0.0,"20240623":0.0,"20240624":0.0,"20240625":0.0,"20240626":0.0,"20240627":0.0,"20240628":0.0,"20240629":0.0,"20240630":0.0,"20240701":0.0,"20240702":0.0,"20240703":0.0,"20240704":0.0,"20240705":0.0,"20240706":0.0,"20240707":0.0,"20240708":0.0,"20240709":0.0,"20240710":0.0,"20240711":0.0,"20240712":0.0,"20240713":0.0,"20240714":0.0,"20240715":0.0,"20240716":0.0,"20240717":0.0,"20240718":0.0,"20240719":0.0,"20240720":0.0,"20240721":0.0,"20240722":0.0,"20240723":0.0,"20240724":0.0,"20240725":0.0,"20240726":0.0,"20240727":0.0,"20240728":0.0,"20240729":0.0,"20240730":0.0,"20240731":0.0,"20240801":0.0,"20240802":0.0,"20240803":0.0,"20240804":0.0,"20240805":0.0,"20240806":0.0,"20240807":0.0,"20240808":0.0,"20240809":0.0,"20240810":0.0,"20240811":0.0,"20240812":0.0,"20240813":0.0,"20240814":0.0,"20240815":0.0,"20240816":0.0,"20240817":0.0,"20240818":0.0,"20240819":0.0,"20240820":0.0,"20240821":0.0,"20240822":0.0,"20240823":0.0,"20240824":0.0,"20240825":0.0,"20240826":0.0,"20240827":0.0,"20240828":0.0,"20240829":0.0,"20240830":0.0,"20240831":0.0,"20240901":0.0,"20240902":0.0,"20240903":0.0,"20240904":0.0,"20240905":0.0,"20240906":0.0,"20240907":0.0,"20240908":0.0,"20240909":0.0,"20240910":0.0,"20240911":0.0,"20240912":0.0,"20240913":0.0,"20240914":0.0,"20240915":0.0,"20240916":0.0,"20240917":0.0,"20240918":0.0,"20240919":0.0,"20240920":0.0,"20240921":0.0,"20240922":0.0,"20240923":0.0,"20240924":0.0,"20240925":0.0,"20240926":0.0,"20240927":0.0,"20240928":0.0,"20240929":0.0,"20240930":0.0,"20241001":0.0,"20241002":0.0,"20241003":0.0,"20241004":0.0,"20241005":0.0,"20241006":0.0,"20241007":0.0,"20241008":0.0,"20241009":0.0,"20241010":0.0,"20241011":0.0,"20241012":0.0,"20241013":0.0,"20241014":0.0,"20241015":0.0,"20241016":0.0,"20241017":0.0,"20241018":0.0,"20241019":0.0,"20241020":0.0,"20241021":0.0,"20241022":0.0,"20241023":0.0,"20241024":0.0,"20241025":0.0,"20241026":0.0,"20241027":0.0,"20241028":0.0,"20241029":0.0,"20241030":0.0,"20241031":0.03,"20241101":19.63,"20241102":3.28,"20241103":30.9,"20241104":0.64,"20241105":0.0,"20241106":0.04,"20241107":0.02,"20241108":0.0,"20241109":0.0,"20241110":0.13,"20241111":0.73,"20241112":0.1,"20241113":0.0,"20241114":0.0,"20241115":0.0,"20241116":0.0,"20241117":0.0,"20241118":0.11,"20241119":0.09,"20241120":0.0,"20241121":0.0,"20241122":0.0,"20241123":0.0,"20241124":0.08,"20241125":2.03,"20241126":2.42,"20241127":0.05,"20241128":0.0,"20241129":0.0,"20241130":0.0,"20241201":0.0,"20241202":0.0,"20241203":0.0,"20241204":0.0,"20241205":0.0,"20241206":0.0,"20241207":0.0,"20241208":0.0,"20241209":0.0,"20241210":0.0,"20241211":0.0,"20241212":0.0,"20241213":0.19,"20241214":0.03,"20241215":0.0,"20241216":0.0,"20241217":0.0,"20241218":0.0,"20241219":0.0,"20241220":3.74,"20241221":0.3,"20241222":0.0,"20241223":0.0,"20241224":0.0,"20241225":0.0,"20241226":0.02,"20241227":1.05,"20241228":1.48,"20241229":0.0,"20241230":0.0,"20241231":0.0},"WS10M":{"20240101":2.54,"20240102":2.56,"20240103":2.4,"20240104":1.7,"20240105":2.79,"20240106":3.39,"20240107":2.54,"20240108":2.04,"20240109":4.35,"20240110":3.42,"20240111":1.89,"20240112":3.01,"20240113":4.73,"20240114":2.88,"20240115":3.35,"20240116":3.19,"20240117":3.6,"20240118":3.99,"20240119":3.58,"20240120":2.14,"20240121":2.31,"20240122":4.44,"20240123":3.54,"20240124":3.32,"20240125":2.37,"20240126":1.86,"20240127":3.33,"20240128":2.22,"20240129":2.15,"20240130":2.21,"20240131":3.42,"20240201":3.87,"20240202":2.99,"20240203":1.51,"20240204":2.46,"20240205":2.57,"20240206":2.59,"20240207":1.51,"20240208":2.4,"20240209":2.11,"20240210":4.27,"20240211":2.4,"20240212":3.22,"20240213":2.59,"20240214":6.43,"20240215":3.72,"20240216":3.04,"20240217":2.88,"20240218":2.36,"20240219":1.81,"20240220":1.7,"20240221":2.2,"20240222":2.36,"20240223":1.63,"20240224":2.29,"20240225":4.46,"20240226":3.93,"20240227":2.1,"20240228":4.26,"20240229":3.93,"20240301":2.19,"20240302":2.09,"20240303":2.69,"20240304":2.92,"20240305":2.43,"20240306":3.19,"20240307":3.42,"20240308":2.91,"20240309":2.2,"20240310":2.97,"20240311":4.45,"20240312":2.56,"20240313":1.54,"20240314":4.24,"20240315":3.09,"20240316":3.34,"20240317":2.14,"20240318":4.08,"20240319":5.48,"20240320":2.55,"20240321":2.89,"20240322":4.39,"20240323":3.07,"20240324":3.77,"20240325":4.61,"20240326":3.66,"20240327":2.78,"20240328":3.22,"20240329":3.16,"20240330":3.19,"20240331":2.1,"20240401":3.32,"20240402":3.66,"20240403":2.94,"20240404":1.89,"20240405":2.12,"20240406":2.99,"20240407":4.05,"20240408":2.52,"20240409":6.29,"20240410":3.91,"20240411":2.3,"20240412":3.08,"20240413":3.33,"20240414":2.47,"20240415":3.09,"20240416":4.59,"20240417":2.4,"20240418":1.82,"20240419":1.5,"20240420":2.5,"20240421":5.17,"20240422":4.25,"20240423":4.34,"20240424":4.47,"20240425":2.52,"20240426":1.72,"20240427":2.74,"20240428":3.95,"20240429":2.95,"20240430":3.54,"20240501":1.8,"20240502":1.55,"20240503":2.94,"20240504":2.95,"20240505":3.35,"20240506":4.55,"20240507":3.25,"20240508":3.21,"20240509":2.67,"20240510":2.59,"20240511":4.14,"20240512":3.51,"20240513":4.2,"20240514":3.36,"20240515":3.47,"20240516":2.76,"20240517":4.61,"20240518":3.04,"20240519":2.52,"20240520":3.42,"20240521":2.16,"20240522":3.83,"20240523":2.98,"20240524":3.12,"20240525":3.61,"20240526":3.01,"20240527":3.25,"20240528":2.01,"20240529":2.64,"20240530":2.69,"20240531":4.99,"20240601":4.88,"20240602":4.51,"20240603":4.67,"20240604":4.58,"20240605":4.91,"20240606":4.29,"20240607":2.98,"20240608":2.39,"20240609":4.39,"20240610":2.78,"20240611":4.36,"20240612":3.17,"20240613":3.43,"20240614":4.98,"20240615":4.84,"20240616":3.81,"20240617":3.2,"20240618":4.15,"20240619":5.15,"20240620":4.92,"20240621":2.82,"20240622":2.34,"20240623":4.39,"20240624":3.27,"20240625":2.86,"20240626":5.42,"20240627":4.64,"20240628":4.88,"20240629":4.32,"20240630":3.42,"20240701":4.17,"20240702":4.84,"20240703":4.02,"20240704":5.07,"20240705":7.38,"20240706":7.44,"20240707":4.58,"20240708":3.37,"20240709":2.17,"20240710":2.07,"20240711":3.0,"20240712":6.68,"20240713":5.95,"20240714":4.88,"20240715":4.02,"20240716":3.94,"20240717":4.76,"20240718":5.07,"20240719":5.08,"20240720":4.88,"20240721":4.18,"20240722":4.14,"20240723":4.89,"20240724":4.36,"20240725":5.61,"20240726":4.92,"20240727":4.46,"20240728":5.94,"20240729":6.57,"20240730":5.33,"20240731":4.63,"20240801":5.16,"20240802":4.81,"20240803":4.95,"20240804":4.74,"20240805":4.07,"20240806":3.23,"20240807":3.71,"20240808":5.55,"20240809":5.8,"20240810":4.77,"20240811":3.93,"20240812":3.77,"20240813":4.28,"20240814":2.98,"20240815":3.94,"20240816":3.75,"20240817":3.27,"20240818":3.27,"20240819":3.39,"20240820":5.67,"20240821":4.58,"20240822":2.62,"20240823":2.72,"20240824":2.37,"20240825":2.91,"20240826":3.71,"20240827":4.27,"20240828":5.07,"20240829":5.64,"20240830":5.81,"20240831":4.41,"20240901":3.53,"20240902":4.88,"20240903":5.59,"20240904":4.58,"20240905":4.07,"20240906":3.51,"20240907":4.11,"20240908":2.97,"20240909":2.98,"20240910":3.73,"20240911":3.66,"20240912":4.88,"20240913":4.84,"20240914":4.6,"20240915":3.24,"20240916":2.5,"20240917":3.2,"20240918":3.8,"20240919":2.62,"20240920":2.14,"20240921":1.74,"20240922":3.55,"20240923":3.1,"20240924":4.15,"20240925":4.9,"20240926":4.83,"20240927":4.44,"20240928":4.97,"20240929":2.55,"20240930":2.61,"20241001":4.11,"20241002":3.28,"20241003":3.45,"20241004":3.99,"20241005":4.65,"20241006":3.08,"20241007":2.41,"20241008":1.48,"20241009":2.06,"20241010":2.26,"20241011":1.8,"20241012":2.34,"20241013":2.04,"20241014":2.19,"20241015":1.81,"20241016":2.06,"20241017":3.77,"20241018":3.73,"20241019":3.13,"20241020":4.46,"20241021":4.27,"20241022":3.29,"20241023":2.54,"20241024":3.74,"20241025":2.75,"20241026":2.93,"20241027":3.31,"20241028":4.2,"20241029":2.77,"20241030":1.88,"20241031":2.85,"20241101":2.55,"20241102":3.14,"20241103":2.91,"20241104":2.39,"20241105":2.33,"20241106":3.41,"20241107":3.77,"20241108":3.64,"20241109":2.69,"20241110":2.16,"20241111":2.85,"20241112":3.25,"20241113":3.77,"20241114":3.53,"20241115":2.19,"20241116":2.4,"20241117":2.14,"20241118":2.0,"20241119":2.86,"20241120":2.41,"20241121":2.43,"20241122":3.25,"20241123":3.72,"20241124":2.77,"20241125":3.11,"20241126":2.6,"20241127":3.7,"20241128":3.33,"20241129":3.2,"20241130":3.71,"20241201":3.68,"20241202":2.49,"20241203":1.59,"20241204":2.03,"20241205":3.34,"20241206":3.63,"20241207":3.12,"20241208":1.87,"20241209":4.39,"20241210":4.4,"20241211":2.99,"20241212":2.54,"20241213":3.05,"20241214":5.35,"20241215":3.48,"20241216":3.08,"20241217":2.64,"20241218":3.54,"20241219":2.85,"20241220":1.76,"20241221":3.73,"20241222":3.26,"20241223":1.53,"20241224":1.23,"20241225":2.05,"20241226":3.0,"20241227":6.37,"20241228":2.78,"20241229":2.03,"20241230":2.4,"20241231":2.94},"RH2M":{"20240101":60.31,"20240102":67.76,"20240103":69.57,"20240104":69.64,"20240105":65.21,"20240106":65.92,"20240107":57.9,"20240108":49.82,"20240109":43.86,"20240110":52.83,"20240111":57.74,"20240112":63.16,"20240113":57.56,"20240114":55.58,"20240115":60.24,"20240116":51.56,"20240117":57.75,"20240118":63.31,"20240119":69.03,"20240120":55.89,"20240121":50.89,"20240122":47.95,"20240123":52.38,"20240124":58.22,"20240125":60.62,"20240126":58.38,"20240127":65.71,"20240128":50.85,"20240129":45.78,"20240130":45.58,"20240131":55.96,"20240201":65.47,"20240202":62.99,"20240203":54.82,"20240204":54.32,"20240205":65.89,"20240206":64.54,"20240207":56.9,"20240208":57.33,"20240209":55.73,"20240210":63.27,"20240211":52.62,"20240212":51.57,"20240213":55.02,"20240214":58.63,"20240215":73.07,"20240216":73.55,"20240217":67.83,"20240218":66.45,"20240219":62.29,"20240220":64.78,"20240221":62.86,"20240222":53.86,"20240223":50.02,"20240224":66.94,"20240225":56.11,"20240226":42.11,"20240227":47.55,"20240228":46.44,"20240229":39.52,"20240301":37.42,"20240302":32.17,"20240303":34.04,"20240304":43.76,"20240305":47.69,"20240306":43.22,"20240307":51.36,"20240308":52.3,"20240309":43.78,"20240310":48.13,"20240311":43.24,"20240312":39.39,"20240313":29.28,"20240314":30.36,"20240315":37.57,"20240316":42.83,"20240317":37.79,"20240318":61.08,"20240319":68.05,"20240320":55.56,"20240321":45.3,"20240322":53.47,"20240323":56.71,"20240324":72.19,"20240325":59.17,"20240326":50.98,"20240327":57.4,"20240328":50.55,"20240329":49.56,"20240330":55.02,"20240331":49.76,"20240401":39.1,"20240402":39.8,"20240403":37.06,"20240404":32.67,"20240405":28.69,"20240406":35.91,"20240407":49.78,"20240408":48.74,"20240409":49.44,"20240410":51.37,"20240411":51.9,"20240412":46.93,"20240413":39.52,"20240414":36.2,"20240415":42.38,"20240416":39.76,"20240417":36.05,"20240418":31.19,"20240419":28.54,"20240420":31.34,"20240421":44.63,"20240422":35.88,"20240423":29.69,"20240424":32.1,"20240425":24.71,"20240426":24.94,"20240427":28.61,"20240428":26.75,"20240429":39.51,"20240430":66.91,"20240501":59.6,"20240502":64.14,"20240503":64.5,"20240504":57.82,"20240505":42.97,"20240506":49.56,"20240507":51.24,"20240508":44.31,"20240509":41.79,"20240510":37.43,"20240511":31.11,"20240512":41.52,"20240513":41.0,"20240514":41.03,"20240515":36.9,"20240516":33.51,"20240517":34.21,"20240518":38.15,"20240519":35.59,"20240520":33.19,"20240521":38.47,"20240522":38.1,"20240523":30.25,"20240524":24.77,"20240525":28.42,"20240526":28.97,"20240527":25.4,"20240528":24.43,"20240529":25.54,"20240530":22.06,"20240531":23.88,"20240601":23.99,"20240602":22.93,"20240603":20.35,"20240604":20.43,"20240605":19.64,"20240606":17.58,"20240607":20.28,"20240608":17.59,"20240609":13.99,"20240610":14.87,"20240611":21.85,"20240612":19.93,"20240613":17.59,"20240614":18.58,"20240615":17.18,"20240616":16.37,"20240617":14.68,"20240618":12.04,"20240619":11.24,"20240620":13.72,"20240621":12.27,"20240622":12.46,"20240623":17.9,"20240624":18.48,"20240625":17.94,"20240626":17.16,"20240627":18.25,"20240628":14.7,"20240629":15.51,"20240630":13.59,"20240701":16.5,"20240702":21.4,"20240703":21.35,"20240704":17.52,"20240705":16.36,"20240706":19.53,"20240707":22.93,"20240708":20.85,"20240709":15.98,"20240710":13.06,"20240711":12.54,"20240712":15.67,"20240713":17.13,"20240714":21.9,"20240715":27.42,"20240716":21.9,"20240717":20.22,"20240718":17.95,"20240719":23.28,"20240720":20.85,"20240721":20.66,"20240722":21.33,"20240723":18.87,"20240724":20.96,"20240725":24.8,"20240726":21.79,"20240727":23.0,"20240728":22.61,"20240729":20.56,"20240730":19.67,"20240731":19.7,"20240801":16.85,"20240802":17.71,"20240803":21.28,"20240804":22.69,"20240805":20.65,"20240806":21.36,"20240807":19.85,"20240808":19.27,"20240809":21.72,"20240810":20.72,"20240811":22.63,"20240812":20.12,"20240813":21.21,"20240814":18.71,"20240815":19.26,"20240816":17.24,"20240817":17.9,"20240818":18.24,"20240819":18.79,"20240820":20.38,"20240821":20.22,"20240822":15.7,"20240823":14.02,"20240824":14.45,"20240825":18.81,"20240826":20.99,"20240827":19.9,"20240828":21.32,"20240829":26.05,"20240830":29.73,"20240831":29.61,"20240901":27.16,"20240902":25.7,"20240903":26.97,"20240904":25.14,"20240905":22.55,"20240906":22.44,"20240907":22.84,"20240908":18.94,"20240909":16.39,"20240910":16.4,"20240911":22.5,"20240912":22.64,"20240913":26.99,"20240914":28.76,"20240915":28.15,"20240916":26.23,"20240917":31.18,"20240918":30.91,"20240919":28.25,"20240920":26.61,"20240921":24.75,"20240922":23.51,"20240923":26.55,"20240924":25.14,"20240925":26.9,"20240926":24.5,"20240927":24.57,"20240928":23.6,"20240929":22.96,"20240930":19.92,"20241001":24.79,"20241002":34.96,"20241003":33.17,"20241004":26.36,"20241005":21.24,"20241006":20.5,"20241007":14.34,"20241008":10.9,"20241009":13.37,"20241010":14.68,"20241011":14.19,"20241012":16.21,"20241013":18.44,"20241014":19.57,"20241015":20.89,"20241016":22.62,"20241017":20.31,"20241018":26.92,"20241019":23.69,"20241020":21.76,"20241021":28.91,"20241022":31.15,"20241023":32.27,"20241024":32.53,"20241025":28.58,"20241026":22.82,"20241027":19.85,"20241028":22.61,"20241029":21.54,"20241030":23.55,"20241031":32.2,"20241101":72.66,"20241102":70.59,"20241103":82.48,"20241104":73.89,"20241105":70.41,"20241106":61.89,"20241107":51.52,"20241108":51.22,"20241109":44.61,"20241110":51.68,"20241111":65.83,"20241112":71.41,"20241113":59.59,"20241114":60.03,"20241115":53.41,"20241116":49.3,"20241117":51.4,"20241118":48.46,"20241119":57.6,"20241120":60.43,"20241121":58.0,"20241122":54.51,"20241123":60.51,"20241124":60.65,"20241125":55.35,"20241126":66.61,"20241127":64.79,"20241128":58.53,"20241129":52.59,"20241130":49.2,"20241201":55.28,"20241202":54.92,"20241203":47.48,"20241204":50.24,"20241205":48.21,"20241206":52.93,"20241207":50.47,"20241208":44.85,"20241209":62.08,"20241210":62.08,"20241211":55.64,"20241212":50.49,"20241213":54.78,"20241214":46.83,"20241215":42.38,"20241216":39.96,"20241217":44.39,"20241218":57.46,"20241219":56.88,"20241220":70.82,"20241221":81.9,"20241222":67.25,"20241223":58.3,"20241224":55.82,"20241225":58.63,"20241226":53.2,"20241227":46.63,"20241228":57.97,"20241229":60.49,"20241230":60.03,"20241231":63.17}}},"header":{"title":"NASA/POWER Source Native Resolution Daily Data","api":{"version":"v2.9.6","name":"POWER Daily API"},"sources":["MERRA2","POWER"],"fill_value":-999.0,"time_standard":"UTC","start":"20240101","end":"20241231"},"messages":[],"parameters":{"T2M":{"units":"C","longname":"Temperature at 2 Meters"},"T2M_MAX":{"units":"C","longname":"Temperature at 2 Meters Maximum"},"T2M_MIN":{"units":"C","longname":"Temperature at 2 Meters Minimum"},"PRECTOTCORR":{"units":"mm/day","longname":"Precipitation Corrected"},"WS10M":{"units":"m/s","longname":"Wind Speed at 10 Meters"},"RH2M":{"units":"%","longname":"Relative Humidity at 2 Meters"}},"times":{"data":0.922,"process":0.02}}