{"type":"Feature","geometry":{"type":"Point","coordinates":[37.618,55.752,184.06]},"properties":{"parameter":{"T2M":{"20240101":-18.2,"20240102":-28.12,"20240103":-31.14,"20240104":-32.62,"20240105":-29.26,"20240106":-22.12,"20240107":-28.03,"20240108":-20.04,"20240109":-10.47,"20240110":-12.68,"20240111":-8.38,"20240112":-20.77,"20240113":-29.18,"20240114":-19.56,"20240115":-5.96,"20240116":-7.02,"20240117":-13.63,"20240118":-14.24,"20240119":-11.0,"20240120":-11.79,"20240121":-21.16,"20240122":-13.65,"20240123":-6.42,"20240124":-2.74,"20240125":-4.58,"20240126":-8.39,"20240127":-10.23,"20240128":-10.84,"20240129":-6.88,"20240130":-3.22,"20240131":-4.51,"20240201":-1.74,"20240202":-3.9,"20240203":-7.34,"20240204":-2.02,"20240205":-6.55,"20240206":-7.88,"20240207":-11.27,"20240208":-18.92,"20240209":-16.77,"20240210":-18.78,"20240211":-13.55,"20240212":-6.66,"20240213":-11.13,"20240214":-16.53,"20240215":-13.94,"20240216":-11.03,"20240217":-6.6,"20240218":-4.49,"20240219":-9.3,"20240220":-11.31,"20240221":-7.39,"20240222":-6.39,"20240223":-2.23,"20240224":-1.22,"20240225":-2.61,"20240226":-5.15,"20240227":-5.05,"20240228":-4.13,"20240229":-1.63,"20240301":-0.37,"20240302":-3.49,"20240303":-6.72,"20240304":-5.98,"20240305":-6.56,"20240306":-10.01,"20240307":-9.2,"20240308":-5.13,"20240309":-8.18,"20240310":-9.86,"20240311":-4.95,"20240312":-3.79,"20240313":-6.03,"20240314":-4.94,"20240315":-2.86,"20240316":-1.36,"20240317":-2.03,"20240318":-1.59,"20240319":-1.53,"20240320":-2.63,"20240321":-2.43,"20240322":-2.15,"20240323":0.37,"20240324":0.05,"20240325":-0.47,"20240326":-1.96,"20240327":-1.47,"20240328":-1.28,"20240329":0.63,"20240330":0.53,"20240331":1.4,"20240401":6.22,"20240402":11.65,"20240403":7.85,"20240404":0.85,"20240405":-1.16,"20240406":1.93,"20240407":6.2,"20240408":8.83,"20240409":10.71,"20240410":12.65,"20240411":11.26,"20240412":7.78,"20240413":7.24,"20240414":8.89,"20240415":5.41,"20240416":6.7,"20240417":7.42,"20240418":4.74,"20240419":6.23,"20240420":4.3,"20240421":8.98,"20240422":10.03,"20240423":5.45,"20240424":6.21,"20240425":11.95,"20240426":14.37,"20240427":9.82,"20240428":8.45,"20240429":11.26,"20240430":13.65,"20240501":11.44,"20240502":7.16,"20240503":3.45,"20240504":7.13,"20240505":7.02,"20240506":5.16,"20240507":2.12,"20240508":1.16,"20240509":1.21,"20240510":5.68,"20240511":4.87,"20240512":2.63,"20240513":5.14,"20240514":7.4,"20240515":10.27,"20240516":13.38,"20240517":13.72,"20240518":11.71,"20240519":12.76,"20240520":15.78,"20240521":16.96,"20240522":14.69,"20240523":11.79,"20240524":13.8,"20240525":14.85,"20240526":15.58,"20240527":14.83,"20240528":18.07,"20240529":20.91,"20240530":20.6,"20240531":21.05,"20240601":20.46,"20240602":20.63,"20240603":19.47,"20240604":18.24,"20240605":21.05,"20240606":20.66,"20240607":17.78,"20240608":16.76,"20240609":16.37,"20240610":17.67,"20240611":19.81,"20240612":20.91,"20240613":18.57,"20240614":17.88,"20240615":19.61,"20240616":20.48,"20240617":20.56,"20240618":19.91,"20240619":20.05,"20240620":16.68,"20240621":15.95,"20240622":16.11,"20240623":16.35,"20240624":15.86,"20240625":16.75,"20240626":17.09,"20240627":19.1,"20240628":21.32,"20240629":23.59,"20240630":22.78,"20240701":23.67,"20240702":24.47,"20240703":22.71,"20240704":23.38,"20240705":22.06,"20240706":16.99,"20240707":19.3,"20240708":20.94,"20240709":21.51,"20240710":18.93,"20240711":19.81,"20240712":20.73,"20240713":22.15,"20240714":24.36,"20240715":23.13,"20240716":23.39,"20240717":23.04,"20240718":22.39,"20240719":19.79,"20240720":19.45,"20240721":19.4,"20240722":18.3,"20240723":17.51,"20240724":19.32,"20240725":18.78,"20240726":18.75,"20240727":19.99,"20240728":20.52,"20240729":17.36,"20240730":16.98,"20240731":17.05,"20240801":15.63,"20240802":17.05,"20240803":17.24,"20240804":17.83,"20240805":18.31,"20240806":18.33,"20240807":18.39,"20240808":17.61,"20240809":17.23,"20240810":18.35,"20240811":16.53,"20240812":14.97,"20240813":15.13,"20240814":16.55,"20240815":15.2,"20240816":16.69,"20240817":18.42,"20240818":20.18,"20240819":21.11,"20240820":18.57,"20240821":16.35,"20240822":17.71,"20240823":17.56,"20240824":17.1,"20240825":20.5,"20240826":22.33,"20240827":22.58,"20240828":19.89,"20240829":18.2,"20240830":17.91,"20240831":19.04,"20240901":19.95,"20240902":18.75,"20240903":18.61,"20240904":15.09,"20240905":13.46,"20240906":16.53,"20240907":17.59,"20240908":17.73,"20240909":17.94,"20240910":18.36,"20240911":18.18,"20240912":18.06,"20240913":19.4,"20240914":17.33,"20240915":17.14,"20240916":16.52,"20240917":17.84,"20240918":16.74,"20240919":15.09,"20240920":14.28,"20240921":14.9,"20240922":8.83,"20240923":8.81,"20240924":11.3,"20240925":14.4,"20240926":14.3,"20240927":13.71,"20240928":16.69,"20240929":14.69,"20240930":9.58,"20241001":10.48,"20241002":10.96,"20241003":11.3,"20241004":10.18,"20241005":8.33,"20241006":7.37,"20241007":12.5,"20241008":10.0,"20241009":4.95,"20241010":5.99,"20241011":7.8,"20241012":8.84,"20241013":4.74,"20241014":0.76,"20241015":3.16,"20241016":3.82,"20241017":2.72,"20241018":1.4,"20241019":3.13,"20241020":4.8,"20241021":5.88,"20241022":6.5,"20241023":7.8,"20241024":6.54,"20241025":3.64,"20241026":3.51,"20241027":4.71,"20241028":4.53,"20241029":3.1,"20241030":3.03,"20241031":1.55,"20241101":3.84,"20241102":-1.69,"20241103":-1.03,"20241104":-1.88,"20241105":-2.14,"20241106":-0.83,"20241107":1.86,"20241108":1.28,"20241109":2.22,"20241110":0.27,"20241111":-2.18,"20241112":-1.12,"20241113":-1.0,"20241114":-1.54,"20241115":-0.95,"20241116":1.43,"20241117":1.87,"20241118":0.64,"20241119":0.06,"20241120":1.2,"20241121":3.46,"20241122":-2.11,"20241123":-1.53,"20241124":-5.15,"20241125":-5.81,"20241126":-5.3,"20241127":-5.47,"20241128":-5.65,"20241129":-2.8,"20241130":-3.07,"20241201":-0.93,"20241202":-2.83,"20241203":-4.07,"20241204":-7.16,"20241205":-9.37,"20241206":-8.86,"20241207":-4.23,"20241208":-4.6,"20241209":-5.71,"20241210":-12.41,"20241211":-8.29,"20241212":-4.91,"20241213":-9.21,"20241214":-8.45,"20241215":-7.82,"20241216":-4.12,"20241217":-4.88,"20241218":-16.26,"20241219":-15.49,"20241220":0.05,"20241221":-4.2,"20241222":-9.17,"20241223":-10.79,"20241224":-4.46,"20241225":-5.9,"20241226":-2.49,"20241227":-1.82,"20241228":-7.64,"20241229":-4.46,"20241230":-1.18,"20241231":-3.66},"T2M_MAX":{"20240101":-15.75,"20240102":-22.34,"20240103":-27.91,"20240104":-28.06,"20240105":-24.35,"20240106":-19.77,"20240107":-22.47,"20240108":-13.23,"20240109":-3.96,"20240110":-4.18,"20240111":-1.48,"20240112":-13.46,"20240113":-23.56,"20240114":-9.92,"20240115":-4.57,"20240116":-4.66,"20240117":-8.34,"20240118":-6.11,"20240119":-5.98,"20240120":-8.52,"20240121":-17.47,"20240122":-9.87,"20240123":-5.04,"20240124":-0.69,"20240125":-2.6,"20240126":-6.07,"20240127":-6.56,"20240128":-6.35,"20240129":-4.01,"20240130":-0.87,"20240131":-2.92,"20240201":0.28,"20240202":-2.07,"20240203":-4.88,"20240204":-0.07,"20240205":-2.66,"20240206":-4.04,"20240207":-8.08,"20240208":-16.36,"20240209":-12.06,"20240210":-11.79,"20240211":-9.0,"20240212":-4.3,"20240213":-7.54,"20240214":-12.81,"20240215":-10.86,"20240216":-8.01,"20240217":-3.35,"20240218":-1.74,"20240219":-5.56,"20240220":-6.76,"20240221":-3.83,"20240222":-2.95,"20240223":0.12,"20240224":0.03,"20240225":-0.58,"20240226":-3.05,"20240227":-0.45,"20240228":0.23,"20240229":0.36,"20240301":0.73,"20240302":0.24,"20240303":0.29,"20240304":-0.22,"20240305":-2.12,"20240306":-3.41,"20240307":-2.18,"20240308":-1.19,"20240309":-4.39,"20240310":-4.76,"20240311":-0.33,"20240312":0.29,"20240313":0.36,"20240314":0.48,"20240315":0.68,"20240316":1.01,"20240317":0.84,"20240318":0.48,"20240319":0.55,"20240320":0.63,"20240321":1.31,"20240322":0.86,"20240323":0.65,"20240324":0.69,"20240325":0.61,"20240326":0.73,"20240327":1.81,"20240328":1.21,"20240329":1.26,"20240330":1.24,"20240331":3.58,"20240401":14.2,"20240402":18.55,"20240403":13.02,"20240404":5.85,"20240405":3.57,"20240406":5.69,"20240407":12.48,"20240408":14.79,"20240409":14.87,"20240410":19.09,"20240411":15.41,"20240412":11.66,"20240413":10.81,"20240414":11.04,"20240415":8.96,"20240416":10.69,"20240417":11.36,"20240418":8.24,"20240419":13.64,"20240420":10.29,"20240421":12.87,"20240422":16.28,"20240423":9.59,"20240424":10.46,"20240425":17.4,"20240426":17.56,"20240427":13.13,"20240428":13.47,"20240429":17.12,"20240430":19.52,"20240501":16.68,"20240502":11.38,"20240503":8.54,"20240504":11.97,"20240505":10.4,"20240506":9.99,"20240507":4.39,"20240508":4.29,"20240509":4.56,"20240510":10.22,"20240511":8.25,"20240512":6.31,"20240513":9.52,"20240514":11.62,"20240515":15.65,"20240516":18.15,"20240517":18.36,"20240518":17.21,"20240519":18.87,"20240520":21.89,"20240521":21.07,"20240522":20.01,"20240523":16.91,"20240524":20.01,"20240525":20.48,"20240526":19.86,"20240527":20.38,"20240528":23.28,"20240529":26.1,"20240530":25.35,"20240531":25.47,"20240601":25.19,"20240602":24.61,"20240603":23.4,"20240604":21.67,"20240605":24.73,"20240606":25.0,"20240607":21.64,"20240608":20.67,"20240609":20.79,"20240610":21.98,"20240611":22.93,"20240612":24.32,"20240613":22.15,"20240614":21.5,"20240615":23.24,"20240616":24.43,"20240617":23.01,"20240618":22.93,"20240619":23.65,"20240620":21.22,"20240621":20.41,"20240622":20.19,"20240623":20.71,"20240624":19.96,"20240625":21.36,"20240626":20.98,"20240627":23.92,"20240628":26.26,"20240629":28.45,"20240630":27.45,"20240701":27.82,"20240702":28.62,"20240703":26.59,"20240704":28.54,"20240705":26.78,"20240706":20.71,"20240707":24.53,"20240708":25.76,"20240709":26.69,"20240710":22.84,"20240711":24.58,"20240712":25.68,"20240713":27.22,"20240714":28.54,"20240715":26.54,"20240716":27.25,"20240717":27.2,"20240718":25.87,"20240719":23.2,"20240720":23.31,"20240721":23.13,"20240722":21.42,"20240723":21.49,"20240724":24.32,"20240725":22.81,"20240726":22.93,"20240727":24.86,"20240728":24.6,"20240729":20.57,"20240730":20.21,"20240731":20.55,"20240801":18.22,"20240802":21.04,"20240803":21.3,"20240804":22.13,"20240805":22.74,"20240806":22.48,"20240807":22.3,"20240808":21.67,"20240809":21.5,"20240810":22.69,"20240811":19.68,"20240812":18.8,"20240813":19.57,"20240814":21.07,"20240815":20.73,"20240816":22.41,"20240817":22.93,"20240818":24.5,"20240819":25.59,"20240820":22.25,"20240821":21.65,"20240822":23.06,"20240823":23.9,"20240824":22.16,"20240825":26.01,"20240826":27.38,"20240827":27.64,"20240828":25.15,"20240829":24.31,"20240830":23.69,"20240831":25.4,"20240901":25.96,"20240902":25.38,"20240903":24.87,"20240904":19.79,"20240905":19.6,"20240906":22.13,"20240907":23.42,"20240908":23.81,"20240909":24.51,"20240910":24.12,"20240911":23.69,"20240912":23.06,"20240913":25.48,"20240914":24.01,"20240915":24.99,"20240916":23.74,"20240917":24.39,"20240918":24.0,"20240919":20.28,"20240920":18.78,"20240921":21.17,"20240922":13.77,"20240923":15.08,"20240924":18.73,"20240925":21.81,"20240926":20.02,"20240927":15.63,"20240928":21.84,"20240929":18.8,"20240930":11.84,"20241001":17.23,"20241002":19.1,"20241003":19.55,"20241004":11.32,"20241005":11.61,"20241006":10.75,"20241007":16.28,"20241008":12.33,"20241009":6.34,"20241010":8.97,"20241011":12.68,"20241012":13.83,"20241013":7.74,"20241014":2.42,"20241015":5.8,"20241016":6.99,"20241017":6.96,"20241018":6.74,"20241019":8.18,"20241020":9.92,"20241021":11.42,"20241022":10.79,"20241023":11.48,"20241024":9.09,"20241025":7.7,"20241026":8.19,"20241027":7.26,"20241028":6.06,"20241029":6.24,"20241030":7.48,"20241031":4.12,"20241101":7.7,"20241102":3.26,"20241103":0.63,"20241104":1.09,"20241105":0.16,"20241106":1.45,"20241107":2.97,"20241108":3.09,"20241109":3.52,"20241110":3.65,"20241111":0.32,"20241112":0.3,"20241113":2.07,"20241114":-0.31,"20241115":0.96,"20241116":2.83,"20241117":3.41,"20241118":1.77,"20241119":1.65,"20241120":3.51,"20241121":4.71,"20241122":-0.06,"20241123":-0.46,"20241124":-2.65,"20241125":-4.25,"20241126":-0.98,"20241127":-2.37,"20241128":-2.71,"20241129":-0.16,"20241130":-0.61,"20241201":0.47,"20241202":-1.86,"20241203":-1.49,"20241204":-1.42,"20241205":-5.85,"20241206":-6.35,"20241207":-2.86,"20241208":-2.93,"20241209":-3.9,"20241210":-9.61,"20241211":-5.16,"20241212":-3.83,"20241213":-6.8,"20241214":-7.25,"20241215":-5.16,"20241216":-1.86,"20241217":-1.21,"20241218":-13.4,"20241219":-4.74,"20241220":0.6,"20241221":0.06,"20241222":-5.81,"20241223":-5.41,"20241224":-2.37,"20241225":-4.75,"20241226":0.51,"20241227":0.49,"20241228":-5.39,"20241229":-1.79,"20241230":-0.55,"20241231":-1.74},"T2M_MIN":{"20240101":-21.31,"20240102":-33.67,"20240103":-35.38,"20240104":-37.02,"20240105":-36.41,"20240106":-25.38,"20240107":-31.49,"20240108":-27.55,"20240109":-14.42,"20240110":-19.41,"20240111":-15.61,"20240112":-32.51,"20240113":-32.78,"20240114":-27.39,"20240115":-8.66,"20240116":-10.24,"20240117":-20.3,"20240118":-21.31,"20240119":-16.04,"20240120":-18.21,"20240121":-23.73,"20240122":-17.68,"20240123":-9.54,"20240124":-5.15,"20240125":-8.72,"20240126":-9.46,"20240127":-12.86,"20240128":-14.67,"20240129":-12.57,"20240130":-6.08,"20240131":-6.18,"20240201":-3.51,"20240202":-8.06,"20240203":-11.38,"20240204":-4.62,"20240205":-11.71,"20240206":-11.27,"20240207":-16.23,"20240208":-20.87,"20240209":-20.54,"20240210":-22.97,"20240211":-18.61,"20240212":-8.85,"20240213":-18.24,"20240214":-21.14,"20240215":-16.92,"20240216":-14.0,"20240217":-12.15,"20240218":-8.75,"20240219":-13.51,"20240220":-14.91,"20240221":-11.25,"20240222":-10.42,"20240223":-5.45,"20240224":-3.32,"20240225":-4.75,"20240226":-7.11,"20240227":-7.35,"20240228":-8.91,"20240229":-5.36,"20240301":-2.7,"20240302":-8.68,"20240303":-10.84,"20240304":-12.01,"20240305":-11.96,"20240306":-14.46,"20240307":-14.24,"20240308":-10.65,"20240309":-11.95,"20240310":-14.86,"20240311":-11.44,"20240312":-10.61,"20240313":-10.54,"20240314":-10.53,"20240315":-8.66,"20240316":-4.1,"20240317":-5.25,"20240318":-3.39,"20240319":-4.29,"20240320":-5.12,"20240321":-6.57,"20240322":-8.3,"20240323":-0.95,"20240324":-1.54,"20240325":-4.16,"20240326":-4.87,"20240327":-4.83,"20240328":-5.57,"20240329":0.01,"20240330":0.02,"20240331":0.33,"20240401":0.24,"20240402":4.04,"20240403":1.06,"20240404":-3.82,"20240405":-4.04,"20240406":-2.91,"20240407":1.1,"20240408":4.68,"20240409":6.17,"20240410":6.33,"20240411":5.32,"20240412":3.15,"20240413":1.25,"20240414":4.84,"20240415":2.59,"20240416":2.57,"20240417":3.09,"20240418":1.34,"20240419":0.33,"20240420":-0.84,"20240421":2.66,"20240422":2.19,"20240423":0.65,"20240424":0.35,"20240425":5.53,"20240426":9.33,"20240427":3.99,"20240428":3.06,"20240429":2.76,"20240430":6.05,"20240501":4.25,"20240502":2.98,"20240503":0.26,"20240504":-1.95,"20240505":0.39,"20240506":0.7,"20240507":-1.05,"20240508":-1.73,"20240509":-1.74,"20240510":0.01,"20240511":0.74,"20240512":-2.03,"20240513":-2.89,"20240514":1.33,"20240515":2.41,"20240516":4.88,"20240517":6.99,"20240518":5.65,"20240519":4.58,"20240520":7.41,"20240521":11.04,"20240522":8.02,"20240523":6.2,"20240524":5.77,"20240525":7.42,"20240526":9.34,"20240527":8.01,"20240528":8.84,"20240529":13.37,"20240530":15.57,"20240531":15.52,"20240601":15.85,"20240602":15.65,"20240603":15.57,"20240604":14.38,"20240605":14.11,"20240606":15.18,"20240607":13.05,"20240608":12.13,"20240609":11.34,"20240610":10.95,"20240611":16.79,"20240612":16.17,"20240613":14.11,"20240614":13.77,"20240615":14.43,"20240616":14.91,"20240617":17.06,"20240618":15.78,"20240619":15.35,"20240620":11.63,"20240621":11.19,"20240622":11.39,"20240623":10.87,"20240624":10.38,"20240625":11.03,"20240626":12.53,"20240627":12.31,"20240628":14.79,"20240629":16.28,"20240630":18.56,"20240701":18.43,"20240702":19.56,"20240703":18.03,"20240704":17.64,"20240705":16.72,"20240706":12.1,"20240707":11.75,"20240708":13.35,"20240709":15.93,"20240710":14.16,"20240711":13.94,"20240712":13.76,"20240713":16.15,"20240714":19.15,"20240715":19.86,"20240716":18.73,"20240717":17.79,"20240718":18.94,"20240719":15.98,"20240720":15.12,"20240721":14.65,"20240722":13.76,"20240723":12.58,"20240724":12.46,"20240725":13.0,"20240726":12.1,"20240727":12.47,"20240728":16.09,"20240729":14.78,"20240730":13.93,"20240731":13.6,"20240801":13.28,"20240802":12.99,"20240803":12.22,"20240804":12.1,"20240805":12.99,"20240806":13.46,"20240807":13.27,"20240808":13.52,"20240809":12.73,"20240810":12.43,"20240811":11.96,"20240812":11.35,"20240813":10.89,"20240814":12.36,"20240815":10.15,"20240816":9.67,"20240817":13.06,"20240818":15.61,"20240819":15.11,"20240820":11.52,"20240821":10.37,"20240822":11.21,"20240823":11.32,"20240824":10.78,"20240825":13.36,"20240826":15.17,"20240827":17.97,"20240828":13.42,"20240829":12.75,"20240830":12.19,"20240831":11.54,"20240901":14.62,"20240902":12.82,"20240903":12.92,"20240904":8.36,"20240905":7.28,"20240906":8.79,"20240907":9.34,"20240908":12.33,"20240909":11.41,"20240910":14.25,"20240911":13.41,"20240912":13.1,"20240913":14.51,"20240914":11.97,"20240915":10.69,"20240916":10.97,"20240917":11.47,"20240918":9.47,"20240919":11.18,"20240920":9.29,"20240921":9.42,"20240922":3.66,"20240923":2.55,"20240924":3.21,"20240925":7.31,"20240926":9.57,"20240927":9.86,"20240928":13.76,"20240929":9.48,"20240930":7.43,"20241001":5.77,"20241002":5.33,"20241003":4.07,"20241004":8.6,"20241005":3.5,"20241006":1.96,"20241007":8.84,"20241008":6.5,"20241009":2.94,"20241010":3.54,"20241011":4.79,"20241012":4.92,"20241013":2.67,"20241014":0.24,"20241015":0.63,"20241016":0.3,"20241017":-1.84,"20241018":-3.57,"20241019":-1.09,"20241020":0.58,"20241021":2.31,"20241022":3.2,"20241023":5.8,"20241024":4.74,"20241025":-0.78,"20241026":-0.98,"20241027":3.27,"20241028":2.37,"20241029":-1.97,"20241030":-1.63,"20241031":-0.59,"20241101":0.75,"20241102":-4.44,"20241103":-2.06,"20241104":-4.79,"20241105":-4.25,"20241106":-4.46,"20241107":0.65,"20241108":-0.95,"20241109":-0.3,"20241110":-3.69,"20241111":-3.49,"20241112":-2.29,"20241113":-2.89,"20241114":-2.59,"20241115":-2.72,"20241116":-0.74,"20241117":-0.35,"20241118":-0.17,"20241119":-1.3,"20241120":-1.31,"20241121":0.1,"20241122":-3.43,"20241123":-2.69,"20241124":-6.63,"20241125":-8.11,"20241126":-9.52,"20241127":-9.49,"20241128":-8.15,"20241129":-5.25,"20241130":-6.44,"20241201":-3.21,"20241202":-4.11,"20241203":-6.4,"20241204":-11.48,"20241205":-11.15,"20241206":-13.34,"20241207":-5.6,"20241208":-5.79,"20241209":-11.31,"20241210":-14.91,"20241211":-11.93,"20241212":-6.79,"20241213":-13.44,"20241214":-12.32,"20241215":-9.05,"20241216":-5.63,"20241217":-13.04,"20241218":-20.11,"20241219":-21.55,"20241220":-3.31,"20241221":-10.3,"20241222":-12.59,"20241223":-15.35,"20241224":-6.62,"20241225":-9.17,"20241226":-4.68,"20241227":-7.05,"20241228":-10.16,"20241229":-7.66,"20241230":-2.34,"20241231":-5.17},"PRECTOTCORR":{"20240101":0.19,"20240102":0.03,"20240103":0.04,"20240104":0.03,"20240105":0.19,"20240106":2.27,"20240107":0.13,"20240108":1.07,"20240109":6.1,"20240110":3.75,"20240111":2.34,"20240112":0.19,"20240113":0.0,"20240114":1.98,"20240115":3.01,"20240116":0.85,"20240117":0.52,"20240118":11.45,"20240119":0.19,"20240120":0.11,"20240121":0.08,"20240122":0.04,"20240123":4.67,"20240124":0.96,"20240125":2.73,"20240126":0.87,"20240127":0.24,"20240128":0.1,"20240129":0.1,"20240130":0.06,"20240131":0.35,"20240201":2.12,"20240202":1.22,"20240203":1.62,"20240204":2.64,"20240205":0.29,"20240206":1.68,"20240207":8.06,"20240208":0.12,"20240209":0.06,"20240210":0.04,"20240211":0.18,"20240212":3.56,"20240213":0.36,"20240214":1.12,"20240215":8.24,"20240216":0.3,"20240217":3.83,"20240218":2.79,"20240219":0.14,"20240220":0.04,"20240221":0.57,"20240222":1.18,"20240223":0.84,"20240224":0.95,"20240225":6.96,"20240226":0.08,"20240227":0.13,"20240228":0.01,"20240229":2.32,"20240301":0.61,"20240302":0.21,"20240303":0.04,"20240304":0.01,"20240305":0.08,"20240306":0.05,"20240307":0.05,"20240308":0.52,"20240309":0.07,"20240310":0.17,"20240311":0.11,"20240312":0.03,"20240313":0.0,"20240314":0.09,"20240315":0.12,"20240316":0.04,"20240317":0.09,"20240318":0.21,"20240319":0.12,"20240320":0.04,"20240321":0.02,"20240322":0.08,"20240323":5.54,"20240324":5.48,"20240325":0.06,"20240326":0.03,"20240327":0.07,"20240328":0.03,"20240329":0.33,"20240330":2.71,"20240331":0.3,"20240401":0.61,"20240402":0.26,"20240403":1.48,"20240404":0.75,"20240405":0.01,"20240406":0.67,"20240407":0.23,"20240408":0.38,"20240409":8.81,"20240410":0.56,"20240411":0.06,"20240412":2.04,"20240413":0.12,"20240414":5.31,"20240415":3.52,"20240416":0.91,"20240417":3.11,"20240418":16.42,"20240419":11.83,"20240420":0.35,"20240421":1.45,"20240422":1.4,"20240423":0.09,"20240424":0.17,"20240425":3.09,"20240426":8.44,"20240427":3.76,"20240428":0.0,"20240429":0.0,"20240430":1.46,"20240501":0.01,"20240502":0.16,"20240503":0.06,"20240504":6.26,"20240505":1.53,"20240506":1.32,"20240507":5.04,"20240508":3.42,"20240509":0.85,"20240510":1.35,"20240511":1.12,"20240512":0.59,"20240513":0.09,"20240514":1.27,"20240515":0.01,"20240516":1.38,"20240517":0.47,"20240518":0.02,"20240519":0.0,"20240520":0.3,"20240521":2.08,"20240522":0.01,"20240523":0.0,"20240524":0.0,"20240525":0.0,"20240526":3.69,"20240527":0.0,"20240528":0.0,"20240529":0.01,"20240530":0.9,"20240531":2.29,"20240601":3.27,"20240602":1.08,"20240603":4.93,"20240604":2.17,"20240605":2.06,"20240606":10.25,"20240607":2.07,"20240608":0.23,"20240609":0.1,"20240610":5.91,"20240611":15.28,"20240612":26.9,"20240613":21.24,"20240614":1.11,"20240615":0.36,"20240616":0.05,"20240617":13.49,"20240618":7.16,"20240619":0.9,"20240620":21.14,"20240621":0.11,"20240622":0.04,"20240623":0.03,"20240624":0.83,"20240625":0.76,"20240626":1.5,"20240627":0.12,"20240628":0.0,"20240629":0.85,"20240630":2.56,"20240701":0.65,"20240702":0.65,"20240703":1.52,"20240704":0.55,"20240705":14.6,"20240706":0.2,"20240707":0.0,"20240708":0.0,"20240709":0.32,"20240710":0.0,"20240711":0.0,"20240712":0.0,"20240713":1.62,"20240714":2.73,"20240715":3.42,"20240716":3.24,"20240717":0.24,"20240718":8.14,"20240719":8.84,"20240720":1.97,"20240721":3.71,"20240722":6.35,"20240723":0.06,"20240724":0.21,"20240725":1.29,"20240726":0.01,"20240727":0.5,"20240728":4.57,"20240729":6.82,"20240730":2.94,"20240731":4.22,"20240801":3.49,"20240802":1.63,"20240803":1.2,"20240804":1.67,"20240805":2.27,"20240806":2.3,"20240807":2.36,"20240808":4.12,"20240809":2.76,"20240810":2.65,"20240811":2.27,"20240812":1.53,"20240813":2.02,"20240814":0.73,"20240815":0.06,"20240816":0.03,"20240817":1.03,"20240818":1.13,"20240819":1.05,"20240820":8.93,"20240821":0.03,"20240822":0.61,"20240823":4.78,"20240824":0.35,"20240825":0.11,"20240826":0.0,"20240827":0.03,"20240828":0.36,"20240829":0.0,"20240830":0.0,"20240831":0.04,"20240901":0.7,"20240902":0.0,"20240903":0.01,"20240904":0.29,"20240905":0.0,"20240906":0.0,"20240907":0.0,"20240908":0.0,"20240909":0.0,"20240910":0.25,"20240911":0.05,"20240912":0.26,"20240913":0.0,"20240914":0.0,"20240915":0.0,"20240916":0.0,"20240917":0.0,"20240918":0.01,"20240919":0.01,"20240920":0.03,"20240921":0.05,"20240922":0.03,"20240923":0.0,"20240924":0.02,"20240925":0.0,"20240926":0.18,"20240927":13.79,"20240928":11.65,"20240929":3.59,"20240930":0.02,"20241001":0.01,"20241002":0.01,"20241003":0.0,"20241004":8.8,"20241005":0.6,"20241006":14.19,"20241007":10.44,"20241008":7.87,"20241009":0.61,"20241010":0.07,"20241011":0.09,"20241012":0.21,"20241013":0.88,"20241014":6.86,"20241015":2.14,"20241016":1.57,"20241017":0.16,"20241018":0.0,"20241019":0.08,"20241020":0.01,"20241021":0.01,"20241022":0.63,"20241023":6.35,"20241024":1.38,"20241025":0.35,"20241026":0.33,"20241027":1.65,"20241028":1.56,"20241029":0.93,"20241030":7.21,"20241031":1.2,"20241101":15.74,"20241102":2.73,"20241103":2.34,"20241104":2.95,"20241105":0.12,"20241106":3.56,"20241107":0.27,"20241108":0.59,"20241109":0.4,"20241110":0.18,"20241111":0.18,"20241112":0.26,"20241113":0.18,"20241114":0.61,"20241115":1.35,"20241116":0.95,"20241117":0.51,"20241118":1.62,"20241119":1.33,"20241120":4.53,"20241121":26.22,"20241122":0.08,"20241123":12.72,"20241124":0.27,"20241125":0.1,"20241126":0.01,"20241127":0.33,"20241128":0.81,"20241129":0.15,"20241130":0.22,"20241201":0.81,"20241202":0.28,"20241203":0.07,"20241204":0.57,"20241205":0.12,"20241206":0.24,"20241207":8.68,"20241208":7.76,"20241209":6.19,"20241210":0.19,"20241211":0.31,"20241212":1.75,"20241213":0.4,"20241214":5.11,"20241215":0.93,"20241216":3.44,"20241217":1.2,"20241218":0.25,"20241219":2.32,"20241220":4.12,"20241221":0.33,"20241222":0.13,"20241223":0.8,"20241224":1.65,"20241225":0.7,"20241226":0.74,"20241227":10.4,"20241228":27.29,"20241229":0.48,"20241230":0.6,"20241231":3.46},"WS10M":{"20240101":4.03,"20240102":5.32,"20240103":3.73,"20240104":3.54,"20240105":3.38,"20240106":3.07,"20240107":3.8,"20240108":5.3,"20240109":6.37,"20240110":5.33,"20240111":9.34,"20240112":6.33,"20240113":4.24,"20240114":5.79,"20240115":7.28,"20240116":5.44,"20240117":6.78,"20240118":7.59,"20240119":4.1,"20240120":3.38,"20240121":3.65,"20240122":8.02,"20240123":9.66,"20240124":7.03,"20240125":5.34,"20240126":2.01,"20240127":2.29,"20240128":2.48,"20240129":6.97,"20240130":4.79,"20240131":3.76,"20240201":5.96,"20240202":7.61,"20240203":4.81,"20240204":6.96,"20240205":3.89,"20240206":3.95,"20240207":6.2,"20240208":6.87,"20240209":5.33,"20240210":2.67,"20240211":5.16,"20240212":3.63,"20240213":5.94,"20240214":7.67,"20240215":6.56,"20240216":3.71,"20240217":7.67,"20240218":6.58,"20240219":2.91,"20240220":4.52,"20240221":5.68,"20240222":5.67,"20240223":7.02,"20240224":8.98,"20240225":8.7,"20240226":7.55,"20240227":6.14,"20240228":6.4,"20240229":4.75,"20240301":1.27,"20240302":2.99,"20240303":3.59,"20240304":3.08,"20240305":4.85,"20240306":2.76,"20240307":3.69,"20240308":5.56,"20240309":4.16,"20240310":3.13,"20240311":5.79,"20240312":3.14,"20240313":4.28,"20240314":5.08,"20240315":5.5,"20240316":4.36,"20240317":3.87,"20240318":2.76,"20240319":3.18,"20240320":2.15,"20240321":2.32,"20240322":5.05,"20240323":6.42,"20240324":5.22,"20240325":3.33,"20240326":2.39,"20240327":2.55,"20240328":3.86,"20240329":5.53,"20240330":4.87,"20240331":2.86,"20240401":5.32,"20240402":4.71,"20240403":9.27,"20240404":5.33,"20240405":3.65,"20240406":4.45,"20240407":3.79,"20240408":5.33,"20240409":2.67,"20240410":3.77,"20240411":5.68,"20240412":7.1,"20240413":2.81,"20240414":5.3,"20240415":7.78,"20240416":4.78,"20240417":3.33,"20240418":6.27,"20240419":9.13,"20240420":4.75,"20240421":7.96,"20240422":7.49,"20240423":4.54,"20240424":3.74,"20240425":4.69,"20240426":3.38,"20240427":4.38,"20240428":2.63,"20240429":2.98,"20240430":6.17,"20240501":4.71,"20240502":4.31,"20240503":3.74,"20240504":3.74,"20240505":6.64,"20240506":3.88,"20240507":6.26,"20240508":6.87,"20240509":6.81,"20240510":5.47,"20240511":5.85,"20240512":3.92,"20240513":2.34,"20240514":2.32,"20240515":2.11,"20240516":3.84,"20240517":3.81,"20240518":3.59,"20240519":3.32,"20240520":4.24,"20240521":2.76,"20240522":3.83,"20240523":3.79,"20240524":2.82,"20240525":3.82,"20240526":3.42,"20240527":3.15,"20240528":1.87,"20240529":1.54,"20240530":2.72,"20240531":2.49,"20240601":2.94,"20240602":2.85,"20240603":4.28,"20240604":4.75,"20240605":2.49,"20240606":1.18,"20240607":5.0,"20240608":3.42,"20240609":2.78,"20240610":4.34,"20240611":5.04,"20240612":3.41,"20240613":5.36,"20240614":3.89,"20240615":1.57,"20240616":4.28,"20240617":4.78,"20240618":4.95,"20240619":5.18,"20240620":6.14,"20240621":5.54,"20240622":4.13,"20240623":2.38,"20240624":3.11,"20240625":4.48,"20240626":4.79,"20240627":3.82,"20240628":1.68,"20240629":2.26,"20240630":2.57,"20240701":2.89,"20240702":4.18,"20240703":3.85,"20240704":3.51,"20240705":4.99,"20240706":4.99,"20240707":2.58,"20240708":2.68,"20240709":2.77,"20240710":3.41,"20240711":2.19,"20240712":2.99,"20240713":2.9,"20240714":0.98,"20240715":2.25,"20240716":2.45,"20240717":2.31,"20240718":1.58,"20240719":3.49,"20240720":3.13,"20240721":2.97,"20240722":3.59,"20240723":3.24,"20240724":2.49,"20240725":3.16,"20240726":2.03,"20240727":3.2,"20240728":2.86,"20240729":3.14,"20240730":3.01,"20240731":4.48,"20240801":4.18,"20240802":3.48,"20240803":2.78,"20240804":2.48,"20240805":2.65,"20240806":2.29,"20240807":2.01,"20240808":2.52,"20240809":2.65,"20240810":2.42,"20240811":4.77,"20240812":5.67,"20240813":4.69,"20240814":5.1,"20240815":4.27,"20240816":4.2,"20240817":4.1,"20240818":3.12,"20240819":1.87,"20240820":3.12,"20240821":3.09,"20240822":4.64,"20240823":3.98,"20240824":3.41,"20240825":2.12,"20240826":1.43,"20240827":1.86,"20240828":3.36,"20240829":2.42,"20240830":2.66,"20240831":3.09,"20240901":2.64,"20240902":3.19,"20240903":2.37,"20240904":4.53,"20240905":3.77,"20240906":0.96,"20240907":1.26,"20240908":1.79,"20240909":2.8,"20240910":3.82,"20240911":4.29,"20240912":4.89,"20240913":5.85,"20240914":4.53,"20240915":3.24,"20240916":2.96,"20240917":2.06,"20240918":1.88,"20240919":3.92,"20240920":3.66,"20240921":5.14,"20240922":3.19,"20240923":1.62,"20240924":3.49,"20240925":5.09,"20240926":6.07,"20240927":9.57,"20240928":6.37,"20240929":3.71,"20240930":5.95,"20241001":6.32,"20241002":3.96,"20241003":3.33,"20241004":4.42,"20241005":2.79,"20241006":4.31,"20241007":2.76,"20241008":5.39,"20241009":3.34,"20241010":4.57,"20241011":6.48,"20241012":7.81,"20241013":7.22,"20241014":6.59,"20241015":3.44,"20241016":4.06,"20241017":2.25,"20241018":1.52,"20241019":2.21,"20241020":4.09,"20241021":3.68,"20241022":5.16,"20241023":7.13,"20241024":6.56,"20241025":3.79,"20241026":3.42,"20241027":1.91,"20241028":3.52,"20241029":4.84,"20241030":6.67,"20241031":7.18,"20241101":4.85,"20241102":7.33,"20241103":6.21,"20241104":5.95,"20241105":4.71,"20241106":4.63,"20241107":4.88,"20241108":4.93,"20241109":6.52,"20241110":3.77,"20241111":2.05,"20241112":3.9,"20241113":4.03,"20241114":4.68,"20241115":4.78,"20241116":7.64,"20241117":6.67,"20241118":7.23,"20241119":5.67,"20241120":8.93,"20241121":10.46,"20241122":7.25,"20241123":5.57,"20241124":4.24,"20241125":4.04,"20241126":5.26,"20241127":3.33,"20241128":2.52,"20241129":3.76,"20241130":4.34,"20241201":5.72,"20241202":4.92,"20241203":5.52,"20241204":4.61,"20241205":4.38,"20241206":5.77,"20241207":6.56,"20241208":4.75,"20241209":2.98,"20241210":2.69,"20241211":5.61,"20241212":6.35,"20241213":8.49,"20241214":4.3,"20241215":6.02,"20241216":6.31,"20241217":8.13,"20241218":7.52,"20241219":4.92,"20241220":6.8,"20241221":6.24,"20241222":4.76,"20241223":2.09,"20241224":1.48,"20241225":3.49,"20241226":4.83,"20241227":3.37,"20241228":2.31,"20241229":4.38,"20241230":8.37,"20241231":5.95},"RH2M":{"20240101":95.85,"20240102":97.81,"20240103":96.28,"20240104":97.45,"20240105":97.41,"20240106":95.83,"20240107":97.7,"20240108":96.1,"20240109":96.54,"20240110":94.79,"20240111":92.91,"20240112":92.73,"20240113":96.94,"20240114":97.69,"20240115":97.63,"20240116":97.88,"20240117":95.65,"20240118":96.8,"20240119":98.01,"20240120":98.91,"20240121":98.8,"20240122":96.77,"20240123":97.11,"20240124":96.99,"20240125":97.55,"20240126":96.67,"20240127":97.18,"20240128":95.9,"20240129":96.5,"20240130":97.01,"20240131":97.73,"20240201":95.89,"20240202":94.0,"20240203":98.24,"20240204":95.26,"20240205":97.32,"20240206":97.33,"20240207":98.74,"20240208":95.86,"20240209":96.34,"20240210":95.91,"20240211":96.79,"20240212":97.29,"20240213":95.76,"20240214":96.17,"20240215":96.35,"20240216":97.29,"20240217":94.94,"20240218":95.12,"20240219":93.81,"20240220":97.61,"20240221":96.41,"20240222":97.78,"20240223":97.58,"20240224":96.57,"20240225":93.53,"20240226":95.08,"20240227":95.38,"20240228":96.67,"20240229":96.25,"20240301":95.52,"20240302":97.3,"20240303":95.44,"20240304":96.03,"20240305":94.61,"20240306":93.67,"20240307":97.28,"20240308":96.27,"20240309":93.43,"20240310":91.83,"20240311":94.84,"20240312":92.79,"20240313":93.09,"20240314":97.16,"20240315":97.43,"20240316":96.13,"20240317":96.49,"20240318":97.6,"20240319":96.29,"20240320":95.49,"20240321":93.98,"20240322":95.48,"20240323":96.78,"20240324":97.7,"20240325":94.21,"20240326":96.17,"20240327":90.42,"20240328":92.57,"20240329":96.91,"20240330":98.37,"20240331":99.11,"20240401":96.63,"20240402":94.91,"20240403":87.47,"20240404":88.05,"20240405":78.8,"20240406":92.57,"20240407":94.34,"20240408":94.71,"20240409":94.48,"20240410":88.69,"20240411":82.19,"20240412":88.49,"20240413":81.7,"20240414":90.13,"20240415":86.19,"20240416":82.28,"20240417":83.26,"20240418":92.83,"20240419":86.31,"20240420":86.58,"20240421":86.67,"20240422":85.5,"20240423":87.2,"20240424":77.22,"20240425":88.2,"20240426":94.37,"20240427":93.62,"20240428":78.83,"20240429":69.1,"20240430":79.4,"20240501":78.97,"20240502":78.44,"20240503":66.46,"20240504":74.67,"20240505":82.04,"20240506":75.99,"20240507":84.41,"20240508":81.85,"20240509":76.96,"20240510":81.73,"20240511":83.45,"20240512":78.95,"20240513":69.61,"20240514":79.32,"20240515":70.37,"20240516":79.71,"20240517":82.2,"20240518":76.71,"20240519":73.59,"20240520":78.62,"20240521":80.94,"20240522":73.9,"20240523":70.09,"20240524":67.16,"20240525":69.3,"20240526":83.6,"20240527":69.51,"20240528":65.22,"20240529":64.33,"20240530":72.31,"20240531":76.12,"20240601":88.38,"20240602":82.12,"20240603":85.63,"20240604":85.54,"20240605":72.94,"20240606":76.21,"20240607":85.37,"20240608":74.88,"20240609":72.49,"20240610":84.35,"20240611":93.45,"20240612":88.93,"20240613":87.61,"20240614":76.46,"20240615":72.53,"20240616":78.3,"20240617":93.07,"20240618":88.82,"20240619":81.93,"20240620":91.11,"20240621":79.35,"20240622":77.36,"20240623":76.29,"20240624":79.83,"20240625":79.72,"20240626":81.82,"20240627":79.71,"20240628":69.95,"20240629":73.36,"20240630":84.39,"20240701":80.77,"20240702":82.67,"20240703":86.49,"20240704":84.42,"20240705":88.49,"20240706":78.29,"20240707":76.3,"20240708":73.92,"20240709":81.36,"20240710":78.3,"20240711":73.39,"20240712":74.19,"20240713":82.93,"20240714":76.24,"20240715":85.77,"20240716":82.8,"20240717":75.09,"20240718":85.38,"20240719":85.93,"20240720":82.63,"20240721":85.32,"20240722":85.92,"20240723":78.07,"20240724":79.34,"20240725":82.18,"20240726":70.44,"20240727":77.51,"20240728":84.11,"20240729":85.26,"20240730":83.3,"20240731":85.32,"20240801":87.66,"20240802":84.71,"20240803":85.68,"20240804":82.65,"20240805":83.94,"20240806":83.97,"20240807":83.68,"20240808":87.07,"20240809":85.09,"20240810":82.44,"20240811":83.06,"20240812":82.73,"20240813":86.21,"20240814":80.67,"20240815":78.39,"20240816":79.21,"20240817":88.25,"20240818":82.82,"20240819":78.4,"20240820":86.26,"20240821":77.92,"20240822":79.72,"20240823":84.36,"20240824":85.44,"20240825":78.51,"20240826":72.39,"20240827":75.02,"20240828":81.89,"20240829":76.74,"20240830":79.82,"20240831":75.6,"20240901":80.06,"20240902":71.26,"20240903":71.9,"20240904":81.78,"20240905":77.49,"20240906":68.32,"20240907":69.32,"20240908":68.9,"20240909":74.5,"20240910":82.83,"20240911":78.12,"20240912":73.52,"20240913":66.89,"20240914":67.81,"20240915":66.22,"20240916":70.08,"20240917":70.78,"20240918":68.49,"20240919":80.27,"20240920":81.47,"20240921":80.1,"20240922":70.9,"20240923":67.44,"20240924":70.25,"20240925":69.62,"20240926":65.19,"20240927":83.96,"20240928":89.72,"20240929":90.46,"20240930":81.01,"20241001":80.21,"20241002":76.93,"20241003":73.75,"20241004":90.12,"20241005":91.84,"20241006":85.72,"20241007":97.25,"20241008":95.35,"20241009":89.73,"20241010":89.49,"20241011":91.02,"20241012":81.57,"20241013":70.84,"20241014":85.02,"20241015":96.15,"20241016":92.4,"20241017":87.21,"20241018":87.15,"20241019":88.93,"20241020":87.41,"20241021":85.07,"20241022":90.47,"20241023":90.0,"20241024":90.82,"20241025":89.88,"20241026":97.3,"20241027":96.44,"20241028":97.43,"20241029":95.47,"20241030":95.71,"20241031":84.94,"20241101":97.13,"20241102":82.66,"20241103":86.87,"20241104":94.05,"20241105":88.41,"20241106":96.23,"20241107":98.17,"20241108":95.58,"20241109":96.64,"20241110":91.97,"20241111":89.5,"20241112":90.34,"20241113":93.65,"20241114":89.64,"20241115":93.85,"20241116":96.12,"20241117":97.91,"20241118":96.2,"20241119":96.91,"20241120":93.98,"20241121":94.14,"20241122":91.57,"20241123":95.12,"20241124":95.84,"20241125":90.66,"20241126":91.95,"20241127":97.61,"20241128":97.21,"20241129":98.35,"20241130":97.17,"20241201":96.42,"20241202":96.54,"20241203":96.5,"20241204":96.77,"20241205":96.75,"20241206":93.59,"20241207":94.89,"20241208":97.23,"20241209":98.28,"20241210":99.45,"20241211":98.1,"20241212":96.59,"20241213":96.06,"20241214":97.32,"20241215":96.97,"20241216":96.16,"20241217":94.62,"20241218":96.44,"20241219":98.01,"20241220":97.4,"20241221":96.65,"20241222":98.22,"20241223":98.76,"20241224":96.24,"20241225":97.63,"20241226":97.49,"20241227":97.78,"20241228":98.94,"20241229":98.35,"20241230":96.46,"20241231":96.63}}},"header":{"title":"NASA/POWER Source Native Resolution Daily Data","api":{"version":"v2.9.6","name":"POWER Daily API"},"sources":["MERRA2","POWER"],"fill_value":-999.0,"time_standard":"UTC","start":"20240101","end":"20241231"},"messages":[],"parameters":{"T2M":{"units":"C","longname":"Temperature at 2 Meters"},"T2M_MAX":{"units":"C","longname":"Temperature at 2 Meters Maximum"},"T2M_MIN":{"units":"C","longname":"Temperature at 2 Meters Minimum"},"PRECTOTCORR":{"units":"mm/day","longname":"Precipitation Corrected"},"WS10M":{"units":"m/s","longname":"Wind Speed at 10 Meters"},"RH2M":{"units":"%","longname":"Relative Humidity at 2 Meters"}},"times":{"data":1.184,"process":0.01}}