{"type":"Feature","geometry":{"type":"Point","coordinates":[-99.128,19.428,2626.86]},"properties":{"parameter":{"T2M":{"20240101":10.78,"20240102":10.84,"20240103":11.64,"20240104":10.56,"20240105":10.25,"20240106":10.54,"20240107":10.45,"20240108":11.33,"20240109":11.39,"20240110":10.48,"20240111":11.48,"20240112":13.68,"20240113":13.09,"20240114":13.91,"20240115":13.83,"20240116":14.62,"20240117":13.96,"20240118":14.11,"20240119":13.01,"20240120":10.03,"20240121":11.03,"20240122":11.85,"20240123":12.48,"20240124":12.94,"20240125":12.54,"20240126":12.78,"20240127":12.9,"20240128":11.34,"20240129":9.71,"20240130":10.66,"20240131":11.71,"20240201":11.4,"20240202":12.2,"20240203":10.84,"20240204":10.28,"20240205":10.42,"20240206":10.81,"20240207":13.02,"20240208":15.68,"20240209":15.03,"20240210":14.13,"20240211":13.95,"20240212":14.05,"20240213":13.51,"20240214":13.62,"20240215":13.74,"20240216":12.46,"20240217":9.66,"20240218":9.28,"20240219":11.55,"20240220":12.87,"20240221":13.42,"20240222":15.66,"20240223":15.54,"20240224":14.79,"20240225":16.24,"20240226":15.83,"20240227":16.34,"20240228":16.83,"20240229":15.8,"20240301":16.04,"20240302":15.75,"20240303":15.5,"20240304":15.49,"20240305":15.53,"20240306":16.12,"20240307":16.76,"20240308":16.54,"20240309":17.37,"20240310":15.34,"20240311":15.95,"20240312":17.02,"20240313":16.31,"20240314":17.05,"20240315":16.55,"20240316":17.06,"20240317":16.89,"20240318":18.45,"20240319":17.16,"20240320":18.47,"20240321":17.16,"20240322":16.49,"20240323":17.03,"20240324":15.8,"20240325":14.14,"20240326":15.31,"20240327":16.12,"20240328":14.76,"20240329":15.98,"20240330":16.7,"20240331":17.47,"20240401":17.69,"20240402":17.34,"20240403":17.38,"20240404":15.79,"20240405":16.09,"20240406":16.48,"20240407":17.08,"20240408":17.86,"20240409":16.93,"20240410":16.84,"20240411":16.72,"20240412":17.09,"20240413":18.34,"20240414":18.85,"20240415":19.6,"20240416":20.34,"20240417":20.5,"20240418":20.68,"20240419":19.83,"20240420":18.82,"20240421":19.14,"20240422":17.13,"20240423":17.92,"20240424":18.72,"20240425":19.16,"20240426":19.21,"20240427":19.26,"20240428":18.2,"20240429":18.29,"20240430":18.82,"20240501":18.85,"20240502":19.0,"20240503":20.51,"20240504":20.61,"20240505":20.97,"20240506":21.4,"20240507":21.74,"20240508":21.31,"20240509":22.07,"20240510":22.97,"20240511":22.3,"20240512":21.27,"20240513":20.28,"20240514":20.27,"20240515":20.54,"20240516":20.32,"20240517":20.92,"20240518":21.17,"20240519":21.36,"20240520":21.42,"20240521":21.49,"20240522":21.32,"20240523":21.87,"20240524":22.07,"20240525":22.65,"20240526":22.53,"20240527":20.76,"20240528":20.97,"20240529":20.28,"20240530":19.67,"20240531":20.68,"20240601":21.11,"20240602":20.99,"20240603":21.09,"20240604":21.36,"20240605":21.56,"20240606":20.96,"20240607":20.55,"20240608":18.84,"20240609":18.88,"20240610":17.82,"20240611":18.58,"20240612":18.73,"20240613":18.56,"20240614":19.5,"20240615":18.94,"20240616":18.78,"20240617":18.49,"20240618":18.63,"20240619":17.53,"20240620":16.53,"20240621":16.08,"20240622":13.9,"20240623":15.37,"20240624":14.66,"20240625":15.78,"20240626":16.37,"20240627":16.07,"20240628":15.68,"20240629":16.16,"20240630":15.54,"20240701":14.72,"20240702":15.76,"20240703":15.5,"20240704":16.62,"20240705":16.47,"20240706":16.82,"20240707":17.1,"20240708":17.68,"20240709":16.95,"20240710":14.83,"20240711":14.14,"20240712":15.29,"20240713":14.33,"20240714":15.37,"20240715":15.97,"20240716":15.62,"20240717":15.99,"20240718":15.96,"20240719":15.54,"20240720":15.51,"20240721":15.11,"20240722":13.9,"20240723":15.21,"20240724":15.46,"20240725":16.16,"20240726":15.66,"20240727":15.56,"20240728":16.09,"20240729":16.19,"20240730":16.73,"20240731":16.03,"20240801":15.31,"20240802":14.59,"20240803":15.01,"20240804":16.03,"20240805":15.79,"20240806":15.79,"20240807":15.78,"20240808":16.37,"20240809":15.73,"20240810":15.22,"20240811":15.62,"20240812":14.66,"20240813":15.35,"20240814":15.96,"20240815":15.53,"20240816":15.5,"20240817":15.4,"20240818":15.63,"20240819":16.01,"20240820":15.56,"20240821":14.84,"20240822":15.35,"20240823":14.89,"20240824":15.72,"20240825":15.23,"20240826":15.39,"20240827":15.73,"20240828":15.13,"20240829":15.96,"20240830":15.19,"20240831":15.98,"20240901":15.12,"20240902":15.64,"20240903":16.47,"20240904":17.05,"20240905":15.77,"20240906":15.64,"20240907":14.77,"20240908":13.89,"20240909":13.83,"20240910":15.65,"20240911":15.68,"20240912":16.14,"20240913":15.37,"20240914":16.05,"20240915":15.88,"20240916":15.81,"20240917":15.72,"20240918":15.84,"20240919":16.86,"20240920":16.77,"20240921":16.09,"20240922":15.58,"20240923":15.52,"20240924":15.08,"20240925":14.67,"20240926":13.67,"20240927":13.2,"20240928":14.66,"20240929":14.38,"20240930":13.1,"20241001":13.16,"20241002":12.08,"20241003":12.47,"20241004":13.5,"20241005":13.31,"20241006":14.57,"20241007":13.61,"20241008":13.65,"20241009":13.37,"20241010":10.74,"20241011":9.3,"20241012":9.81,"20241013":11.35,"20241014":13.48,"20241015":13.44,"20241016":14.05,"20241017":11.43,"20241018":12.97,"20241019":13.42,"20241020":10.4,"20241021":13.1,"20241022":13.52,"20241023":12.5,"20241024":11.68,"20241025":11.74,"20241026":11.79,"20241027":11.95,"20241028":11.78,"20241029":13.12,"20241030":13.4,"20241031":14.66,"20241101":14.03,"20241102":14.1,"20241103":14.24,"20241104":15.07,"20241105":15.1,"20241106":14.87,"20241107":15.28,"20241108":14.86,"20241109":13.97,"20241110":13.6,"20241111":12.64,"20241112":12.5,"20241113":13.65,"20241114":11.22,"20241115":11.36,"20241116":13.69,"20241117":14.41,"20241118":13.94,"20241119":14.72,"20241120":13.92,"20241121":10.84,"20241122":10.01,"20241123":8.83,"20241124":9.98,"20241125":10.27,"20241126":8.76,"20241127":11.07,"20241128":13.85,"20241129":11.85,"20241130":11.84,"20241201":11.34,"20241202":10.89,"20241203":10.29,"20241204":11.26,"20241205":12.8,"20241206":11.8,"20241207":12.1,"20241208":12.11,"20241209":12.16,"20241210":13.41,"20241211":11.32,"20241212":11.35,"20241213":12.95,"20241214":12.75,"20241215":11.26,"20241216":10.86,"20241217":9.41,"20241218":9.54,"20241219":11.29,"20241220":10.24,"20241221":10.01,"20241222":10.5,"20241223":9.56,"20241224":9.92,"20241225":10.18,"20241226":10.09,"20241227":10.65,"20241228":11.01,"20241229":10.41,"20241230":11.57,"20241231":10.91},"T2M_MAX":{"20240101":19.67,"20240102":18.53,"20240103":20.88,"20240104":19.57,"20240105":19.06,"20240106":20.05,"20240107":17.48,"20240108":19.95,"20240109":19.22,"20240110":19.63,"20240111":21.53,"20240112":24.75,"20240113":21.32,"20240114":22.38,"20240115":24.14,"20240116":23.51,"20240117":22.85,"20240118":21.57,"20240119":19.06,"20240120":15.33,"20240121":16.88,"20240122":19.95,"20240123":21.67,"20240124":21.64,"20240125":21.92,"20240126":22.19,"20240127":22.65,"20240128":20.57,"20240129":17.47,"20240130":17.35,"20240131":17.68,"20240201":17.37,"20240202":21.7,"20240203":19.55,"20240204":21.3,"20240205":20.49,"20240206":23.54,"20240207":25.38,"20240208":26.71,"20240209":25.8,"20240210":24.83,"20240211":24.04,"20240212":23.54,"20240213":22.62,"20240214":21.86,"20240215":21.63,"20240216":20.02,"20240217":13.73,"20240218":19.22,"20240219":23.06,"20240220":24.25,"20240221":25.37,"20240222":26.89,"20240223":26.55,"20240224":26.19,"20240225":26.17,"20240226":26.78,"20240227":26.99,"20240228":27.23,"20240229":25.01,"20240301":25.47,"20240302":25.36,"20240303":25.9,"20240304":26.04,"20240305":26.14,"20240306":27.08,"20240307":27.86,"20240308":28.85,"20240309":29.03,"20240310":26.24,"20240311":26.6,"20240312":26.48,"20240313":26.26,"20240314":26.58,"20240315":26.3,"20240316":27.19,"20240317":24.16,"20240318":28.11,"20240319":26.42,"20240320":27.43,"20240321":26.89,"20240322":27.23,"20240323":26.98,"20240324":27.37,"20240325":23.13,"20240326":26.44,"20240327":28.23,"20240328":25.83,"20240329":27.41,"20240330":27.97,"20240331":27.64,"20240401":27.08,"20240402":28.25,"20240403":27.25,"20240404":25.66,"20240405":26.16,"20240406":27.36,"20240407":28.29,"20240408":27.37,"20240409":26.62,"20240410":27.33,"20240411":26.56,"20240412":28.44,"20240413":29.56,"20240414":29.7,"20240415":30.6,"20240416":30.96,"20240417":30.84,"20240418":30.41,"20240419":28.35,"20240420":27.78,"20240421":28.27,"20240422":24.35,"20240423":27.18,"20240424":28.64,"20240425":28.59,"20240426":27.74,"20240427":27.09,"20240428":27.98,"20240429":27.7,"20240430":28.9,"20240501":26.91,"20240502":27.74,"20240503":30.84,"20240504":31.1,"20240505":31.11,"20240506":31.25,"20240507":31.85,"20240508":29.28,"20240509":32.65,"20240510":32.72,"20240511":32.34,"20240512":30.99,"20240513":30.22,"20240514":30.44,"20240515":29.94,"20240516":31.01,"20240517":32.02,"20240518":31.48,"20240519":30.71,"20240520":31.13,"20240521":31.86,"20240522":31.73,"20240523":30.88,"20240524":32.07,"20240525":31.8,"20240526":31.83,"20240527":31.12,"20240528":30.36,"20240529":28.15,"20240530":29.5,"20240531":30.43,"20240601":30.86,"20240602":30.27,"20240603":31.25,"20240604":30.72,"20240605":31.23,"20240606":30.56,"20240607":29.67,"20240608":27.3,"20240609":26.57,"20240610":24.4,"20240611":27.85,"20240612":28.27,"20240613":28.39,"20240614":27.44,"20240615":27.58,"20240616":28.28,"20240617":28.64,"20240618":27.86,"20240619":25.18,"20240620":22.19,"20240621":22.31,"20240622":19.91,"20240623":20.09,"20240624":21.3,"20240625":20.49,"20240626":23.25,"20240627":21.43,"20240628":20.24,"20240629":22.15,"20240630":22.02,"20240701":18.68,"20240702":22.31,"20240703":21.64,"20240704":23.8,"20240705":24.55,"20240706":24.87,"20240707":25.86,"20240708":25.58,"20240709":23.87,"20240710":20.21,"20240711":17.75,"20240712":21.29,"20240713":21.3,"20240714":23.49,"20240715":22.07,"20240716":22.05,"20240717":21.12,"20240718":20.87,"20240719":19.49,"20240720":19.56,"20240721":20.37,"20240722":17.87,"20240723":20.32,"20240724":20.05,"20240725":21.29,"20240726":22.11,"20240727":21.32,"20240728":21.76,"20240729":23.49,"20240730":22.37,"20240731":22.68,"20240801":21.52,"20240802":19.41,"20240803":21.85,"20240804":22.87,"20240805":21.62,"20240806":22.01,"20240807":19.92,"20240808":20.95,"20240809":20.47,"20240810":21.76,"20240811":20.44,"20240812":19.25,"20240813":21.33,"20240814":22.1,"20240815":20.39,"20240816":19.73,"20240817":20.21,"20240818":20.26,"20240819":21.36,"20240820":22.09,"20240821":21.84,"20240822":21.97,"20240823":19.93,"20240824":22.6,"20240825":22.42,"20240826":22.24,"20240827":22.04,"20240828":20.4,"20240829":21.37,"20240830":18.98,"20240831":22.2,"20240901":19.6,"20240902":20.14,"20240903":21.74,"20240904":23.3,"20240905":19.82,"20240906":21.5,"20240907":20.02,"20240908":19.4,"20240909":19.66,"20240910":20.64,"20240911":20.88,"20240912":21.64,"20240913":18.65,"20240914":20.1,"20240915":19.49,"20240916":19.07,"20240917":20.2,"20240918":20.44,"20240919":22.03,"20240920":22.87,"20240921":21.97,"20240922":20.84,"20240923":21.14,"20240924":20.03,"20240925":20.15,"20240926":16.55,"20240927":15.86,"20240928":20.17,"20240929":18.68,"20240930":20.38,"20241001":18.28,"20241002":17.41,"20241003":20.56,"20241004":19.58,"20241005":19.29,"20241006":18.48,"20241007":19.01,"20241008":19.04,"20241009":18.87,"20241010":18.61,"20241011":17.56,"20241012":19.07,"20241013":20.14,"20241014":21.02,"20241015":20.57,"20241016":20.59,"20241017":18.96,"20241018":20.09,"20241019":19.17,"20241020":17.58,"20241021":18.09,"20241022":20.37,"20241023":20.54,"20241024":20.62,"20241025":20.26,"20241026":19.18,"20241027":17.65,"20241028":18.5,"20241029":18.28,"20241030":20.98,"20241031":20.75,"20241101":20.42,"20241102":19.82,"20241103":18.95,"20241104":20.94,"20241105":22.09,"20241106":21.99,"20241107":22.04,"20241108":21.69,"20241109":21.74,"20241110":21.41,"20241111":21.09,"20241112":20.85,"20241113":20.54,"20241114":18.19,"20241115":21.24,"20241116":22.08,"20241117":21.62,"20241118":21.76,"20241119":21.14,"20241120":17.91,"20241121":19.55,"20241122":17.81,"20241123":18.79,"20241124":19.11,"20241125":19.96,"20241126":19.11,"20241127":22.8,"20241128":22.92,"20241129":21.85,"20241130":21.18,"20241201":21.04,"20241202":20.14,"20241203":18.74,"20241204":20.22,"20241205":21.16,"20241206":19.85,"20241207":20.35,"20241208":20.58,"20241209":20.98,"20241210":21.03,"20241211":17.26,"20241212":21.13,"20241213":21.61,"20241214":21.77,"20241215":20.38,"20241216":19.39,"20241217":17.43,"20241218":18.55,"20241219":16.84,"20241220":15.97,"20241221":17.48,"20241222":15.97,"20241223":13.79,"20241224":15.45,"20241225":15.51,"20241226":18.08,"20241227":19.98,"20241228":19.73,"20241229":20.27,"20241230":20.13,"20241231":20.38},"T2M_MIN":{"20240101":4.98,"20240102":4.43,"20240103":5.8,"20240104":3.35,"20240105":4.68,"20240106":3.42,"20240107":5.76,"20240108":4.89,"20240109":5.61,"20240110":3.76,"20240111":5.54,"20240112":7.48,"20240113":6.35,"20240114":8.08,"20240115":6.35,"20240116":8.85,"20240117":8.15,"20240118":8.14,"20240119":8.23,"20240120":6.14,"20240121":7.73,"20240122":6.17,"20240123":5.89,"20240124":6.18,"20240125":5.22,"20240126":6.28,"20240127":6.14,"20240128":5.25,"20240129":4.24,"20240130":6.37,"20240131":7.39,"20240201":6.51,"20240202":5.4,"20240203":4.09,"20240204":0.8,"20240205":3.13,"20240206":2.37,"20240207":3.03,"20240208":8.03,"20240209":6.74,"20240210":5.21,"20240211":6.11,"20240212":7.84,"20240213":6.73,"20240214":6.98,"20240215":7.47,"20240216":6.33,"20240217":5.56,"20240218":2.63,"20240219":2.06,"20240220":3.42,"20240221":4.83,"20240222":5.97,"20240223":7.18,"20240224":5.81,"20240225":9.61,"20240226":8.05,"20240227":7.89,"20240228":6.9,"20240229":7.85,"20240301":8.8,"20240302":8.12,"20240303":7.45,"20240304":7.28,"20240305":7.3,"20240306":8.1,"20240307":8.77,"20240308":7.79,"20240309":9.12,"20240310":6.53,"20240311":7.39,"20240312":9.58,"20240313":8.23,"20240314":9.9,"20240315":9.22,"20240316":8.18,"20240317":11.2,"20240318":11.6,"20240319":10.28,"20240320":11.07,"20240321":8.81,"20240322":7.5,"20240323":9.47,"20240324":5.92,"20240325":5.88,"20240326":7.5,"20240327":7.7,"20240328":5.97,"20240329":6.83,"20240330":6.68,"20240331":8.37,"20240401":10.16,"20240402":8.23,"20240403":8.9,"20240404":6.75,"20240405":7.43,"20240406":7.68,"20240407":7.12,"20240408":9.15,"20240409":8.88,"20240410":7.9,"20240411":6.9,"20240412":7.28,"20240413":9.46,"20240414":10.08,"20240415":10.59,"20240416":11.97,"20240417":11.92,"20240418":12.81,"20240419":11.83,"20240420":11.02,"20240421":11.85,"20240422":10.74,"20240423":10.67,"20240424":10.66,"20240425":10.55,"20240426":11.47,"20240427":12.45,"20240428":9.99,"20240429":10.4,"20240430":9.74,"20240501":11.73,"20240502":11.52,"20240503":12.36,"20240504":11.91,"20240505":12.7,"20240506":13.21,"20240507":12.63,"20240508":13.3,"20240509":13.32,"20240510":15.13,"20240511":13.37,"20240512":12.96,"20240513":11.28,"20240514":11.49,"20240515":12.44,"20240516":11.22,"20240517":11.31,"20240518":11.98,"20240519":12.89,"20240520":13.19,"20240521":12.84,"20240522":12.68,"20240523":13.98,"20240524":13.62,"20240525":14.57,"20240526":13.99,"20240527":11.77,"20240528":12.99,"20240529":13.48,"20240530":11.71,"20240531":11.96,"20240601":12.35,"20240602":12.57,"20240603":12.2,"20240604":13.51,"20240605":13.53,"20240606":12.31,"20240607":13.31,"20240608":10.98,"20240609":12.57,"20240610":11.91,"20240611":10.63,"20240612":9.64,"20240613":9.99,"20240614":13.09,"20240615":11.75,"20240616":10.7,"20240617":9.38,"20240618":10.21,"20240619":11.96,"20240620":12.89,"20240621":11.56,"20240622":8.96,"20240623":12.59,"20240624":10.39,"20240625":13.16,"20240626":11.89,"20240627":12.35,"20240628":12.94,"20240629":12.63,"20240630":10.69,"20240701":11.95,"20240702":11.33,"20240703":10.25,"20240704":11.78,"20240705":9.55,"20240706":10.54,"20240707":10.21,"20240708":11.45,"20240709":11.98,"20240710":9.32,"20240711":11.67,"20240712":11.19,"20240713":7.78,"20240714":8.75,"20240715":11.81,"20240716":10.47,"20240717":12.62,"20240718":12.14,"20240719":12.51,"20240720":12.21,"20240721":11.17,"20240722":9.89,"20240723":11.46,"20240724":12.1,"20240725":11.56,"20240726":10.99,"20240727":11.69,"20240728":11.71,"20240729":10.65,"20240730":12.33,"20240731":11.05,"20240801":10.47,"20240802":9.93,"20240803":9.78,"20240804":11.2,"20240805":11.42,"20240806":11.44,"20240807":12.49,"20240808":12.82,"20240809":12.03,"20240810":10.26,"20240811":12.88,"20240812":10.91,"20240813":11.41,"20240814":11.47,"20240815":12.0,"20240816":12.47,"20240817":11.99,"20240818":12.87,"20240819":12.38,"20240820":10.57,"20240821":9.75,"20240822":10.56,"20240823":11.45,"20240824":11.06,"20240825":9.47,"20240826":10.63,"20240827":11.12,"20240828":11.45,"20240829":12.53,"20240830":12.51,"20240831":11.67,"20240901":11.98,"20240902":12.62,"20240903":12.94,"20240904":12.48,"20240905":12.51,"20240906":11.56,"20240907":11.77,"20240908":10.17,"20240909":9.43,"20240910":12.23,"20240911":11.78,"20240912":12.04,"20240913":12.95,"20240914":13.28,"20240915":12.78,"20240916":13.43,"20240917":13.03,"20240918":12.15,"20240919":12.44,"20240920":12.21,"20240921":11.79,"20240922":12.06,"20240923":11.67,"20240924":11.24,"20240925":10.36,"20240926":11.47,"20240927":10.91,"20240928":11.28,"20240929":11.65,"20240930":8.18,"20241001":8.4,"20241002":8.85,"20241003":5.67,"20241004":9.45,"20241005":8.64,"20241006":11.77,"20241007":9.85,"20241008":9.42,"20241009":8.87,"20241010":4.12,"20241011":2.93,"20241012":2.95,"20241013":4.77,"20241014":8.29,"20241015":8.48,"20241016":8.64,"20241017":6.75,"20241018":6.97,"20241019":8.74,"20241020":5.41,"20241021":10.27,"20241022":9.71,"20241023":5.95,"20241024":5.18,"20241025":4.44,"20241026":7.56,"20241027":7.38,"20241028":6.95,"20241029":9.2,"20241030":7.91,"20241031":9.4,"20241101":8.99,"20241102":10.44,"20241103":11.11,"20241104":10.96,"20241105":10.19,"20241106":9.54,"20241107":9.66,"20241108":9.67,"20241109":8.02,"20241110":7.77,"20241111":6.53,"20241112":7.13,"20241113":7.76,"20241114":5.42,"20241115":4.52,"20241116":7.95,"20241117":9.55,"20241118":8.15,"20241119":9.86,"20241120":10.72,"20241121":5.38,"20241122":3.32,"20241123":1.66,"20241124":4.01,"20241125":2.55,"20241126":0.73,"20241127":3.68,"20241128":7.52,"20241129":4.88,"20241130":4.47,"20241201":4.24,"20241202":3.77,"20241203":3.5,"20241204":5.44,"20241205":6.22,"20241206":6.52,"20241207":6.31,"20241208":6.52,"20241209":5.58,"20241210":6.73,"20241211":5.42,"20241212":5.05,"20241213":6.57,"20241214":5.42,"20241215":4.02,"20241216":4.99,"20241217":3.57,"20241218":2.35,"20241219":8.12,"20241220":6.33,"20241221":4.81,"20241222":7.18,"20241223":6.65,"20241224":5.78,"20241225":6.48,"20241226":3.83,"20241227":4.92,"20241228":4.18,"20241229":2.9,"20241230":6.25,"20241231":3.4},"PRECTOTCORR":{"20240101":0.0,"20240102":0.0,"20240103":0.0,"20240104":0.01,"20240105":0.04,"20240106":0.0,"20240107":0.19,"20240108":0.13,"20240109":0.0,"20240110":0.0,"20240111":0.0,"20240112":0.0,"20240113":0.0,"20240114":0.0,"20240115":0.0,"20240116":0.02,"20240117":0.02,"20240118":0.0,"20240119":0.01,"20240120":0.21,"20240121":0.45,"20240122":1.13,"20240123":0.0,"20240124":0.01,"20240125":0.0,"20240126":0.0,"20240127":0.02,"20240128":0.03,"20240129":0.01,"20240130":0.01,"20240131":0.07,"20240201":0.1,"20240202":0.0,"20240203":0.0,"20240204":0.0,"20240205":0.0,"20240206":0.0,"20240207":0.0,"20240208":0.0,"20240209":0.0,"20240210":0.0,"20240211":0.0,"20240212":0.01,"20240213":0.0,"20240214":0.0,"20240215":0.0,"20240216":0.57,"20240217":14.44,"20240218":0.45,"20240219":0.0,"20240220":0.0,"20240221":0.0,"20240222":0.0,"20240223":0.0,"20240224":0.0,"20240225":0.0,"20240226":0.0,"20240227":0.0,"20240228":0.0,"20240229":0.0,"20240301":0.0,"20240302":0.0,"20240303":0.0,"20240304":0.0,"20240305":0.0,"20240306":0.0,"20240307":0.0,"20240308":0.0,"20240309":0.01,"20240310":0.08,"20240311":0.03,"20240312":0.03,"20240313":0.0,"20240314":0.0,"20240315":0.0,"20240316":0.0,"20240317":0.0,"20240318":0.03,"20240319":0.19,"20240320":0.12,"20240321":0.05,"20240322":0.01,"20240323":0.0,"20240324":0.0,"20240325":0.0,"20240326":0.0,"20240327":0.0,"20240328":0.02,"20240329":0.0,"20240330":0.0,"20240331":0.0,"20240401":0.0,"20240402":0.0,"20240403":0.03,"20240404":0.0,"20240405":0.0,"20240406":0.0,"20240407":0.0,"20240408":0.0,"20240409":0.0,"20240410":0.0,"20240411":0.0,"20240412":0.22,"20240413":0.5,"20240414":0.0,"20240415":0.19,"20240416":0.04,"20240417":0.34,"20240418":0.38,"20240419":0.88,"20240420":2.95,"20240421":0.61,"20240422":4.75,"20240423":0.77,"20240424":0.09,"20240425":0.43,"20240426":0.08,"20240427":0.07,"20240428":0.0,"20240429":0.02,"20240430":0.01,"20240501":0.0,"20240502":0.0,"20240503":0.03,"20240504":0.92,"20240505":0.35,"20240506":0.14,"20240507":0.09,"20240508":0.23,"20240509":0.24,"20240510":0.0,"20240511":0.25,"20240512":0.83,"20240513":0.22,"20240514":0.17,"20240515":0.53,"20240516":1.53,"20240517":0.04,"20240518":1.47,"20240519":1.5,"20240520":0.13,"20240521":0.04,"20240522":0.52,"20240523":6.06,"20240524":1.3,"20240525":1.76,"20240526":2.95,"20240527":1.63,"20240528":0.37,"20240529":5.41,"20240530":1.59,"20240531":0.41,"20240601":0.0,"20240602":0.01,"20240603":0.01,"20240604":0.57,"20240605":0.31,"20240606":0.46,"20240607":0.46,"20240608":2.16,"20240609":2.45,"20240610":2.36,"20240611":0.02,"20240612":0.0,"20240613":0.0,"20240614":0.0,"20240615":0.0,"20240616":0.02,"20240617":0.04,"20240618":3.57,"20240619":11.59,"20240620":11.85,"20240621":8.23,"20240622":4.32,"20240623":8.72,"20240624":25.15,"20240625":23.6,"20240626":5.23,"20240627":0.0,"20240628":0.0,"20240629":5.11,"20240630":23.68,"20240701":4.43,"20240702":4.0,"20240703":10.13,"20240704":9.63,"20240705":3.53,"20240706":1.07,"20240707":1.37,"20240708":2.28,"20240709":4.8,"20240710":14.46,"20240711":17.13,"20240712":7.4,"20240713":3.13,"20240714":2.57,"20240715":9.21,"20240716":2.73,"20240717":7.7,"20240718":11.08,"20240719":8.53,"20240720":7.81,"20240721":5.34,"20240722":22.94,"20240723":18.44,"20240724":20.7,"20240725":8.41,"20240726":4.01,"20240727":5.52,"20240728":4.89,"20240729":3.18,"20240730":12.08,"20240731":6.96,"20240801":4.17,"20240802":6.87,"20240803":4.74,"20240804":5.32,"20240805":7.29,"20240806":7.49,"20240807":9.22,"20240808":2.53,"20240809":5.93,"20240810":2.16,"20240811":7.21,"20240812":5.41,"20240813":2.61,"20240814":7.24,"20240815":14.23,"20240816":10.59,"20240817":16.19,"20240818":8.82,"20240819":3.61,"20240820":2.09,"20240821":4.45,"20240822":3.89,"20240823":9.29,"20240824":6.11,"20240825":3.12,"20240826":1.69,"20240827":2.91,"20240828":6.51,"20240829":9.56,"20240830":12.16,"20240831":10.83,"20240901":11.43,"20240902":8.62,"20240903":6.17,"20240904":15.03,"20240905":4.4,"20240906":5.57,"20240907":7.14,"20240908":1.23,"20240909":1.82,"20240910":8.94,"20240911":6.74,"20240912":4.86,"20240913":10.15,"20240914":10.91,"20240915":8.15,"20240916":7.43,"20240917":14.13,"20240918":5.23,"20240919":5.29,"20240920":2.74,"20240921":3.29,"20240922":5.74,"20240923":4.4,"20240924":6.53,"20240925":3.76,"20240926":12.49,"20240927":15.73,"20240928":2.65,"20240929":15.54,"20240930":2.76,"20241001":6.21,"20241002":1.23,"20241003":0.15,"20241004":1.95,"20241005":5.64,"20241006":9.14,"20241007":8.52,"20241008":5.13,"20241009":3.01,"20241010":0.05,"20241011":0.03,"20241012":0.0,"20241013":0.06,"20241014":0.4,"20241015":0.3,"20241016":0.03,"20241017":0.51,"20241018":0.2,"20241019":0.26,"20241020":1.38,"20241021":6.97,"20241022":1.63,"20241023":0.36,"20241024":0.05,"20241025":0.01,"20241026":0.02,"20241027":0.5,"20241028":1.0,"20241029":2.42,"20241030":0.56,"20241031":1.11,"20241101":0.45,"20241102":3.64,"20241103":1.38,"20241104":1.59,"20241105":0.52,"20241106":1.52,"20241107":0.05,"20241108":0.27,"20241109":0.0,"20241110":0.0,"20241111":0.0,"20241112":0.0,"20241113":0.0,"20241114":0.04,"20241115":0.09,"20241116":0.0,"20241117":0.0,"20241118":0.0,"20241119":0.09,"20241120":5.48,"20241121":2.04,"20241122":0.01,"20241123":0.01,"20241124":0.0,"20241125":0.0,"20241126":0.0,"20241127":0.0,"20241128":0.0,"20241129":0.0,"20241130":0.0,"20241201":0.0,"20241202":0.0,"20241203":0.04,"20241204":0.13,"20241205":0.0,"20241206":0.04,"20241207":0.03,"20241208":0.0,"20241209":0.0,"20241210":0.0,"20241211":0.35,"20241212":0.01,"20241213":0.01,"20241214":0.0,"20241215":0.0,"20241216":0.0,"20241217":0.0,"20241218":0.23,"20241219":0.52,"20241220":0.13,"20241221":0.31,"20241222":2.21,"20241223":1.09,"20241224":0.05,"20241225":0.08,"20241226":0.08,"20241227":0.0,"20241228":0.0,"20241229":0.0,"20241230":0.0,"20241231":0.0},"WS10M":{"20240101":1.1,"20240102":2.15,"20240103":2.04,"20240104":3.42,"20240105":3.98,"20240106":3.18,"20240107":2.27,"20240108":3.9,"20240109":2.24,"20240110":3.65,"20240111":2.68,"20240112":2.05,"20240113":2.77,"20240114":1.63,"20240115":2.05,"20240116":1.23,"20240117":1.82,"20240118":1.99,"20240119":2.03,"20240120":1.82,"20240121":1.09,"20240122":2.09,"20240123":2.03,"20240124":2.64,"20240125":2.51,"20240126":3.08,"20240127":1.3,"20240128":1.99,"20240129":2.1,"20240130":1.6,"20240131":1.45,"20240201":2.15,"20240202":2.4,"20240203":4.83,"20240204":3.4,"20240205":3.65,"20240206":2.15,"20240207":2.02,"20240208":1.71,"20240209":2.17,"20240210":3.4,"20240211":3.6,"20240212":3.16,"20240213":2.28,"20240214":1.69,"20240215":2.4,"20240216":3.08,"20240217":3.1,"20240218":2.27,"20240219":1.67,"20240220":2.42,"20240221":1.33,"20240222":1.99,"20240223":1.6,"20240224":1.54,"20240225":1.86,"20240226":1.74,"20240227":1.37,"20240228":1.72,"20240229":2.37,"20240301":2.18,"20240302":1.8,"20240303":2.07,"20240304":2.54,"20240305":2.35,"20240306":1.9,"20240307":3.06,"20240308":3.25,"20240309":1.67,"20240310":2.53,"20240311":1.88,"20240312":1.7,"20240313":2.17,"20240314":2.49,"20240315":1.95,"20240316":2.04,"20240317":2.3,"20240318":1.98,"20240319":2.2,"20240320":2.32,"20240321":3.3,"20240322":3.66,"20240323":2.35,"20240324":3.99,"20240325":5.3,"20240326":3.76,"20240327":2.69,"20240328":2.4,"20240329":2.06,"20240330":1.74,"20240331":1.83,"20240401":3.18,"20240402":3.22,"20240403":3.57,"20240404":3.5,"20240405":2.12,"20240406":2.82,"20240407":2.05,"20240408":2.53,"20240409":4.42,"20240410":3.45,"20240411":2.21,"20240412":1.04,"20240413":2.14,"20240414":1.96,"20240415":1.6,"20240416":1.51,"20240417":1.25,"20240418":0.97,"20240419":1.0,"20240420":1.41,"20240421":2.12,"20240422":1.92,"20240423":1.84,"20240424":1.53,"20240425":1.81,"20240426":2.34,"20240427":2.53,"20240428":2.94,"20240429":2.22,"20240430":1.5,"20240501":1.93,"20240502":2.8,"20240503":1.92,"20240504":1.35,"20240505":1.46,"20240506":1.6,"20240507":1.9,"20240508":1.76,"20240509":1.11,"20240510":1.25,"20240511":1.37,"20240512":1.82,"20240513":2.67,"20240514":1.59,"20240515":1.76,"20240516":2.11,"20240517":1.98,"20240518":1.61,"20240519":2.17,"20240520":2.51,"20240521":2.37,"20240522":1.58,"20240523":1.89,"20240524":1.38,"20240525":1.17,"20240526":1.31,"20240527":1.74,"20240528":1.66,"20240529":0.81,"20240530":1.45,"20240531":1.75,"20240601":2.58,"20240602":1.9,"20240603":1.74,"20240604":1.65,"20240605":1.44,"20240606":1.98,"20240607":2.18,"20240608":1.85,"20240609":1.41,"20240610":2.3,"20240611":3.28,"20240612":2.62,"20240613":2.31,"20240614":2.6,"20240615":3.07,"20240616":2.97,"20240617":2.78,"20240618":3.07,"20240619":4.03,"20240620":2.53,"20240621":4.57,"20240622":2.39,"20240623":1.87,"20240624":1.36,"20240625":1.26,"20240626":1.44,"20240627":1.39,"20240628":2.15,"20240629":1.68,"20240630":3.59,"20240701":3.28,"20240702":2.46,"20240703":1.79,"20240704":1.12,"20240705":1.87,"20240706":1.6,"20240707":1.42,"20240708":1.5,"20240709":2.31,"20240710":2.33,"20240711":2.24,"20240712":1.95,"20240713":1.79,"20240714":1.33,"20240715":0.7,"20240716":1.12,"20240717":1.09,"20240718":1.25,"20240719":1.01,"20240720":1.54,"20240721":1.68,"20240722":1.71,"20240723":1.68,"20240724":1.37,"20240725":1.41,"20240726":1.48,"20240727":0.96,"20240728":1.27,"20240729":1.67,"20240730":1.57,"20240731":1.4,"20240801":1.74,"20240802":2.22,"20240803":1.51,"20240804":1.58,"20240805":1.43,"20240806":1.11,"20240807":1.04,"20240808":1.66,"20240809":1.8,"20240810":1.98,"20240811":1.33,"20240812":1.79,"20240813":1.49,"20240814":1.02,"20240815":1.86,"20240816":1.47,"20240817":0.98,"20240818":1.4,"20240819":2.1,"20240820":2.47,"20240821":2.44,"20240822":2.32,"20240823":1.93,"20240824":1.33,"20240825":1.18,"20240826":1.82,"20240827":1.93,"20240828":1.43,"20240829":1.01,"20240830":0.96,"20240831":0.78,"20240901":1.74,"20240902":1.49,"20240903":1.09,"20240904":1.38,"20240905":1.99,"20240906":2.52,"20240907":4.02,"20240908":3.93,"20240909":1.44,"20240910":1.26,"20240911":1.85,"20240912":2.0,"20240913":0.95,"20240914":0.62,"20240915":1.24,"20240916":1.56,"20240917":1.02,"20240918":0.96,"20240919":1.38,"20240920":1.2,"20240921":1.21,"20240922":1.82,"20240923":2.11,"20240924":2.26,"20240925":2.58,"20240926":2.43,"20240927":2.83,"20240928":1.13,"20240929":1.96,"20240930":1.52,"20241001":3.09,"20241002":4.62,"20241003":2.43,"20241004":1.91,"20241005":1.39,"20241006":0.71,"20241007":2.04,"20241008":1.5,"20241009":1.74,"20241010":2.69,"20241011":3.02,"20241012":2.36,"20241013":1.43,"20241014":1.55,"20241015":1.17,"20241016":2.0,"20241017":3.1,"20241018":2.1,"20241019":3.08,"20241020":4.57,"20241021":4.24,"20241022":2.74,"20241023":2.04,"20241024":1.4,"20241025":1.6,"20241026":2.29,"20241027":3.0,"20241028":1.75,"20241029":0.78,"20241030":1.24,"20241031":1.59,"20241101":1.63,"20241102":0.76,"20241103":0.95,"20241104":1.63,"20241105":0.98,"20241106":0.96,"20241107":1.3,"20241108":1.96,"20241109":1.88,"20241110":2.06,"20241111":1.88,"20241112":0.96,"20241113":1.8,"20241114":3.36,"20241115":1.65,"20241116":0.76,"20241117":1.29,"20241118":2.18,"20241119":1.64,"20241120":2.78,"20241121":3.07,"20241122":1.95,"20241123":1.66,"20241124":2.13,"20241125":2.32,"20241126":2.65,"20241127":1.41,"20241128":1.45,"20241129":1.77,"20241130":1.9,"20241201":1.71,"20241202":1.75,"20241203":2.75,"20241204":1.59,"20241205":0.92,"20241206":1.38,"20241207":1.77,"20241208":1.53,"20241209":1.41,"20241210":1.34,"20241211":3.01,"20241212":0.84,"20241213":1.44,"20241214":1.64,"20241215":1.89,"20241216":1.97,"20241217":1.4,"20241218":1.19,"20241219":2.71,"20241220":2.09,"20241221":2.09,"20241222":1.43,"20241223":1.21,"20241224":1.7,"20241225":1.31,"20241226":1.95,"20241227":1.08,"20241228":2.41,"20241229":2.04,"20241230":1.33,"20241231":1.73},"RH2M":{"20240101":54.24,"20240102":56.44,"20240103":50.39,"20240104":64.64,"20240105":70.45,"20240106":57.56,"20240107":57.71,"20240108":70.39,"20240109":61.05,"20240110":58.22,"20240111":56.77,"20240112":46.31,"20240113":45.27,"20240114":46.28,"20240115":42.27,"20240116":34.2,"20240117":50.97,"20240118":41.08,"20240119":32.53,"20240120":62.61,"20240121":66.64,"20240122":73.3,"20240123":64.76,"20240124":59.33,"20240125":53.78,"20240126":47.46,"20240127":38.38,"20240128":65.48,"20240129":59.3,"20240130":45.56,"20240131":47.98,"20240201":58.19,"20240202":64.38,"20240203":66.74,"20240204":54.93,"20240205":28.12,"20240206":30.46,"20240207":40.56,"20240208":47.44,"20240209":47.3,"20240210":39.93,"20240211":32.56,"20240212":42.07,"20240213":48.94,"20240214":51.26,"20240215":63.21,"20240216":65.69,"20240217":76.07,"20240218":66.17,"20240219":35.46,"20240220":30.86,"20240221":34.11,"20240222":28.66,"20240223":24.49,"20240224":49.61,"20240225":39.67,"20240226":36.98,"20240227":30.34,"20240228":38.93,"20240229":43.41,"20240301":41.78,"20240302":40.69,"20240303":42.1,"20240304":41.65,"20240305":33.24,"20240306":29.98,"20240307":32.87,"20240308":25.35,"20240309":27.3,"20240310":50.66,"20240311":49.97,"20240312":40.97,"20240313":40.1,"20240314":35.61,"20240315":31.95,"20240316":31.01,"20240317":32.47,"20240318":23.95,"20240319":59.28,"20240320":41.01,"20240321":38.7,"20240322":43.61,"20240323":35.96,"20240324":32.95,"20240325":23.19,"20240326":18.15,"20240327":18.12,"20240328":49.84,"20240329":40.76,"20240330":29.69,"20240331":31.09,"20240401":36.21,"20240402":42.78,"20240403":50.06,"20240404":42.73,"20240405":31.81,"20240406":33.28,"20240407":37.03,"20240408":31.71,"20240409":31.51,"20240410":48.45,"20240411":41.53,"20240412":45.45,"20240413":43.67,"20240414":35.33,"20240415":37.65,"20240416":37.51,"20240417":46.59,"20240418":35.3,"20240419":38.02,"20240420":50.34,"20240421":39.01,"20240422":61.75,"20240423":58.52,"20240424":40.53,"20240425":39.57,"20240426":42.04,"20240427":42.79,"20240428":37.08,"20240429":32.3,"20240430":33.32,"20240501":35.56,"20240502":34.61,"20240503":29.57,"20240504":32.91,"20240505":35.64,"20240506":32.39,"20240507":23.89,"20240508":21.71,"20240509":25.13,"20240510":24.34,"20240511":26.93,"20240512":32.55,"20240513":26.2,"20240514":34.23,"20240515":34.58,"20240516":33.76,"20240517":36.54,"20240518":42.64,"20240519":52.07,"20240520":46.83,"20240521":40.44,"20240522":46.95,"20240523":55.13,"20240524":42.53,"20240525":42.78,"20240526":42.76,"20240527":48.22,"20240528":39.29,"20240529":41.19,"20240530":50.7,"20240531":47.23,"20240601":41.82,"20240602":35.55,"20240603":37.17,"20240604":38.16,"20240605":37.28,"20240606":38.37,"20240607":36.42,"20240608":50.18,"20240609":54.8,"20240610":67.25,"20240611":56.34,"20240612":45.03,"20240613":54.01,"20240614":58.98,"20240615":56.92,"20240616":52.21,"20240617":50.16,"20240618":53.5,"20240619":64.59,"20240620":74.13,"20240621":74.7,"20240622":75.69,"20240623":80.3,"20240624":77.8,"20240625":83.02,"20240626":77.73,"20240627":77.81,"20240628":79.66,"20240629":74.36,"20240630":79.63,"20240701":85.61,"20240702":77.46,"20240703":77.2,"20240704":76.78,"20240705":71.25,"20240706":68.71,"20240707":67.05,"20240708":66.05,"20240709":73.62,"20240710":80.02,"20240711":87.06,"20240712":80.89,"20240713":71.94,"20240714":75.5,"20240715":77.99,"20240716":77.41,"20240717":81.95,"20240718":82.64,"20240719":84.99,"20240720":84.2,"20240721":83.74,"20240722":86.37,"20240723":84.16,"20240724":86.84,"20240725":80.21,"20240726":81.1,"20240727":82.6,"20240728":81.47,"20240729":79.53,"20240730":80.58,"20240731":79.0,"20240801":79.41,"20240802":81.82,"20240803":80.07,"20240804":77.58,"20240805":81.67,"20240806":83.49,"20240807":86.51,"20240808":82.4,"20240809":81.36,"20240810":79.57,"20240811":84.36,"20240812":85.52,"20240813":81.85,"20240814":80.91,"20240815":84.0,"20240816":86.31,"20240817":85.97,"20240818":85.6,"20240819":82.63,"20240820":79.53,"20240821":80.18,"20240822":79.97,"20240823":84.66,"20240824":79.14,"20240825":76.78,"20240826":80.05,"20240827":81.22,"20240828":86.1,"20240829":84.25,"20240830":90.34,"20240831":83.03,"20240901":89.25,"20240902":87.6,"20240903":85.06,"20240904":80.86,"20240905":87.81,"20240906":85.48,"20240907":87.98,"20240908":85.45,"20240909":84.81,"20240910":87.37,"20240911":86.95,"20240912":85.65,"20240913":90.12,"20240914":90.21,"20240915":90.99,"20240916":89.49,"20240917":89.13,"20240918":87.15,"20240919":84.63,"20240920":81.72,"20240921":81.71,"20240922":85.2,"20240923":84.37,"20240924":86.57,"20240925":84.73,"20240926":90.34,"20240927":92.9,"20240928":86.46,"20240929":88.44,"20240930":82.28,"20241001":86.29,"20241002":86.31,"20241003":77.06,"20241004":86.44,"20241005":87.0,"20241006":88.78,"20241007":88.69,"20241008":86.54,"20241009":82.69,"20241010":70.08,"20241011":72.23,"20241012":74.55,"20241013":77.72,"20241014":79.36,"20241015":77.36,"20241016":70.63,"20241017":81.54,"20241018":81.02,"20241019":81.67,"20241020":86.08,"20241021":88.18,"20241022":84.31,"20241023":74.79,"20241024":71.58,"20241025":69.27,"20241026":82.07,"20241027":80.81,"20241028":83.51,"20241029":81.0,"20241030":75.95,"20241031":79.18,"20241101":80.76,"20241102":84.09,"20241103":86.76,"20241104":82.4,"20241105":77.98,"20241106":80.43,"20241107":68.72,"20241108":78.94,"20241109":71.76,"20241110":75.09,"20241111":66.61,"20241112":68.73,"20241113":66.03,"20241114":77.68,"20241115":75.29,"20241116":63.3,"20241117":69.4,"20241118":75.73,"20241119":80.39,"20241120":86.89,"20241121":81.11,"20241122":71.89,"20241123":52.42,"20241124":47.28,"20241125":45.01,"20241126":45.78,"20241127":48.68,"20241128":37.18,"20241129":60.57,"20241130":67.35,"20241201":68.15,"20241202":71.2,"20241203":72.8,"20241204":75.37,"20241205":67.74,"20241206":74.17,"20241207":71.53,"20241208":47.68,"20241209":62.97,"20241210":61.35,"20241211":72.75,"20241212":61.27,"20241213":54.16,"20241214":56.61,"20241215":68.7,"20241216":61.39,"20241217":64.96,"20241218":69.64,"20241219":81.94,"20241220":80.44,"20241221":76.08,"20241222":80.95,"20241223":85.33,"20241224":69.29,"20241225":73.81,"20241226":70.31,"20241227":50.78,"20241228":46.83,"20241229":42.75,"20241230":44.7,"20241231":42.37}}},"header":{"title":"NASA/POWER Source Native Resolution Daily Data","api":{"version":"v2.9.6","name":"POWER Daily API"},"sources":["MERRA2","POWER"],"fill_value":-999.0,"time_standard":"UTC","start":"20240101","end":"20241231"},"messages":[],"parameters":{"T2M":{"units":"C","longname":"Temperature at 2 Meters"},"T2M_MAX":{"units":"C","longname":"Temperature at 2 Meters Maximum"},"T2M_MIN":{"units":"C","longname":"Temperature at 2 Meters Minimum"},"PRECTOTCORR":{"units":"mm/day","longname":"Precipitation Corrected"},"WS10M":{"units":"m/s","longname":"Wind Speed at 10 Meters"},"RH2M":{"units":"%","longname":"Relative Humidity at 2 Meters"}},"times":{"data":1.148,"process":0.02}}