{"type":"Feature","geometry":{"type":"Point","coordinates":[51.422,35.694,1184.83]},"properties":{"parameter":{"T2M":{"20240101":7.81,"20240102":7.53,"20240103":8.05,"20240104":7.34,"20240105":8.16,"20240106":5.57,"20240107":4.98,"20240108":8.34,"20240109":10.3,"20240110":10.04,"20240111":6.19,"20240112":4.51,"20240113":6.33,"20240114":7.79,"20240115":7.28,"20240116":5.95,"20240117":7.63,"20240118":5.67,"20240119":5.62,"20240120":7.18,"20240121":8.29,"20240122":8.67,"20240123":3.93,"20240124":6.3,"20240125":5.86,"20240126":5.24,"20240127":4.0,"20240128":3.23,"20240129":3.28,"20240130":4.03,"20240131":2.02,"20240201":2.17,"20240202":0.34,"20240203":1.43,"20240204":2.78,"20240205":4.41,"20240206":4.55,"20240207":6.39,"20240208":7.96,"20240209":9.03,"20240210":10.63,"20240211":10.01,"20240212":10.93,"20240213":12.06,"20240214":13.08,"20240215":11.82,"20240216":10.2,"20240217":8.14,"20240218":6.35,"20240219":4.48,"20240220":4.64,"20240221":6.52,"20240222":6.45,"20240223":8.83,"20240224":6.89,"20240225":1.16,"20240226":-1.44,"20240227":-0.75,"20240228":-0.46,"20240229":-0.87,"20240301":0.82,"20240302":2.89,"20240303":4.56,"20240304":5.33,"20240305":5.04,"20240306":8.35,"20240307":10.03,"20240308":9.81,"20240309":9.23,"20240310":9.39,"20240311":9.15,"20240312":8.29,"20240313":8.59,"20240314":9.94,"20240315":10.55,"20240316":11.99,"20240317":12.29,"20240318":12.83,"20240319":11.45,"20240320":10.25,"20240321":11.2,"20240322":11.2,"20240323":13.29,"20240324":14.3,"20240325":10.84,"20240326":10.15,"20240327":10.99,"20240328":10.0,"20240329":10.24,"20240330":13.11,"20240331":13.7,"20240401":12.89,"20240402":11.68,"20240403":14.04,"20240404":17.87,"20240405":18.92,"20240406":18.74,"20240407":19.3,"20240408":18.35,"20240409":18.3,"20240410":17.71,"20240411":14.84,"20240412":12.56,"20240413":11.48,"20240414":13.35,"20240415":14.56,"20240416":15.29,"20240417":15.75,"20240418":17.96,"20240419":20.01,"20240420":20.17,"20240421":20.03,"20240422":18.66,"20240423":14.16,"20240424":14.27,"20240425":16.65,"20240426":18.57,"20240427":18.66,"20240428":19.36,"20240429":20.13,"20240430":21.2,"20240501":19.34,"20240502":15.24,"20240503":17.0,"20240504":17.39,"20240505":19.47,"20240506":17.13,"20240507":17.2,"20240508":18.13,"20240509":16.31,"20240510":17.05,"20240511":19.69,"20240512":24.12,"20240513":21.09,"20240514":20.38,"20240515":21.55,"20240516":21.64,"20240517":21.01,"20240518":18.87,"20240519":18.14,"20240520":20.12,"20240521":20.79,"20240522":19.84,"20240523":20.49,"20240524":20.26,"20240525":21.95,"20240526":23.15,"20240527":24.99,"20240528":25.41,"20240529":26.18,"20240530":28.22,"20240531":28.81,"20240601":29.79,"20240602":27.26,"20240603":25.26,"20240604":25.63,"20240605":26.21,"20240606":26.53,"20240607":26.7,"20240608":27.69,"20240609":28.74,"20240610":30.08,"20240611":30.15,"20240612":30.77,"20240613":30.52,"20240614":29.0,"20240615":27.76,"20240616":29.98,"20240617":30.0,"20240618":30.53,"20240619":29.72,"20240620":28.48,"20240621":29.42,"20240622":29.56,"20240623":29.91,"20240624":29.05,"20240625":29.85,"20240626":29.52,"20240627":28.51,"20240628":28.09,"20240629":29.08,"20240630":28.86,"20240701":28.29,"20240702":28.74,"20240703":30.01,"20240704":31.07,"20240705":32.65,"20240706":31.63,"20240707":31.37,"20240708":30.77,"20240709":32.18,"20240710":33.04,"20240711":32.97,"20240712":31.81,"20240713":30.82,"20240714":29.73,"20240715":29.7,"20240716":30.63,"20240717":31.66,"20240718":31.24,"20240719":30.2,"20240720":29.99,"20240721":31.78,"20240722":31.57,"20240723":32.82,"20240724":33.44,"20240725":33.54,"20240726":33.21,"20240727":33.93,"20240728":33.41,"20240729":31.49,"20240730":29.58,"20240731":32.13,"20240801":32.63,"20240802":31.72,"20240803":31.98,"20240804":32.4,"20240805":33.17,"20240806":34.15,"20240807":34.02,"20240808":34.03,"20240809":33.25,"20240810":33.16,"20240811":33.62,"20240812":32.35,"20240813":33.21,"20240814":32.47,"20240815":32.28,"20240816":30.76,"20240817":29.83,"20240818":28.48,"20240819":29.6,"20240820":30.31,"20240821":28.65,"20240822":29.97,"20240823":31.47,"20240824":31.45,"20240825":30.26,"20240826":30.64,"20240827":32.01,"20240828":30.55,"20240829":28.74,"20240830":26.06,"20240831":26.59,"20240901":26.58,"20240902":26.76,"20240903":27.09,"20240904":28.19,"20240905":29.13,"20240906":27.03,"20240907":26.63,"20240908":25.97,"20240909":26.65,"20240910":26.73,"20240911":27.32,"20240912":28.25,"20240913":28.41,"20240914":26.24,"20240915":23.37,"20240916":22.52,"20240917":23.58,"20240918":24.4,"20240919":22.13,"20240920":23.03,"20240921":24.87,"20240922":24.9,"20240923":26.1,"20240924":27.2,"20240925":26.42,"20240926":23.08,"20240927":22.05,"20240928":17.1,"20240929":14.81,"20240930":15.67,"20241001":19.99,"20241002":22.26,"20241003":21.45,"20241004":19.94,"20241005":18.47,"20241006":17.7,"20241007":18.39,"20241008":20.81,"20241009":22.0,"20241010":22.24,"20241011":22.83,"20241012":21.12,"20241013":22.48,"20241014":22.36,"20241015":21.03,"20241016":19.71,"20241017":20.04,"20241018":21.08,"20241019":21.08,"20241020":18.28,"20241021":14.99,"20241022":11.63,"20241023":11.4,"20241024":12.7,"20241025":11.58,"20241026":10.86,"20241027":12.3,"20241028":9.61,"20241029":10.91,"20241030":11.3,"20241031":11.58,"20241101":14.58,"20241102":15.57,"20241103":16.35,"20241104":15.08,"20241105":13.73,"20241106":12.42,"20241107":12.1,"20241108":10.42,"20241109":11.2,"20241110":12.17,"20241111":14.34,"20241112":13.32,"20241113":9.32,"20241114":7.21,"20241115":8.87,"20241116":10.61,"20241117":11.47,"20241118":12.73,"20241119":12.49,"20241120":11.75,"20241121":11.58,"20241122":10.67,"20241123":10.2,"20241124":10.0,"20241125":12.06,"20241126":11.76,"20241127":10.29,"20241128":5.18,"20241129":5.43,"20241130":5.18,"20241201":3.44,"20241202":2.39,"20241203":2.44,"20241204":4.22,"20241205":6.41,"20241206":6.37,"20241207":6.06,"20241208":4.35,"20241209":6.07,"20241210":5.5,"20241211":4.11,"20241212":8.5,"20241213":7.9,"20241214":3.01,"20241215":-2.85,"20241216":0.58,"20241217":2.68,"20241218":4.61,"20241219":5.14,"20241220":3.12,"20241221":4.89,"20241222":5.03,"20241223":6.5,"20241224":5.26,"20241225":6.36,"20241226":4.82,"20241227":5.1,"20241228":5.34,"20241229":4.46,"20241230":5.42,"20241231":4.23},"T2M_MAX":{"20240101":14.37,"20240102":12.96,"20240103":13.54,"20240104":14.39,"20240105":14.97,"20240106":12.91,"20240107":11.04,"20240108":17.55,"20240109":18.34,"20240110":17.14,"20240111":12.04,"20240112":8.97,"20240113":11.78,"20240114":14.18,"20240115":14.41,"20240116":13.57,"20240117":16.11,"20240118":9.84,"20240119":11.92,"20240120":12.79,"20240121":15.95,"20240122":14.89,"20240123":6.9,"20240124":12.17,"20240125":11.32,"20240126":10.75,"20240127":7.61,"20240128":9.17,"20240129":9.48,"20240130":8.84,"20240131":6.54,"20240201":6.69,"20240202":3.15,"20240203":8.75,"20240204":9.93,"20240205":10.94,"20240206":12.47,"20240207":15.35,"20240208":16.77,"20240209":17.82,"20240210":17.08,"20240211":16.02,"20240212":18.26,"20240213":19.3,"20240214":19.67,"20240215":19.43,"20240216":16.84,"20240217":14.52,"20240218":12.89,"20240219":10.1,"20240220":9.09,"20240221":12.35,"20240222":12.1,"20240223":14.95,"20240224":11.69,"20240225":4.27,"20240226":0.99,"20240227":1.51,"20240228":3.04,"20240229":5.91,"20240301":8.74,"20240302":10.06,"20240303":11.67,"20240304":10.66,"20240305":10.39,"20240306":16.45,"20240307":17.84,"20240308":16.75,"20240309":16.18,"20240310":14.1,"20240311":15.69,"20240312":16.4,"20240313":16.43,"20240314":17.45,"20240315":15.34,"20240316":18.83,"20240317":19.44,"20240318":17.62,"20240319":17.18,"20240320":17.43,"20240321":18.83,"20240322":17.28,"20240323":20.89,"20240324":21.74,"20240325":15.62,"20240326":18.43,"20240327":18.78,"20240328":17.34,"20240329":18.11,"20240330":21.47,"20240331":21.72,"20240401":20.83,"20240402":19.15,"20240403":21.26,"20240404":26.21,"20240405":26.8,"20240406":26.3,"20240407":26.5,"20240408":24.55,"20240409":25.46,"20240410":25.57,"20240411":21.99,"20240412":21.01,"20240413":18.22,"20240414":20.48,"20240415":22.26,"20240416":22.21,"20240417":20.99,"20240418":26.34,"20240419":28.94,"20240420":28.19,"20240421":28.02,"20240422":24.18,"20240423":18.53,"20240424":20.77,"20240425":23.72,"20240426":25.22,"20240427":25.88,"20240428":26.94,"20240429":28.43,"20240430":29.08,"20240501":24.71,"20240502":19.52,"20240503":22.47,"20240504":24.75,"20240505":27.6,"20240506":23.89,"20240507":25.57,"20240508":25.68,"20240509":22.61,"20240510":24.2,"20240511":27.23,"20240512":32.01,"20240513":28.43,"20240514":28.73,"20240515":28.19,"20240516":28.97,"20240517":28.25,"20240518":25.9,"20240519":24.53,"20240520":27.45,"20240521":26.65,"20240522":25.05,"20240523":26.83,"20240524":24.63,"20240525":29.43,"20240526":30.86,"20240527":32.81,"20240528":32.45,"20240529":33.25,"20240530":35.52,"20240531":36.97,"20240601":38.24,"20240602":36.45,"20240603":32.94,"20240604":32.76,"20240605":33.79,"20240606":33.53,"20240607":34.33,"20240608":35.45,"20240609":37.29,"20240610":38.25,"20240611":38.18,"20240612":38.37,"20240613":38.65,"20240614":35.51,"20240615":33.37,"20240616":36.81,"20240617":37.47,"20240618":38.24,"20240619":36.27,"20240620":34.89,"20240621":36.35,"20240622":36.66,"20240623":37.32,"20240624":36.07,"20240625":37.88,"20240626":36.68,"20240627":35.93,"20240628":35.34,"20240629":35.46,"20240630":35.84,"20240701":35.21,"20240702":34.97,"20240703":37.07,"20240704":38.17,"20240705":40.12,"20240706":38.67,"20240707":38.29,"20240708":37.66,"20240709":39.74,"20240710":40.5,"20240711":40.26,"20240712":38.94,"20240713":37.61,"20240714":36.9,"20240715":36.81,"20240716":37.97,"20240717":39.15,"20240718":38.8,"20240719":37.57,"20240720":37.0,"20240721":39.89,"20240722":38.95,"20240723":40.1,"20240724":41.21,"20240725":40.78,"20240726":39.57,"20240727":41.25,"20240728":41.34,"20240729":38.47,"20240730":36.0,"20240731":40.11,"20240801":39.68,"20240802":38.27,"20240803":38.51,"20240804":39.63,"20240805":40.73,"20240806":41.38,"20240807":42.02,"20240808":42.42,"20240809":40.32,"20240810":39.94,"20240811":40.84,"20240812":39.39,"20240813":41.27,"20240814":39.52,"20240815":39.53,"20240816":37.65,"20240817":36.32,"20240818":35.04,"20240819":36.29,"20240820":37.43,"20240821":35.78,"20240822":37.68,"20240823":39.18,"20240824":39.01,"20240825":37.43,"20240826":38.32,"20240827":39.69,"20240828":37.59,"20240829":35.62,"20240830":33.12,"20240831":34.03,"20240901":34.39,"20240902":34.88,"20240903":35.56,"20240904":37.38,"20240905":38.07,"20240906":34.41,"20240907":32.99,"20240908":32.52,"20240909":33.48,"20240910":34.69,"20240911":35.97,"20240912":36.69,"20240913":35.74,"20240914":32.48,"20240915":29.02,"20240916":28.56,"20240917":30.39,"20240918":30.95,"20240919":27.5,"20240920":28.45,"20240921":31.29,"20240922":32.26,"20240923":33.81,"20240924":34.87,"20240925":34.34,"20240926":29.29,"20240927":27.4,"20240928":22.21,"20240929":19.77,"20240930":21.73,"20241001":27.98,"20241002":31.07,"20241003":29.47,"20241004":27.73,"20241005":24.5,"20241006":23.73,"20241007":25.52,"20241008":28.92,"20241009":29.15,"20241010":30.95,"20241011":31.02,"20241012":28.55,"20241013":30.14,"20241014":29.7,"20241015":28.51,"20241016":26.61,"20241017":27.12,"20241018":28.8,"20241019":29.61,"20241020":25.37,"20241021":23.41,"20241022":18.9,"20241023":16.54,"20241024":17.42,"20241025":19.56,"20241026":16.69,"20241027":18.86,"20241028":15.28,"20241029":17.78,"20241030":17.52,"20241031":16.49,"20241101":19.91,"20241102":21.72,"20241103":21.46,"20241104":20.03,"20241105":21.1,"20241106":19.23,"20241107":18.17,"20241108":15.33,"20241109":17.12,"20241110":17.85,"20241111":19.42,"20241112":18.16,"20241113":11.47,"20241114":11.31,"20241115":14.91,"20241116":18.13,"20241117":17.81,"20241118":17.73,"20241119":18.3,"20241120":17.61,"20241121":17.36,"20241122":17.96,"20241123":16.69,"20241124":16.72,"20241125":18.27,"20241126":17.67,"20241127":15.72,"20241128":12.22,"20241129":12.99,"20241130":10.16,"20241201":8.37,"20241202":8.44,"20241203":8.27,"20241204":9.44,"20241205":12.26,"20241206":12.02,"20241207":14.12,"20241208":9.71,"20241209":12.72,"20241210":12.13,"20241211":9.96,"20241212":15.76,"20241213":12.91,"20241214":11.35,"20241215":3.08,"20241216":4.46,"20241217":8.95,"20241218":12.42,"20241219":13.37,"20241220":8.24,"20241221":10.3,"20241222":11.11,"20241223":13.7,"20241224":10.46,"20241225":14.08,"20241226":11.27,"20241227":10.26,"20241228":9.55,"20241229":11.59,"20241230":11.63,"20241231":7.51},"T2M_MIN":{"20240101":3.43,"20240102":3.36,"20240103":3.16,"20240104":1.41,"20240105":2.04,"20240106":-0.43,"20240107":-1.34,"20240108":2.21,"20240109":2.93,"20240110":4.99,"20240111":1.97,"20240112":2.6,"20240113":3.12,"20240114":4.9,"20240115":2.41,"20240116":0.69,"20240117":0.77,"20240118":0.87,"20240119":0.54,"20240120":1.87,"20240121":3.13,"20240122":3.97,"20240123":2.22,"20240124":1.81,"20240125":0.86,"20240126":1.88,"20240127":1.61,"20240128":-2.02,"20240129":-2.86,"20240130":0.7,"20240131":-0.61,"20240201":-0.55,"20240202":-1.59,"20240203":-3.02,"20240204":-3.25,"20240205":0.25,"20240206":-0.46,"20240207":-0.52,"20240208":1.18,"20240209":2.2,"20240210":5.97,"20240211":5.06,"20240212":4.75,"20240213":4.52,"20240214":8.13,"20240215":6.84,"20240216":6.45,"20240217":3.44,"20240218":1.67,"20240219":-0.15,"20240220":-0.57,"20240221":1.03,"20240222":2.69,"20240223":1.85,"20240224":2.08,"20240225":-2.58,"20240226":-3.01,"20240227":-3.1,"20240228":-3.4,"20240229":-5.94,"20240301":-5.81,"20240302":-3.64,"20240303":-0.36,"20240304":1.95,"20240305":0.11,"20240306":-0.46,"20240307":2.3,"20240308":4.15,"20240309":3.28,"20240310":3.89,"20240311":2.42,"20240312":1.46,"20240313":1.01,"20240314":3.35,"20240315":6.62,"20240316":5.55,"20240317":4.99,"20240318":9.57,"20240319":7.77,"20240320":4.09,"20240321":3.46,"20240322":5.06,"20240323":6.26,"20240324":8.01,"20240325":3.57,"20240326":2.35,"20240327":4.32,"20240328":2.4,"20240329":1.79,"20240330":5.46,"20240331":6.24,"20240401":5.54,"20240402":4.43,"20240403":5.78,"20240404":9.01,"20240405":10.93,"20240406":12.19,"20240407":13.16,"20240408":13.4,"20240409":13.3,"20240410":11.54,"20240411":7.82,"20240412":4.39,"20240413":3.67,"20240414":6.41,"20240415":7.14,"20240416":9.71,"20240417":10.58,"20240418":10.79,"20240419":11.86,"20240420":12.16,"20240421":12.85,"20240422":13.47,"20240423":9.81,"20240424":9.46,"20240425":9.41,"20240426":11.13,"20240427":11.75,"20240428":11.58,"20240429":12.68,"20240430":13.25,"20240501":13.9,"20240502":10.71,"20240503":10.76,"20240504":10.49,"20240505":10.62,"20240506":11.08,"20240507":11.69,"20240508":10.54,"20240509":9.19,"20240510":8.2,"20240511":12.85,"20240512":13.34,"20240513":15.25,"20240514":13.88,"20240515":13.53,"20240516":13.98,"20240517":13.89,"20240518":11.7,"20240519":10.65,"20240520":12.8,"20240521":14.88,"20240522":14.09,"20240523":14.38,"20240524":15.05,"20240525":15.0,"20240526":15.9,"20240527":16.96,"20240528":18.68,"20240529":17.74,"20240530":20.71,"20240531":21.05,"20240601":20.44,"20240602":17.8,"20240603":16.7,"20240604":17.85,"20240605":18.39,"20240606":18.43,"20240607":19.33,"20240608":19.29,"20240609":19.38,"20240610":22.08,"20240611":21.89,"20240612":21.88,"20240613":21.69,"20240614":22.71,"20240615":21.9,"20240616":21.9,"20240617":22.65,"20240618":22.62,"20240619":22.82,"20240620":21.75,"20240621":21.02,"20240622":22.34,"20240623":23.54,"20240624":22.07,"20240625":21.93,"20240626":21.85,"20240627":21.2,"20240628":21.14,"20240629":23.44,"20240630":21.29,"20240701":20.81,"20240702":22.71,"20240703":22.28,"20240704":23.42,"20240705":25.27,"20240706":24.42,"20240707":24.68,"20240708":24.36,"20240709":24.17,"20240710":26.1,"20240711":24.88,"20240712":24.03,"20240713":23.91,"20240714":22.32,"20240715":22.08,"20240716":24.24,"20240717":24.5,"20240718":24.27,"20240719":23.21,"20240720":23.15,"20240721":23.65,"20240722":23.55,"20240723":26.67,"20240724":26.74,"20240725":27.58,"20240726":27.24,"20240727":26.44,"20240728":25.37,"20240729":24.21,"20240730":24.21,"20240731":23.56,"20240801":25.73,"20240802":25.72,"20240803":25.87,"20240804":24.82,"20240805":26.31,"20240806":28.22,"20240807":27.11,"20240808":26.63,"20240809":25.72,"20240810":26.99,"20240811":27.28,"20240812":26.18,"20240813":25.35,"20240814":24.7,"20240815":24.82,"20240816":24.06,"20240817":23.88,"20240818":23.37,"20240819":23.32,"20240820":22.62,"20240821":22.43,"20240822":21.76,"20240823":23.32,"20240824":23.81,"20240825":23.56,"20240826":23.33,"20240827":24.6,"20240828":23.43,"20240829":21.61,"20240830":19.97,"20240831":19.74,"20240901":20.09,"20240902":19.76,"20240903":19.8,"20240904":21.3,"20240905":22.27,"20240906":20.76,"20240907":21.7,"20240908":20.83,"20240909":21.23,"20240910":20.08,"20240911":19.54,"20240912":20.12,"20240913":22.29,"20240914":19.85,"20240915":18.25,"20240916":17.52,"20240917":16.98,"20240918":18.78,"20240919":17.46,"20240920":18.8,"20240921":19.05,"20240922":19.8,"20240923":19.29,"20240924":20.03,"20240925":19.54,"20240926":17.71,"20240927":17.47,"20240928":11.41,"20240929":10.92,"20240930":10.34,"20241001":11.66,"20241002":16.25,"20241003":15.22,"20241004":13.85,"20241005":13.55,"20241006":12.86,"20241007":12.37,"20241008":14.1,"20241009":15.93,"20241010":14.99,"20241011":16.07,"20241012":15.93,"20241013":16.69,"20241014":16.76,"20241015":15.48,"20241016":14.55,"20241017":14.81,"20241018":15.76,"20241019":14.49,"20241020":12.35,"20241021":7.9,"20241022":6.93,"20241023":7.88,"20241024":9.12,"20241025":5.27,"20241026":4.87,"20241027":7.29,"20241028":5.25,"20241029":5.1,"20241030":6.33,"20241031":7.1,"20241101":9.33,"20241102":9.44,"20241103":12.05,"20241104":10.14,"20241105":8.49,"20241106":7.14,"20241107":6.36,"20241108":6.89,"20241109":6.98,"20241110":7.4,"20241111":9.29,"20241112":9.98,"20241113":6.66,"20241114":4.22,"20241115":4.01,"20241116":5.21,"20241117":6.12,"20241118":8.35,"20241119":8.29,"20241120":8.09,"20241121":7.13,"20241122":6.51,"20241123":5.35,"20241124":4.92,"20241125":7.91,"20241126":6.96,"20241127":3.24,"20241128":0.92,"20241129":0.32,"20241130":2.19,"20241201":-0.04,"20241202":-0.83,"20241203":-1.53,"20241204":-0.52,"20241205":2.83,"20241206":2.51,"20241207":0.44,"20241208":0.65,"20241209":1.83,"20241210":1.3,"20241211":0.87,"20241212":1.61,"20241213":2.5,"20241214":-5.75,"20241215":-6.68,"20241216":-5.36,"20241217":0.0,"20241218":0.04,"20241219":-0.06,"20241220":-0.43,"20241221":1.33,"20241222":1.56,"20241223":0.79,"20241224":2.08,"20241225":-0.36,"20241226":0.68,"20241227":2.33,"20241228":0.95,"20241229":-0.27,"20241230":0.95,"20241231":1.19},"PRECTOTCORR":{"20240101":0.0,"20240102":0.0,"20240103":0.0,"20240104":0.0,"20240105":0.12,"20240106":3.31,"20240107":0.0,"20240108":0.0,"20240109":0.72,"20240110":0.77,"20240111":6.01,"20240112":0.81,"20240113":0.88,"20240114":3.25,"20240115":0.22,"20240116":0.0,"20240117":0.01,"20240118":0.04,"20240119":0.0,"20240120":0.0,"20240121":0.42,"20240122":2.48,"20240123":12.64,"20240124":2.37,"20240125":0.94,"20240126":0.42,"20240127":6.61,"20240128":0.39,"20240129":0.17,"20240130":0.45,"20240131":0.12,"20240201":4.69,"20240202":2.96,"20240203":0.04,"20240204":0.0,"20240205":0.0,"20240206":0.0,"20240207":0.0,"20240208":0.0,"20240209":0.0,"20240210":0.0,"20240211":0.0,"20240212":0.0,"20240213":0.0,"20240214":0.0,"20240215":1.71,"20240216":8.95,"20240217":1.0,"20240218":2.47,"20240219":1.68,"20240220":0.06,"20240221":0.08,"20240222":0.0,"20240223":0.21,"20240224":6.5,"20240225":9.43,"20240226":4.75,"20240227":1.19,"20240228":2.28,"20240229":0.45,"20240301":0.0,"20240302":0.0,"20240303":0.01,"20240304":0.52,"20240305":0.18,"20240306":0.0,"20240307":0.28,"20240308":0.49,"20240309":0.0,"20240310":0.51,"20240311":1.93,"20240312":0.27,"20240313":0.0,"20240314":0.05,"20240315":1.68,"20240316":0.7,"20240317":0.03,"20240318":0.06,"20240319":4.69,"20240320":0.73,"20240321":0.1,"20240322":0.0,"20240323":0.03,"20240324":0.51,"20240325":9.19,"20240326":0.0,"20240327":0.01,"20240328":0.0,"20240329":0.0,"20240330":0.0,"20240331":0.0,"20240401":0.0,"20240402":0.0,"20240403":0.0,"20240404":0.0,"20240405":0.0,"20240406":0.0,"20240407":0.0,"20240408":0.0,"20240409":0.02,"20240410":8.39,"20240411":4.49,"20240412":1.76,"20240413":0.0,"20240414":0.0,"20240415":0.0,"20240416":0.0,"20240417":0.0,"20240418":0.0,"20240419":0.0,"20240420":0.0,"20240421":0.01,"20240422":4.25,"20240423":4.14,"20240424":0.45,"20240425":0.0,"20240426":0.0,"20240427":0.0,"20240428":0.0,"20240429":0.0,"20240430":0.0,"20240501":0.15,"20240502":0.96,"20240503":7.94,"20240504":3.7,"20240505":0.08,"20240506":1.87,"20240507":6.28,"20240508":0.31,"20240509":2.39,"20240510":0.0,"20240511":0.0,"20240512":0.06,"20240513":3.71,"20240514":3.54,"20240515":1.55,"20240516":0.15,"20240517":4.57,"20240518":0.57,"20240519":0.16,"20240520":0.51,"20240521":1.08,"20240522":1.52,"20240523":1.11,"20240524":0.17,"20240525":0.86,"20240526":2.47,"20240527":0.08,"20240528":0.0,"20240529":0.03,"20240530":0.0,"20240531":0.0,"20240601":0.0,"20240602":0.01,"20240603":0.0,"20240604":0.0,"20240605":0.0,"20240606":0.0,"20240607":0.0,"20240608":0.01,"20240609":0.0,"20240610":0.04,"20240611":0.07,"20240612":0.0,"20240613":0.02,"20240614":0.24,"20240615":0.14,"20240616":0.1,"20240617":0.02,"20240618":0.05,"20240619":0.24,"20240620":0.0,"20240621":0.07,"20240622":1.2,"20240623":0.63,"20240624":0.63,"20240625":5.02,"20240626":3.96,"20240627":3.96,"20240628":0.31,"20240629":0.3,"20240630":0.1,"20240701":0.1,"20240702":0.21,"20240703":0.03,"20240704":0.0,"20240705":0.0,"20240706":0.0,"20240707":0.0,"20240708":0.0,"20240709":0.0,"20240710":0.0,"20240711":0.0,"20240712":0.0,"20240713":0.22,"20240714":0.1,"20240715":0.0,"20240716":0.0,"20240717":0.0,"20240718":0.11,"20240719":0.29,"20240720":0.37,"20240721":0.09,"20240722":0.1,"20240723":0.03,"20240724":0.26,"20240725":0.13,"20240726":0.0,"20240727":0.03,"20240728":0.79,"20240729":0.64,"20240730":0.01,"20240731":0.02,"20240801":0.11,"20240802":0.02,"20240803":0.0,"20240804":0.0,"20240805":0.0,"20240806":0.0,"20240807":0.01,"20240808":0.85,"20240809":0.08,"20240810":0.01,"20240811":0.03,"20240812":0.03,"20240813":0.01,"20240814":0.0,"20240815":0.09,"20240816":0.33,"20240817":0.38,"20240818":0.09,"20240819":0.03,"20240820":0.0,"20240821":0.0,"20240822":0.0,"20240823":0.0,"20240824":0.0,"20240825":0.0,"20240826":0.0,"20240827":0.0,"20240828":0.0,"20240829":0.0,"20240830":0.0,"20240831":0.0,"20240901":0.0,"20240902":0.0,"20240903":0.0,"20240904":0.0,"20240905":0.0,"20240906":0.03,"20240907":0.53,"20240908":0.2,"20240909":0.0,"20240910":0.0,"20240911":0.0,"20240912":0.0,"20240913":0.02,"20240914":1.79,"20240915":2.05,"20240916":0.03,"20240917":0.04,"20240918":1.5,"20240919":0.61,"20240920":0.21,"20240921":0.02,"20240922":0.0,"20240923":0.0,"20240924":0.01,"20240925":1.4,"20240926":0.22,"20240927":0.83,"20240928":18.91,"20240929":0.45,"20240930":1.86,"20241001":0.35,"20241002":0.35,"20241003":0.43,"20241004":0.3,"20241005":0.24,"20241006":0.02,"20241007":0.0,"20241008":0.0,"20241009":0.0,"20241010":0.0,"20241011":0.0,"20241012":0.0,"20241013":0.0,"20241014":0.07,"20241015":1.28,"20241016":0.11,"20241017":0.0,"20241018":0.04,"20241019":2.64,"20241020":3.13,"20241021":11.27,"20241022":5.72,"20241023":4.85,"20241024":3.38,"20241025":1.4,"20241026":2.17,"20241027":3.3,"20241028":0.0,"20241029":0.0,"20241030":0.0,"20241031":0.0,"20241101":0.01,"20241102":0.0,"20241103":1.78,"20241104":4.29,"20241105":4.89,"20241106":1.9,"20241107":0.01,"20241108":0.7,"20241109":0.05,"20241110":0.0,"20241111":0.57,"20241112":3.05,"20241113":7.68,"20241114":1.34,"20241115":0.0,"20241116":0.0,"20241117":1.45,"20241118":0.1,"20241119":6.49,"20241120":1.46,"20241121":0.72,"20241122":0.0,"20241123":0.0,"20241124":0.0,"20241125":0.0,"20241126":0.14,"20241127":1.66,"20241128":0.19,"20241129":0.61,"20241130":0.14,"20241201":0.07,"20241202":0.01,"20241203":0.0,"20241204":0.0,"20241205":0.0,"20241206":0.0,"20241207":0.0,"20241208":0.04,"20241209":0.81,"20241210":0.18,"20241211":0.0,"20241212":0.0,"20241213":1.7,"20241214":5.26,"20241215":0.09,"20241216":0.0,"20241217":0.0,"20241218":0.17,"20241219":0.13,"20241220":0.0,"20241221":0.0,"20241222":0.0,"20241223":0.0,"20241224":0.0,"20241225":0.0,"20241226":0.0,"20241227":0.01,"20241228":3.81,"20241229":0.02,"20241230":0.0,"20241231":0.24},"WS10M":{"20240101":2.35,"20240102":1.95,"20240103":2.31,"20240104":3.07,"20240105":2.98,"20240106":4.98,"20240107":1.87,"20240108":2.91,"20240109":3.73,"20240110":2.9,"20240111":2.96,"20240112":1.83,"20240113":2.35,"20240114":3.37,"20240115":3.41,"20240116":3.4,"20240117":3.21,"20240118":1.91,"20240119":2.42,"20240120":1.9,"20240121":2.5,"20240122":1.75,"20240123":2.34,"20240124":2.97,"20240125":3.16,"20240126":2.02,"20240127":1.65,"20240128":4.48,"20240129":2.47,"20240130":1.53,"20240131":2.83,"20240201":3.49,"20240202":3.02,"20240203":4.36,"20240204":3.31,"20240205":4.32,"20240206":6.05,"20240207":4.45,"20240208":3.77,"20240209":3.73,"20240210":1.87,"20240211":1.82,"20240212":2.14,"20240213":2.04,"20240214":2.11,"20240215":2.58,"20240216":2.08,"20240217":4.29,"20240218":3.99,"20240219":2.08,"20240220":1.58,"20240221":2.13,"20240222":2.04,"20240223":1.56,"20240224":2.25,"20240225":2.38,"20240226":1.64,"20240227":1.45,"20240228":2.19,"20240229":2.78,"20240301":2.13,"20240302":2.33,"20240303":2.26,"20240304":1.99,"20240305":1.92,"20240306":3.26,"20240307":3.48,"20240308":3.81,"20240309":3.43,"20240310":2.63,"20240311":3.18,"20240312":3.44,"20240313":2.27,"20240314":3.42,"20240315":3.08,"20240316":3.25,"20240317":3.38,"20240318":2.23,"20240319":2.33,"20240320":5.45,"20240321":4.09,"20240322":3.17,"20240323":3.64,"20240324":4.64,"20240325":5.35,"20240326":5.76,"20240327":5.8,"20240328":3.61,"20240329":2.84,"20240330":2.67,"20240331":3.87,"20240401":2.7,"20240402":2.67,"20240403":2.49,"20240404":3.15,"20240405":2.02,"20240406":2.58,"20240407":4.29,"20240408":1.91,"20240409":3.37,"20240410":5.15,"20240411":4.7,"20240412":3.76,"20240413":2.92,"20240414":2.4,"20240415":3.2,"20240416":3.07,"20240417":2.9,"20240418":2.74,"20240419":3.25,"20240420":3.69,"20240421":4.36,"20240422":2.79,"20240423":2.66,"20240424":2.23,"20240425":2.6,"20240426":2.4,"20240427":2.8,"20240428":2.58,"20240429":2.76,"20240430":3.51,"20240501":4.85,"20240502":2.5,"20240503":2.9,"20240504":6.04,"20240505":4.95,"20240506":4.17,"20240507":4.22,"20240508":3.56,"20240509":3.17,"20240510":2.5,"20240511":3.31,"20240512":3.87,"20240513":3.75,"20240514":4.56,"20240515":2.59,"20240516":2.68,"20240517":5.46,"20240518":5.02,"20240519":3.14,"20240520":3.74,"20240521":1.83,"20240522":2.38,"20240523":2.04,"20240524":2.94,"20240525":3.96,"20240526":4.86,"20240527":2.57,"20240528":2.39,"20240529":2.22,"20240530":2.41,"20240531":3.13,"20240601":3.89,"20240602":5.11,"20240603":2.98,"20240604":2.19,"20240605":2.44,"20240606":2.72,"20240607":3.5,"20240608":4.46,"20240609":5.06,"20240610":4.12,"20240611":3.97,"20240612":2.95,"20240613":2.58,"20240614":2.27,"20240615":2.19,"20240616":2.04,"20240617":2.34,"20240618":2.69,"20240619":3.2,"20240620":2.27,"20240621":2.22,"20240622":3.63,"20240623":2.95,"20240624":3.94,"20240625":5.06,"20240626":2.83,"20240627":2.17,"20240628":3.43,"20240629":3.09,"20240630":3.02,"20240701":3.92,"20240702":4.01,"20240703":2.68,"20240704":2.26,"20240705":2.37,"20240706":4.22,"20240707":5.72,"20240708":6.0,"20240709":5.32,"20240710":4.36,"20240711":3.35,"20240712":2.56,"20240713":3.35,"20240714":3.07,"20240715":3.26,"20240716":2.99,"20240717":3.0,"20240718":3.86,"20240719":4.64,"20240720":5.13,"20240721":5.07,"20240722":3.71,"20240723":3.35,"20240724":4.17,"20240725":4.7,"20240726":5.03,"20240727":3.99,"20240728":4.58,"20240729":4.6,"20240730":3.81,"20240731":3.67,"20240801":3.59,"20240802":4.5,"20240803":4.83,"20240804":3.21,"20240805":3.54,"20240806":4.44,"20240807":4.72,"20240808":3.75,"20240809":3.21,"20240810":3.33,"20240811":3.79,"20240812":3.96,"20240813":3.62,"20240814":2.23,"20240815":3.17,"20240816":3.49,"20240817":3.01,"20240818":3.55,"20240819":2.73,"20240820":2.92,"20240821":3.34,"20240822":2.92,"20240823":3.07,"20240824":3.91,"20240825":3.53,"20240826":3.3,"20240827":2.65,"20240828":2.85,"20240829":2.81,"20240830":3.28,"20240831":3.45,"20240901":3.43,"20240902":3.5,"20240903":3.24,"20240904":3.27,"20240905":2.87,"20240906":2.76,"20240907":2.57,"20240908":2.71,"20240909":2.93,"20240910":3.06,"20240911":3.35,"20240912":3.33,"20240913":3.22,"20240914":2.36,"20240915":2.39,"20240916":2.79,"20240917":2.54,"20240918":2.19,"20240919":2.48,"20240920":2.55,"20240921":2.04,"20240922":3.18,"20240923":3.4,"20240924":3.15,"20240925":3.65,"20240926":2.53,"20240927":2.4,"20240928":2.75,"20240929":2.11,"20240930":2.81,"20241001":2.34,"20241002":3.19,"20241003":3.72,"20241004":2.84,"20241005":2.11,"20241006":2.34,"20241007":2.5,"20241008":2.12,"20241009":1.95,"20241010":2.88,"20241011":2.23,"20241012":2.7,"20241013":3.03,"20241014":1.84,"20241015":1.94,"20241016":2.54,"20241017":3.3,"20241018":3.28,"20241019":3.59,"20241020":4.35,"20241021":3.51,"20241022":3.42,"20241023":2.36,"20241024":2.37,"20241025":4.56,"20241026":2.05,"20241027":2.02,"20241028":2.15,"20241029":2.34,"20241030":2.7,"20241031":2.34,"20241101":1.76,"20241102":2.09,"20241103":2.0,"20241104":2.34,"20241105":4.36,"20241106":3.3,"20241107":1.94,"20241108":2.39,"20241109":2.7,"20241110":2.05,"20241111":1.46,"20241112":1.8,"20241113":2.18,"20241114":1.79,"20241115":1.97,"20241116":2.49,"20241117":3.69,"20241118":1.87,"20241119":1.87,"20241120":2.65,"20241121":1.76,"20241122":3.16,"20241123":2.1,"20241124":1.97,"20241125":2.31,"20241126":2.92,"20241127":3.03,"20241128":4.95,"20241129":3.93,"20241130":1.81,"20241201":2.01,"20241202":2.44,"20241203":1.98,"20241204":1.45,"20241205":1.47,"20241206":1.51,"20241207":2.27,"20241208":2.11,"20241209":2.47,"20241210":2.01,"20241211":2.07,"20241212":1.56,"20241213":1.57,"20241214":5.42,"20241215":3.15,"20241216":1.38,"20241217":2.09,"20241218":2.35,"20241219":4.3,"20241220":2.04,"20241221":1.49,"20241222":1.97,"20241223":1.7,"20241224":1.57,"20241225":1.92,"20241226":2.27,"20241227":1.74,"20241228":2.71,"20241229":4.03,"20241230":2.43,"20241231":1.28},"RH2M":{"20240101":60.77,"20240102":63.87,"20240103":58.17,"20240104":50.62,"20240105":53.13,"20240106":59.53,"20240107":43.61,"20240108":33.47,"20240109":35.87,"20240110":47.42,"20240111":74.87,"20240112":71.24,"20240113":63.58,"20240114":62.27,"20240115":60.84,"20240116":47.22,"20240117":38.81,"20240118":46.13,"20240119":49.01,"20240120":46.53,"20240121":48.61,"20240122":53.72,"20240123":85.93,"20240124":73.07,"20240125":57.24,"20240126":67.0,"20240127":83.46,"20240128":57.11,"20240129":47.84,"20240130":50.46,"20240131":68.2,"20240201":65.87,"20240202":76.85,"20240203":56.46,"20240204":50.64,"20240205":58.58,"20240206":61.22,"20240207":53.9,"20240208":46.91,"20240209":42.75,"20240210":36.69,"20240211":41.64,"20240212":40.0,"20240213":37.61,"20240214":35.45,"20240215":61.02,"20240216":80.82,"20240217":62.89,"20240218":54.61,"20240219":64.15,"20240220":64.94,"20240221":54.93,"20240222":54.48,"20240223":48.09,"20240224":64.66,"20240225":66.32,"20240226":73.66,"20240227":71.45,"20240228":72.31,"20240229":52.06,"20240301":51.95,"20240302":46.91,"20240303":44.32,"20240304":53.48,"20240305":63.78,"20240306":47.15,"20240307":52.01,"20240308":50.23,"20240309":43.67,"20240310":50.72,"20240311":54.56,"20240312":49.5,"20240313":49.0,"20240314":46.07,"20240315":62.49,"20240316":58.95,"20240317":39.14,"20240318":47.95,"20240319":72.08,"20240320":60.02,"20240321":48.15,"20240322":46.82,"20240323":49.28,"20240324":44.96,"20240325":72.31,"20240326":47.95,"20240327":47.98,"20240328":41.74,"20240329":37.95,"20240330":34.0,"20240331":34.14,"20240401":46.61,"20240402":48.65,"20240403":39.61,"20240404":38.19,"20240405":37.7,"20240406":38.13,"20240407":39.89,"20240408":46.7,"20240409":47.64,"20240410":57.86,"20240411":54.3,"20240412":47.14,"20240413":48.95,"20240414":48.3,"20240415":45.72,"20240416":44.35,"20240417":51.08,"20240418":42.95,"20240419":38.43,"20240420":40.99,"20240421":43.41,"20240422":54.85,"20240423":66.0,"20240424":62.75,"20240425":55.72,"20240426":49.62,"20240427":43.09,"20240428":36.93,"20240429":35.2,"20240430":31.2,"20240501":37.17,"20240502":59.12,"20240503":63.39,"20240504":55.39,"20240505":44.08,"20240506":56.95,"20240507":52.21,"20240508":41.34,"20240509":49.53,"20240510":50.0,"20240511":39.42,"20240512":38.28,"20240513":61.05,"20240514":48.89,"20240515":36.12,"20240516":39.22,"20240517":41.87,"20240518":41.04,"20240519":43.99,"20240520":40.91,"20240521":52.22,"20240522":59.69,"20240523":52.4,"20240524":56.42,"20240525":43.18,"20240526":42.19,"20240527":34.75,"20240528":34.19,"20240529":31.83,"20240530":25.68,"20240531":24.63,"20240601":22.53,"20240602":27.33,"20240603":30.25,"20240604":32.05,"20240605":31.88,"20240606":29.51,"20240607":21.13,"20240608":17.35,"20240609":16.42,"20240610":20.29,"20240611":21.82,"20240612":18.54,"20240613":25.07,"20240614":33.07,"20240615":33.98,"20240616":26.01,"20240617":29.62,"20240618":27.05,"20240619":29.32,"20240620":31.48,"20240621":26.72,"20240622":28.15,"20240623":30.45,"20240624":29.57,"20240625":29.78,"20240626":35.17,"20240627":42.48,"20240628":37.98,"20240629":35.91,"20240630":36.26,"20240701":35.6,"20240702":32.13,"20240703":27.91,"20240704":25.11,"20240705":23.8,"20240706":25.66,"20240707":26.09,"20240708":21.01,"20240709":22.8,"20240710":22.17,"20240711":23.11,"20240712":29.48,"20240713":29.23,"20240714":27.05,"20240715":26.34,"20240716":21.54,"20240717":20.86,"20240718":25.74,"20240719":29.82,"20240720":26.47,"20240721":24.15,"20240722":24.13,"20240723":20.12,"20240724":21.28,"20240725":22.35,"20240726":21.62,"20240727":20.92,"20240728":25.86,"20240729":29.85,"20240730":29.45,"20240731":22.01,"20240801":23.77,"20240802":24.29,"20240803":21.78,"20240804":19.93,"20240805":17.01,"20240806":16.49,"20240807":14.77,"20240808":17.19,"20240809":23.32,"20240810":23.11,"20240811":22.14,"20240812":22.56,"20240813":22.98,"20240814":25.71,"20240815":28.17,"20240816":32.4,"20240817":34.67,"20240818":33.61,"20240819":25.84,"20240820":24.08,"20240821":24.25,"20240822":19.99,"20240823":17.08,"20240824":17.2,"20240825":18.3,"20240826":16.24,"20240827":16.49,"20240828":27.41,"20240829":29.02,"20240830":21.5,"20240831":15.08,"20240901":17.25,"20240902":16.21,"20240903":12.6,"20240904":10.52,"20240905":8.54,"20240906":22.38,"20240907":27.26,"20240908":26.85,"20240909":25.78,"20240910":24.25,"20240911":16.23,"20240912":14.33,"20240913":19.23,"20240914":31.14,"20240915":42.92,"20240916":40.67,"20240917":36.18,"20240918":35.05,"20240919":41.12,"20240920":37.07,"20240921":30.06,"20240922":29.67,"20240923":24.69,"20240924":19.18,"20240925":31.33,"20240926":43.59,"20240927":45.66,"20240928":58.35,"20240929":61.38,"20240930":53.96,"20241001":47.76,"20241002":41.01,"20241003":42.44,"20241004":47.21,"20241005":54.84,"20241006":51.31,"20241007":46.57,"20241008":33.96,"20241009":30.73,"20241010":30.67,"20241011":24.69,"20241012":31.72,"20241013":35.93,"20241014":34.45,"20241015":39.48,"20241016":41.18,"20241017":36.46,"20241018":30.91,"20241019":30.95,"20241020":34.31,"20241021":37.43,"20241022":51.06,"20241023":53.35,"20241024":56.55,"20241025":50.06,"20241026":56.48,"20241027":53.58,"20241028":63.53,"20241029":57.3,"20241030":52.76,"20241031":50.82,"20241101":50.44,"20241102":52.68,"20241103":59.47,"20241104":67.14,"20241105":54.44,"20241106":52.29,"20241107":54.96,"20241108":65.98,"20241109":61.93,"20241110":54.71,"20241111":53.11,"20241112":64.66,"20241113":79.73,"20241114":76.51,"20241115":65.36,"20241116":53.77,"20241117":56.15,"20241118":62.23,"20241119":68.99,"20241120":59.78,"20241121":52.55,"20241122":47.87,"20241123":46.98,"20241124":46.06,"20241125":53.82,"20241126":63.14,"20241127":71.68,"20241128":44.23,"20241129":49.08,"20241130":54.1,"20241201":63.54,"20241202":61.13,"20241203":51.81,"20241204":42.51,"20241205":38.5,"20241206":39.36,"20241207":49.08,"20241208":59.11,"20241209":64.32,"20241210":69.08,"20241211":68.69,"20241212":46.94,"20241213":57.22,"20241214":50.85,"20241215":64.65,"20241216":46.43,"20241217":42.92,"20241218":45.64,"20241219":49.29,"20241220":60.2,"20241221":51.96,"20241222":54.08,"20241223":50.74,"20241224":51.67,"20241225":50.15,"20241226":56.54,"20241227":51.77,"20241228":69.07,"20241229":59.99,"20241230":52.29,"20241231":63.16}}},"header":{"title":"NASA/POWER Source Native Resolution Daily Data","api":{"version":"v2.9.6","name":"POWER Daily API"},"sources":["MERRA2","POWER"],"fill_value":-999.0,"time_standard":"UTC","start":"20240101","end":"20241231"},"messages":[],"parameters":{"T2M":{"units":"C","longname":"Temperature at 2 Meters"},"T2M_MAX":{"units":"C","longname":"Temperature at 2 Meters Maximum"},"T2M_MIN":{"units":"C","longname":"Temperature at 2 Meters Minimum"},"PRECTOTCORR":{"units":"mm/day","longname":"Precipitation Corrected"},"WS10M":{"units":"m/s","longname":"Wind Speed at 10 Meters"},"RH2M":{"units":"%","longname":"Relative Humidity at 2 Meters"}},"times":{"data":0.912,"process":0.02}}