{"type":"Feature","geometry":{"type":"Point","coordinates":[74.351,31.558,209.49]},"properties":{"parameter":{"T2M":{"20240101":11.64,"20240102":12.28,"20240103":11.6,"20240104":12.43,"20240105":12.13,"20240106":11.64,"20240107":12.05,"20240108":11.53,"20240109":10.59,"20240110":10.2,"20240111":11.53,"20240112":12.3,"20240113":14.3,"20240114":11.38,"20240115":12.53,"20240116":12.11,"20240117":11.85,"20240118":12.7,"20240119":13.0,"20240120":12.18,"20240121":11.42,"20240122":10.87,"20240123":11.18,"20240124":11.0,"20240125":10.61,"20240126":12.42,"20240127":14.22,"20240128":15.05,"20240129":14.23,"20240130":15.12,"20240131":14.09,"20240201":11.66,"20240202":11.2,"20240203":12.47,"20240204":12.06,"20240205":11.7,"20240206":12.34,"20240207":10.55,"20240208":11.05,"20240209":13.96,"20240210":15.24,"20240211":15.65,"20240212":14.85,"20240213":15.88,"20240214":15.48,"20240215":17.36,"20240216":17.62,"20240217":17.89,"20240218":15.29,"20240219":16.6,"20240220":15.1,"20240221":14.83,"20240222":14.09,"20240223":14.44,"20240224":14.18,"20240225":14.79,"20240226":14.03,"20240227":13.25,"20240228":16.0,"20240229":17.49,"20240301":16.17,"20240302":13.92,"20240303":11.04,"20240304":11.92,"20240305":13.29,"20240306":14.33,"20240307":15.44,"20240308":16.61,"20240309":18.27,"20240310":19.72,"20240311":19.54,"20240312":21.92,"20240313":20.53,"20240314":18.42,"20240315":19.08,"20240316":20.68,"20240317":20.75,"20240318":22.95,"20240319":23.82,"20240320":25.26,"20240321":24.39,"20240322":23.95,"20240323":25.33,"20240324":24.43,"20240325":24.8,"20240326":27.47,"20240327":25.25,"20240328":23.08,"20240329":27.11,"20240330":23.62,"20240331":22.88,"20240401":22.85,"20240402":24.24,"20240403":27.0,"20240404":24.89,"20240405":24.67,"20240406":25.22,"20240407":26.84,"20240408":28.43,"20240409":28.55,"20240410":27.63,"20240411":27.74,"20240412":29.2,"20240413":27.07,"20240414":23.67,"20240415":26.21,"20240416":25.44,"20240417":26.96,"20240418":28.75,"20240419":26.59,"20240420":26.28,"20240421":27.96,"20240422":27.69,"20240423":27.88,"20240424":28.48,"20240425":31.03,"20240426":29.81,"20240427":26.68,"20240428":28.99,"20240429":24.01,"20240430":23.63,"20240501":24.01,"20240502":27.01,"20240503":29.0,"20240504":28.72,"20240505":30.29,"20240506":32.21,"20240507":34.89,"20240508":34.69,"20240509":34.17,"20240510":34.91,"20240511":33.16,"20240512":31.61,"20240513":31.59,"20240514":32.76,"20240515":34.85,"20240516":36.19,"20240517":36.91,"20240518":36.84,"20240519":37.12,"20240520":37.89,"20240521":37.18,"20240522":38.31,"20240523":38.22,"20240524":37.9,"20240525":37.54,"20240526":38.19,"20240527":38.45,"20240528":39.23,"20240529":39.24,"20240530":38.76,"20240531":39.21,"20240601":39.33,"20240602":38.96,"20240603":39.32,"20240604":39.23,"20240605":38.39,"20240606":35.88,"20240607":36.02,"20240608":35.31,"20240609":36.39,"20240610":37.18,"20240611":38.15,"20240612":39.8,"20240613":40.08,"20240614":40.35,"20240615":40.29,"20240616":40.56,"20240617":41.65,"20240618":41.45,"20240619":41.01,"20240620":38.87,"20240621":34.24,"20240622":36.14,"20240623":37.45,"20240624":38.57,"20240625":39.04,"20240626":39.83,"20240627":38.11,"20240628":38.84,"20240629":35.98,"20240630":37.26,"20240701":36.85,"20240702":35.97,"20240703":37.78,"20240704":33.91,"20240705":35.83,"20240706":32.44,"20240707":31.89,"20240708":34.13,"20240709":35.1,"20240710":35.17,"20240711":36.21,"20240712":35.6,"20240713":32.57,"20240714":34.99,"20240715":35.74,"20240716":35.76,"20240717":36.15,"20240718":34.95,"20240719":35.75,"20240720":36.7,"20240721":36.47,"20240722":36.0,"20240723":35.71,"20240724":34.3,"20240725":35.11,"20240726":33.88,"20240727":35.48,"20240728":32.5,"20240729":31.4,"20240730":33.92,"20240731":33.62,"20240801":31.47,"20240802":32.05,"20240803":30.6,"20240804":30.91,"20240805":31.95,"20240806":32.06,"20240807":32.23,"20240808":31.59,"20240809":31.01,"20240810":30.15,"20240811":28.86,"20240812":29.67,"20240813":29.99,"20240814":30.54,"20240815":30.6,"20240816":29.76,"20240817":27.53,"20240818":28.91,"20240819":29.23,"20240820":30.5,"20240821":30.41,"20240822":30.81,"20240823":30.7,"20240824":30.69,"20240825":30.44,"20240826":30.24,"20240827":28.84,"20240828":27.74,"20240829":28.0,"20240830":28.66,"20240831":29.12,"20240901":30.65,"20240902":30.07,"20240903":28.57,"20240904":28.67,"20240905":29.23,"20240906":29.3,"20240907":29.55,"20240908":29.36,"20240909":29.81,"20240910":29.82,"20240911":29.55,"20240912":29.02,"20240913":29.25,"20240914":28.16,"20240915":28.85,"20240916":28.61,"20240917":28.7,"20240918":28.75,"20240919":26.52,"20240920":29.82,"20240921":30.19,"20240922":30.08,"20240923":30.87,"20240924":31.37,"20240925":30.74,"20240926":29.61,"20240927":28.7,"20240928":28.42,"20240929":28.7,"20240930":29.34,"20241001":29.68,"20241002":29.04,"20241003":28.64,"20241004":28.21,"20241005":28.34,"20241006":26.61,"20241007":26.8,"20241008":26.55,"20241009":25.47,"20241010":26.23,"20241011":27.31,"20241012":26.64,"20241013":25.64,"20241014":26.22,"20241015":26.16,"20241016":25.96,"20241017":26.6,"20241018":26.25,"20241019":25.97,"20241020":25.44,"20241021":25.52,"20241022":25.52,"20241023":25.06,"20241024":24.35,"20241025":24.95,"20241026":25.61,"20241027":25.83,"20241028":26.24,"20241029":26.86,"20241030":26.19,"20241031":24.36,"20241101":24.81,"20241102":24.03,"20241103":24.21,"20241104":24.92,"20241105":24.19,"20241106":24.36,"20241107":23.74,"20241108":23.82,"20241109":23.7,"20241110":23.72,"20241111":23.53,"20241112":22.39,"20241113":22.03,"20241114":21.2,"20241115":20.54,"20241116":19.28,"20241117":18.76,"20241118":18.98,"20241119":18.73,"20241120":19.54,"20241121":20.13,"20241122":19.53,"20241123":19.99,"20241124":18.59,"20241125":17.58,"20241126":17.8,"20241127":18.45,"20241128":18.65,"20241129":17.81,"20241130":16.94,"20241201":18.29,"20241202":18.73,"20241203":18.28,"20241204":16.44,"20241205":16.62,"20241206":15.14,"20241207":14.88,"20241208":12.76,"20241209":12.49,"20241210":12.53,"20241211":13.03,"20241212":11.41,"20241213":11.87,"20241214":12.28,"20241215":14.02,"20241216":13.71,"20241217":13.56,"20241218":12.0,"20241219":11.88,"20241220":10.98,"20241221":13.06,"20241222":13.04,"20241223":11.61,"20241224":12.38,"20241225":13.47,"20241226":13.85,"20241227":12.84,"20241228":11.96,"20241229":11.24,"20241230":11.57,"20241231":12.33},"T2M_MAX":{"20240101":20.04,"20240102":19.46,"20240103":19.17,"20240104":18.88,"20240105":18.5,"20240106":18.32,"20240107":19.71,"20240108":19.86,"20240109":18.68,"20240110":19.4,"20240111":19.52,"20240112":19.89,"20240113":21.99,"20240114":19.96,"20240115":19.83,"20240116":20.3,"20240117":17.49,"20240118":19.42,"20240119":20.78,"20240120":20.09,"20240121":19.64,"20240122":18.98,"20240123":19.0,"20240124":18.54,"20240125":16.35,"20240126":20.75,"20240127":22.61,"20240128":23.19,"20240129":21.75,"20240130":21.99,"20240131":21.42,"20240201":19.49,"20240202":19.8,"20240203":19.63,"20240204":19.5,"20240205":18.74,"20240206":18.56,"20240207":18.81,"20240208":22.21,"20240209":23.7,"20240210":23.71,"20240211":23.73,"20240212":23.13,"20240213":23.23,"20240214":24.59,"20240215":25.16,"20240216":25.81,"20240217":26.16,"20240218":20.5,"20240219":24.7,"20240220":23.32,"20240221":23.67,"20240222":22.94,"20240223":23.03,"20240224":22.63,"20240225":23.21,"20240226":20.16,"20240227":19.92,"20240228":25.76,"20240229":25.8,"20240301":22.78,"20240302":20.17,"20240303":20.68,"20240304":20.24,"20240305":21.98,"20240306":20.93,"20240307":24.53,"20240308":25.27,"20240309":27.98,"20240310":26.57,"20240311":28.62,"20240312":28.67,"20240313":27.82,"20240314":27.51,"20240315":30.05,"20240316":29.97,"20240317":30.56,"20240318":31.85,"20240319":32.17,"20240320":33.8,"20240321":34.41,"20240322":32.8,"20240323":34.97,"20240324":33.0,"20240325":33.83,"20240326":37.16,"20240327":33.09,"20240328":30.97,"20240329":33.99,"20240330":29.01,"20240331":30.89,"20240401":31.05,"20240402":32.83,"20240403":35.03,"20240404":33.58,"20240405":34.61,"20240406":34.05,"20240407":35.99,"20240408":36.3,"20240409":37.0,"20240410":37.54,"20240411":37.45,"20240412":38.05,"20240413":36.68,"20240414":28.91,"20240415":33.03,"20240416":33.76,"20240417":35.45,"20240418":36.75,"20240419":36.59,"20240420":33.83,"20240421":35.51,"20240422":35.87,"20240423":35.85,"20240424":35.22,"20240425":38.97,"20240426":38.42,"20240427":33.88,"20240428":35.65,"20240429":31.55,"20240430":33.14,"20240501":31.73,"20240502":36.27,"20240503":36.32,"20240504":37.13,"20240505":39.0,"20240506":41.08,"20240507":42.29,"20240508":43.67,"20240509":42.46,"20240510":42.51,"20240511":40.44,"20240512":40.12,"20240513":40.05,"20240514":40.81,"20240515":43.7,"20240516":44.76,"20240517":44.83,"20240518":45.35,"20240519":44.93,"20240520":46.32,"20240521":45.46,"20240522":46.43,"20240523":45.88,"20240524":45.17,"20240525":46.02,"20240526":47.22,"20240527":47.86,"20240528":48.11,"20240529":48.15,"20240530":47.63,"20240531":47.53,"20240601":46.95,"20240602":46.49,"20240603":47.18,"20240604":46.42,"20240605":45.29,"20240606":41.36,"20240607":42.48,"20240608":42.64,"20240609":43.9,"20240610":44.64,"20240611":45.47,"20240612":47.47,"20240613":47.89,"20240614":46.76,"20240615":47.61,"20240616":47.79,"20240617":48.52,"20240618":47.84,"20240619":47.49,"20240620":44.88,"20240621":40.08,"20240622":42.13,"20240623":43.8,"20240624":45.24,"20240625":45.4,"20240626":46.0,"20240627":43.4,"20240628":44.36,"20240629":41.52,"20240630":42.56,"20240701":42.25,"20240702":42.09,"20240703":45.12,"20240704":38.53,"20240705":41.27,"20240706":37.34,"20240707":36.41,"20240708":39.38,"20240709":40.12,"20240710":40.15,"20240711":41.82,"20240712":41.1,"20240713":36.6,"20240714":39.23,"20240715":40.96,"20240716":41.26,"20240717":41.79,"20240718":40.41,"20240719":40.96,"20240720":41.65,"20240721":41.89,"20240722":40.79,"20240723":41.43,"20240724":38.28,"20240725":39.58,"20240726":38.28,"20240727":40.75,"20240728":36.29,"20240729":36.02,"20240730":37.45,"20240731":37.31,"20240801":35.17,"20240802":35.83,"20240803":34.04,"20240804":34.58,"20240805":36.29,"20240806":36.06,"20240807":36.67,"20240808":35.83,"20240809":34.37,"20240810":33.69,"20240811":31.96,"20240812":32.7,"20240813":33.11,"20240814":33.79,"20240815":34.08,"20240816":32.44,"20240817":29.7,"20240818":32.3,"20240819":31.58,"20240820":33.59,"20240821":33.92,"20240822":33.63,"20240823":33.77,"20240824":34.34,"20240825":34.07,"20240826":34.13,"20240827":32.37,"20240828":30.36,"20240829":30.94,"20240830":32.06,"20240831":32.81,"20240901":34.27,"20240902":34.13,"20240903":31.34,"20240904":32.3,"20240905":32.72,"20240906":33.09,"20240907":32.99,"20240908":33.4,"20240909":33.88,"20240910":34.32,"20240911":34.16,"20240912":34.87,"20240913":34.2,"20240914":32.9,"20240915":33.77,"20240916":33.72,"20240917":34.09,"20240918":33.47,"20240919":30.03,"20240920":34.58,"20240921":34.93,"20240922":35.05,"20240923":35.88,"20240924":36.36,"20240925":36.34,"20240926":35.16,"20240927":33.37,"20240928":33.12,"20240929":33.99,"20240930":33.9,"20241001":35.9,"20241002":36.33,"20241003":36.33,"20241004":36.44,"20241005":35.67,"20241006":33.41,"20241007":33.83,"20241008":33.15,"20241009":32.96,"20241010":33.4,"20241011":34.2,"20241012":34.35,"20241013":33.95,"20241014":33.55,"20241015":34.82,"20241016":35.1,"20241017":35.43,"20241018":35.18,"20241019":34.17,"20241020":33.59,"20241021":33.46,"20241022":33.38,"20241023":33.81,"20241024":32.63,"20241025":34.91,"20241026":34.23,"20241027":34.38,"20241028":34.39,"20241029":35.11,"20241030":34.11,"20241031":33.9,"20241101":33.83,"20241102":32.76,"20241103":31.93,"20241104":31.9,"20241105":32.22,"20241106":31.44,"20241107":31.58,"20241108":31.64,"20241109":30.68,"20241110":30.71,"20241111":31.33,"20241112":29.66,"20241113":28.92,"20241114":28.53,"20241115":28.47,"20241116":26.98,"20241117":26.97,"20241118":27.67,"20241119":27.6,"20241120":26.98,"20241121":27.58,"20241122":27.6,"20241123":27.85,"20241124":27.62,"20241125":26.69,"20241126":26.61,"20241127":26.38,"20241128":26.26,"20241129":26.15,"20241130":24.75,"20241201":25.97,"20241202":26.73,"20241203":26.63,"20241204":26.06,"20241205":24.24,"20241206":24.63,"20241207":22.99,"20241208":22.71,"20241209":21.35,"20241210":21.44,"20241211":21.78,"20241212":19.96,"20241213":22.8,"20241214":22.77,"20241215":21.92,"20241216":21.62,"20241217":21.73,"20241218":21.22,"20241219":19.3,"20241220":20.35,"20241221":19.85,"20241222":20.01,"20241223":17.98,"20241224":20.14,"20241225":22.01,"20241226":22.19,"20241227":19.56,"20241228":18.74,"20241229":20.62,"20241230":20.1,"20241231":21.53},"T2M_MIN":{"20240101":4.95,"20240102":4.29,"20240103":6.11,"20240104":7.23,"20240105":7.15,"20240106":6.7,"20240107":6.27,"20240108":5.78,"20240109":4.16,"20240110":3.31,"20240111":4.39,"20240112":4.53,"20240113":6.21,"20240114":4.86,"20240115":5.9,"20240116":6.43,"20240117":6.57,"20240118":6.69,"20240119":7.15,"20240120":5.32,"20240121":3.95,"20240122":4.65,"20240123":4.88,"20240124":3.52,"20240125":5.25,"20240126":4.57,"20240127":6.46,"20240128":8.97,"20240129":7.94,"20240130":8.62,"20240131":9.3,"20240201":5.93,"20240202":5.69,"20240203":7.26,"20240204":5.68,"20240205":5.14,"20240206":5.05,"20240207":3.97,"20240208":2.84,"20240209":4.37,"20240210":7.49,"20240211":9.04,"20240212":9.84,"20240213":8.94,"20240214":8.87,"20240215":8.6,"20240216":11.51,"20240217":10.36,"20240218":9.27,"20240219":10.68,"20240220":9.34,"20240221":9.26,"20240222":6.84,"20240223":6.77,"20240224":7.16,"20240225":7.27,"20240226":8.81,"20240227":7.69,"20240228":7.22,"20240229":9.35,"20240301":11.86,"20240302":4.66,"20240303":4.06,"20240304":4.76,"20240305":4.72,"20240306":6.94,"20240307":7.3,"20240308":8.88,"20240309":8.48,"20240310":10.95,"20240311":13.03,"20240312":14.32,"20240313":12.59,"20240314":10.55,"20240315":10.14,"20240316":11.27,"20240317":12.7,"20240318":12.22,"20240319":16.63,"20240320":17.4,"20240321":16.66,"20240322":16.24,"20240323":16.45,"20240324":16.3,"20240325":16.06,"20240326":16.65,"20240327":19.42,"20240328":17.29,"20240329":17.14,"20240330":17.94,"20240331":15.87,"20240401":15.5,"20240402":15.96,"20240403":16.72,"20240404":16.78,"20240405":16.03,"20240406":15.6,"20240407":18.47,"20240408":19.1,"20240409":20.06,"20240410":19.2,"20240411":19.49,"20240412":19.29,"20240413":19.92,"20240414":19.93,"20240415":20.8,"20240416":16.8,"20240417":16.58,"20240418":21.42,"20240419":18.16,"20240420":17.94,"20240421":19.11,"20240422":19.65,"20240423":19.52,"20240424":20.09,"20240425":23.62,"20240426":21.84,"20240427":21.25,"20240428":21.34,"20240429":16.67,"20240430":14.67,"20240501":14.82,"20240502":17.31,"20240503":19.66,"20240504":21.52,"20240505":21.4,"20240506":22.99,"20240507":25.28,"20240508":25.18,"20240509":24.91,"20240510":27.02,"20240511":25.88,"20240512":24.02,"20240513":22.78,"20240514":23.0,"20240515":26.24,"20240516":26.72,"20240517":27.82,"20240518":27.73,"20240519":28.74,"20240520":29.14,"20240521":28.23,"20240522":28.56,"20240523":29.72,"20240524":29.99,"20240525":28.97,"20240526":28.15,"20240527":28.33,"20240528":28.89,"20240529":29.03,"20240530":28.89,"20240531":29.13,"20240601":30.14,"20240602":30.92,"20240603":31.2,"20240604":31.55,"20240605":30.38,"20240606":30.13,"20240607":28.52,"20240608":27.54,"20240609":28.25,"20240610":29.09,"20240611":30.74,"20240612":31.18,"20240613":31.5,"20240614":32.32,"20240615":32.48,"20240616":32.83,"20240617":33.99,"20240618":34.04,"20240619":33.01,"20240620":31.75,"20240621":28.88,"20240622":29.44,"20240623":30.68,"20240624":31.31,"20240625":31.87,"20240626":32.98,"20240627":32.75,"20240628":33.0,"20240629":30.16,"20240630":30.16,"20240701":29.99,"20240702":29.91,"20240703":30.36,"20240704":29.84,"20240705":29.83,"20240706":26.55,"20240707":26.24,"20240708":28.81,"20240709":29.2,"20240710":29.6,"20240711":29.95,"20240712":29.27,"20240713":28.72,"20240714":28.95,"20240715":28.59,"20240716":28.66,"20240717":29.58,"20240718":28.77,"20240719":29.07,"20240720":31.56,"20240721":31.19,"20240722":30.06,"20240723":29.76,"20240724":29.56,"20240725":28.8,"20240726":28.67,"20240727":29.86,"20240728":28.59,"20240729":28.31,"20240730":29.04,"20240731":29.56,"20240801":28.28,"20240802":28.06,"20240803":27.19,"20240804":26.81,"20240805":26.91,"20240806":27.5,"20240807":27.59,"20240808":27.46,"20240809":27.25,"20240810":27.21,"20240811":26.23,"20240812":26.16,"20240813":26.72,"20240814":26.74,"20240815":27.25,"20240816":27.35,"20240817":25.71,"20240818":25.69,"20240819":26.58,"20240820":26.78,"20240821":26.76,"20240822":27.16,"20240823":26.75,"20240824":26.6,"20240825":26.75,"20240826":26.4,"20240827":25.93,"20240828":25.67,"20240829":25.44,"20240830":24.38,"20240831":24.2,"20240901":25.97,"20240902":26.48,"20240903":26.02,"20240904":25.01,"20240905":24.92,"20240906":25.48,"20240907":25.24,"20240908":25.17,"20240909":25.03,"20240910":25.41,"20240911":24.76,"20240912":24.4,"20240913":23.79,"20240914":23.53,"20240915":23.54,"20240916":23.36,"20240917":23.02,"20240918":23.29,"20240919":22.85,"20240920":22.72,"20240921":24.75,"20240922":25.04,"20240923":25.65,"20240924":25.38,"20240925":25.26,"20240926":25.09,"20240927":24.1,"20240928":23.84,"20240929":23.8,"20240930":24.66,"20241001":23.33,"20241002":23.0,"20241003":22.3,"20241004":21.8,"20241005":21.73,"20241006":21.55,"20241007":21.67,"20241008":21.24,"20241009":19.48,"20241010":19.25,"20241011":21.29,"20241012":20.43,"20241013":19.76,"20241014":19.81,"20241015":19.86,"20241016":18.98,"20241017":19.8,"20241018":19.67,"20241019":20.31,"20241020":20.07,"20241021":20.41,"20241022":20.33,"20241023":18.47,"20241024":17.98,"20241025":17.47,"20241026":17.12,"20241027":18.75,"20241028":19.56,"20241029":20.29,"20241030":20.43,"20241031":16.47,"20241101":15.82,"20241102":17.77,"20241103":18.0,"20241104":18.74,"20241105":17.55,"20241106":18.86,"20241107":17.56,"20241108":18.86,"20241109":18.71,"20241110":18.88,"20241111":17.42,"20241112":16.8,"20241113":16.72,"20241114":16.13,"20241115":15.08,"20241116":14.09,"20241117":12.13,"20241118":11.25,"20241119":13.04,"20241120":12.38,"20241121":13.97,"20241122":14.06,"20241123":14.61,"20241124":12.01,"20241125":11.26,"20241126":11.57,"20241127":11.05,"20241128":12.73,"20241129":12.82,"20241130":11.54,"20241201":11.68,"20241202":12.99,"20241203":12.02,"20241204":9.6,"20241205":9.62,"20241206":9.54,"20241207":7.45,"20241208":6.63,"20241209":6.96,"20241210":6.03,"20241211":7.64,"20241212":5.39,"20241213":4.64,"20241214":3.71,"20241215":7.45,"20241216":7.81,"20241217":8.27,"20241218":7.19,"20241219":6.67,"20241220":5.9,"20241221":5.49,"20241222":9.11,"20241223":7.37,"20241224":7.3,"20241225":7.09,"20241226":7.78,"20241227":8.7,"20241228":6.4,"20241229":5.37,"20241230":4.45,"20241231":5.94},"PRECTOTCORR":{"20240101":0.0,"20240102":0.0,"20240103":0.0,"20240104":0.0,"20240105":0.0,"20240106":0.0,"20240107":0.0,"20240108":0.0,"20240109":0.0,"20240110":0.0,"20240111":0.0,"20240112":0.0,"20240113":0.0,"20240114":0.0,"20240115":0.0,"20240116":0.0,"20240117":0.0,"20240118":0.0,"20240119":0.0,"20240120":0.0,"20240121":0.0,"20240122":0.0,"20240123":0.0,"20240124":0.0,"20240125":0.01,"20240126":0.0,"20240127":0.0,"20240128":0.0,"20240129":0.0,"20240130":0.7,"20240131":7.03,"20240201":8.95,"20240202":4.16,"20240203":3.12,"20240204":3.11,"20240205":0.04,"20240206":0.0,"20240207":0.0,"20240208":0.0,"20240209":0.0,"20240210":0.0,"20240211":0.0,"20240212":0.0,"20240213":0.0,"20240214":0.0,"20240215":0.0,"20240216":0.0,"20240217":0.0,"20240218":0.81,"20240219":1.12,"20240220":1.01,"20240221":0.0,"20240222":0.0,"20240223":0.0,"20240224":0.0,"20240225":0.0,"20240226":0.0,"20240227":0.0,"20240228":0.0,"20240229":0.13,"20240301":3.4,"20240302":10.72,"20240303":0.02,"20240304":0.0,"20240305":0.0,"20240306":1.12,"20240307":0.0,"20240308":0.0,"20240309":0.0,"20240310":0.0,"20240311":0.08,"20240312":0.0,"20240313":0.97,"20240314":0.0,"20240315":0.0,"20240316":0.0,"20240317":0.0,"20240318":0.0,"20240319":0.0,"20240320":0.0,"20240321":0.03,"20240322":0.05,"20240323":0.14,"20240324":0.48,"20240325":0.0,"20240326":0.06,"20240327":37.62,"20240328":0.2,"20240329":2.44,"20240330":6.77,"20240331":0.0,"20240401":0.0,"20240402":0.0,"20240403":0.0,"20240404":0.0,"20240405":0.0,"20240406":0.0,"20240407":0.0,"20240408":0.0,"20240409":0.0,"20240410":0.11,"20240411":0.0,"20240412":0.0,"20240413":0.86,"20240414":0.44,"20240415":9.59,"20240416":0.09,"20240417":0.18,"20240418":0.67,"20240419":1.14,"20240420":1.58,"20240421":0.2,"20240422":0.72,"20240423":0.68,"20240424":0.0,"20240425":0.0,"20240426":0.91,"20240427":4.7,"20240428":1.33,"20240429":10.74,"20240430":0.0,"20240501":0.0,"20240502":0.0,"20240503":0.0,"20240504":0.0,"20240505":0.0,"20240506":0.0,"20240507":0.0,"20240508":0.0,"20240509":0.0,"20240510":0.86,"20240511":2.53,"20240512":0.14,"20240513":0.0,"20240514":0.0,"20240515":0.0,"20240516":0.0,"20240517":0.0,"20240518":0.0,"20240519":0.0,"20240520":0.0,"20240521":0.0,"20240522":0.0,"20240523":0.0,"20240524":0.66,"20240525":0.0,"20240526":0.0,"20240527":0.0,"20240528":0.0,"20240529":0.0,"20240530":0.0,"20240531":0.0,"20240601":0.0,"20240602":0.05,"20240603":0.0,"20240604":0.0,"20240605":2.09,"20240606":0.58,"20240607":0.0,"20240608":0.0,"20240609":0.0,"20240610":0.0,"20240611":0.0,"20240612":0.0,"20240613":0.01,"20240614":0.0,"20240615":0.0,"20240616":0.0,"20240617":0.06,"20240618":0.05,"20240619":2.2,"20240620":7.64,"20240621":0.21,"20240622":0.0,"20240623":0.0,"20240624":0.0,"20240625":0.0,"20240626":0.11,"20240627":0.82,"20240628":0.2,"20240629":18.71,"20240630":0.17,"20240701":19.73,"20240702":17.77,"20240703":0.71,"20240704":8.58,"20240705":6.09,"20240706":27.74,"20240707":1.86,"20240708":2.13,"20240709":0.05,"20240710":9.6,"20240711":2.59,"20240712":5.43,"20240713":34.86,"20240714":0.0,"20240715":0.0,"20240716":0.06,"20240717":3.46,"20240718":2.79,"20240719":0.0,"20240720":1.62,"20240721":1.53,"20240722":13.21,"20240723":11.71,"20240724":9.19,"20240725":16.59,"20240726":16.45,"20240727":0.53,"20240728":9.57,"20240729":14.16,"20240730":5.2,"20240731":30.2,"20240801":31.9,"20240802":1.9,"20240803":0.31,"20240804":3.33,"20240805":0.68,"20240806":1.28,"20240807":3.67,"20240808":4.01,"20240809":81.99,"20240810":52.67,"20240811":24.76,"20240812":6.92,"20240813":0.71,"20240814":4.17,"20240815":4.91,"20240816":9.14,"20240817":17.17,"20240818":1.8,"20240819":6.76,"20240820":13.09,"20240821":6.7,"20240822":0.6,"20240823":1.18,"20240824":0.95,"20240825":0.16,"20240826":4.12,"20240827":13.57,"20240828":11.05,"20240829":16.75,"20240830":6.51,"20240831":0.03,"20240901":0.01,"20240902":8.48,"20240903":32.47,"20240904":2.7,"20240905":4.29,"20240906":6.63,"20240907":9.27,"20240908":0.53,"20240909":0.09,"20240910":1.07,"20240911":0.16,"20240912":0.1,"20240913":0.5,"20240914":0.02,"20240915":0.01,"20240916":0.0,"20240917":0.03,"20240918":0.0,"20240919":0.01,"20240920":0.0,"20240921":0.0,"20240922":0.0,"20240923":0.0,"20240924":0.0,"20240925":0.01,"20240926":0.48,"20240927":4.6,"20240928":4.79,"20240929":0.02,"20240930":0.0,"20241001":0.0,"20241002":0.0,"20241003":0.0,"20241004":0.0,"20241005":6.92,"20241006":3.59,"20241007":0.0,"20241008":0.0,"20241009":0.0,"20241010":0.0,"20241011":0.0,"20241012":0.0,"20241013":0.0,"20241014":0.0,"20241015":0.0,"20241016":0.0,"20241017":0.0,"20241018":0.0,"20241019":0.0,"20241020":0.0,"20241021":0.0,"20241022":0.0,"20241023":0.0,"20241024":0.0,"20241025":0.0,"20241026":0.0,"20241027":0.0,"20241028":0.0,"20241029":0.0,"20241030":0.0,"20241031":0.0,"20241101":0.0,"20241102":0.0,"20241103":0.0,"20241104":0.0,"20241105":0.0,"20241106":0.0,"20241107":0.0,"20241108":0.0,"20241109":0.0,"20241110":0.0,"20241111":0.21,"20241112":0.0,"20241113":0.0,"20241114":0.0,"20241115":0.0,"20241116":0.0,"20241117":0.0,"20241118":0.0,"20241119":0.0,"20241120":0.0,"20241121":0.0,"20241122":0.0,"20241123":0.0,"20241124":0.0,"20241125":0.0,"20241126":0.0,"20241127":0.0,"20241128":0.0,"20241129":0.0,"20241130":0.0,"20241201":0.0,"20241202":0.0,"20241203":0.0,"20241204":0.0,"20241205":0.0,"20241206":0.0,"20241207":0.0,"20241208":0.0,"20241209":0.0,"20241210":0.0,"20241211":0.0,"20241212":0.0,"20241213":0.0,"20241214":0.0,"20241215":0.0,"20241216":0.0,"20241217":0.0,"20241218":0.0,"20241219":0.0,"20241220":0.0,"20241221":0.0,"20241222":0.18,"20241223":1.45,"20241224":0.04,"20241225":0.0,"20241226":0.12,"20241227":11.15,"20241228":0.77,"20241229":0.0,"20241230":0.0,"20241231":0.0},"WS10M":{"20240101":1.93,"20240102":1.41,"20240103":1.74,"20240104":0.86,"20240105":0.74,"20240106":1.18,"20240107":1.14,"20240108":1.71,"20240109":2.15,"20240110":2.91,"20240111":1.7,"20240112":2.21,"20240113":1.17,"20240114":2.22,"20240115":1.29,"20240116":1.43,"20240117":0.99,"20240118":1.14,"20240119":1.47,"20240120":1.34,"20240121":2.26,"20240122":1.88,"20240123":1.34,"20240124":1.54,"20240125":1.49,"20240126":1.97,"20240127":2.91,"20240128":2.07,"20240129":1.79,"20240130":1.54,"20240131":3.52,"20240201":3.39,"20240202":2.83,"20240203":3.11,"20240204":2.24,"20240205":2.05,"20240206":1.97,"20240207":3.54,"20240208":4.19,"20240209":1.66,"20240210":1.36,"20240211":1.76,"20240212":1.76,"20240213":1.47,"20240214":1.99,"20240215":1.2,"20240216":1.17,"20240217":1.98,"20240218":4.47,"20240219":5.08,"20240220":2.79,"20240221":2.36,"20240222":2.61,"20240223":2.53,"20240224":2.31,"20240225":1.75,"20240226":1.81,"20240227":2.18,"20240228":3.18,"20240229":2.59,"20240301":3.59,"20240302":5.56,"20240303":3.74,"20240304":2.35,"20240305":2.9,"20240306":2.22,"20240307":1.89,"20240308":2.61,"20240309":2.93,"20240310":1.56,"20240311":2.22,"20240312":1.52,"20240313":1.91,"20240314":2.58,"20240315":3.43,"20240316":2.02,"20240317":3.01,"20240318":2.37,"20240319":1.82,"20240320":1.86,"20240321":2.71,"20240322":2.92,"20240323":2.71,"20240324":2.62,"20240325":3.16,"20240326":2.38,"20240327":2.64,"20240328":3.31,"20240329":2.27,"20240330":2.73,"20240331":3.71,"20240401":3.1,"20240402":2.79,"20240403":2.43,"20240404":2.18,"20240405":3.5,"20240406":2.91,"20240407":2.49,"20240408":1.47,"20240409":1.64,"20240410":2.19,"20240411":2.93,"20240412":2.49,"20240413":2.92,"20240414":2.85,"20240415":2.4,"20240416":3.39,"20240417":2.85,"20240418":2.26,"20240419":4.17,"20240420":2.9,"20240421":2.22,"20240422":3.25,"20240423":2.84,"20240424":1.68,"20240425":2.75,"20240426":3.08,"20240427":2.54,"20240428":2.28,"20240429":3.54,"20240430":4.41,"20240501":3.74,"20240502":3.33,"20240503":2.09,"20240504":4.15,"20240505":4.22,"20240506":3.06,"20240507":1.71,"20240508":2.31,"20240509":3.13,"20240510":2.67,"20240511":2.73,"20240512":3.33,"20240513":3.37,"20240514":2.7,"20240515":2.08,"20240516":2.62,"20240517":2.83,"20240518":4.08,"20240519":3.44,"20240520":2.94,"20240521":3.45,"20240522":1.98,"20240523":2.34,"20240524":2.03,"20240525":3.72,"20240526":3.28,"20240527":3.48,"20240528":2.34,"20240529":2.91,"20240530":3.2,"20240531":2.47,"20240601":2.85,"20240602":3.17,"20240603":3.3,"20240604":1.96,"20240605":3.79,"20240606":2.1,"20240607":3.12,"20240608":3.22,"20240609":3.63,"20240610":2.6,"20240611":2.44,"20240612":2.58,"20240613":4.53,"20240614":4.51,"20240615":4.37,"20240616":4.11,"20240617":4.79,"20240618":3.92,"20240619":3.04,"20240620":1.81,"20240621":2.42,"20240622":2.33,"20240623":2.45,"20240624":2.76,"20240625":2.59,"20240626":3.68,"20240627":3.0,"20240628":2.25,"20240629":2.26,"20240630":2.06,"20240701":2.7,"20240702":2.62,"20240703":3.81,"20240704":4.22,"20240705":3.19,"20240706":2.56,"20240707":1.82,"20240708":2.23,"20240709":1.46,"20240710":1.73,"20240711":2.2,"20240712":2.39,"20240713":1.35,"20240714":0.79,"20240715":1.03,"20240716":1.81,"20240717":1.92,"20240718":2.0,"20240719":1.28,"20240720":1.31,"20240721":1.74,"20240722":1.84,"20240723":1.49,"20240724":2.06,"20240725":1.67,"20240726":2.04,"20240727":2.45,"20240728":3.52,"20240729":2.51,"20240730":1.03,"20240731":2.23,"20240801":2.6,"20240802":1.65,"20240803":4.26,"20240804":2.36,"20240805":1.69,"20240806":1.77,"20240807":2.73,"20240808":2.28,"20240809":1.93,"20240810":3.12,"20240811":2.91,"20240812":1.97,"20240813":1.87,"20240814":1.88,"20240815":2.14,"20240816":2.14,"20240817":2.59,"20240818":1.61,"20240819":1.82,"20240820":1.7,"20240821":1.4,"20240822":1.18,"20240823":1.27,"20240824":0.86,"20240825":1.49,"20240826":1.88,"20240827":3.43,"20240828":2.67,"20240829":3.44,"20240830":2.21,"20240831":1.85,"20240901":1.6,"20240902":1.93,"20240903":1.51,"20240904":1.23,"20240905":0.91,"20240906":1.57,"20240907":0.74,"20240908":1.45,"20240909":1.23,"20240910":1.47,"20240911":1.58,"20240912":2.05,"20240913":2.66,"20240914":1.88,"20240915":1.31,"20240916":1.69,"20240917":1.77,"20240918":2.07,"20240919":2.6,"20240920":1.26,"20240921":1.46,"20240922":1.75,"20240923":1.34,"20240924":1.25,"20240925":1.67,"20240926":2.0,"20240927":2.37,"20240928":1.86,"20240929":1.76,"20240930":2.11,"20241001":2.03,"20241002":1.6,"20241003":1.83,"20241004":2.09,"20241005":2.09,"20241006":1.89,"20241007":2.04,"20241008":1.95,"20241009":2.63,"20241010":1.96,"20241011":1.75,"20241012":1.64,"20241013":1.88,"20241014":1.63,"20241015":2.2,"20241016":2.18,"20241017":1.81,"20241018":1.95,"20241019":1.74,"20241020":1.75,"20241021":1.8,"20241022":1.57,"20241023":2.99,"20241024":3.25,"20241025":3.15,"20241026":2.25,"20241027":1.85,"20241028":2.15,"20241029":2.06,"20241030":2.53,"20241031":3.43,"20241101":2.18,"20241102":1.86,"20241103":1.21,"20241104":1.67,"20241105":1.6,"20241106":1.49,"20241107":1.69,"20241108":1.66,"20241109":1.55,"20241110":1.32,"20241111":2.08,"20241112":2.2,"20241113":1.44,"20241114":1.8,"20241115":2.81,"20241116":2.48,"20241117":2.87,"20241118":2.48,"20241119":2.27,"20241120":1.6,"20241121":1.36,"20241122":1.86,"20241123":1.66,"20241124":2.4,"20241125":3.08,"20241126":2.14,"20241127":1.58,"20241128":1.58,"20241129":1.8,"20241130":2.5,"20241201":1.69,"20241202":1.88,"20241203":2.6,"20241204":3.35,"20241205":1.65,"20241206":2.53,"20241207":1.78,"20241208":2.83,"20241209":2.31,"20241210":2.49,"20241211":2.37,"20241212":2.89,"20241213":4.3,"20241214":2.99,"20241215":1.08,"20241216":1.22,"20241217":1.59,"20241218":2.09,"20241219":1.42,"20241220":2.19,"20241221":0.85,"20241222":1.6,"20241223":2.96,"20241224":2.19,"20241225":2.1,"20241226":1.84,"20241227":1.67,"20241228":1.96,"20241229":3.34,"20241230":2.62,"20241231":2.04},"RH2M":{"20240101":58.76,"20240102":52.06,"20240103":54.66,"20240104":50.09,"20240105":54.77,"20240106":59.48,"20240107":61.52,"20240108":62.94,"20240109":65.91,"20240110":59.97,"20240111":48.44,"20240112":50.02,"20240113":38.12,"20240114":45.12,"20240115":39.89,"20240116":46.21,"20240117":52.39,"20240118":49.9,"20240119":49.16,"20240120":51.91,"20240121":49.08,"20240122":47.39,"20240123":47.4,"20240124":45.34,"20240125":46.05,"20240126":50.15,"20240127":53.42,"20240128":50.98,"20240129":51.38,"20240130":59.11,"20240131":72.02,"20240201":81.55,"20240202":59.48,"20240203":63.38,"20240204":76.81,"20240205":53.55,"20240206":44.68,"20240207":49.48,"20240208":45.41,"20240209":39.02,"20240210":37.98,"20240211":37.25,"20240212":43.97,"20240213":39.61,"20240214":43.73,"20240215":34.37,"20240216":30.29,"20240217":36.65,"20240218":53.72,"20240219":60.54,"20240220":68.58,"20240221":55.36,"20240222":48.19,"20240223":38.81,"20240224":39.19,"20240225":43.56,"20240226":50.56,"20240227":51.53,"20240228":50.49,"20240229":49.58,"20240301":70.02,"20240302":71.03,"20240303":41.11,"20240304":38.9,"20240305":46.1,"20240306":43.03,"20240307":46.98,"20240308":47.45,"20240309":43.62,"20240310":36.4,"20240311":40.17,"20240312":36.59,"20240313":46.49,"20240314":52.9,"20240315":41.91,"20240316":33.46,"20240317":41.73,"20240318":36.15,"20240319":35.88,"20240320":32.18,"20240321":33.74,"20240322":44.99,"20240323":39.24,"20240324":40.35,"20240325":41.35,"20240326":34.8,"20240327":54.77,"20240328":65.84,"20240329":49.0,"20240330":65.09,"20240331":53.76,"20240401":41.76,"20240402":36.3,"20240403":33.01,"20240404":37.74,"20240405":37.73,"20240406":32.01,"20240407":30.75,"20240408":23.99,"20240409":24.44,"20240410":33.63,"20240411":35.63,"20240412":31.81,"20240413":46.12,"20240414":63.43,"20240415":59.42,"20240416":51.33,"20240417":38.33,"20240418":37.55,"20240419":49.25,"20240420":49.26,"20240421":40.17,"20240422":41.26,"20240423":37.51,"20240424":34.92,"20240425":35.19,"20240426":43.53,"20240427":51.83,"20240428":40.81,"20240429":54.06,"20240430":45.58,"20240501":38.13,"20240502":33.47,"20240503":31.24,"20240504":38.35,"20240505":38.67,"20240506":32.74,"20240507":23.04,"20240508":22.6,"20240509":28.07,"20240510":31.72,"20240511":37.36,"20240512":36.6,"20240513":27.34,"20240514":24.07,"20240515":21.77,"20240516":24.58,"20240517":23.12,"20240518":25.02,"20240519":24.64,"20240520":19.48,"20240521":18.94,"20240522":16.11,"20240523":18.61,"20240524":21.39,"20240525":20.32,"20240526":17.62,"20240527":12.11,"20240528":11.02,"20240529":11.33,"20240530":9.47,"20240531":9.54,"20240601":13.38,"20240602":14.75,"20240603":16.19,"20240604":15.79,"20240605":26.04,"20240606":29.81,"20240607":25.41,"20240608":22.11,"20240609":16.77,"20240610":15.28,"20240611":14.62,"20240612":14.56,"20240613":18.23,"20240614":20.63,"20240615":19.38,"20240616":19.99,"20240617":20.32,"20240618":21.73,"20240619":20.05,"20240620":25.12,"20240621":37.89,"20240622":31.9,"20240623":27.6,"20240624":23.88,"20240625":25.63,"20240626":27.85,"20240627":36.2,"20240628":35.01,"20240629":53.27,"20240630":46.09,"20240701":52.76,"20240702":57.25,"20240703":47.81,"20240704":60.16,"20240705":52.62,"20240706":67.3,"20240707":64.09,"20240708":54.01,"20240709":50.09,"20240710":53.28,"20240711":50.03,"20240712":53.29,"20240713":61.67,"20240714":47.46,"20240715":41.64,"20240716":49.04,"20240717":51.27,"20240718":51.58,"20240719":50.39,"20240720":49.32,"20240721":50.75,"20240722":54.76,"20240723":56.59,"20240724":65.38,"20240725":61.21,"20240726":66.66,"20240727":58.11,"20240728":68.36,"20240729":77.02,"20240730":67.12,"20240731":72.91,"20240801":79.36,"20240802":72.26,"20240803":77.77,"20240804":74.84,"20240805":71.18,"20240806":72.47,"20240807":73.34,"20240808":74.84,"20240809":78.34,"20240810":83.75,"20240811":90.63,"20240812":80.99,"20240813":82.61,"20240814":81.14,"20240815":83.75,"20240816":84.76,"20240817":92.18,"20240818":85.75,"20240819":83.48,"20240820":77.99,"20240821":79.41,"20240822":77.23,"20240823":76.42,"20240824":73.35,"20240825":79.09,"20240826":78.27,"20240827":83.67,"20240828":88.42,"20240829":87.08,"20240830":81.35,"20240831":79.02,"20240901":75.06,"20240902":80.42,"20240903":83.58,"20240904":78.93,"20240905":77.46,"20240906":80.17,"20240907":74.56,"20240908":76.86,"20240909":73.57,"20240910":75.73,"20240911":77.24,"20240912":76.21,"20240913":74.08,"20240914":75.71,"20240915":68.29,"20240916":69.04,"20240917":70.47,"20240918":75.84,"20240919":79.24,"20240920":69.15,"20240921":71.45,"20240922":73.66,"20240923":69.88,"20240924":66.6,"20240925":67.14,"20240926":73.09,"20240927":76.02,"20240928":72.78,"20240929":70.78,"20240930":69.88,"20241001":61.38,"20241002":59.42,"20241003":58.93,"20241004":59.64,"20241005":61.29,"20241006":65.91,"20241007":66.21,"20241008":67.68,"20241009":67.46,"20241010":56.69,"20241011":48.96,"20241012":49.77,"20241013":49.96,"20241014":45.54,"20241015":51.87,"20241016":54.77,"20241017":49.66,"20241018":51.0,"20241019":53.31,"20241020":57.74,"20241021":61.1,"20241022":59.95,"20241023":61.05,"20241024":60.78,"20241025":51.99,"20241026":47.98,"20241027":50.52,"20241028":57.7,"20241029":58.66,"20241030":54.9,"20241031":50.67,"20241101":40.78,"20241102":42.44,"20241103":42.59,"20241104":42.28,"20241105":49.19,"20241106":51.63,"20241107":56.42,"20241108":58.33,"20241109":60.93,"20241110":58.42,"20241111":59.15,"20241112":55.01,"20241113":51.22,"20241114":51.84,"20241115":57.5,"20241116":57.84,"20241117":52.75,"20241118":44.41,"20241119":40.6,"20241120":35.27,"20241121":34.87,"20241122":41.55,"20241123":44.86,"20241124":53.25,"20241125":52.65,"20241126":46.29,"20241127":40.08,"20241128":39.57,"20241129":43.71,"20241130":44.93,"20241201":49.86,"20241202":48.18,"20241203":54.8,"20241204":47.88,"20241205":36.14,"20241206":37.26,"20241207":33.95,"20241208":42.76,"20241209":40.9,"20241210":28.74,"20241211":27.98,"20241212":36.85,"20241213":38.23,"20241214":32.14,"20241215":27.7,"20241216":26.55,"20241217":31.84,"20241218":42.97,"20241219":41.23,"20241220":44.53,"20241221":38.43,"20241222":37.21,"20241223":73.72,"20241224":64.3,"20241225":50.26,"20241226":44.02,"20241227":73.36,"20241228":83.49,"20241229":61.39,"20241230":44.73,"20241231":39.61}}},"header":{"title":"NASA/POWER Source Native Resolution Daily Data","api":{"version":"v2.9.6","name":"POWER Daily API"},"sources":["MERRA2","POWER"],"fill_value":-999.0,"time_standard":"UTC","start":"20240101","end":"20241231"},"messages":[],"parameters":{"T2M":{"units":"C","longname":"Temperature at 2 Meters"},"T2M_MAX":{"units":"C","longname":"Temperature at 2 Meters Maximum"},"T2M_MIN":{"units":"C","longname":"Temperature at 2 Meters Minimum"},"PRECTOTCORR":{"units":"mm/day","longname":"Precipitation Corrected"},"WS10M":{"units":"m/s","longname":"Wind Speed at 10 Meters"},"RH2M":{"units":"%","longname":"Relative Humidity at 2 Meters"}},"times":{"data":0.871,"process":0.02}}