{"type":"Feature","geometry":{"type":"Point","coordinates":[-4.002,5.354,53.5]},"properties":{"parameter":{"T2M":{"20240101":27.53,"20240102":27.65,"20240103":27.14,"20240104":27.55,"20240105":26.98,"20240106":27.06,"20240107":27.31,"20240108":27.62,"20240109":27.37,"20240110":26.68,"20240111":27.2,"20240112":27.87,"20240113":27.7,"20240114":27.52,"20240115":27.52,"20240116":27.5,"20240117":27.16,"20240118":27.17,"20240119":27.76,"20240120":27.64,"20240121":28.17,"20240122":28.12,"20240123":27.72,"20240124":27.94,"20240125":28.2,"20240126":27.78,"20240127":26.6,"20240128":26.25,"20240129":26.88,"20240130":27.71,"20240131":28.2,"20240201":28.04,"20240202":28.54,"20240203":26.82,"20240204":27.25,"20240205":27.33,"20240206":26.92,"20240207":27.07,"20240208":27.42,"20240209":28.01,"20240210":28.19,"20240211":28.14,"20240212":28.62,"20240213":28.85,"20240214":29.2,"20240215":29.35,"20240216":28.78,"20240217":28.74,"20240218":28.74,"20240219":29.01,"20240220":29.05,"20240221":28.29,"20240222":29.68,"20240223":29.29,"20240224":29.26,"20240225":28.79,"20240226":28.5,"20240227":28.77,"20240228":28.87,"20240229":29.44,"20240301":27.55,"20240302":28.24,"20240303":27.18,"20240304":28.28,"20240305":28.42,"20240306":27.88,"20240307":27.42,"20240308":27.48,"20240309":28.0,"20240310":28.54,"20240311":28.74,"20240312":27.88,"20240313":27.82,"20240314":28.34,"20240315":28.64,"20240316":29.17,"20240317":28.77,"20240318":29.04,"20240319":28.48,"20240320":28.14,"20240321":29.04,"20240322":27.92,"20240323":27.47,"20240324":28.25,"20240325":28.41,"20240326":28.15,"20240327":28.67,"20240328":29.43,"20240329":27.81,"20240330":28.44,"20240331":28.6,"20240401":28.8,"20240402":28.6,"20240403":28.16,"20240404":28.79,"20240405":28.84,"20240406":28.84,"20240407":28.72,"20240408":27.98,"20240409":27.96,"20240410":28.24,"20240411":28.5,"20240412":28.58,"20240413":28.52,"20240414":29.08,"20240415":29.48,"20240416":29.11,"20240417":28.56,"20240418":29.48,"20240419":28.98,"20240420":29.44,"20240421":27.85,"20240422":28.89,"20240423":27.78,"20240424":28.67,"20240425":28.63,"20240426":28.41,"20240427":28.87,"20240428":28.62,"20240429":28.15,"20240430":29.37,"20240501":27.76,"20240502":27.81,"20240503":28.69,"20240504":28.81,"20240505":28.92,"20240506":27.58,"20240507":27.47,"20240508":28.48,"20240509":28.79,"20240510":28.29,"20240511":28.19,"20240512":27.46,"20240513":28.35,"20240514":28.22,"20240515":28.08,"20240516":27.02,"20240517":27.64,"20240518":27.94,"20240519":28.25,"20240520":28.22,"20240521":28.0,"20240522":27.39,"20240523":27.39,"20240524":27.21,"20240525":26.68,"20240526":26.39,"20240527":27.15,"20240528":27.6,"20240529":27.82,"20240530":27.81,"20240531":27.47,"20240601":27.21,"20240602":26.58,"20240603":26.71,"20240604":26.98,"20240605":26.94,"20240606":26.98,"20240607":26.69,"20240608":26.98,"20240609":26.93,"20240610":26.46,"20240611":26.61,"20240612":26.85,"20240613":26.64,"20240614":26.14,"20240615":26.37,"20240616":25.84,"20240617":26.48,"20240618":26.72,"20240619":26.59,"20240620":26.57,"20240621":26.29,"20240622":26.26,"20240623":26.42,"20240624":26.46,"20240625":26.07,"20240626":25.73,"20240627":26.08,"20240628":26.1,"20240629":26.13,"20240630":25.51,"20240701":25.83,"20240702":25.94,"20240703":25.62,"20240704":25.57,"20240705":25.76,"20240706":25.84,"20240707":25.9,"20240708":25.3,"20240709":24.96,"20240710":25.15,"20240711":25.13,"20240712":25.14,"20240713":25.12,"20240714":24.79,"20240715":24.83,"20240716":25.07,"20240717":24.71,"20240718":25.14,"20240719":25.54,"20240720":25.43,"20240721":25.08,"20240722":24.97,"20240723":25.09,"20240724":25.37,"20240725":25.19,"20240726":25.32,"20240727":25.47,"20240728":25.48,"20240729":24.74,"20240730":25.25,"20240731":25.22,"20240801":25.04,"20240802":24.65,"20240803":25.06,"20240804":25.47,"20240805":25.57,"20240806":25.31,"20240807":25.49,"20240808":25.35,"20240809":25.07,"20240810":25.23,"20240811":25.61,"20240812":25.43,"20240813":24.97,"20240814":25.52,"20240815":25.24,"20240816":25.4,"20240817":24.76,"20240818":25.12,"20240819":25.59,"20240820":24.91,"20240821":25.37,"20240822":25.56,"20240823":25.31,"20240824":24.77,"20240825":25.7,"20240826":25.43,"20240827":24.4,"20240828":24.82,"20240829":25.11,"20240830":25.27,"20240831":24.8,"20240901":25.1,"20240902":25.52,"20240903":25.25,"20240904":25.0,"20240905":25.68,"20240906":25.7,"20240907":26.36,"20240908":25.99,"20240909":26.42,"20240910":26.75,"20240911":26.03,"20240912":26.17,"20240913":26.66,"20240914":26.15,"20240915":26.27,"20240916":26.54,"20240917":26.78,"20240918":25.26,"20240919":26.22,"20240920":25.78,"20240921":27.53,"20240922":27.23,"20240923":26.47,"20240924":27.04,"20240925":27.07,"20240926":26.18,"20240927":26.84,"20240928":26.73,"20240929":26.57,"20240930":26.79,"20241001":26.65,"20241002":26.88,"20241003":26.88,"20241004":26.27,"20241005":25.37,"20241006":26.06,"20241007":26.33,"20241008":26.62,"20241009":26.61,"20241010":26.68,"20241011":26.93,"20241012":26.9,"20241013":26.39,"20241014":26.15,"20241015":26.36,"20241016":25.92,"20241017":25.55,"20241018":25.68,"20241019":25.99,"20241020":25.85,"20241021":26.33,"20241022":26.59,"20241023":26.52,"20241024":26.69,"20241025":26.9,"20241026":26.71,"20241027":26.57,"20241028":26.68,"20241029":26.37,"20241030":26.59,"20241031":26.96,"20241101":27.2,"20241102":26.77,"20241103":26.81,"20241104":27.26,"20241105":27.45,"20241106":26.77,"20241107":26.92,"20241108":26.58,"20241109":25.96,"20241110":26.22,"20241111":26.91,"20241112":26.98,"20241113":26.7,"20241114":26.68,"20241115":26.31,"20241116":26.96,"20241117":26.98,"20241118":26.92,"20241119":27.22,"20241120":27.31,"20241121":26.97,"20241122":27.12,"20241123":26.63,"20241124":27.15,"20241125":27.03,"20241126":26.79,"20241127":26.91,"20241128":27.07,"20241129":26.5,"20241130":26.94,"20241201":26.81,"20241202":27.28,"20241203":27.05,"20241204":26.44,"20241205":27.06,"20241206":26.94,"20241207":27.04,"20241208":26.9,"20241209":26.88,"20241210":27.03,"20241211":26.98,"20241212":26.92,"20241213":27.47,"20241214":27.29,"20241215":27.39,"20241216":27.41,"20241217":27.03,"20241218":26.67,"20241219":25.55,"20241220":24.83,"20241221":24.88,"20241222":25.07,"20241223":25.94,"20241224":26.6,"20241225":27.08,"20241226":27.26,"20241227":27.33,"20241228":27.42,"20241229":27.25,"20241230":27.74,"20241231":27.97},"T2M_MAX":{"20240101":31.19,"20240102":31.54,"20240103":30.07,"20240104":31.11,"20240105":29.44,"20240106":29.95,"20240107":29.88,"20240108":30.51,"20240109":29.98,"20240110":28.98,"20240111":30.2,"20240112":32.01,"20240113":31.23,"20240114":31.31,"20240115":31.27,"20240116":31.15,"20240117":31.47,"20240118":31.19,"20240119":31.76,"20240120":32.06,"20240121":32.56,"20240122":32.57,"20240123":31.55,"20240124":31.73,"20240125":31.58,"20240126":31.85,"20240127":32.05,"20240128":31.94,"20240129":31.81,"20240130":33.09,"20240131":32.9,"20240201":31.53,"20240202":33.02,"20240203":29.53,"20240204":31.48,"20240205":30.28,"20240206":29.67,"20240207":32.24,"20240208":31.56,"20240209":32.64,"20240210":31.74,"20240211":31.24,"20240212":32.01,"20240213":32.56,"20240214":33.35,"20240215":33.58,"20240216":32.59,"20240217":32.39,"20240218":32.99,"20240219":33.12,"20240220":32.64,"20240221":30.92,"20240222":34.61,"20240223":33.58,"20240224":34.71,"20240225":33.24,"20240226":32.18,"20240227":32.91,"20240228":33.25,"20240229":34.11,"20240301":29.58,"20240302":32.12,"20240303":29.09,"20240304":33.56,"20240305":33.33,"20240306":31.13,"20240307":30.16,"20240308":30.96,"20240309":32.18,"20240310":32.63,"20240311":32.63,"20240312":30.39,"20240313":30.78,"20240314":32.27,"20240315":32.6,"20240316":34.18,"20240317":32.0,"20240318":32.84,"20240319":32.18,"20240320":31.94,"20240321":33.59,"20240322":30.41,"20240323":30.46,"20240324":32.49,"20240325":32.3,"20240326":31.04,"20240327":31.85,"20240328":33.75,"20240329":30.12,"20240330":31.25,"20240331":31.57,"20240401":31.9,"20240402":31.77,"20240403":30.41,"20240404":33.45,"20240405":32.6,"20240406":31.84,"20240407":32.09,"20240408":30.34,"20240409":30.71,"20240410":31.07,"20240411":31.97,"20240412":31.98,"20240413":31.71,"20240414":33.19,"20240415":33.94,"20240416":32.5,"20240417":31.39,"20240418":33.79,"20240419":31.55,"20240420":32.9,"20240421":29.71,"20240422":33.05,"20240423":30.3,"20240424":32.83,"20240425":31.24,"20240426":30.89,"20240427":31.98,"20240428":31.36,"20240429":30.8,"20240430":33.35,"20240501":29.27,"20240502":30.54,"20240503":32.06,"20240504":32.4,"20240505":32.14,"20240506":29.41,"20240507":29.59,"20240508":31.86,"20240509":32.35,"20240510":31.16,"20240511":30.7,"20240512":29.27,"20240513":31.58,"20240514":31.48,"20240515":30.75,"20240516":28.93,"20240517":31.14,"20240518":30.79,"20240519":31.26,"20240520":30.89,"20240521":30.07,"20240522":29.24,"20240523":30.08,"20240524":29.73,"20240525":28.54,"20240526":28.63,"20240527":30.43,"20240528":31.27,"20240529":30.75,"20240530":30.34,"20240531":29.19,"20240601":29.47,"20240602":29.34,"20240603":29.56,"20240604":29.94,"20240605":29.58,"20240606":29.06,"20240607":28.47,"20240608":29.95,"20240609":30.03,"20240610":28.58,"20240611":29.41,"20240612":29.62,"20240613":29.51,"20240614":28.56,"20240615":29.22,"20240616":27.58,"20240617":29.58,"20240618":29.64,"20240619":29.04,"20240620":29.2,"20240621":29.03,"20240622":29.13,"20240623":29.35,"20240624":29.43,"20240625":28.32,"20240626":28.03,"20240627":29.17,"20240628":28.94,"20240629":29.01,"20240630":27.32,"20240701":28.02,"20240702":28.83,"20240703":28.28,"20240704":28.6,"20240705":29.17,"20240706":29.02,"20240707":28.7,"20240708":27.82,"20240709":26.97,"20240710":28.12,"20240711":28.06,"20240712":27.84,"20240713":27.83,"20240714":28.01,"20240715":27.99,"20240716":28.29,"20240717":27.17,"20240718":28.2,"20240719":29.22,"20240720":28.83,"20240721":28.7,"20240722":28.73,"20240723":28.77,"20240724":29.17,"20240725":28.5,"20240726":29.0,"20240727":29.75,"20240728":29.42,"20240729":27.39,"20240730":29.28,"20240731":29.08,"20240801":28.62,"20240802":27.95,"20240803":29.23,"20240804":29.94,"20240805":30.39,"20240806":28.93,"20240807":29.29,"20240808":29.16,"20240809":29.85,"20240810":29.13,"20240811":30.27,"20240812":29.54,"20240813":27.99,"20240814":29.53,"20240815":30.08,"20240816":30.67,"20240817":28.29,"20240818":28.98,"20240819":30.61,"20240820":27.97,"20240821":29.34,"20240822":29.77,"20240823":28.89,"20240824":27.81,"20240825":30.37,"20240826":29.69,"20240827":26.86,"20240828":28.29,"20240829":29.48,"20240830":29.8,"20240831":28.39,"20240901":29.45,"20240902":30.41,"20240903":29.75,"20240904":28.54,"20240905":30.42,"20240906":30.67,"20240907":31.93,"20240908":30.35,"20240909":31.49,"20240910":31.77,"20240911":29.58,"20240912":30.53,"20240913":31.86,"20240914":30.28,"20240915":31.31,"20240916":31.66,"20240917":31.84,"20240918":27.65,"20240919":30.71,"20240920":28.93,"20240921":33.78,"20240922":32.65,"20240923":30.36,"20240924":31.78,"20240925":32.02,"20240926":30.48,"20240927":31.3,"20240928":31.05,"20240929":30.27,"20240930":30.89,"20241001":30.91,"20241002":31.25,"20241003":31.49,"20241004":30.26,"20241005":27.37,"20241006":29.36,"20241007":29.85,"20241008":30.18,"20241009":30.58,"20241010":30.53,"20241011":31.16,"20241012":30.45,"20241013":28.85,"20241014":29.05,"20241015":29.76,"20241016":27.92,"20241017":27.62,"20241018":28.72,"20241019":29.2,"20241020":28.7,"20241021":29.61,"20241022":29.74,"20241023":29.38,"20241024":29.96,"20241025":30.18,"20241026":29.35,"20241027":29.08,"20241028":29.62,"20241029":28.47,"20241030":29.3,"20241031":30.05,"20241101":30.22,"20241102":29.62,"20241103":29.71,"20241104":30.42,"20241105":30.45,"20241106":30.44,"20241107":30.14,"20241108":29.25,"20241109":27.96,"20241110":28.71,"20241111":30.22,"20241112":30.03,"20241113":29.16,"20241114":29.0,"20241115":28.11,"20241116":30.16,"20241117":30.22,"20241118":29.77,"20241119":30.24,"20241120":29.98,"20241121":30.19,"20241122":30.34,"20241123":28.48,"20241124":30.11,"20241125":30.29,"20241126":30.33,"20241127":30.41,"20241128":30.24,"20241129":29.78,"20241130":30.21,"20241201":30.12,"20241202":30.78,"20241203":30.31,"20241204":28.61,"20241205":30.78,"20241206":30.07,"20241207":30.35,"20241208":30.18,"20241209":29.57,"20241210":30.28,"20241211":30.49,"20241212":30.14,"20241213":31.01,"20241214":30.76,"20241215":31.3,"20241216":31.06,"20241217":30.71,"20241218":29.92,"20241219":28.82,"20241220":28.66,"20241221":29.15,"20241222":30.01,"20241223":29.86,"20241224":30.54,"20241225":31.0,"20241226":30.85,"20241227":31.15,"20241228":31.41,"20241229":30.88,"20241230":31.41,"20241231":31.7},"T2M_MIN":{"20240101":24.87,"20240102":24.71,"20240103":25.2,"20240104":24.63,"20240105":25.18,"20240106":24.97,"20240107":25.02,"20240108":25.27,"20240109":25.7,"20240110":24.99,"20240111":25.2,"20240112":24.63,"20240113":24.9,"20240114":24.52,"20240115":24.64,"20240116":24.86,"20240117":24.09,"20240118":24.19,"20240119":24.7,"20240120":24.06,"20240121":24.58,"20240122":24.84,"20240123":24.74,"20240124":24.85,"20240125":25.98,"20240126":24.82,"20240127":22.53,"20240128":20.32,"20240129":22.69,"20240130":23.64,"20240131":24.46,"20240201":25.36,"20240202":25.18,"20240203":24.28,"20240204":23.85,"20240205":25.06,"20240206":24.63,"20240207":23.05,"20240208":24.33,"20240209":24.23,"20240210":25.46,"20240211":25.47,"20240212":25.99,"20240213":26.24,"20240214":26.04,"20240215":26.16,"20240216":26.21,"20240217":25.85,"20240218":25.73,"20240219":25.66,"20240220":26.42,"20240221":26.45,"20240222":26.1,"20240223":26.5,"20240224":25.27,"20240225":26.03,"20240226":25.84,"20240227":25.85,"20240228":26.02,"20240229":25.68,"20240301":25.95,"20240302":25.56,"20240303":25.37,"20240304":24.33,"20240305":24.75,"20240306":25.65,"20240307":25.73,"20240308":25.18,"20240309":24.93,"20240310":25.6,"20240311":25.87,"20240312":26.38,"20240313":25.63,"20240314":25.59,"20240315":26.0,"20240316":25.41,"20240317":26.25,"20240318":26.25,"20240319":26.27,"20240320":25.4,"20240321":25.56,"20240322":26.29,"20240323":25.81,"20240324":24.86,"20240325":25.47,"20240326":25.77,"20240327":26.28,"20240328":26.55,"20240329":26.52,"20240330":26.41,"20240331":26.28,"20240401":26.66,"20240402":26.08,"20240403":26.46,"20240404":24.74,"20240405":25.99,"20240406":26.88,"20240407":26.24,"20240408":26.29,"20240409":25.75,"20240410":26.09,"20240411":26.04,"20240412":25.82,"20240413":26.17,"20240414":26.23,"20240415":25.98,"20240416":26.61,"20240417":26.2,"20240418":26.17,"20240419":27.04,"20240420":27.06,"20240421":26.29,"20240422":25.92,"20240423":25.98,"20240424":25.3,"20240425":26.66,"20240426":26.41,"20240427":26.72,"20240428":26.83,"20240429":26.17,"20240430":25.99,"20240501":26.28,"20240502":25.45,"20240503":26.23,"20240504":26.43,"20240505":26.41,"20240506":26.38,"20240507":25.92,"20240508":25.94,"20240509":26.28,"20240510":26.1,"20240511":26.48,"20240512":26.1,"20240513":26.13,"20240514":25.97,"20240515":26.09,"20240516":25.54,"20240517":24.96,"20240518":25.56,"20240519":26.11,"20240520":26.39,"20240521":26.58,"20240522":25.85,"20240523":25.26,"20240524":25.4,"20240525":25.38,"20240526":24.91,"20240527":24.66,"20240528":24.61,"20240529":25.38,"20240530":25.88,"20240531":26.26,"20240601":25.68,"20240602":24.76,"20240603":24.47,"20240604":25.0,"20240605":24.79,"20240606":25.67,"20240607":25.19,"20240608":24.69,"20240609":24.67,"20240610":25.2,"20240611":24.84,"20240612":24.85,"20240613":24.78,"20240614":24.41,"20240615":23.98,"20240616":24.62,"20240617":24.1,"20240618":24.57,"20240619":24.64,"20240620":25.23,"20240621":24.63,"20240622":24.04,"20240623":24.32,"20240624":24.28,"20240625":24.66,"20240626":24.35,"20240627":23.5,"20240628":24.13,"20240629":24.01,"20240630":24.45,"20240701":24.05,"20240702":23.67,"20240703":23.96,"20240704":23.46,"20240705":22.67,"20240706":23.12,"20240707":23.95,"20240708":23.56,"20240709":23.87,"20240710":23.36,"20240711":23.13,"20240712":23.56,"20240713":23.27,"20240714":22.7,"20240715":22.46,"20240716":22.57,"20240717":23.01,"20240718":23.22,"20240719":22.94,"20240720":23.37,"20240721":22.97,"20240722":22.39,"20240723":22.58,"20240724":22.9,"20240725":22.91,"20240726":23.06,"20240727":22.89,"20240728":22.7,"20240729":23.32,"20240730":22.51,"20240731":22.67,"20240801":22.97,"20240802":22.67,"20240803":22.4,"20240804":22.03,"20240805":22.1,"20240806":22.85,"20240807":22.89,"20240808":22.8,"20240809":22.23,"20240810":22.87,"20240811":22.51,"20240812":23.07,"20240813":23.33,"20240814":22.98,"20240815":21.87,"20240816":21.72,"20240817":22.69,"20240818":22.36,"20240819":22.04,"20240820":23.08,"20240821":23.13,"20240822":22.27,"20240823":23.19,"20240824":22.94,"20240825":22.49,"20240826":22.71,"20240827":23.33,"20240828":22.82,"20240829":22.14,"20240830":22.09,"20240831":22.93,"20240901":22.57,"20240902":22.4,"20240903":21.79,"20240904":22.15,"20240905":22.44,"20240906":21.95,"20240907":22.01,"20240908":23.37,"20240909":22.79,"20240910":23.3,"20240911":23.98,"20240912":23.55,"20240913":22.91,"20240914":23.21,"20240915":23.4,"20240916":23.04,"20240917":23.17,"20240918":23.83,"20240919":23.39,"20240920":23.67,"20240921":22.88,"20240922":23.76,"20240923":24.25,"20240924":24.16,"20240925":24.08,"20240926":23.84,"20240927":24.01,"20240928":24.34,"20240929":24.13,"20240930":24.36,"20241001":24.33,"20241002":24.27,"20241003":24.14,"20241004":24.01,"20241005":24.34,"20241006":24.19,"20241007":23.88,"20241008":23.57,"20241009":23.59,"20241010":24.35,"20241011":24.06,"20241012":24.42,"20241013":24.47,"20241014":24.19,"20241015":23.91,"20241016":24.57,"20241017":24.11,"20241018":23.62,"20241019":23.56,"20241020":23.94,"20241021":23.92,"20241022":24.64,"20241023":24.8,"20241024":24.67,"20241025":24.51,"20241026":24.71,"20241027":24.68,"20241028":24.55,"20241029":25.02,"20241030":24.57,"20241031":24.72,"20241101":24.98,"20241102":24.76,"20241103":24.45,"20241104":25.01,"20241105":25.07,"20241106":23.71,"20241107":24.23,"20241108":24.49,"20241109":24.41,"20241110":24.43,"20241111":24.46,"20241112":24.69,"20241113":24.64,"20241114":24.88,"20241115":24.94,"20241116":24.28,"20241117":24.48,"20241118":24.47,"20241119":25.23,"20241120":24.73,"20241121":24.59,"20241122":24.56,"20241123":25.06,"20241124":25.02,"20241125":24.68,"20241126":23.86,"20241127":23.95,"20241128":24.63,"20241129":23.92,"20241130":23.98,"20241201":24.01,"20241202":24.44,"20241203":24.29,"20241204":24.55,"20241205":24.41,"20241206":24.54,"20241207":25.1,"20241208":24.31,"20241209":24.84,"20241210":24.45,"20241211":24.14,"20241212":24.67,"20241213":24.58,"20241214":24.88,"20241215":24.23,"20241216":24.58,"20241217":24.15,"20241218":24.29,"20241219":22.43,"20241220":21.41,"20241221":20.09,"20241222":20.42,"20241223":22.63,"20241224":23.61,"20241225":23.83,"20241226":24.88,"20241227":24.17,"20241228":24.51,"20241229":24.32,"20241230":24.77,"20241231":25.35},"PRECTOTCORR":{"20240101":2.01,"20240102":2.68,"20240103":3.4,"20240104":2.71,"20240105":2.3,"20240106":3.38,"20240107":4.62,"20240108":5.55,"20240109":14.91,"20240110":6.38,"20240111":0.76,"20240112":0.44,"20240113":0.67,"20240114":0.4,"20240115":0.69,"20240116":2.28,"20240117":0.58,"20240118":0.48,"20240119":0.69,"20240120":1.19,"20240121":0.7,"20240122":0.55,"20240123":0.95,"20240124":0.9,"20240125":1.68,"20240126":0.15,"20240127":0.08,"20240128":0.01,"20240129":0.0,"20240130":0.0,"20240131":0.08,"20240201":0.23,"20240202":0.17,"20240203":0.14,"20240204":0.07,"20240205":0.04,"20240206":0.02,"20240207":0.01,"20240208":0.01,"20240209":0.0,"20240210":0.17,"20240211":0.55,"20240212":1.57,"20240213":1.18,"20240214":0.9,"20240215":1.16,"20240216":0.72,"20240217":2.02,"20240218":0.97,"20240219":1.0,"20240220":1.04,"20240221":1.74,"20240222":0.65,"20240223":0.84,"20240224":0.4,"20240225":1.33,"20240226":2.86,"20240227":1.77,"20240228":1.93,"20240229":0.95,"20240301":15.11,"20240302":5.41,"20240303":19.16,"20240304":1.22,"20240305":2.78,"20240306":6.15,"20240307":8.25,"20240308":4.09,"20240309":4.06,"20240310":1.51,"20240311":3.12,"20240312":3.36,"20240313":2.53,"20240314":3.35,"20240315":1.0,"20240316":0.79,"20240317":7.7,"20240318":6.7,"20240319":13.58,"20240320":5.56,"20240321":1.86,"20240322":5.98,"20240323":5.64,"20240324":0.86,"20240325":2.22,"20240326":2.41,"20240327":1.96,"20240328":3.42,"20240329":6.1,"20240330":2.07,"20240331":1.89,"20240401":1.01,"20240402":1.28,"20240403":1.76,"20240404":0.67,"20240405":1.58,"20240406":4.21,"20240407":2.7,"20240408":5.26,"20240409":1.45,"20240410":6.02,"20240411":1.25,"20240412":1.26,"20240413":1.96,"20240414":1.54,"20240415":2.01,"20240416":4.95,"20240417":1.5,"20240418":0.48,"20240419":3.58,"20240420":1.92,"20240421":18.28,"20240422":0.26,"20240423":11.55,"20240424":0.63,"20240425":3.09,"20240426":2.91,"20240427":2.23,"20240428":4.84,"20240429":9.1,"20240430":0.79,"20240501":17.1,"20240502":0.3,"20240503":1.55,"20240504":1.83,"20240505":3.58,"20240506":35.76,"20240507":2.96,"20240508":2.99,"20240509":3.24,"20240510":2.85,"20240511":3.61,"20240512":4.97,"20240513":4.73,"20240514":1.63,"20240515":7.9,"20240516":23.85,"20240517":0.14,"20240518":2.56,"20240519":1.39,"20240520":3.3,"20240521":14.3,"20240522":18.81,"20240523":7.57,"20240524":4.08,"20240525":17.27,"20240526":9.63,"20240527":1.25,"20240528":0.53,"20240529":1.69,"20240530":4.45,"20240531":10.08,"20240601":9.18,"20240602":6.32,"20240603":4.48,"20240604":0.68,"20240605":3.96,"20240606":5.05,"20240607":4.82,"20240608":1.74,"20240609":6.09,"20240610":9.59,"20240611":9.85,"20240612":10.0,"20240613":18.02,"20240614":20.59,"20240615":3.18,"20240616":7.32,"20240617":1.77,"20240618":2.63,"20240619":3.72,"20240620":6.92,"20240621":4.19,"20240622":6.38,"20240623":1.99,"20240624":7.0,"20240625":10.48,"20240626":6.57,"20240627":8.12,"20240628":9.51,"20240629":6.46,"20240630":5.26,"20240701":1.48,"20240702":1.34,"20240703":1.51,"20240704":0.63,"20240705":0.38,"20240706":1.03,"20240707":3.28,"20240708":3.03,"20240709":7.06,"20240710":3.76,"20240711":3.98,"20240712":5.27,"20240713":1.48,"20240714":1.12,"20240715":0.07,"20240716":0.1,"20240717":0.21,"20240718":0.4,"20240719":0.24,"20240720":0.71,"20240721":0.25,"20240722":0.29,"20240723":0.18,"20240724":0.15,"20240725":0.25,"20240726":0.36,"20240727":0.54,"20240728":0.47,"20240729":0.81,"20240730":0.59,"20240731":0.65,"20240801":2.17,"20240802":1.47,"20240803":1.08,"20240804":0.04,"20240805":0.04,"20240806":0.05,"20240807":0.09,"20240808":0.07,"20240809":0.78,"20240810":0.86,"20240811":0.78,"20240812":2.38,"20240813":2.44,"20240814":0.63,"20240815":0.17,"20240816":0.06,"20240817":0.7,"20240818":0.2,"20240819":0.65,"20240820":1.81,"20240821":3.38,"20240822":1.3,"20240823":2.96,"20240824":3.43,"20240825":1.76,"20240826":2.53,"20240827":11.69,"20240828":4.09,"20240829":0.43,"20240830":0.43,"20240831":0.32,"20240901":0.63,"20240902":0.39,"20240903":0.1,"20240904":0.18,"20240905":0.18,"20240906":0.01,"20240907":0.03,"20240908":1.03,"20240909":0.6,"20240910":0.39,"20240911":3.37,"20240912":2.6,"20240913":0.25,"20240914":0.73,"20240915":0.64,"20240916":0.25,"20240917":0.25,"20240918":1.06,"20240919":1.77,"20240920":1.42,"20240921":0.19,"20240922":1.2,"20240923":2.96,"20240924":1.17,"20240925":4.49,"20240926":11.63,"20240927":3.12,"20240928":2.85,"20240929":3.7,"20240930":2.04,"20241001":12.11,"20241002":1.74,"20241003":2.97,"20241004":15.03,"20241005":20.65,"20241006":4.84,"20241007":1.63,"20241008":1.47,"20241009":9.31,"20241010":2.39,"20241011":6.95,"20241012":16.12,"20241013":132.25,"20241014":6.4,"20241015":3.98,"20241016":5.47,"20241017":7.05,"20241018":29.49,"20241019":23.85,"20241020":31.54,"20241021":28.89,"20241022":48.8,"20241023":22.41,"20241024":3.71,"20241025":1.91,"20241026":4.76,"20241027":7.95,"20241028":7.21,"20241029":25.5,"20241030":3.14,"20241031":3.97,"20241101":2.93,"20241102":3.62,"20241103":3.15,"20241104":6.45,"20241105":1.87,"20241106":1.61,"20241107":3.73,"20241108":3.81,"20241109":3.21,"20241110":4.85,"20241111":1.82,"20241112":7.09,"20241113":5.41,"20241114":5.09,"20241115":5.64,"20241116":1.65,"20241117":1.03,"20241118":0.06,"20241119":0.4,"20241120":0.67,"20241121":0.56,"20241122":0.67,"20241123":1.53,"20241124":0.37,"20241125":0.46,"20241126":0.26,"20241127":1.5,"20241128":1.75,"20241129":0.92,"20241130":1.4,"20241201":1.08,"20241202":0.7,"20241203":0.94,"20241204":1.06,"20241205":0.64,"20241206":1.02,"20241207":0.66,"20241208":0.59,"20241209":0.68,"20241210":0.29,"20241211":0.32,"20241212":2.92,"20241213":2.27,"20241214":1.28,"20241215":0.85,"20241216":2.65,"20241217":12.74,"20241218":11.64,"20241219":7.59,"20241220":16.04,"20241221":3.4,"20241222":0.0,"20241223":0.0,"20241224":0.04,"20241225":0.12,"20241226":0.25,"20241227":0.14,"20241228":0.25,"20241229":0.16,"20241230":0.21,"20241231":0.23},"WS10M":{"20240101":2.07,"20240102":2.45,"20240103":3.53,"20240104":2.16,"20240105":2.29,"20240106":2.24,"20240107":2.35,"20240108":2.36,"20240109":3.34,"20240110":2.55,"20240111":2.74,"20240112":2.24,"20240113":2.46,"20240114":2.44,"20240115":2.74,"20240116":2.57,"20240117":1.95,"20240118":2.29,"20240119":1.86,"20240120":2.3,"20240121":2.27,"20240122":2.95,"20240123":3.34,"20240124":2.47,"20240125":2.3,"20240126":2.75,"20240127":3.3,"20240128":2.43,"20240129":2.28,"20240130":2.44,"20240131":3.0,"20240201":3.01,"20240202":2.33,"20240203":1.34,"20240204":1.73,"20240205":1.77,"20240206":1.54,"20240207":2.47,"20240208":1.69,"20240209":2.89,"20240210":2.93,"20240211":2.42,"20240212":2.84,"20240213":2.9,"20240214":2.98,"20240215":3.33,"20240216":3.3,"20240217":3.06,"20240218":2.92,"20240219":2.81,"20240220":2.95,"20240221":3.51,"20240222":3.33,"20240223":4.64,"20240224":3.76,"20240225":3.26,"20240226":2.99,"20240227":3.03,"20240228":3.25,"20240229":3.72,"20240301":4.76,"20240302":3.48,"20240303":3.12,"20240304":2.3,"20240305":2.91,"20240306":4.12,"20240307":3.95,"20240308":3.51,"20240309":3.01,"20240310":2.65,"20240311":3.35,"20240312":3.71,"20240313":3.81,"20240314":3.67,"20240315":2.93,"20240316":3.21,"20240317":3.15,"20240318":3.23,"20240319":3.45,"20240320":3.17,"20240321":2.98,"20240322":3.76,"20240323":3.62,"20240324":2.88,"20240325":2.99,"20240326":2.71,"20240327":2.38,"20240328":3.26,"20240329":3.75,"20240330":3.86,"20240331":3.23,"20240401":3.02,"20240402":2.94,"20240403":3.15,"20240404":3.12,"20240405":4.11,"20240406":3.25,"20240407":2.99,"20240408":2.6,"20240409":2.95,"20240410":2.31,"20240411":2.46,"20240412":2.83,"20240413":3.22,"20240414":2.03,"20240415":2.58,"20240416":2.97,"20240417":3.55,"20240418":2.98,"20240419":3.52,"20240420":3.35,"20240421":3.5,"20240422":3.28,"20240423":3.45,"20240424":2.68,"20240425":3.34,"20240426":3.4,"20240427":2.58,"20240428":3.23,"20240429":2.49,"20240430":2.78,"20240501":3.81,"20240502":3.54,"20240503":2.91,"20240504":3.02,"20240505":3.26,"20240506":2.6,"20240507":2.37,"20240508":2.51,"20240509":2.55,"20240510":3.03,"20240511":2.97,"20240512":2.45,"20240513":1.9,"20240514":2.34,"20240515":2.58,"20240516":2.86,"20240517":2.53,"20240518":2.6,"20240519":3.31,"20240520":3.22,"20240521":3.33,"20240522":3.78,"20240523":2.87,"20240524":2.6,"20240525":3.34,"20240526":2.73,"20240527":2.69,"20240528":3.08,"20240529":3.46,"20240530":3.81,"20240531":3.71,"20240601":3.65,"20240602":3.16,"20240603":2.05,"20240604":3.19,"20240605":3.29,"20240606":3.91,"20240607":2.74,"20240608":2.46,"20240609":3.05,"20240610":3.49,"20240611":3.74,"20240612":3.44,"20240613":4.62,"20240614":4.69,"20240615":3.0,"20240616":2.99,"20240617":3.63,"20240618":3.08,"20240619":3.6,"20240620":4.46,"20240621":3.47,"20240622":3.1,"20240623":2.74,"20240624":3.6,"20240625":4.02,"20240626":3.41,"20240627":3.21,"20240628":4.1,"20240629":3.46,"20240630":3.99,"20240701":3.19,"20240702":3.96,"20240703":5.13,"20240704":3.64,"20240705":3.0,"20240706":3.45,"20240707":4.29,"20240708":3.84,"20240709":4.43,"20240710":4.11,"20240711":3.57,"20240712":4.35,"20240713":4.43,"20240714":3.85,"20240715":4.01,"20240716":4.17,"20240717":4.2,"20240718":4.46,"20240719":3.96,"20240720":5.44,"20240721":4.67,"20240722":3.8,"20240723":3.72,"20240724":3.68,"20240725":4.36,"20240726":4.41,"20240727":4.07,"20240728":4.51,"20240729":4.78,"20240730":4.18,"20240731":4.64,"20240801":5.57,"20240802":4.51,"20240803":4.12,"20240804":3.83,"20240805":3.74,"20240806":4.5,"20240807":4.86,"20240808":4.78,"20240809":3.85,"20240810":3.67,"20240811":4.21,"20240812":5.19,"20240813":5.78,"20240814":5.13,"20240815":4.23,"20240816":4.24,"20240817":5.25,"20240818":3.63,"20240819":3.83,"20240820":5.08,"20240821":4.22,"20240822":3.69,"20240823":5.62,"20240824":5.49,"20240825":2.8,"20240826":4.46,"20240827":5.34,"20240828":5.11,"20240829":3.79,"20240830":4.73,"20240831":5.34,"20240901":5.08,"20240902":4.08,"20240903":3.66,"20240904":4.17,"20240905":4.47,"20240906":4.25,"20240907":3.91,"20240908":4.72,"20240909":3.64,"20240910":3.96,"20240911":4.47,"20240912":4.72,"20240913":3.73,"20240914":3.81,"20240915":4.39,"20240916":3.88,"20240917":3.77,"20240918":3.76,"20240919":3.97,"20240920":3.41,"20240921":2.68,"20240922":3.71,"20240923":4.48,"20240924":4.69,"20240925":3.11,"20240926":4.1,"20240927":3.93,"20240928":4.24,"20240929":3.31,"20240930":3.46,"20241001":4.47,"20241002":4.41,"20241003":4.15,"20241004":4.05,"20241005":4.19,"20241006":5.05,"20241007":4.26,"20241008":2.15,"20241009":2.09,"20241010":2.87,"20241011":2.85,"20241012":3.02,"20241013":1.77,"20241014":2.48,"20241015":2.73,"20241016":3.1,"20241017":2.63,"20241018":2.58,"20241019":2.9,"20241020":3.2,"20241021":2.98,"20241022":3.54,"20241023":3.58,"20241024":2.48,"20241025":2.47,"20241026":2.55,"20241027":2.54,"20241028":2.74,"20241029":2.49,"20241030":2.68,"20241031":2.79,"20241101":1.76,"20241102":2.87,"20241103":2.74,"20241104":2.05,"20241105":2.09,"20241106":1.87,"20241107":2.18,"20241108":2.09,"20241109":2.64,"20241110":2.42,"20241111":2.61,"20241112":2.0,"20241113":1.82,"20241114":2.14,"20241115":2.98,"20241116":1.98,"20241117":2.32,"20241118":2.72,"20241119":2.49,"20241120":1.66,"20241121":2.01,"20241122":2.23,"20241123":2.32,"20241124":1.75,"20241125":1.72,"20241126":2.29,"20241127":2.06,"20241128":1.69,"20241129":2.66,"20241130":2.16,"20241201":2.0,"20241202":1.47,"20241203":2.13,"20241204":1.85,"20241205":2.1,"20241206":1.87,"20241207":1.96,"20241208":2.19,"20241209":1.97,"20241210":2.2,"20241211":2.8,"20241212":2.41,"20241213":2.1,"20241214":2.02,"20241215":2.0,"20241216":2.02,"20241217":2.18,"20241218":2.08,"20241219":2.32,"20241220":2.8,"20241221":2.72,"20241222":2.8,"20241223":1.83,"20241224":2.2,"20241225":2.33,"20241226":2.01,"20241227":2.43,"20241228":2.5,"20241229":2.5,"20241230":2.46,"20241231":2.11},"RH2M":{"20240101":82.36,"20240102":82.51,"20240103":84.77,"20240104":80.73,"20240105":86.45,"20240106":86.39,"20240107":85.55,"20240108":85.15,"20240109":87.59,"20240110":87.43,"20240111":85.7,"20240112":81.44,"20240113":82.86,"20240114":82.82,"20240115":82.38,"20240116":81.93,"20240117":79.97,"20240118":81.75,"20240119":75.14,"20240120":80.35,"20240121":80.33,"20240122":81.93,"20240123":82.18,"20240124":80.58,"20240125":80.52,"20240126":75.83,"20240127":64.05,"20240128":58.58,"20240129":68.43,"20240130":76.54,"20240131":79.5,"20240201":81.2,"20240202":73.88,"20240203":70.65,"20240204":68.35,"20240205":80.58,"20240206":81.14,"20240207":62.4,"20240208":75.83,"20240209":78.31,"20240210":81.04,"20240211":83.08,"20240212":82.87,"20240213":82.68,"20240214":80.9,"20240215":80.32,"20240216":80.73,"20240217":79.31,"20240218":78.66,"20240219":79.06,"20240220":79.69,"20240221":82.94,"20240222":72.47,"20240223":75.13,"20240224":75.03,"20240225":78.03,"20240226":79.44,"20240227":78.48,"20240228":77.96,"20240229":75.72,"20240301":86.43,"20240302":82.59,"20240303":88.29,"20240304":76.3,"20240305":79.85,"20240306":83.81,"20240307":86.63,"20240308":85.27,"20240309":83.14,"20240310":82.06,"20240311":82.1,"20240312":85.18,"20240313":85.4,"20240314":83.03,"20240315":81.53,"20240316":77.86,"20240317":83.46,"20240318":82.6,"20240319":84.29,"20240320":77.0,"20240321":74.49,"20240322":84.44,"20240323":82.14,"20240324":78.56,"20240325":80.34,"20240326":84.38,"20240327":83.51,"20240328":79.31,"20240329":86.8,"20240330":83.57,"20240331":83.41,"20240401":82.75,"20240402":83.42,"20240403":83.92,"20240404":77.77,"20240405":79.78,"20240406":79.26,"20240407":79.93,"20240408":85.29,"20240409":84.2,"20240410":83.98,"20240411":79.09,"20240412":78.58,"20240413":79.2,"20240414":76.02,"20240415":76.74,"20240416":79.76,"20240417":83.55,"20240418":78.18,"20240419":83.33,"20240420":79.18,"20240421":88.59,"20240422":75.88,"20240423":84.25,"20240424":73.25,"20240425":81.53,"20240426":84.73,"20240427":82.37,"20240428":84.32,"20240429":83.58,"20240430":79.45,"20240501":88.37,"20240502":81.33,"20240503":79.38,"20240504":81.52,"20240505":82.29,"20240506":90.16,"20240507":84.43,"20240508":78.23,"20240509":81.78,"20240510":85.18,"20240511":85.55,"20240512":88.4,"20240513":80.27,"20240514":81.09,"20240515":85.28,"20240516":88.76,"20240517":81.16,"20240518":81.03,"20240519":85.52,"20240520":86.28,"20240521":89.81,"20240522":90.42,"20240523":83.57,"20240524":86.48,"20240525":89.66,"20240526":88.29,"20240527":83.1,"20240528":81.48,"20240529":85.02,"20240530":86.69,"20240531":89.92,"20240601":90.0,"20240602":86.43,"20240603":85.34,"20240604":84.44,"20240605":87.94,"20240606":88.01,"20240607":87.05,"20240608":84.48,"20240609":85.71,"20240610":89.81,"20240611":87.5,"20240612":84.85,"20240613":87.09,"20240614":88.49,"20240615":86.1,"20240616":90.25,"20240617":86.31,"20240618":85.57,"20240619":88.51,"20240620":88.92,"20240621":87.98,"20240622":87.48,"20240623":87.52,"20240624":88.38,"20240625":89.69,"20240626":90.04,"20240627":88.2,"20240628":89.03,"20240629":87.94,"20240630":91.22,"20240701":88.97,"20240702":86.95,"20240703":86.73,"20240704":85.15,"20240705":84.18,"20240706":87.14,"20240707":88.13,"20240708":89.91,"20240709":91.26,"20240710":87.56,"20240711":88.12,"20240712":88.99,"20240713":86.98,"20240714":86.8,"20240715":85.21,"20240716":84.9,"20240717":86.86,"20240718":87.11,"20240719":85.34,"20240720":86.46,"20240721":84.58,"20240722":84.75,"20240723":84.57,"20240724":84.14,"20240725":84.34,"20240726":84.68,"20240727":84.88,"20240728":84.33,"20240729":87.18,"20240730":82.88,"20240731":83.64,"20240801":83.9,"20240802":84.56,"20240803":83.78,"20240804":81.42,"20240805":79.24,"20240806":81.74,"20240807":80.0,"20240808":80.02,"20240809":83.53,"20240810":84.67,"20240811":83.16,"20240812":84.28,"20240813":86.01,"20240814":81.76,"20240815":79.74,"20240816":80.13,"20240817":83.1,"20240818":80.81,"20240819":80.05,"20240820":84.61,"20240821":84.2,"20240822":82.44,"20240823":85.16,"20240824":86.02,"20240825":80.57,"20240826":82.91,"20240827":90.61,"20240828":85.4,"20240829":82.56,"20240830":81.09,"20240831":82.38,"20240901":81.87,"20240902":79.68,"20240903":80.85,"20240904":83.2,"20240905":78.1,"20240906":73.67,"20240907":74.6,"20240908":78.88,"20240909":77.58,"20240910":77.04,"20240911":82.72,"20240912":81.62,"20240913":77.65,"20240914":79.1,"20240915":78.71,"20240916":77.34,"20240917":77.37,"20240918":84.11,"20240919":79.51,"20240920":82.52,"20240921":74.21,"20240922":78.41,"20240923":82.34,"20240924":78.15,"20240925":77.56,"20240926":82.63,"20240927":79.7,"20240928":80.18,"20240929":81.07,"20240930":79.96,"20241001":81.51,"20241002":80.05,"20241003":79.12,"20241004":85.46,"20241005":90.42,"20241006":85.32,"20241007":82.63,"20241008":79.59,"20241009":83.36,"20241010":82.37,"20241011":82.07,"20241012":85.73,"20241013":88.04,"20241014":87.08,"20241015":87.44,"20241016":88.85,"20241017":89.73,"20241018":87.69,"20241019":86.0,"20241020":87.6,"20241021":87.87,"20241022":88.36,"20241023":88.54,"20241024":87.7,"20241025":86.72,"20241026":88.07,"20241027":89.45,"20241028":88.67,"20241029":90.17,"20241030":88.4,"20241031":86.71,"20241101":85.53,"20241102":88.05,"20241103":87.17,"20241104":85.86,"20241105":79.96,"20241106":82.54,"20241107":84.34,"20241108":86.67,"20241109":89.74,"20241110":88.62,"20241111":85.94,"20241112":86.84,"20241113":87.53,"20241114":87.72,"20241115":88.52,"20241116":84.25,"20241117":84.42,"20241118":84.97,"20241119":83.42,"20241120":80.95,"20241121":85.48,"20241122":84.84,"20241123":86.94,"20241124":81.97,"20241125":82.26,"20241126":83.82,"20241127":82.83,"20241128":81.11,"20241129":82.73,"20241130":80.56,"20241201":76.9,"20241202":77.3,"20241203":83.33,"20241204":85.69,"20241205":81.02,"20241206":82.83,"20241207":83.03,"20241208":82.11,"20241209":82.96,"20241210":81.75,"20241211":84.85,"20241212":85.02,"20241213":82.14,"20241214":83.26,"20241215":82.29,"20241216":81.77,"20241217":82.47,"20241218":81.75,"20241219":74.17,"20241220":71.13,"20241221":63.68,"20241222":64.11,"20241223":73.14,"20241224":82.97,"20241225":82.93,"20241226":82.76,"20241227":82.09,"20241228":82.3,"20241229":83.73,"20241230":81.89,"20241231":80.43}}},"header":{"title":"NASA/POWER Source Native Resolution Daily Data","api":{"version":"v2.9.6","name":"POWER Daily API"},"sources":["MERRA2","POWER"],"fill_value":-999.0,"time_standard":"UTC","start":"20240101","end":"20241231"},"messages":[],"parameters":{"T2M":{"units":"C","longname":"Temperature at 2 Meters"},"T2M_MAX":{"units":"C","longname":"Temperature at 2 Meters Maximum"},"T2M_MIN":{"units":"C","longname":"Temperature at 2 Meters Minimum"},"PRECTOTCORR":{"units":"mm/day","longname":"Precipitation Corrected"},"WS10M":{"units":"m/s","longname":"Wind Speed at 10 Meters"},"RH2M":{"units":"%","longname":"Relative Humidity at 2 Meters"}},"times":{"data":0.798,"process":0.01}}