{"type":"Feature","geometry":{"type":"Point","coordinates":[126.978,37.566,73.25]},"properties":{"parameter":{"T2M":{"20240101":2.36,"20240102":1.95,"20240103":0.03,"20240104":2.46,"20240105":0.61,"20240106":-1.11,"20240107":-7.08,"20240108":-2.91,"20240109":-1.43,"20240110":-1.48,"20240111":0.59,"20240112":-1.77,"20240113":-0.91,"20240114":-3.62,"20240115":-5.71,"20240116":-0.8,"20240117":0.52,"20240118":1.54,"20240119":2.53,"20240120":0.89,"20240121":-1.9,"20240122":-11.0,"20240123":-11.08,"20240124":-8.68,"20240125":-5.48,"20240126":-2.26,"20240127":-1.32,"20240128":-2.26,"20240129":-0.91,"20240130":1.52,"20240131":1.05,"20240201":1.05,"20240202":1.08,"20240203":2.91,"20240204":3.61,"20240205":0.25,"20240206":-0.28,"20240207":-0.49,"20240208":0.03,"20240209":0.34,"20240210":0.11,"20240211":0.02,"20240212":2.13,"20240213":5.78,"20240214":7.4,"20240215":-0.26,"20240216":1.1,"20240217":3.27,"20240218":8.21,"20240219":4.59,"20240220":3.62,"20240221":1.13,"20240222":-0.41,"20240223":-0.06,"20240224":1.28,"20240225":0.72,"20240226":1.84,"20240227":2.22,"20240228":3.82,"20240229":0.37,"20240301":-4.18,"20240302":1.88,"20240303":1.55,"20240304":4.53,"20240305":3.86,"20240306":3.44,"20240307":1.6,"20240308":0.24,"20240309":0.8,"20240310":3.16,"20240311":4.39,"20240312":3.5,"20240313":4.29,"20240314":5.24,"20240315":5.7,"20240316":8.46,"20240317":3.56,"20240318":5.13,"20240319":4.0,"20240320":1.94,"20240321":4.43,"20240322":9.15,"20240323":9.83,"20240324":10.88,"20240325":6.99,"20240326":6.56,"20240327":8.98,"20240328":7.39,"20240329":5.66,"20240330":6.65,"20240331":7.72,"20240401":9.81,"20240402":13.41,"20240403":11.54,"20240404":10.72,"20240405":9.57,"20240406":9.41,"20240407":12.61,"20240408":10.98,"20240409":10.42,"20240410":11.46,"20240411":12.74,"20240412":13.82,"20240413":16.29,"20240414":18.08,"20240415":12.25,"20240416":11.2,"20240417":13.14,"20240418":13.92,"20240419":14.91,"20240420":13.56,"20240421":14.12,"20240422":15.23,"20240423":14.34,"20240424":11.53,"20240425":13.48,"20240426":14.96,"20240427":15.72,"20240428":18.12,"20240429":15.57,"20240430":15.25,"20240501":14.67,"20240502":15.04,"20240503":16.68,"20240504":18.71,"20240505":16.4,"20240506":13.72,"20240507":12.35,"20240508":13.77,"20240509":13.88,"20240510":15.24,"20240511":14.96,"20240512":14.86,"20240513":15.35,"20240514":15.48,"20240515":10.84,"20240516":13.42,"20240517":15.93,"20240518":18.24,"20240519":18.53,"20240520":17.33,"20240521":19.24,"20240522":17.57,"20240523":17.5,"20240524":18.92,"20240525":18.02,"20240526":16.99,"20240527":16.76,"20240528":18.94,"20240529":18.86,"20240530":19.7,"20240531":18.19,"20240601":17.89,"20240602":18.75,"20240603":18.73,"20240604":20.46,"20240605":21.14,"20240606":20.37,"20240607":20.1,"20240608":19.89,"20240609":20.82,"20240610":22.01,"20240611":21.72,"20240612":22.71,"20240613":24.02,"20240614":23.59,"20240615":21.33,"20240616":21.49,"20240617":21.78,"20240618":22.85,"20240619":26.18,"20240620":25.29,"20240621":24.64,"20240622":23.18,"20240623":24.02,"20240624":21.93,"20240625":21.4,"20240626":23.27,"20240627":24.44,"20240628":24.47,"20240629":25.18,"20240630":23.19,"20240701":24.6,"20240702":24.23,"20240703":23.43,"20240704":24.99,"20240705":23.35,"20240706":24.71,"20240707":24.09,"20240708":23.97,"20240709":23.45,"20240710":25.46,"20240711":24.2,"20240712":25.91,"20240713":26.04,"20240714":25.26,"20240715":25.71,"20240716":25.73,"20240717":26.21,"20240718":24.74,"20240719":25.29,"20240720":25.85,"20240721":26.41,"20240722":26.32,"20240723":25.96,"20240724":26.51,"20240725":28.23,"20240726":27.78,"20240727":27.61,"20240728":27.47,"20240729":26.8,"20240730":27.11,"20240731":28.01,"20240801":28.26,"20240802":27.23,"20240803":28.66,"20240804":29.8,"20240805":28.16,"20240806":28.23,"20240807":28.26,"20240808":26.62,"20240809":28.24,"20240810":28.29,"20240811":28.57,"20240812":28.74,"20240813":29.06,"20240814":29.05,"20240815":28.54,"20240816":28.92,"20240817":28.8,"20240818":28.59,"20240819":28.9,"20240820":29.5,"20240821":27.96,"20240822":27.52,"20240823":27.05,"20240824":27.48,"20240825":27.8,"20240826":26.7,"20240827":25.58,"20240828":25.96,"20240829":25.55,"20240830":25.34,"20240831":26.31,"20240901":25.23,"20240902":23.82,"20240903":24.22,"20240904":25.61,"20240905":25.5,"20240906":24.72,"20240907":25.08,"20240908":25.84,"20240909":27.16,"20240910":27.64,"20240911":26.82,"20240912":25.18,"20240913":26.46,"20240914":26.34,"20240915":24.66,"20240916":26.28,"20240917":27.63,"20240918":27.95,"20240919":28.16,"20240920":23.38,"20240921":19.34,"20240922":19.01,"20240923":18.13,"20240924":20.11,"20240925":22.46,"20240926":22.23,"20240927":20.7,"20240928":20.87,"20240929":21.15,"20240930":21.97,"20241001":14.97,"20241002":14.03,"20241003":16.16,"20241004":17.04,"20241005":16.5,"20241006":16.84,"20241007":17.03,"20241008":17.06,"20241009":17.86,"20241010":17.91,"20241011":17.29,"20241012":16.77,"20241013":17.76,"20241014":17.82,"20241015":17.05,"20241016":17.29,"20241017":17.98,"20241018":17.06,"20241019":12.42,"20241020":11.95,"20241021":16.13,"20241022":15.53,"20241023":10.35,"20241024":11.84,"20241025":15.57,"20241026":16.71,"20241027":14.87,"20241028":14.29,"20241029":14.7,"20241030":13.8,"20241031":15.25,"20241101":13.87,"20241102":15.25,"20241103":16.52,"20241104":10.24,"20241105":7.03,"20241106":5.5,"20241107":7.82,"20241108":10.33,"20241109":13.08,"20241110":12.12,"20241111":13.24,"20241112":10.47,"20241113":13.0,"20241114":13.76,"20241115":14.28,"20241116":12.59,"20241117":3.12,"20241118":1.98,"20241119":4.36,"20241120":7.93,"20241121":7.44,"20241122":3.9,"20241123":5.04,"20241124":6.4,"20241125":9.93,"20241126":4.22,"20241127":1.11,"20241128":-0.72,"20241129":0.49,"20241130":5.04,"20241201":6.47,"20241202":2.48,"20241203":0.33,"20241204":1.01,"20241205":2.36,"20241206":-0.02,"20241207":-1.56,"20241208":-1.55,"20241209":0.42,"20241210":1.52,"20241211":0.22,"20241212":-0.37,"20241213":-1.96,"20241214":-0.98,"20241215":-0.57,"20241216":-0.59,"20241217":-2.76,"20241218":-4.42,"20241219":-0.42,"20241220":1.41,"20241221":-3.91,"20241222":-3.54,"20241223":-1.36,"20241224":-0.06,"20241225":1.83,"20241226":-3.92,"20241227":-4.18,"20241228":-3.16,"20241229":1.81,"20241230":2.04,"20241231":-0.41},"T2M_MAX":{"20240101":5.59,"20240102":3.77,"20240103":4.24,"20240104":4.96,"20240105":6.78,"20240106":3.16,"20240107":-2.57,"20240108":-1.81,"20240109":1.85,"20240110":2.92,"20240111":4.76,"20240112":2.88,"20240113":2.79,"20240114":3.36,"20240115":-0.73,"20240116":1.24,"20240117":2.25,"20240118":6.79,"20240119":7.43,"20240120":3.48,"20240121":5.31,"20240122":-7.38,"20240123":-8.98,"20240124":-4.82,"20240125":-1.59,"20240126":2.07,"20240127":2.71,"20240128":1.13,"20240129":2.61,"20240130":5.09,"20240131":6.96,"20240201":5.91,"20240202":4.69,"20240203":6.3,"20240204":8.12,"20240205":4.1,"20240206":3.41,"20240207":2.1,"20240208":3.73,"20240209":3.82,"20240210":4.56,"20240211":3.73,"20240212":6.67,"20240213":11.04,"20240214":13.86,"20240215":3.21,"20240216":5.32,"20240217":7.53,"20240218":10.51,"20240219":13.08,"20240220":7.52,"20240221":4.18,"20240222":2.91,"20240223":4.59,"20240224":4.45,"20240225":4.8,"20240226":6.59,"20240227":6.23,"20240228":6.49,"20240229":6.65,"20240301":-1.85,"20240302":3.59,"20240303":6.46,"20240304":9.49,"20240305":8.33,"20240306":7.22,"20240307":5.69,"20240308":4.65,"20240309":5.17,"20240310":7.8,"20240311":7.15,"20240312":8.13,"20240313":9.5,"20240314":11.44,"20240315":11.77,"20240316":13.71,"20240317":9.61,"20240318":9.72,"20240319":9.62,"20240320":6.07,"20240321":8.55,"20240322":13.13,"20240323":14.8,"20240324":17.8,"20240325":13.39,"20240326":10.76,"20240327":13.04,"20240328":10.92,"20240329":11.22,"20240330":13.87,"20240331":14.35,"20240401":14.76,"20240402":18.95,"20240403":14.77,"20240404":14.94,"20240405":14.97,"20240406":13.05,"20240407":18.32,"20240408":15.65,"20240409":16.61,"20240410":14.84,"20240411":18.73,"20240412":19.79,"20240413":22.72,"20240414":24.62,"20240415":17.0,"20240416":16.19,"20240417":18.73,"20240418":21.79,"20240419":19.5,"20240420":17.02,"20240421":17.1,"20240422":20.99,"20240423":20.31,"20240424":15.45,"20240425":17.81,"20240426":22.79,"20240427":21.29,"20240428":24.57,"20240429":20.77,"20240430":19.88,"20240501":19.47,"20240502":20.43,"20240503":23.33,"20240504":23.43,"20240505":19.46,"20240506":15.3,"20240507":17.14,"20240508":18.26,"20240509":18.96,"20240510":20.51,"20240511":20.81,"20240512":19.88,"20240513":21.7,"20240514":21.34,"20240515":18.36,"20240516":18.02,"20240517":20.8,"20240518":22.71,"20240519":25.53,"20240520":21.28,"20240521":25.23,"20240522":22.28,"20240523":22.3,"20240524":24.05,"20240525":22.22,"20240526":20.28,"20240527":20.85,"20240528":22.45,"20240529":23.8,"20240530":23.79,"20240531":22.25,"20240601":22.83,"20240602":23.34,"20240603":24.6,"20240604":25.96,"20240605":26.54,"20240606":26.57,"20240607":24.16,"20240608":23.25,"20240609":25.03,"20240610":26.71,"20240611":26.57,"20240612":28.48,"20240613":28.88,"20240614":28.65,"20240615":25.14,"20240616":26.97,"20240617":26.37,"20240618":27.37,"20240619":31.43,"20240620":31.02,"20240621":28.61,"20240622":25.08,"20240623":27.46,"20240624":26.46,"20240625":25.05,"20240626":27.68,"20240627":28.46,"20240628":29.15,"20240629":28.63,"20240630":27.06,"20240701":28.07,"20240702":25.57,"20240703":26.01,"20240704":28.6,"20240705":25.53,"20240706":29.31,"20240707":26.52,"20240708":25.81,"20240709":25.3,"20240710":29.61,"20240711":28.04,"20240712":29.73,"20240713":29.77,"20240714":29.47,"20240715":29.18,"20240716":28.62,"20240717":28.35,"20240718":26.55,"20240719":28.32,"20240720":27.6,"20240721":28.95,"20240722":27.9,"20240723":27.75,"20240724":29.16,"20240725":30.9,"20240726":30.32,"20240727":29.14,"20240728":30.05,"20240729":28.67,"20240730":29.6,"20240731":30.95,"20240801":30.61,"20240802":29.18,"20240803":31.56,"20240804":33.31,"20240805":31.55,"20240806":30.29,"20240807":31.27,"20240808":28.36,"20240809":31.89,"20240810":31.69,"20240811":31.59,"20240812":32.26,"20240813":33.26,"20240814":33.56,"20240815":31.99,"20240816":32.7,"20240817":31.9,"20240818":31.66,"20240819":31.81,"20240820":33.01,"20240821":29.13,"20240822":30.28,"20240823":29.78,"20240824":30.33,"20240825":31.01,"20240826":30.72,"20240827":28.82,"20240828":30.57,"20240829":30.3,"20240830":30.19,"20240831":30.19,"20240901":28.76,"20240902":27.05,"20240903":28.99,"20240904":29.11,"20240905":28.74,"20240906":27.88,"20240907":28.76,"20240908":29.15,"20240909":30.66,"20240910":31.3,"20240911":31.62,"20240912":27.81,"20240913":28.39,"20240914":28.94,"20240915":29.81,"20240916":29.56,"20240917":31.65,"20240918":30.23,"20240919":30.81,"20240920":28.22,"20240921":23.04,"20240922":24.14,"20240923":23.8,"20240924":24.26,"20240925":25.11,"20240926":26.4,"20240927":24.97,"20240928":26.18,"20240929":26.39,"20240930":25.66,"20241001":20.28,"20241002":18.35,"20241003":20.77,"20241004":21.17,"20241005":20.03,"20241006":19.42,"20241007":20.79,"20241008":21.22,"20241009":21.81,"20241010":21.11,"20241011":22.04,"20241012":21.83,"20241013":21.19,"20241014":21.23,"20241015":21.75,"20241016":22.16,"20241017":23.34,"20241018":19.5,"20241019":17.99,"20241020":16.65,"20241021":19.19,"20241022":18.68,"20241023":15.35,"20241024":16.99,"20241025":20.33,"20241026":21.68,"20241027":18.56,"20241028":18.86,"20241029":16.89,"20241030":19.16,"20241031":20.37,"20241101":16.5,"20241102":21.3,"20241103":20.51,"20241104":16.5,"20241105":11.62,"20241106":10.25,"20241107":13.31,"20241108":15.42,"20241109":17.83,"20241110":18.27,"20241111":18.77,"20241112":16.59,"20241113":17.76,"20241114":17.17,"20241115":18.91,"20241116":18.76,"20241117":8.32,"20241118":6.03,"20241119":9.18,"20241120":10.39,"20241121":12.53,"20241122":8.65,"20241123":10.31,"20241124":11.32,"20241125":13.47,"20241126":7.91,"20241127":2.32,"20241128":3.36,"20241129":3.43,"20241130":10.03,"20241201":9.24,"20241202":11.36,"20241203":3.17,"20241204":4.91,"20241205":7.38,"20241206":3.76,"20241207":2.28,"20241208":1.87,"20241209":4.71,"20241210":5.45,"20241211":4.83,"20241212":3.22,"20241213":1.81,"20241214":1.26,"20241215":4.19,"20241216":3.85,"20241217":2.0,"20241218":-1.03,"20241219":1.26,"20241220":3.33,"20241221":0.56,"20241222":-0.4,"20241223":4.8,"20241224":1.65,"20241225":4.42,"20241226":0.2,"20241227":0.23,"20241228":-0.89,"20241229":3.84,"20241230":7.84,"20241231":1.92},"T2M_MIN":{"20240101":0.86,"20240102":0.95,"20240103":-2.4,"20240104":0.13,"20240105":-3.09,"20240106":-5.94,"20240107":-10.82,"20240108":-7.75,"20240109":-5.99,"20240110":-3.55,"20240111":-4.09,"20240112":-5.78,"20240113":-3.88,"20240114":-9.89,"20240115":-8.52,"20240116":-5.62,"20240117":-1.7,"20240118":-0.66,"20240119":0.08,"20240120":-1.25,"20240121":-8.64,"20240122":-14.48,"20240123":-12.46,"20240124":-11.68,"20240125":-8.35,"20240126":-6.16,"20240127":-4.58,"20240128":-5.51,"20240129":-5.23,"20240130":-2.03,"20240131":-2.87,"20240201":-1.14,"20240202":-1.19,"20240203":0.97,"20240204":1.23,"20240205":-2.24,"20240206":-2.66,"20240207":-1.92,"20240208":-2.28,"20240209":-1.7,"20240210":-2.42,"20240211":-2.88,"20240212":-0.06,"20240213":2.87,"20240214":2.7,"20240215":-2.97,"20240216":-2.44,"20240217":-0.29,"20240218":4.76,"20240219":-0.59,"20240220":1.15,"20240221":-1.06,"20240222":-2.32,"20240223":-3.11,"20240224":-0.77,"20240225":-2.54,"20240226":-1.17,"20240227":-0.81,"20240228":1.51,"20240229":-6.01,"20240301":-5.6,"20240302":-0.49,"20240303":-2.13,"20240304":1.95,"20240305":0.09,"20240306":0.71,"20240307":-2.35,"20240308":-3.47,"20240309":-1.78,"20240310":0.07,"20240311":2.08,"20240312":-1.03,"20240313":1.67,"20240314":1.3,"20240315":1.69,"20240316":5.63,"20240317":-1.87,"20240318":1.84,"20240319":-1.65,"20240320":-1.6,"20240321":1.54,"20240322":6.15,"20240323":5.93,"20240324":5.78,"20240325":2.02,"20240326":2.6,"20240327":6.36,"20240328":2.22,"20240329":1.45,"20240330":1.33,"20240331":1.87,"20240401":5.15,"20240402":9.83,"20240403":9.09,"20240404":7.75,"20240405":6.45,"20240406":5.7,"20240407":9.02,"20240408":5.8,"20240409":5.41,"20240410":9.36,"20240411":8.45,"20240412":8.29,"20240413":10.79,"20240414":13.43,"20240415":9.3,"20240416":7.2,"20240417":8.63,"20240418":7.16,"20240419":12.01,"20240420":11.0,"20240421":10.94,"20240422":9.49,"20240423":10.42,"20240424":8.23,"20240425":9.4,"20240426":9.01,"20240427":10.67,"20240428":12.92,"20240429":11.26,"20240430":11.45,"20240501":8.78,"20240502":9.57,"20240503":10.24,"20240504":15.16,"20240505":13.43,"20240506":12.58,"20240507":8.05,"20240508":9.81,"20240509":9.77,"20240510":10.83,"20240511":9.37,"20240512":10.01,"20240513":8.96,"20240514":9.54,"20240515":6.62,"20240516":9.21,"20240517":11.38,"20240518":13.91,"20240519":13.58,"20240520":13.7,"20240521":12.85,"20240522":13.31,"20240523":13.59,"20240524":14.53,"20240525":14.28,"20240526":12.66,"20240527":12.27,"20240528":14.02,"20240529":14.66,"20240530":15.41,"20240531":14.98,"20240601":12.2,"20240602":13.31,"20240603":12.51,"20240604":15.02,"20240605":16.92,"20240606":16.06,"20240607":16.85,"20240608":16.45,"20240609":16.9,"20240610":18.27,"20240611":16.73,"20240612":17.95,"20240613":19.27,"20240614":20.05,"20240615":16.64,"20240616":17.05,"20240617":17.82,"20240618":18.71,"20240619":20.63,"20240620":20.39,"20240621":21.17,"20240622":21.05,"20240623":21.34,"20240624":17.28,"20240625":18.02,"20240626":19.33,"20240627":20.24,"20240628":20.41,"20240629":23.14,"20240630":20.5,"20240701":21.81,"20240702":22.6,"20240703":21.13,"20240704":21.45,"20240705":21.15,"20240706":20.93,"20240707":22.5,"20240708":22.52,"20240709":21.19,"20240710":22.52,"20240711":20.9,"20240712":22.59,"20240713":22.44,"20240714":21.22,"20240715":22.59,"20240716":24.06,"20240717":24.94,"20240718":22.69,"20240719":23.36,"20240720":23.63,"20240721":24.93,"20240722":24.85,"20240723":24.69,"20240724":24.17,"20240725":25.69,"20240726":25.73,"20240727":26.15,"20240728":25.46,"20240729":25.13,"20240730":24.56,"20240731":25.7,"20240801":26.62,"20240802":25.1,"20240803":25.58,"20240804":25.85,"20240805":25.41,"20240806":25.72,"20240807":25.93,"20240808":24.42,"20240809":25.0,"20240810":25.3,"20240811":25.19,"20240812":25.84,"20240813":25.33,"20240814":24.87,"20240815":24.86,"20240816":25.09,"20240817":25.22,"20240818":24.69,"20240819":25.98,"20240820":27.03,"20240821":26.83,"20240822":25.37,"20240823":25.05,"20240824":24.27,"20240825":24.87,"20240826":23.55,"20240827":21.65,"20240828":21.82,"20240829":21.72,"20240830":20.6,"20240831":22.12,"20240901":22.3,"20240902":21.06,"20240903":19.56,"20240904":22.45,"20240905":23.0,"20240906":21.72,"20240907":22.39,"20240908":22.59,"20240909":23.34,"20240910":24.77,"20240911":23.27,"20240912":23.6,"20240913":25.25,"20240914":24.07,"20240915":21.43,"20240916":23.31,"20240917":25.21,"20240918":25.67,"20240919":25.33,"20240920":17.54,"20240921":16.79,"20240922":14.87,"20240923":12.78,"20240924":16.89,"20240925":20.47,"20240926":18.8,"20240927":17.31,"20240928":16.84,"20240929":15.92,"20240930":18.83,"20241001":9.95,"20241002":11.17,"20241003":11.81,"20241004":13.89,"20241005":12.79,"20241006":14.04,"20241007":13.37,"20241008":13.03,"20241009":14.42,"20241010":14.5,"20241011":13.31,"20241012":11.42,"20241013":15.64,"20241014":16.19,"20241015":11.83,"20241016":14.04,"20241017":14.48,"20241018":14.86,"20241019":7.58,"20241020":8.9,"20241021":14.0,"20241022":11.53,"20241023":6.14,"20241024":7.63,"20241025":11.51,"20241026":12.51,"20241027":11.43,"20241028":10.63,"20241029":10.91,"20241030":9.85,"20241031":11.78,"20241101":12.28,"20241102":10.32,"20241103":14.18,"20241104":5.42,"20241105":3.24,"20241106":2.51,"20241107":4.15,"20241108":7.06,"20241109":9.87,"20241110":7.72,"20241111":7.87,"20241112":6.91,"20241113":8.84,"20241114":10.5,"20241115":11.34,"20241116":5.42,"20241117":-1.94,"20241118":0.05,"20241119":0.96,"20241120":5.38,"20241121":1.33,"20241122":0.94,"20241123":1.46,"20241124":2.0,"20241125":5.96,"20241126":0.61,"20241127":-0.99,"20241128":-4.36,"20241129":-1.38,"20241130":1.47,"20241201":2.81,"20241202":-3.61,"20241203":-2.75,"20241204":-0.99,"20241205":-2.45,"20241206":-2.56,"20241207":-4.97,"20241208":-3.24,"20241209":-3.06,"20241210":-0.47,"20241211":-3.43,"20241212":-1.91,"20241213":-5.26,"20241214":-2.83,"20241215":-3.1,"20241216":-4.25,"20241217":-7.56,"20241218":-6.71,"20241219":-3.82,"20241220":-0.78,"20241221":-7.86,"20241222":-5.54,"20241223":-6.54,"20241224":-3.31,"20241225":-2.83,"20241226":-8.25,"20241227":-8.42,"20241228":-5.45,"20241229":-2.12,"20241230":-2.66,"20241231":-2.18},"PRECTOTCORR":{"20240101":0.44,"20240102":0.08,"20240103":0.38,"20240104":0.01,"20240105":0.0,"20240106":0.78,"20240107":0.0,"20240108":0.25,"20240109":2.19,"20240110":0.01,"20240111":0.0,"20240112":0.0,"20240113":0.0,"20240114":4.5,"20240115":0.0,"20240116":0.0,"20240117":9.75,"20240118":0.04,"20240119":0.1,"20240120":4.67,"20240121":1.3,"20240122":0.09,"20240123":0.11,"20240124":0.0,"20240125":0.0,"20240126":0.0,"20240127":0.0,"20240128":0.0,"20240129":0.0,"20240130":0.0,"20240131":0.03,"20240201":0.7,"20240202":0.11,"20240203":0.23,"20240204":3.35,"20240205":6.92,"20240206":0.57,"20240207":0.01,"20240208":0.0,"20240209":0.0,"20240210":0.0,"20240211":0.01,"20240212":0.0,"20240213":0.05,"20240214":2.99,"20240215":6.62,"20240216":0.0,"20240217":0.02,"20240218":24.73,"20240219":1.39,"20240220":10.79,"20240221":11.2,"20240222":1.16,"20240223":0.01,"20240224":3.62,"20240225":0.07,"20240226":0.07,"20240227":0.17,"20240228":0.02,"20240229":0.07,"20240301":0.0,"20240302":0.37,"20240303":0.02,"20240304":0.25,"20240305":0.26,"20240306":0.56,"20240307":0.25,"20240308":0.0,"20240309":0.0,"20240310":0.0,"20240311":0.22,"20240312":0.77,"20240313":0.03,"20240314":0.06,"20240315":0.04,"20240316":0.13,"20240317":0.0,"20240318":0.01,"20240319":2.5,"20240320":0.26,"20240321":0.03,"20240322":4.98,"20240323":0.06,"20240324":0.0,"20240325":15.69,"20240326":0.04,"20240327":3.2,"20240328":2.91,"20240329":1.77,"20240330":0.0,"20240331":0.0,"20240401":0.0,"20240402":0.75,"20240403":2.82,"20240404":0.14,"20240405":0.02,"20240406":0.0,"20240407":0.0,"20240408":0.0,"20240409":0.0,"20240410":0.01,"20240411":0.05,"20240412":0.05,"20240413":0.0,"20240414":16.14,"20240415":12.17,"20240416":0.1,"20240417":0.0,"20240418":0.02,"20240419":0.07,"20240420":6.73,"20240421":1.47,"20240422":0.06,"20240423":10.72,"20240424":1.41,"20240425":0.0,"20240426":0.0,"20240427":0.0,"20240428":0.0,"20240429":0.05,"20240430":0.02,"20240501":0.0,"20240502":0.01,"20240503":0.0,"20240504":6.14,"20240505":34.71,"20240506":8.12,"20240507":3.42,"20240508":0.59,"20240509":0.2,"20240510":0.13,"20240511":24.33,"20240512":0.0,"20240513":0.07,"20240514":0.11,"20240515":25.75,"20240516":0.75,"20240517":0.0,"20240518":0.19,"20240519":0.7,"20240520":2.29,"20240521":0.01,"20240522":0.0,"20240523":0.02,"20240524":0.01,"20240525":0.05,"20240526":17.25,"20240527":0.01,"20240528":0.0,"20240529":0.0,"20240530":0.07,"20240531":1.76,"20240601":0.14,"20240602":0.62,"20240603":0.01,"20240604":0.0,"20240605":0.0,"20240606":0.01,"20240607":8.35,"20240608":2.75,"20240609":0.17,"20240610":0.01,"20240611":0.0,"20240612":0.0,"20240613":0.0,"20240614":0.76,"20240615":5.41,"20240616":0.04,"20240617":0.17,"20240618":0.28,"20240619":0.02,"20240620":0.0,"20240621":5.95,"20240622":27.85,"20240623":5.91,"20240624":0.09,"20240625":0.02,"20240626":0.0,"20240627":0.0,"20240628":0.0,"20240629":29.97,"20240630":2.67,"20240701":12.18,"20240702":63.68,"20240703":2.36,"20240704":8.12,"20240705":3.29,"20240706":7.81,"20240707":25.12,"20240708":27.19,"20240709":84.07,"20240710":3.04,"20240711":1.65,"20240712":2.69,"20240713":4.77,"20240714":1.44,"20240715":7.59,"20240716":46.89,"20240717":57.01,"20240718":52.07,"20240719":8.52,"20240720":13.02,"20240721":5.45,"20240722":26.32,"20240723":66.8,"20240724":2.62,"20240725":7.93,"20240726":19.49,"20240727":8.58,"20240728":0.89,"20240729":2.19,"20240730":0.53,"20240731":0.32,"20240801":2.44,"20240802":2.94,"20240803":0.05,"20240804":3.38,"20240805":13.13,"20240806":9.4,"20240807":3.34,"20240808":3.33,"20240809":0.03,"20240810":1.11,"20240811":1.32,"20240812":5.72,"20240813":2.49,"20240814":1.98,"20240815":1.68,"20240816":0.77,"20240817":9.0,"20240818":1.84,"20240819":4.89,"20240820":19.78,"20240821":19.17,"20240822":8.49,"20240823":1.3,"20240824":0.79,"20240825":1.06,"20240826":2.9,"20240827":0.35,"20240828":0.15,"20240829":2.37,"20240830":0.25,"20240831":0.0,"20240901":2.36,"20240902":11.22,"20240903":0.31,"20240904":0.69,"20240905":3.48,"20240906":1.92,"20240907":0.16,"20240908":0.0,"20240909":0.09,"20240910":0.01,"20240911":19.71,"20240912":4.1,"20240913":11.65,"20240914":5.47,"20240915":7.39,"20240916":2.38,"20240917":2.73,"20240918":6.26,"20240919":8.18,"20240920":85.32,"20240921":13.42,"20240922":2.84,"20240923":0.0,"20240924":0.16,"20240925":1.21,"20240926":1.7,"20240927":2.29,"20240928":2.37,"20240929":0.03,"20240930":2.87,"20241001":0.31,"20241002":0.0,"20241003":1.46,"20241004":0.0,"20241005":0.0,"20241006":0.17,"20241007":0.25,"20241008":0.91,"20241009":0.56,"20241010":0.51,"20241011":0.0,"20241012":0.01,"20241013":0.2,"20241014":8.11,"20241015":1.01,"20241016":0.66,"20241017":0.34,"20241018":62.28,"20241019":0.46,"20241020":0.0,"20241021":10.87,"20241022":17.51,"20241023":0.01,"20241024":0.02,"20241025":0.0,"20241026":0.09,"20241027":0.66,"20241028":0.6,"20241029":0.09,"20241030":0.0,"20241031":0.15,"20241101":0.04,"20241102":0.08,"20241103":1.27,"20241104":0.23,"20241105":4.1,"20241106":0.0,"20241107":0.0,"20241108":0.0,"20241109":0.0,"20241110":0.02,"20241111":0.28,"20241112":0.0,"20241113":0.02,"20241114":3.4,"20241115":0.05,"20241116":4.04,"20241117":0.0,"20241118":0.0,"20241119":0.0,"20241120":1.59,"20241121":0.24,"20241122":0.01,"20241123":0.18,"20241124":0.04,"20241125":19.98,"20241126":9.69,"20241127":15.9,"20241128":2.07,"20241129":0.89,"20241130":0.26,"20241201":0.99,"20241202":0.32,"20241203":0.31,"20241204":0.02,"20241205":1.83,"20241206":0.01,"20241207":0.04,"20241208":0.0,"20241209":0.0,"20241210":0.0,"20241211":0.84,"20241212":0.02,"20241213":0.11,"20241214":0.12,"20241215":0.09,"20241216":0.15,"20241217":0.05,"20241218":0.34,"20241219":0.01,"20241220":2.45,"20241221":0.06,"20241222":0.0,"20241223":0.0,"20241224":0.0,"20241225":0.1,"20241226":0.0,"20241227":0.03,"20241228":0.02,"20241229":0.02,"20241230":0.01,"20241231":0.0},"WS10M":{"20240101":2.48,"20240102":1.97,"20240103":3.06,"20240104":4.69,"20240105":3.91,"20240106":5.11,"20240107":5.49,"20240108":2.16,"20240109":2.83,"20240110":2.05,"20240111":4.41,"20240112":3.86,"20240113":2.94,"20240114":6.28,"20240115":4.36,"20240116":1.04,"20240117":3.04,"20240118":4.52,"20240119":5.78,"20240120":6.55,"20240121":6.95,"20240122":9.59,"20240123":8.94,"20240124":7.09,"20240125":4.15,"20240126":2.51,"20240127":2.95,"20240128":2.41,"20240129":1.95,"20240130":2.04,"20240131":3.97,"20240201":3.85,"20240202":3.06,"20240203":2.34,"20240204":4.89,"20240205":5.66,"20240206":2.66,"20240207":1.48,"20240208":2.09,"20240209":3.1,"20240210":3.63,"20240211":3.87,"20240212":4.58,"20240213":5.59,"20240214":3.69,"20240215":4.6,"20240216":2.53,"20240217":3.23,"20240218":4.99,"20240219":4.81,"20240220":6.14,"20240221":7.35,"20240222":6.14,"20240223":5.47,"20240224":3.62,"20240225":3.01,"20240226":3.88,"20240227":4.28,"20240228":2.14,"20240229":6.89,"20240301":6.86,"20240302":6.93,"20240303":3.33,"20240304":2.67,"20240305":4.72,"20240306":4.13,"20240307":5.2,"20240308":6.28,"20240309":3.08,"20240310":2.83,"20240311":2.77,"20240312":2.55,"20240313":4.13,"20240314":3.68,"20240315":3.9,"20240316":3.61,"20240317":6.48,"20240318":3.37,"20240319":8.48,"20240320":4.99,"20240321":3.66,"20240322":6.43,"20240323":3.73,"20240324":3.88,"20240325":6.63,"20240326":2.46,"20240327":2.64,"20240328":4.06,"20240329":6.23,"20240330":3.65,"20240331":3.36,"20240401":2.84,"20240402":2.92,"20240403":4.08,"20240404":5.06,"20240405":3.1,"20240406":1.91,"20240407":1.9,"20240408":3.94,"20240409":5.77,"20240410":2.51,"20240411":1.85,"20240412":2.62,"20240413":2.39,"20240414":3.42,"20240415":5.01,"20240416":3.05,"20240417":2.38,"20240418":3.19,"20240419":2.78,"20240420":6.07,"20240421":4.99,"20240422":4.24,"20240423":4.58,"20240424":3.45,"20240425":2.0,"20240426":2.0,"20240427":2.63,"20240428":3.2,"20240429":3.58,"20240430":3.57,"20240501":2.67,"20240502":3.13,"20240503":2.64,"20240504":2.91,"20240505":7.32,"20240506":6.19,"20240507":5.32,"20240508":3.04,"20240509":5.08,"20240510":5.98,"20240511":6.18,"20240512":4.23,"20240513":3.14,"20240514":3.64,"20240515":6.73,"20240516":4.71,"20240517":4.27,"20240518":2.77,"20240519":2.03,"20240520":2.64,"20240521":1.96,"20240522":2.52,"20240523":2.78,"20240524":2.84,"20240525":3.6,"20240526":5.93,"20240527":5.56,"20240528":2.65,"20240529":2.66,"20240530":1.82,"20240531":3.93,"20240601":4.18,"20240602":3.35,"20240603":3.75,"20240604":2.11,"20240605":1.73,"20240606":1.69,"20240607":1.88,"20240608":2.55,"20240609":2.41,"20240610":3.73,"20240611":2.66,"20240612":1.89,"20240613":1.51,"20240614":2.6,"20240615":3.14,"20240616":3.64,"20240617":3.28,"20240618":2.77,"20240619":1.34,"20240620":2.26,"20240621":1.77,"20240622":3.73,"20240623":3.97,"20240624":4.65,"20240625":4.02,"20240626":1.9,"20240627":1.56,"20240628":1.74,"20240629":6.05,"20240630":5.1,"20240701":2.99,"20240702":8.13,"20240703":5.22,"20240704":7.12,"20240705":4.14,"20240706":6.82,"20240707":3.56,"20240708":2.53,"20240709":4.32,"20240710":3.08,"20240711":2.12,"20240712":1.82,"20240713":3.72,"20240714":3.92,"20240715":3.47,"20240716":4.88,"20240717":7.44,"20240718":4.56,"20240719":3.21,"20240720":8.33,"20240721":4.92,"20240722":8.2,"20240723":5.14,"20240724":3.59,"20240725":2.26,"20240726":3.99,"20240727":4.42,"20240728":7.17,"20240729":5.73,"20240730":3.9,"20240731":4.17,"20240801":3.84,"20240802":2.94,"20240803":2.21,"20240804":1.7,"20240805":1.69,"20240806":1.68,"20240807":1.82,"20240808":1.58,"20240809":1.68,"20240810":3.24,"20240811":3.08,"20240812":1.91,"20240813":2.26,"20240814":2.58,"20240815":2.44,"20240816":2.07,"20240817":1.81,"20240818":2.57,"20240819":2.59,"20240820":4.25,"20240821":6.03,"20240822":6.92,"20240823":2.82,"20240824":1.79,"20240825":1.78,"20240826":3.11,"20240827":3.48,"20240828":4.56,"20240829":4.72,"20240830":3.51,"20240831":1.86,"20240901":2.37,"20240902":5.28,"20240903":3.77,"20240904":2.87,"20240905":4.16,"20240906":3.61,"20240907":1.76,"20240908":2.12,"20240909":2.3,"20240910":2.26,"20240911":3.39,"20240912":3.47,"20240913":3.25,"20240914":2.54,"20240915":6.17,"20240916":2.15,"20240917":1.89,"20240918":1.62,"20240919":1.8,"20240920":6.47,"20240921":8.3,"20240922":5.66,"20240923":4.4,"20240924":2.99,"20240925":1.83,"20240926":2.08,"20240927":4.65,"20240928":5.09,"20240929":3.6,"20240930":3.08,"20241001":5.86,"20241002":3.88,"20241003":2.82,"20241004":1.9,"20241005":2.18,"20241006":1.62,"20241007":2.62,"20241008":2.88,"20241009":3.67,"20241010":1.82,"20241011":2.16,"20241012":2.41,"20241013":3.78,"20241014":3.16,"20241015":2.71,"20241016":1.63,"20241017":3.17,"20241018":4.86,"20241019":7.12,"20241020":5.24,"20241021":2.85,"20241022":6.99,"20241023":5.6,"20241024":3.97,"20241025":2.76,"20241026":3.41,"20241027":2.87,"20241028":5.44,"20241029":1.89,"20241030":3.06,"20241031":2.03,"20241101":3.32,"20241102":4.43,"20241103":4.48,"20241104":5.31,"20241105":5.38,"20241106":3.86,"20241107":2.36,"20241108":2.52,"20241109":2.41,"20241110":2.65,"20241111":2.44,"20241112":3.48,"20241113":3.22,"20241114":2.27,"20241115":3.6,"20241116":5.93,"20241117":8.5,"20241118":4.03,"20241119":2.52,"20241120":1.6,"20241121":4.69,"20241122":4.66,"20241123":3.16,"20241124":2.5,"20241125":6.37,"20241126":8.35,"20241127":5.69,"20241128":4.48,"20241129":3.9,"20241130":3.79,"20241201":4.39,"20241202":6.25,"20241203":4.23,"20241204":3.51,"20241205":5.15,"20241206":5.08,"20241207":5.89,"20241208":3.62,"20241209":2.74,"20241210":3.46,"20241211":4.1,"20241212":3.51,"20241213":4.72,"20241214":4.52,"20241215":4.53,"20241216":3.35,"20241217":4.66,"20241218":3.41,"20241219":1.0,"20241220":3.67,"20241221":7.97,"20241222":4.19,"20241223":4.09,"20241224":1.57,"20241225":4.7,"20241226":7.08,"20241227":5.13,"20241228":3.63,"20241229":3.68,"20241230":5.71,"20241231":3.71},"RH2M":{"20240101":90.0,"20240102":80.93,"20240103":86.69,"20240104":86.69,"20240105":82.52,"20240106":75.89,"20240107":71.04,"20240108":75.91,"20240109":92.46,"20240110":80.23,"20240111":91.23,"20240112":74.5,"20240113":71.11,"20240114":85.29,"20240115":71.31,"20240116":50.95,"20240117":84.73,"20240118":83.13,"20240119":80.14,"20240120":86.9,"20240121":76.51,"20240122":80.63,"20240123":80.48,"20240124":77.77,"20240125":75.15,"20240126":83.41,"20240127":79.32,"20240128":78.4,"20240129":79.84,"20240130":74.88,"20240131":82.28,"20240201":80.23,"20240202":86.16,"20240203":88.94,"20240204":81.84,"20240205":83.23,"20240206":86.77,"20240207":81.48,"20240208":76.32,"20240209":83.33,"20240210":81.66,"20240211":84.48,"20240212":85.08,"20240213":92.51,"20240214":93.98,"20240215":86.38,"20240216":73.64,"20240217":74.58,"20240218":87.96,"20240219":87.6,"20240220":83.39,"20240221":84.44,"20240222":79.87,"20240223":79.35,"20240224":82.8,"20240225":86.68,"20240226":77.18,"20240227":77.74,"20240228":84.92,"20240229":75.27,"20240301":63.29,"20240302":79.94,"20240303":78.87,"20240304":63.75,"20240305":86.66,"20240306":82.79,"20240307":85.67,"20240308":74.14,"20240309":67.29,"20240310":73.9,"20240311":86.13,"20240312":87.26,"20240313":84.16,"20240314":83.46,"20240315":85.57,"20240316":77.11,"20240317":68.47,"20240318":69.71,"20240319":81.45,"20240320":71.84,"20240321":68.35,"20240322":84.13,"20240323":77.4,"20240324":73.94,"20240325":81.04,"20240326":81.14,"20240327":84.31,"20240328":90.21,"20240329":87.61,"20240330":67.46,"20240331":61.7,"20240401":66.55,"20240402":71.53,"20240403":85.33,"20240404":77.47,"20240405":80.22,"20240406":67.03,"20240407":51.75,"20240408":73.75,"20240409":71.31,"20240410":83.58,"20240411":78.72,"20240412":83.47,"20240413":69.53,"20240414":71.42,"20240415":92.46,"20240416":85.75,"20240417":77.11,"20240418":72.71,"20240419":77.58,"20240420":85.01,"20240421":81.92,"20240422":75.82,"20240423":78.17,"20240424":87.37,"20240425":73.97,"20240426":67.75,"20240427":70.75,"20240428":68.03,"20240429":81.1,"20240430":79.83,"20240501":74.2,"20240502":76.11,"20240503":68.21,"20240504":70.04,"20240505":93.36,"20240506":90.31,"20240507":79.41,"20240508":78.44,"20240509":79.33,"20240510":74.8,"20240511":87.47,"20240512":71.81,"20240513":72.99,"20240514":72.82,"20240515":82.73,"20240516":77.87,"20240517":81.78,"20240518":80.34,"20240519":77.16,"20240520":86.9,"20240521":80.0,"20240522":85.29,"20240523":84.04,"20240524":80.34,"20240525":80.89,"20240526":87.44,"20240527":77.27,"20240528":67.03,"20240529":66.17,"20240530":65.8,"20240531":78.18,"20240601":76.2,"20240602":74.37,"20240603":69.23,"20240604":68.1,"20240605":74.18,"20240606":79.13,"20240607":76.28,"20240608":84.42,"20240609":82.89,"20240610":84.02,"20240611":79.94,"20240612":71.27,"20240613":63.73,"20240614":77.06,"20240615":86.11,"20240616":74.43,"20240617":78.47,"20240618":80.77,"20240619":65.28,"20240620":67.76,"20240621":74.46,"20240622":90.12,"20240623":86.26,"20240624":78.19,"20240625":76.9,"20240626":72.04,"20240627":68.69,"20240628":66.99,"20240629":84.31,"20240630":88.03,"20240701":80.45,"20240702":92.58,"20240703":87.25,"20240704":85.5,"20240705":87.15,"20240706":90.46,"20240707":91.88,"20240708":93.24,"20240709":91.86,"20240710":86.21,"20240711":88.31,"20240712":82.67,"20240713":83.45,"20240714":83.13,"20240715":83.3,"20240716":91.77,"20240717":92.85,"20240718":94.41,"20240719":90.58,"20240720":92.43,"20240721":90.57,"20240722":92.61,"20240723":94.24,"20240724":92.47,"20240725":85.63,"20240726":91.29,"20240727":91.79,"20240728":88.35,"20240729":92.26,"20240730":91.48,"20240731":89.72,"20240801":90.92,"20240802":93.8,"20240803":85.56,"20240804":80.11,"20240805":86.49,"20240806":83.64,"20240807":84.43,"20240808":86.84,"20240809":82.44,"20240810":85.05,"20240811":83.71,"20240812":85.6,"20240813":81.78,"20240814":81.07,"20240815":82.12,"20240816":79.48,"20240817":81.63,"20240818":82.73,"20240819":80.38,"20240820":84.64,"20240821":93.48,"20240822":91.6,"20240823":87.0,"20240824":79.77,"20240825":81.66,"20240826":82.91,"20240827":83.63,"20240828":79.47,"20240829":81.26,"20240830":83.47,"20240831":80.1,"20240901":75.75,"20240902":83.75,"20240903":76.4,"20240904":76.26,"20240905":87.1,"20240906":86.63,"20240907":80.4,"20240908":78.87,"20240909":81.86,"20240910":81.6,"20240911":86.63,"20240912":87.84,"20240913":92.68,"20240914":87.99,"20240915":83.17,"20240916":86.41,"20240917":84.48,"20240918":86.14,"20240919":83.87,"20240920":92.15,"20240921":83.78,"20240922":81.45,"20240923":76.51,"20240924":74.44,"20240925":79.2,"20240926":80.36,"20240927":84.71,"20240928":81.14,"20240929":79.52,"20240930":78.77,"20241001":74.6,"20241002":62.0,"20241003":68.34,"20241004":62.29,"20241005":68.5,"20241006":76.73,"20241007":79.74,"20241008":82.71,"20241009":79.14,"20241010":76.84,"20241011":79.54,"20241012":75.57,"20241013":80.0,"20241014":87.84,"20241015":87.74,"20241016":69.01,"20241017":83.46,"20241018":92.73,"20241019":76.64,"20241020":76.44,"20241021":82.09,"20241022":90.64,"20241023":77.29,"20241024":81.61,"20241025":76.01,"20241026":83.26,"20241027":87.34,"20241028":83.94,"20241029":76.18,"20241030":79.96,"20241031":70.14,"20241101":85.79,"20241102":82.78,"20241103":88.65,"20241104":74.15,"20241105":73.03,"20241106":64.72,"20241107":66.32,"20241108":78.25,"20241109":78.06,"20241110":82.37,"20241111":81.84,"20241112":81.82,"20241113":83.02,"20241114":79.66,"20241115":85.85,"20241116":84.93,"20241117":60.85,"20241118":63.03,"20241119":71.42,"20241120":81.82,"20241121":84.61,"20241122":64.78,"20241123":78.99,"20241124":72.86,"20241125":84.71,"20241126":78.52,"20241127":85.02,"20241128":87.07,"20241129":84.59,"20241130":86.63,"20241201":97.47,"20241202":75.46,"20241203":69.62,"20241204":71.38,"20241205":72.98,"20241206":72.98,"20241207":75.29,"20241208":66.33,"20241209":74.98,"20241210":75.73,"20241211":78.82,"20241212":67.68,"20241213":75.07,"20241214":76.58,"20241215":69.9,"20241216":73.26,"20241217":73.41,"20241218":78.63,"20241219":60.47,"20241220":82.81,"20241221":75.43,"20241222":73.09,"20241223":78.07,"20241224":58.78,"20241225":79.38,"20241226":69.71,"20241227":71.22,"20241228":69.36,"20241229":79.02,"20241230":82.7,"20241231":68.46}}},"header":{"title":"NASA/POWER Source Native Resolution Daily Data","api":{"version":"v2.9.6","name":"POWER Daily API"},"sources":["MERRA2","POWER"],"fill_value":-999.0,"time_standard":"UTC","start":"20240101","end":"20241231"},"messages":[],"parameters":{"T2M":{"units":"C","longname":"Temperature at 2 Meters"},"T2M_MAX":{"units":"C","longname":"Temperature at 2 Meters Maximum"},"T2M_MIN":{"units":"C","longname":"Temperature at 2 Meters Minimum"},"PRECTOTCORR":{"units":"mm/day","longname":"Precipitation Corrected"},"WS10M":{"units":"m/s","longname":"Wind Speed at 10 Meters"},"RH2M":{"units":"%","longname":"Relative Humidity at 2 Meters"}},"times":{"data":0.883,"process":0.01}}