{"type":"Feature","geometry":{"type":"Point","coordinates":[31.25,30.063,135.44]},"properties":{"parameter":{"T2M":{"20240101":15.08,"20240102":15.46,"20240103":14.28,"20240104":14.13,"20240105":14.04,"20240106":15.39,"20240107":14.47,"20240108":13.28,"20240109":10.81,"20240110":12.08,"20240111":13.04,"20240112":12.07,"20240113":12.12,"20240114":12.3,"20240115":11.72,"20240116":12.13,"20240117":13.79,"20240118":14.61,"20240119":15.74,"20240120":16.42,"20240121":16.12,"20240122":14.39,"20240123":14.49,"20240124":12.32,"20240125":11.84,"20240126":13.31,"20240127":13.07,"20240128":12.1,"20240129":11.02,"20240130":9.34,"20240131":8.49,"20240201":9.23,"20240202":10.59,"20240203":9.61,"20240204":10.37,"20240205":11.24,"20240206":12.62,"20240207":13.41,"20240208":13.17,"20240209":13.26,"20240210":13.65,"20240211":13.99,"20240212":14.34,"20240213":14.54,"20240214":12.73,"20240215":12.18,"20240216":12.26,"20240217":12.43,"20240218":13.37,"20240219":12.72,"20240220":13.14,"20240221":13.5,"20240222":13.51,"20240223":13.28,"20240224":15.3,"20240225":14.89,"20240226":15.96,"20240227":14.5,"20240228":15.26,"20240229":17.64,"20240301":20.74,"20240302":15.81,"20240303":14.81,"20240304":14.91,"20240305":17.57,"20240306":15.47,"20240307":15.12,"20240308":15.0,"20240309":15.02,"20240310":14.87,"20240311":14.95,"20240312":17.33,"20240313":16.97,"20240314":15.81,"20240315":15.57,"20240316":15.95,"20240317":17.26,"20240318":14.49,"20240319":14.92,"20240320":17.15,"20240321":16.9,"20240322":14.18,"20240323":14.99,"20240324":12.5,"20240325":14.58,"20240326":19.01,"20240327":22.85,"20240328":21.16,"20240329":19.94,"20240330":20.61,"20240331":23.29,"20240401":23.72,"20240402":22.69,"20240403":22.28,"20240404":22.57,"20240405":20.44,"20240406":18.76,"20240407":18.48,"20240408":18.26,"20240409":17.96,"20240410":18.87,"20240411":20.54,"20240412":20.65,"20240413":21.16,"20240414":21.34,"20240415":21.82,"20240416":22.45,"20240417":26.43,"20240418":23.37,"20240419":21.67,"20240420":23.25,"20240421":21.36,"20240422":23.55,"20240423":27.79,"20240424":30.9,"20240425":26.41,"20240426":23.19,"20240427":22.4,"20240428":22.58,"20240429":21.85,"20240430":22.16,"20240501":23.76,"20240502":23.39,"20240503":24.24,"20240504":23.38,"20240505":21.4,"20240506":20.93,"20240507":21.16,"20240508":22.38,"20240509":27.36,"20240510":27.94,"20240511":24.2,"20240512":22.8,"20240513":21.3,"20240514":22.13,"20240515":22.95,"20240516":25.05,"20240517":28.15,"20240518":31.24,"20240519":30.78,"20240520":32.64,"20240521":30.8,"20240522":31.26,"20240523":30.76,"20240524":25.51,"20240525":25.47,"20240526":29.49,"20240527":27.56,"20240528":25.61,"20240529":24.97,"20240530":25.16,"20240531":28.01,"20240601":30.57,"20240602":29.7,"20240603":28.97,"20240604":30.14,"20240605":31.38,"20240606":32.96,"20240607":34.01,"20240608":30.85,"20240609":28.87,"20240610":29.93,"20240611":30.15,"20240612":30.93,"20240613":32.7,"20240614":34.92,"20240615":34.68,"20240616":31.71,"20240617":29.75,"20240618":29.87,"20240619":30.14,"20240620":30.68,"20240621":31.65,"20240622":31.76,"20240623":32.14,"20240624":32.39,"20240625":31.76,"20240626":30.41,"20240627":31.61,"20240628":31.08,"20240629":29.94,"20240630":30.06,"20240701":30.74,"20240702":30.02,"20240703":31.29,"20240704":33.39,"20240705":31.44,"20240706":29.78,"20240707":30.56,"20240708":31.38,"20240709":32.52,"20240710":33.37,"20240711":34.13,"20240712":34.94,"20240713":32.51,"20240714":30.95,"20240715":31.12,"20240716":30.84,"20240717":31.31,"20240718":31.02,"20240719":31.67,"20240720":33.13,"20240721":33.53,"20240722":33.16,"20240723":32.19,"20240724":31.71,"20240725":33.93,"20240726":31.18,"20240727":30.55,"20240728":31.86,"20240729":31.43,"20240730":31.14,"20240731":31.83,"20240801":31.39,"20240802":31.26,"20240803":31.21,"20240804":30.91,"20240805":30.44,"20240806":30.83,"20240807":31.29,"20240808":31.45,"20240809":31.52,"20240810":31.03,"20240811":30.71,"20240812":30.64,"20240813":30.79,"20240814":30.51,"20240815":30.84,"20240816":30.55,"20240817":31.51,"20240818":30.85,"20240819":30.95,"20240820":30.91,"20240821":31.17,"20240822":31.37,"20240823":31.2,"20240824":30.71,"20240825":31.33,"20240826":32.22,"20240827":31.53,"20240828":31.15,"20240829":30.56,"20240830":29.92,"20240831":30.12,"20240901":30.02,"20240902":31.25,"20240903":30.78,"20240904":29.24,"20240905":29.2,"20240906":29.63,"20240907":30.18,"20240908":30.38,"20240909":29.46,"20240910":30.28,"20240911":32.61,"20240912":32.81,"20240913":29.67,"20240914":28.31,"20240915":28.94,"20240916":28.52,"20240917":28.45,"20240918":27.57,"20240919":30.3,"20240920":32.0,"20240921":27.76,"20240922":26.91,"20240923":26.25,"20240924":26.09,"20240925":26.25,"20240926":26.48,"20240927":26.64,"20240928":26.78,"20240929":26.15,"20240930":26.28,"20241001":25.57,"20241002":24.56,"20241003":24.45,"20241004":24.1,"20241005":24.22,"20241006":23.86,"20241007":25.3,"20241008":26.68,"20241009":27.17,"20241010":25.63,"20241011":25.84,"20241012":26.54,"20241013":26.7,"20241014":26.26,"20241015":24.93,"20241016":24.46,"20241017":24.6,"20241018":24.23,"20241019":23.28,"20241020":22.96,"20241021":23.18,"20241022":22.1,"20241023":21.37,"20241024":20.93,"20241025":20.73,"20241026":21.64,"20241027":22.43,"20241028":22.15,"20241029":21.02,"20241030":19.72,"20241031":19.42,"20241101":20.24,"20241102":20.23,"20241103":20.88,"20241104":20.87,"20241105":19.54,"20241106":20.78,"20241107":22.2,"20241108":21.42,"20241109":20.41,"20241110":18.38,"20241111":17.99,"20241112":19.15,"20241113":19.76,"20241114":19.41,"20241115":20.03,"20241116":19.26,"20241117":18.24,"20241118":18.06,"20241119":18.28,"20241120":18.58,"20241121":18.88,"20241122":19.93,"20241123":19.12,"20241124":16.61,"20241125":15.56,"20241126":14.19,"20241127":15.18,"20241128":15.67,"20241129":15.75,"20241130":15.61,"20241201":15.44,"20241202":15.4,"20241203":15.4,"20241204":14.98,"20241205":15.84,"20241206":16.7,"20241207":17.22,"20241208":16.14,"20241209":16.11,"20241210":15.51,"20241211":15.64,"20241212":16.18,"20241213":15.05,"20241214":14.94,"20241215":13.47,"20241216":13.82,"20241217":14.31,"20241218":14.5,"20241219":14.89,"20241220":14.31,"20241221":14.21,"20241222":14.73,"20241223":13.27,"20241224":12.21,"20241225":12.61,"20241226":9.84,"20241227":10.18,"20241228":11.45,"20241229":12.42,"20241230":12.1,"20241231":12.27},"T2M_MAX":{"20240101":20.61,"20240102":21.62,"20240103":20.92,"20240104":21.03,"20240105":21.08,"20240106":22.51,"20240107":22.89,"20240108":21.88,"20240109":19.41,"20240110":19.63,"20240111":17.77,"20240112":18.4,"20240113":19.96,"20240114":18.64,"20240115":18.77,"20240116":18.43,"20240117":21.06,"20240118":21.96,"20240119":22.6,"20240120":24.06,"20240121":25.25,"20240122":22.37,"20240123":19.56,"20240124":16.87,"20240125":16.22,"20240126":18.54,"20240127":18.44,"20240128":16.75,"20240129":17.25,"20240130":15.3,"20240131":15.78,"20240201":15.62,"20240202":14.33,"20240203":17.36,"20240204":16.93,"20240205":17.51,"20240206":20.27,"20240207":21.31,"20240208":21.62,"20240209":20.58,"20240210":20.81,"20240211":22.16,"20240212":20.69,"20240213":21.48,"20240214":18.88,"20240215":17.32,"20240216":18.7,"20240217":19.03,"20240218":19.27,"20240219":19.89,"20240220":19.97,"20240221":20.66,"20240222":21.67,"20240223":18.53,"20240224":23.48,"20240225":23.13,"20240226":25.0,"20240227":21.3,"20240228":23.62,"20240229":27.83,"20240301":29.12,"20240302":24.27,"20240303":22.32,"20240304":22.86,"20240305":26.7,"20240306":23.2,"20240307":22.26,"20240308":22.75,"20240309":22.51,"20240310":23.19,"20240311":24.29,"20240312":28.72,"20240313":26.19,"20240314":24.0,"20240315":23.32,"20240316":22.35,"20240317":25.94,"20240318":20.36,"20240319":21.8,"20240320":24.84,"20240321":26.33,"20240322":22.37,"20240323":22.19,"20240324":16.03,"20240325":22.21,"20240326":26.99,"20240327":31.21,"20240328":28.65,"20240329":27.2,"20240330":30.09,"20240331":32.58,"20240401":32.73,"20240402":32.67,"20240403":32.45,"20240404":32.92,"20240405":30.44,"20240406":27.86,"20240407":26.66,"20240408":24.9,"20240409":24.71,"20240410":26.14,"20240411":28.57,"20240412":29.07,"20240413":30.06,"20240414":30.02,"20240415":30.58,"20240416":31.49,"20240417":36.71,"20240418":30.68,"20240419":29.9,"20240420":33.74,"20240421":30.31,"20240422":33.46,"20240423":37.98,"20240424":41.63,"20240425":33.86,"20240426":31.39,"20240427":31.31,"20240428":32.39,"20240429":31.36,"20240430":31.2,"20240501":32.39,"20240502":32.19,"20240503":33.11,"20240504":32.12,"20240505":28.6,"20240506":28.39,"20240507":29.5,"20240508":31.3,"20240509":36.78,"20240510":37.29,"20240511":31.78,"20240512":30.22,"20240513":29.23,"20240514":30.68,"20240515":31.68,"20240516":34.39,"20240517":37.53,"20240518":40.82,"20240519":39.27,"20240520":42.58,"20240521":39.82,"20240522":40.47,"20240523":40.54,"20240524":34.19,"20240525":34.31,"20240526":37.72,"20240527":34.74,"20240528":33.62,"20240529":32.39,"20240530":32.5,"20240531":36.45,"20240601":39.07,"20240602":39.09,"20240603":39.19,"20240604":41.01,"20240605":42.33,"20240606":43.66,"20240607":44.09,"20240608":40.87,"20240609":37.54,"20240610":38.7,"20240611":38.93,"20240612":40.5,"20240613":43.26,"20240614":45.49,"20240615":45.27,"20240616":41.24,"20240617":37.9,"20240618":39.28,"20240619":39.89,"20240620":39.32,"20240621":39.74,"20240622":39.66,"20240623":41.16,"20240624":40.99,"20240625":40.06,"20240626":39.87,"20240627":42.28,"20240628":41.35,"20240629":38.19,"20240630":37.5,"20240701":39.27,"20240702":38.52,"20240703":39.36,"20240704":42.42,"20240705":39.27,"20240706":36.77,"20240707":38.94,"20240708":39.23,"20240709":40.64,"20240710":40.88,"20240711":41.61,"20240712":43.58,"20240713":40.22,"20240714":38.25,"20240715":39.1,"20240716":39.0,"20240717":39.67,"20240718":39.51,"20240719":40.09,"20240720":41.09,"20240721":41.75,"20240722":41.32,"20240723":40.75,"20240724":40.49,"20240725":42.63,"20240726":38.93,"20240727":38.56,"20240728":39.93,"20240729":39.25,"20240730":39.19,"20240731":39.93,"20240801":39.54,"20240802":38.76,"20240803":38.91,"20240804":38.88,"20240805":38.88,"20240806":39.29,"20240807":39.76,"20240808":39.75,"20240809":40.0,"20240810":39.93,"20240811":40.01,"20240812":38.73,"20240813":38.34,"20240814":39.19,"20240815":40.1,"20240816":39.37,"20240817":40.85,"20240818":39.57,"20240819":39.16,"20240820":40.71,"20240821":40.56,"20240822":39.35,"20240823":38.94,"20240824":38.39,"20240825":39.46,"20240826":40.4,"20240827":39.11,"20240828":39.41,"20240829":38.6,"20240830":38.27,"20240831":37.94,"20240901":37.51,"20240902":38.54,"20240903":37.79,"20240904":36.55,"20240905":36.57,"20240906":36.65,"20240907":37.45,"20240908":38.25,"20240909":36.71,"20240910":37.83,"20240911":40.26,"20240912":41.94,"20240913":37.31,"20240914":36.95,"20240915":37.18,"20240916":35.57,"20240917":35.37,"20240918":35.45,"20240919":38.46,"20240920":40.91,"20240921":34.14,"20240922":33.59,"20240923":33.29,"20240924":34.04,"20240925":34.26,"20240926":34.7,"20240927":35.02,"20240928":34.94,"20240929":34.3,"20240930":34.25,"20241001":32.56,"20241002":31.64,"20241003":32.02,"20241004":31.99,"20241005":32.43,"20241006":32.26,"20241007":34.34,"20241008":35.59,"20241009":35.46,"20241010":33.69,"20241011":34.52,"20241012":34.75,"20241013":35.71,"20241014":33.48,"20241015":31.51,"20241016":30.88,"20241017":31.02,"20241018":31.63,"20241019":30.47,"20241020":30.98,"20241021":31.28,"20241022":29.4,"20241023":28.46,"20241024":28.73,"20241025":29.18,"20241026":29.78,"20241027":30.87,"20241028":30.67,"20241029":28.08,"20241030":26.72,"20241031":26.38,"20241101":26.91,"20241102":26.99,"20241103":26.89,"20241104":27.17,"20241105":26.21,"20241106":28.06,"20241107":29.95,"20241108":28.3,"20241109":27.0,"20241110":24.07,"20241111":24.31,"20241112":26.21,"20241113":27.05,"20241114":26.75,"20241115":27.3,"20241116":26.88,"20241117":25.59,"20241118":24.56,"20241119":25.14,"20241120":25.57,"20241121":25.18,"20241122":28.43,"20241123":27.05,"20241124":22.88,"20241125":19.91,"20241126":19.49,"20241127":21.27,"20241128":22.8,"20241129":22.78,"20241130":23.03,"20241201":23.38,"20241202":22.97,"20241203":22.51,"20241204":22.19,"20241205":22.59,"20241206":23.79,"20241207":23.75,"20241208":23.7,"20241209":24.61,"20241210":24.1,"20241211":23.65,"20241212":21.22,"20241213":22.38,"20241214":21.8,"20241215":21.75,"20241216":21.79,"20241217":21.6,"20241218":22.06,"20241219":21.44,"20241220":21.04,"20241221":21.82,"20241222":21.75,"20241223":20.9,"20241224":19.76,"20241225":20.55,"20241226":15.32,"20241227":16.6,"20241228":18.75,"20241229":19.13,"20241230":17.75,"20241231":18.72},"T2M_MIN":{"20240101":9.47,"20240102":10.28,"20240103":9.98,"20240104":9.2,"20240105":8.51,"20240106":10.75,"20240107":9.36,"20240108":7.03,"20240109":4.86,"20240110":4.36,"20240111":8.8,"20240112":7.83,"20240113":6.87,"20240114":7.95,"20240115":6.53,"20240116":5.54,"20240117":8.79,"20240118":9.6,"20240119":9.36,"20240120":10.88,"20240121":9.86,"20240122":7.87,"20240123":10.45,"20240124":8.89,"20240125":8.11,"20240126":8.17,"20240127":9.14,"20240128":7.73,"20240129":5.93,"20240130":4.39,"20240131":3.32,"20240201":4.44,"20240202":6.99,"20240203":3.61,"20240204":4.58,"20240205":5.62,"20240206":6.73,"20240207":8.04,"20240208":6.51,"20240209":8.15,"20240210":7.78,"20240211":7.83,"20240212":9.98,"20240213":8.74,"20240214":7.01,"20240215":8.45,"20240216":8.03,"20240217":6.61,"20240218":8.59,"20240219":7.45,"20240220":7.22,"20240221":8.14,"20240222":6.61,"20240223":9.48,"20240224":9.51,"20240225":8.14,"20240226":9.08,"20240227":8.33,"20240228":8.39,"20240229":8.82,"20240301":12.76,"20240302":9.83,"20240303":8.9,"20240304":8.38,"20240305":9.06,"20240306":9.78,"20240307":9.29,"20240308":8.53,"20240309":8.91,"20240310":8.78,"20240311":7.21,"20240312":7.73,"20240313":9.32,"20240314":9.45,"20240315":8.2,"20240316":10.06,"20240317":10.16,"20240318":9.76,"20240319":9.25,"20240320":9.03,"20240321":8.98,"20240322":7.02,"20240323":7.67,"20240324":7.67,"20240325":6.74,"20240326":9.29,"20240327":13.38,"20240328":14.86,"20240329":13.7,"20240330":12.4,"20240331":14.56,"20240401":16.26,"20240402":14.56,"20240403":12.69,"20240404":13.36,"20240405":12.62,"20240406":11.12,"20240407":11.33,"20240408":12.08,"20240409":11.4,"20240410":11.66,"20240411":13.29,"20240412":12.61,"20240413":12.88,"20240414":14.51,"20240415":14.64,"20240416":13.06,"20240417":16.26,"20240418":16.71,"20240419":14.68,"20240420":13.64,"20240421":13.97,"20240422":13.91,"20240423":18.2,"20240424":21.85,"20240425":18.67,"20240426":16.57,"20240427":15.05,"20240428":14.42,"20240429":13.84,"20240430":14.69,"20240501":16.85,"20240502":15.19,"20240503":16.04,"20240504":15.11,"20240505":15.26,"20240506":14.04,"20240507":12.75,"20240508":13.37,"20240509":14.72,"20240510":19.83,"20240511":17.69,"20240512":16.15,"20240513":14.8,"20240514":13.67,"20240515":13.92,"20240516":15.22,"20240517":18.05,"20240518":22.36,"20240519":22.94,"20240520":23.4,"20240521":22.32,"20240522":21.37,"20240523":20.7,"20240524":18.16,"20240525":16.48,"20240526":18.67,"20240527":19.74,"20240528":18.26,"20240529":17.31,"20240530":17.43,"20240531":18.1,"20240601":21.56,"20240602":20.63,"20240603":18.36,"20240604":19.07,"20240605":19.85,"20240606":21.51,"20240607":23.22,"20240608":22.18,"20240609":20.29,"20240610":20.73,"20240611":21.22,"20240612":20.15,"20240613":21.91,"20240614":23.3,"20240615":24.71,"20240616":23.3,"20240617":21.59,"20240618":22.05,"20240619":20.58,"20240620":21.35,"20240621":23.97,"20240622":23.72,"20240623":22.98,"20240624":22.76,"20240625":23.66,"20240626":21.91,"20240627":21.24,"20240628":21.68,"20240629":23.34,"20240630":22.57,"20240701":22.77,"20240702":21.22,"20240703":23.0,"20240704":23.74,"20240705":24.54,"20240706":24.11,"20240707":23.1,"20240708":22.82,"20240709":23.72,"20240710":25.06,"20240711":26.33,"20240712":26.61,"20240713":25.74,"20240714":23.76,"20240715":23.19,"20240716":22.7,"20240717":23.05,"20240718":22.79,"20240719":22.73,"20240720":24.26,"20240721":25.31,"20240722":24.53,"20240723":24.35,"20240724":22.72,"20240725":25.21,"20240726":24.68,"20240727":23.31,"20240728":23.48,"20240729":23.98,"20240730":22.92,"20240731":24.01,"20240801":23.82,"20240802":23.51,"20240803":24.27,"20240804":23.62,"20240805":22.1,"20240806":22.62,"20240807":23.44,"20240808":23.43,"20240809":23.28,"20240810":23.06,"20240811":22.72,"20240812":22.44,"20240813":23.71,"20240814":23.07,"20240815":22.12,"20240816":21.95,"20240817":23.46,"20240818":23.1,"20240819":23.93,"20240820":22.18,"20240821":21.77,"20240822":22.97,"20240823":24.38,"20240824":23.75,"20240825":23.79,"20240826":24.02,"20240827":24.47,"20240828":23.65,"20240829":23.72,"20240830":22.46,"20240831":23.24,"20240901":22.77,"20240902":23.8,"20240903":24.04,"20240904":22.53,"20240905":22.58,"20240906":22.64,"20240907":23.05,"20240908":23.18,"20240909":22.45,"20240910":22.72,"20240911":23.65,"20240912":26.1,"20240913":22.79,"20240914":20.44,"20240915":21.75,"20240916":22.69,"20240917":22.55,"20240918":20.75,"20240919":21.37,"20240920":24.49,"20240921":22.64,"20240922":21.41,"20240923":20.56,"20240924":18.63,"20240925":19.31,"20240926":19.35,"20240927":19.09,"20240928":19.48,"20240929":19.43,"20240930":19.32,"20241001":19.69,"20241002":18.52,"20241003":18.24,"20241004":17.3,"20241005":17.14,"20241006":17.0,"20241007":16.94,"20241008":18.74,"20241009":19.94,"20241010":19.24,"20241011":17.83,"20241012":19.38,"20241013":18.78,"20241014":20.49,"20241015":19.99,"20241016":18.8,"20241017":18.79,"20241018":18.58,"20241019":16.99,"20241020":17.03,"20241021":17.68,"20241022":17.03,"20241023":16.71,"20241024":15.42,"20241025":14.86,"20241026":14.73,"20241027":16.01,"20241028":15.52,"20241029":15.57,"20241030":14.09,"20241031":13.1,"20241101":14.25,"20241102":14.58,"20241103":14.57,"20241104":15.6,"20241105":14.02,"20241106":14.15,"20241107":16.63,"20241108":16.84,"20241109":15.61,"20241110":13.64,"20241111":12.32,"20241112":12.58,"20241113":14.43,"20241114":13.28,"20241115":14.15,"20241116":13.28,"20241117":12.42,"20241118":12.13,"20241119":12.54,"20241120":12.97,"20241121":14.17,"20241122":14.02,"20241123":13.01,"20241124":12.83,"20241125":12.35,"20241126":9.83,"20241127":9.82,"20241128":10.28,"20241129":11.18,"20241130":10.38,"20241201":9.75,"20241202":9.93,"20241203":10.57,"20241204":9.22,"20241205":11.17,"20241206":11.55,"20241207":13.26,"20241208":10.71,"20241209":10.52,"20241210":9.09,"20241211":10.47,"20241212":12.81,"20241213":10.07,"20241214":9.99,"20241215":7.99,"20241216":7.02,"20241217":9.35,"20241218":8.76,"20241219":9.4,"20241220":9.84,"20241221":8.78,"20241222":8.65,"20241223":7.94,"20241224":6.24,"20241225":6.92,"20241226":5.16,"20241227":4.4,"20241228":5.33,"20241229":6.59,"20241230":7.49,"20241231":7.16},"PRECTOTCORR":{"20240101":0.0,"20240102":0.0,"20240103":0.0,"20240104":0.0,"20240105":0.0,"20240106":0.01,"20240107":0.0,"20240108":0.0,"20240109":0.0,"20240110":0.01,"20240111":0.29,"20240112":0.01,"20240113":0.05,"20240114":0.22,"20240115":0.01,"20240116":0.0,"20240117":0.0,"20240118":0.0,"20240119":0.0,"20240120":0.0,"20240121":0.0,"20240122":0.06,"20240123":0.07,"20240124":0.2,"20240125":0.52,"20240126":0.79,"20240127":0.37,"20240128":0.47,"20240129":0.71,"20240130":0.03,"20240131":42.54,"20240201":2.73,"20240202":30.68,"20240203":0.0,"20240204":0.26,"20240205":0.02,"20240206":0.03,"20240207":0.05,"20240208":0.01,"20240209":0.0,"20240210":0.01,"20240211":0.03,"20240212":0.0,"20240213":0.01,"20240214":0.04,"20240215":1.12,"20240216":0.2,"20240217":0.08,"20240218":0.03,"20240219":0.03,"20240220":0.0,"20240221":0.01,"20240222":0.04,"20240223":0.09,"20240224":0.2,"20240225":0.0,"20240226":0.0,"20240227":0.0,"20240228":0.0,"20240229":0.0,"20240301":0.0,"20240302":0.0,"20240303":0.0,"20240304":0.0,"20240305":0.0,"20240306":0.0,"20240307":0.0,"20240308":0.0,"20240309":0.0,"20240310":0.0,"20240311":0.0,"20240312":0.0,"20240313":0.0,"20240314":0.0,"20240315":0.0,"20240316":0.0,"20240317":0.0,"20240318":1.24,"20240319":0.07,"20240320":0.0,"20240321":0.05,"20240322":0.0,"20240323":0.0,"20240324":4.02,"20240325":0.0,"20240326":0.0,"20240327":0.0,"20240328":0.02,"20240329":0.55,"20240330":0.36,"20240331":0.05,"20240401":0.0,"20240402":0.0,"20240403":0.0,"20240404":0.0,"20240405":0.0,"20240406":0.0,"20240407":0.07,"20240408":0.3,"20240409":0.08,"20240410":0.0,"20240411":0.0,"20240412":0.04,"20240413":0.25,"20240414":0.32,"20240415":0.19,"20240416":0.0,"20240417":0.0,"20240418":0.0,"20240419":0.0,"20240420":0.0,"20240421":0.0,"20240422":0.0,"20240423":0.0,"20240424":0.0,"20240425":0.0,"20240426":0.0,"20240427":0.0,"20240428":0.0,"20240429":0.0,"20240430":0.0,"20240501":0.0,"20240502":0.0,"20240503":0.0,"20240504":0.0,"20240505":0.0,"20240506":0.0,"20240507":0.0,"20240508":0.0,"20240509":0.0,"20240510":0.0,"20240511":0.0,"20240512":0.0,"20240513":0.0,"20240514":0.0,"20240515":0.0,"20240516":0.0,"20240517":0.0,"20240518":0.0,"20240519":0.0,"20240520":0.0,"20240521":0.0,"20240522":0.0,"20240523":0.0,"20240524":0.0,"20240525":1.16,"20240526":0.0,"20240527":0.0,"20240528":0.0,"20240529":0.0,"20240530":0.0,"20240531":0.0,"20240601":0.0,"20240602":0.0,"20240603":0.0,"20240604":0.0,"20240605":0.0,"20240606":0.0,"20240607":0.0,"20240608":0.0,"20240609":0.0,"20240610":0.0,"20240611":0.0,"20240612":0.0,"20240613":0.0,"20240614":0.0,"20240615":0.0,"20240616":0.0,"20240617":0.0,"20240618":0.0,"20240619":0.0,"20240620":0.02,"20240621":0.01,"20240622":0.0,"20240623":0.0,"20240624":0.0,"20240625":0.0,"20240626":0.0,"20240627":0.0,"20240628":0.0,"20240629":0.0,"20240630":0.0,"20240701":0.0,"20240702":0.0,"20240703":0.0,"20240704":0.0,"20240705":0.0,"20240706":0.0,"20240707":0.0,"20240708":0.0,"20240709":0.0,"20240710":0.0,"20240711":0.0,"20240712":0.0,"20240713":0.0,"20240714":0.0,"20240715":0.0,"20240716":0.0,"20240717":0.0,"20240718":0.0,"20240719":0.0,"20240720":0.0,"20240721":0.0,"20240722":0.0,"20240723":0.0,"20240724":0.0,"20240725":0.0,"20240726":0.0,"20240727":0.0,"20240728":0.0,"20240729":0.0,"20240730":0.0,"20240731":0.0,"20240801":0.0,"20240802":0.0,"20240803":0.0,"20240804":0.01,"20240805":0.0,"20240806":0.0,"20240807":1.77,"20240808":0.0,"20240809":0.0,"20240810":0.0,"20240811":0.0,"20240812":0.0,"20240813":0.0,"20240814":0.0,"20240815":0.0,"20240816":0.0,"20240817":0.0,"20240818":0.0,"20240819":0.0,"20240820":0.0,"20240821":0.0,"20240822":0.0,"20240823":0.0,"20240824":0.0,"20240825":0.0,"20240826":0.0,"20240827":0.0,"20240828":0.0,"20240829":0.0,"20240830":0.0,"20240831":0.0,"20240901":0.0,"20240902":0.0,"20240903":0.0,"20240904":0.0,"20240905":0.0,"20240906":0.0,"20240907":0.0,"20240908":0.0,"20240909":0.0,"20240910":0.0,"20240911":0.0,"20240912":0.0,"20240913":0.0,"20240914":0.0,"20240915":0.0,"20240916":0.0,"20240917":0.0,"20240918":0.0,"20240919":0.0,"20240920":0.0,"20240921":0.0,"20240922":0.0,"20240923":0.0,"20240924":0.0,"20240925":0.0,"20240926":0.0,"20240927":0.0,"20240928":0.0,"20240929":0.0,"20240930":0.0,"20241001":0.0,"20241002":0.0,"20241003":0.0,"20241004":0.0,"20241005":0.0,"20241006":0.0,"20241007":0.0,"20241008":0.0,"20241009":0.0,"20241010":0.0,"20241011":0.0,"20241012":0.0,"20241013":0.0,"20241014":0.0,"20241015":0.0,"20241016":0.0,"20241017":0.0,"20241018":0.0,"20241019":0.0,"20241020":0.0,"20241021":0.0,"20241022":0.0,"20241023":0.0,"20241024":0.0,"20241025":0.0,"20241026":0.0,"20241027":0.0,"20241028":0.0,"20241029":0.0,"20241030":0.0,"20241031":0.0,"20241101":0.0,"20241102":0.01,"20241103":0.0,"20241104":0.0,"20241105":0.0,"20241106":0.0,"20241107":0.07,"20241108":0.1,"20241109":0.13,"20241110":0.01,"20241111":0.0,"20241112":0.0,"20241113":0.0,"20241114":0.0,"20241115":0.0,"20241116":0.0,"20241117":0.0,"20241118":0.23,"20241119":0.19,"20241120":0.03,"20241121":0.0,"20241122":0.01,"20241123":0.08,"20241124":0.49,"20241125":0.1,"20241126":0.1,"20241127":0.07,"20241128":0.0,"20241129":0.0,"20241130":0.1,"20241201":0.14,"20241202":0.0,"20241203":0.0,"20241204":0.0,"20241205":0.0,"20241206":0.0,"20241207":0.0,"20241208":0.0,"20241209":0.0,"20241210":0.0,"20241211":0.0,"20241212":0.03,"20241213":0.01,"20241214":0.0,"20241215":0.0,"20241216":0.0,"20241217":0.04,"20241218":0.03,"20241219":0.18,"20241220":0.06,"20241221":0.0,"20241222":0.0,"20241223":0.0,"20241224":0.0,"20241225":0.0,"20241226":0.0,"20241227":0.0,"20241228":0.0,"20241229":0.01,"20241230":0.13,"20241231":0.13},"WS10M":{"20240101":2.48,"20240102":3.36,"20240103":2.54,"20240104":2.43,"20240105":1.93,"20240106":2.58,"20240107":4.2,"20240108":2.94,"20240109":3.46,"20240110":4.11,"20240111":3.43,"20240112":3.73,"20240113":5.27,"20240114":2.68,"20240115":2.2,"20240116":2.39,"20240117":2.09,"20240118":1.27,"20240119":1.42,"20240120":2.11,"20240121":4.21,"20240122":4.55,"20240123":4.14,"20240124":3.44,"20240125":3.33,"20240126":5.07,"20240127":4.01,"20240128":2.29,"20240129":4.08,"20240130":4.88,"20240131":4.08,"20240201":4.0,"20240202":3.44,"20240203":3.17,"20240204":2.52,"20240205":2.93,"20240206":2.6,"20240207":2.04,"20240208":2.74,"20240209":2.46,"20240210":2.3,"20240211":3.4,"20240212":4.28,"20240213":4.97,"20240214":3.42,"20240215":4.26,"20240216":5.09,"20240217":3.99,"20240218":2.69,"20240219":3.68,"20240220":2.35,"20240221":3.49,"20240222":3.98,"20240223":3.75,"20240224":3.47,"20240225":2.91,"20240226":3.56,"20240227":3.82,"20240228":4.01,"20240229":3.53,"20240301":3.18,"20240302":4.31,"20240303":3.45,"20240304":2.53,"20240305":2.29,"20240306":3.8,"20240307":2.98,"20240308":3.15,"20240309":3.12,"20240310":4.29,"20240311":4.35,"20240312":2.69,"20240313":2.81,"20240314":3.2,"20240315":2.97,"20240316":3.49,"20240317":4.99,"20240318":4.58,"20240319":4.63,"20240320":3.73,"20240321":4.98,"20240322":3.87,"20240323":2.87,"20240324":3.64,"20240325":2.72,"20240326":2.76,"20240327":2.57,"20240328":3.35,"20240329":4.0,"20240330":4.2,"20240331":5.24,"20240401":5.19,"20240402":4.67,"20240403":3.45,"20240404":3.42,"20240405":3.81,"20240406":4.39,"20240407":4.65,"20240408":3.61,"20240409":4.45,"20240410":2.88,"20240411":2.64,"20240412":3.27,"20240413":4.12,"20240414":4.66,"20240415":4.86,"20240416":3.92,"20240417":4.77,"20240418":3.61,"20240419":3.04,"20240420":4.47,"20240421":3.61,"20240422":5.04,"20240423":5.23,"20240424":3.05,"20240425":3.97,"20240426":5.93,"20240427":4.96,"20240428":4.67,"20240429":4.65,"20240430":5.0,"20240501":4.61,"20240502":3.96,"20240503":4.58,"20240504":4.26,"20240505":5.05,"20240506":4.54,"20240507":3.37,"20240508":3.92,"20240509":2.02,"20240510":4.85,"20240511":4.43,"20240512":4.82,"20240513":4.96,"20240514":4.77,"20240515":4.87,"20240516":5.0,"20240517":5.0,"20240518":3.96,"20240519":4.11,"20240520":4.59,"20240521":3.84,"20240522":3.93,"20240523":4.51,"20240524":4.95,"20240525":4.78,"20240526":2.53,"20240527":5.74,"20240528":4.21,"20240529":3.89,"20240530":3.95,"20240531":4.79,"20240601":4.24,"20240602":5.41,"20240603":4.74,"20240604":4.32,"20240605":4.17,"20240606":4.76,"20240607":3.3,"20240608":4.97,"20240609":4.92,"20240610":3.67,"20240611":3.93,"20240612":4.67,"20240613":5.65,"20240614":4.58,"20240615":4.8,"20240616":4.71,"20240617":3.99,"20240618":4.54,"20240619":4.21,"20240620":3.6,"20240621":3.88,"20240622":4.5,"20240623":4.16,"20240624":3.64,"20240625":4.31,"20240626":4.33,"20240627":4.18,"20240628":4.51,"20240629":4.81,"20240630":4.23,"20240701":4.68,"20240702":3.4,"20240703":2.22,"20240704":3.47,"20240705":5.05,"20240706":4.98,"20240707":4.85,"20240708":3.83,"20240709":3.59,"20240710":3.24,"20240711":3.54,"20240712":3.9,"20240713":4.36,"20240714":4.81,"20240715":4.26,"20240716":3.48,"20240717":3.47,"20240718":3.36,"20240719":3.51,"20240720":3.52,"20240721":3.59,"20240722":3.59,"20240723":4.19,"20240724":3.98,"20240725":3.93,"20240726":5.09,"20240727":4.21,"20240728":3.37,"20240729":3.86,"20240730":3.66,"20240731":3.09,"20240801":3.96,"20240802":3.64,"20240803":3.77,"20240804":3.63,"20240805":3.07,"20240806":3.37,"20240807":3.82,"20240808":3.39,"20240809":3.42,"20240810":4.12,"20240811":4.75,"20240812":3.56,"20240813":3.56,"20240814":4.4,"20240815":4.25,"20240816":4.83,"20240817":4.49,"20240818":3.28,"20240819":2.87,"20240820":3.65,"20240821":4.29,"20240822":4.16,"20240823":3.77,"20240824":4.0,"20240825":3.36,"20240826":3.42,"20240827":3.82,"20240828":4.18,"20240829":4.25,"20240830":4.22,"20240831":3.9,"20240901":3.75,"20240902":3.84,"20240903":4.13,"20240904":4.09,"20240905":4.08,"20240906":3.83,"20240907":3.28,"20240908":3.75,"20240909":3.23,"20240910":2.72,"20240911":2.23,"20240912":4.45,"20240913":4.99,"20240914":4.66,"20240915":4.7,"20240916":4.09,"20240917":3.54,"20240918":3.95,"20240919":3.37,"20240920":5.33,"20240921":3.96,"20240922":4.11,"20240923":4.04,"20240924":4.33,"20240925":5.07,"20240926":4.37,"20240927":3.49,"20240928":3.4,"20240929":3.99,"20240930":3.73,"20241001":3.95,"20241002":3.36,"20241003":3.59,"20241004":3.7,"20241005":3.76,"20241006":3.59,"20241007":3.79,"20241008":3.16,"20241009":3.8,"20241010":3.65,"20241011":2.96,"20241012":3.39,"20241013":3.31,"20241014":3.57,"20241015":3.24,"20241016":3.22,"20241017":3.45,"20241018":3.88,"20241019":3.59,"20241020":5.95,"20241021":6.38,"20241022":6.65,"20241023":7.32,"20241024":6.62,"20241025":5.51,"20241026":5.03,"20241027":5.4,"20241028":4.95,"20241029":4.26,"20241030":2.97,"20241031":3.03,"20241101":2.84,"20241102":2.89,"20241103":2.7,"20241104":3.39,"20241105":2.99,"20241106":4.09,"20241107":5.54,"20241108":4.48,"20241109":3.18,"20241110":4.2,"20241111":2.81,"20241112":4.01,"20241113":5.07,"20241114":4.52,"20241115":4.78,"20241116":2.46,"20241117":3.7,"20241118":3.48,"20241119":3.21,"20241120":2.69,"20241121":1.76,"20241122":2.4,"20241123":3.1,"20241124":5.87,"20241125":4.68,"20241126":3.86,"20241127":2.29,"20241128":2.58,"20241129":2.93,"20241130":4.14,"20241201":4.62,"20241202":3.82,"20241203":2.62,"20241204":3.22,"20241205":2.42,"20241206":2.17,"20241207":1.69,"20241208":2.49,"20241209":2.39,"20241210":3.74,"20241211":3.45,"20241212":4.41,"20241213":4.81,"20241214":4.59,"20241215":3.91,"20241216":3.33,"20241217":3.55,"20241218":3.76,"20241219":4.02,"20241220":3.97,"20241221":2.86,"20241222":1.75,"20241223":4.38,"20241224":4.17,"20241225":6.01,"20241226":4.15,"20241227":5.84,"20241228":4.77,"20241229":4.32,"20241230":3.77,"20241231":3.97},"RH2M":{"20240101":76.87,"20240102":77.16,"20240103":76.43,"20240104":74.35,"20240105":67.03,"20240106":71.73,"20240107":60.63,"20240108":47.79,"20240109":48.83,"20240110":61.36,"20240111":72.53,"20240112":60.93,"20240113":58.92,"20240114":74.55,"20240115":67.2,"20240116":51.98,"20240117":44.73,"20240118":45.52,"20240119":47.76,"20240120":49.33,"20240121":37.92,"20240122":63.81,"20240123":66.42,"20240124":67.98,"20240125":78.75,"20240126":71.75,"20240127":67.49,"20240128":70.44,"20240129":74.07,"20240130":66.66,"20240131":72.94,"20240201":77.78,"20240202":84.02,"20240203":66.05,"20240204":71.68,"20240205":81.1,"20240206":76.55,"20240207":75.2,"20240208":69.91,"20240209":70.84,"20240210":72.74,"20240211":68.85,"20240212":52.17,"20240213":59.22,"20240214":72.4,"20240215":73.62,"20240216":71.48,"20240217":73.22,"20240218":74.36,"20240219":72.76,"20240220":69.54,"20240221":70.24,"20240222":71.23,"20240223":80.74,"20240224":70.6,"20240225":65.78,"20240226":59.11,"20240227":73.58,"20240228":68.7,"20240229":54.86,"20240301":37.39,"20240302":62.7,"20240303":72.25,"20240304":66.36,"20240305":54.42,"20240306":68.32,"20240307":69.38,"20240308":65.73,"20240309":65.15,"20240310":64.85,"20240311":64.4,"20240312":54.39,"20240313":60.11,"20240314":63.2,"20240315":62.86,"20240316":63.37,"20240317":66.03,"20240318":70.91,"20240319":63.81,"20240320":49.98,"20240321":52.65,"20240322":59.09,"20240323":56.83,"20240324":74.25,"20240325":52.49,"20240326":36.93,"20240327":29.65,"20240328":41.36,"20240329":66.03,"20240330":61.63,"20240331":55.88,"20240401":51.95,"20240402":51.61,"20240403":50.11,"20240404":41.68,"20240405":55.5,"20240406":58.52,"20240407":59.78,"20240408":62.99,"20240409":60.72,"20240410":58.11,"20240411":52.25,"20240412":54.28,"20240413":59.26,"20240414":60.64,"20240415":53.56,"20240416":51.79,"20240417":32.26,"20240418":50.1,"20240419":53.33,"20240420":49.3,"20240421":49.61,"20240422":36.87,"20240423":25.46,"20240424":21.59,"20240425":34.89,"20240426":49.69,"20240427":50.47,"20240428":50.4,"20240429":53.42,"20240430":54.94,"20240501":52.87,"20240502":48.97,"20240503":44.0,"20240504":53.19,"20240505":52.5,"20240506":53.99,"20240507":45.26,"20240508":38.61,"20240509":27.7,"20240510":21.39,"20240511":46.16,"20240512":54.26,"20240513":52.15,"20240514":47.27,"20240515":44.41,"20240516":37.66,"20240517":26.44,"20240518":21.7,"20240519":23.14,"20240520":22.69,"20240521":27.78,"20240522":26.07,"20240523":28.87,"20240524":43.46,"20240525":43.06,"20240526":26.65,"20240527":38.02,"20240528":45.52,"20240529":45.66,"20240530":41.19,"20240531":32.88,"20240601":23.71,"20240602":27.94,"20240603":35.99,"20240604":37.32,"20240605":35.43,"20240606":35.1,"20240607":33.58,"20240608":41.93,"20240609":45.3,"20240610":44.01,"20240611":35.72,"20240612":33.74,"20240613":34.33,"20240614":29.06,"20240615":35.26,"20240616":38.91,"20240617":42.26,"20240618":45.28,"20240619":41.16,"20240620":38.73,"20240621":36.83,"20240622":33.02,"20240623":36.08,"20240624":30.9,"20240625":34.33,"20240626":44.62,"20240627":43.63,"20240628":44.06,"20240629":48.58,"20240630":46.26,"20240701":45.74,"20240702":41.13,"20240703":25.78,"20240704":29.52,"20240705":41.19,"20240706":47.74,"20240707":47.42,"20240708":45.99,"20240709":43.32,"20240710":37.47,"20240711":38.7,"20240712":32.99,"20240713":34.94,"20240714":42.02,"20240715":46.06,"20240716":42.42,"20240717":42.21,"20240718":40.91,"20240719":40.76,"20240720":36.43,"20240721":39.71,"20240722":39.22,"20240723":39.03,"20240724":42.85,"20240725":34.84,"20240726":46.13,"20240727":46.16,"20240728":43.02,"20240729":40.7,"20240730":44.09,"20240731":41.97,"20240801":44.53,"20240802":42.58,"20240803":41.92,"20240804":39.07,"20240805":36.38,"20240806":40.46,"20240807":44.55,"20240808":40.04,"20240809":37.6,"20240810":40.74,"20240811":47.51,"20240812":44.25,"20240813":42.55,"20240814":45.79,"20240815":45.94,"20240816":53.55,"20240817":49.31,"20240818":48.85,"20240819":40.96,"20240820":38.89,"20240821":38.93,"20240822":49.72,"20240823":47.41,"20240824":49.73,"20240825":46.24,"20240826":39.43,"20240827":41.78,"20240828":41.78,"20240829":44.41,"20240830":42.71,"20240831":42.56,"20240901":49.13,"20240902":45.94,"20240903":45.41,"20240904":50.77,"20240905":51.67,"20240906":50.88,"20240907":47.91,"20240908":48.35,"20240909":48.87,"20240910":40.84,"20240911":32.19,"20240912":40.62,"20240913":49.79,"20240914":55.31,"20240915":58.52,"20240916":50.14,"20240917":45.6,"20240918":43.56,"20240919":35.64,"20240920":37.36,"20240921":51.45,"20240922":51.91,"20240923":49.09,"20240924":50.37,"20240925":57.02,"20240926":55.14,"20240927":52.91,"20240928":51.16,"20240929":54.72,"20240930":59.49,"20241001":54.6,"20241002":51.9,"20241003":51.74,"20241004":54.43,"20241005":57.55,"20241006":58.44,"20241007":56.12,"20241008":48.46,"20241009":49.43,"20241010":59.69,"20241011":53.07,"20241012":49.71,"20241013":55.46,"20241014":60.17,"20241015":54.57,"20241016":57.45,"20241017":60.0,"20241018":55.95,"20241019":52.68,"20241020":54.95,"20241021":50.79,"20241022":50.16,"20241023":45.36,"20241024":39.44,"20241025":42.77,"20241026":55.27,"20241027":54.37,"20241028":58.42,"20241029":60.68,"20241030":58.95,"20241031":60.11,"20241101":60.54,"20241102":57.72,"20241103":49.41,"20241104":55.15,"20241105":60.25,"20241106":65.47,"20241107":67.16,"20241108":65.32,"20241109":60.83,"20241110":60.18,"20241111":59.42,"20241112":70.14,"20241113":68.86,"20241114":70.64,"20241115":64.17,"20241116":55.7,"20241117":49.43,"20241118":66.6,"20241119":64.49,"20241120":55.99,"20241121":52.43,"20241122":43.53,"20241123":61.69,"20241124":61.84,"20241125":49.54,"20241126":52.78,"20241127":55.5,"20241128":65.77,"20241129":69.7,"20241130":71.2,"20241201":72.57,"20241202":71.78,"20241203":65.03,"20241204":63.39,"20241205":68.39,"20241206":65.55,"20241207":50.51,"20241208":40.05,"20241209":38.81,"20241210":69.26,"20241211":79.62,"20241212":81.78,"20241213":68.74,"20241214":60.52,"20241215":57.08,"20241216":67.82,"20241217":74.83,"20241218":74.97,"20241219":71.19,"20241220":75.91,"20241221":66.47,"20241222":48.56,"20241223":64.2,"20241224":59.53,"20241225":41.32,"20241226":46.21,"20241227":54.76,"20241228":67.49,"20241229":66.15,"20241230":69.94,"20241231":72.11}}},"header":{"title":"NASA/POWER Source Native Resolution Daily Data","api":{"version":"v2.9.6","name":"POWER Daily API"},"sources":["MERRA2","POWER"],"fill_value":-999.0,"time_standard":"UTC","start":"20240101","end":"20241231"},"messages":[],"parameters":{"T2M":{"units":"C","longname":"Temperature at 2 Meters"},"T2M_MAX":{"units":"C","longname":"Temperature at 2 Meters Maximum"},"T2M_MIN":{"units":"C","longname":"Temperature at 2 Meters Minimum"},"PRECTOTCORR":{"units":"mm/day","longname":"Precipitation Corrected"},"WS10M":{"units":"m/s","longname":"Wind Speed at 10 Meters"},"RH2M":{"units":"%","longname":"Relative Humidity at 2 Meters"}},"times":{"data":0.851,"process":0.02}}