{"type":"Feature","geometry":{"type":"Point","coordinates":[-77.028,-12.043,1194.76]},"properties":{"parameter":{"T2M":{"20240101":19.17,"20240102":19.11,"20240103":18.87,"20240104":19.7,"20240105":20.4,"20240106":20.44,"20240107":20.72,"20240108":20.46,"20240109":20.51,"20240110":20.73,"20240111":20.2,"20240112":19.7,"20240113":20.17,"20240114":20.05,"20240115":20.25,"20240116":20.84,"20240117":20.66,"20240118":20.74,"20240119":21.0,"20240120":20.99,"20240121":21.07,"20240122":21.05,"20240123":21.75,"20240124":21.98,"20240125":22.16,"20240126":22.05,"20240127":21.59,"20240128":21.51,"20240129":22.1,"20240130":22.17,"20240131":21.66,"20240201":21.5,"20240202":20.89,"20240203":20.79,"20240204":22.09,"20240205":21.78,"20240206":21.43,"20240207":20.43,"20240208":21.57,"20240209":21.68,"20240210":22.18,"20240211":21.8,"20240212":21.27,"20240213":21.53,"20240214":22.38,"20240215":22.2,"20240216":22.28,"20240217":21.87,"20240218":21.52,"20240219":21.47,"20240220":21.1,"20240221":20.89,"20240222":20.71,"20240223":20.17,"20240224":20.49,"20240225":20.7,"20240226":20.5,"20240227":20.73,"20240228":20.56,"20240229":20.16,"20240301":19.91,"20240302":20.12,"20240303":20.28,"20240304":20.58,"20240305":20.82,"20240306":21.12,"20240307":21.72,"20240308":21.28,"20240309":21.38,"20240310":20.98,"20240311":21.4,"20240312":21.35,"20240313":21.51,"20240314":21.29,"20240315":21.41,"20240316":21.21,"20240317":20.65,"20240318":20.96,"20240319":20.63,"20240320":21.12,"20240321":21.12,"20240322":20.26,"20240323":19.98,"20240324":20.54,"20240325":20.91,"20240326":20.17,"20240327":20.1,"20240328":20.94,"20240329":20.54,"20240330":20.3,"20240331":20.29,"20240401":20.25,"20240402":19.8,"20240403":19.73,"20240404":19.9,"20240405":20.07,"20240406":20.33,"20240407":20.69,"20240408":20.27,"20240409":20.21,"20240410":20.21,"20240411":20.32,"20240412":21.01,"20240413":20.46,"20240414":19.62,"20240415":19.25,"20240416":19.29,"20240417":19.95,"20240418":20.1,"20240419":19.59,"20240420":19.64,"20240421":19.14,"20240422":19.33,"20240423":19.88,"20240424":19.88,"20240425":19.89,"20240426":19.68,"20240427":19.38,"20240428":19.15,"20240429":19.71,"20240430":20.12,"20240501":20.12,"20240502":19.82,"20240503":19.0,"20240504":19.0,"20240505":19.35,"20240506":19.06,"20240507":18.81,"20240508":19.05,"20240509":19.04,"20240510":18.95,"20240511":19.38,"20240512":18.89,"20240513":18.84,"20240514":19.56,"20240515":18.75,"20240516":17.9,"20240517":19.21,"20240518":19.03,"20240519":18.94,"20240520":19.38,"20240521":18.76,"20240522":18.76,"20240523":18.29,"20240524":18.06,"20240525":18.62,"20240526":18.19,"20240527":18.07,"20240528":17.67,"20240529":18.28,"20240530":18.05,"20240531":17.87,"20240601":18.62,"20240602":18.68,"20240603":18.61,"20240604":18.19,"20240605":17.78,"20240606":17.58,"20240607":17.68,"20240608":17.82,"20240609":16.9,"20240610":17.01,"20240611":18.14,"20240612":18.78,"20240613":17.62,"20240614":17.18,"20240615":17.35,"20240616":17.53,"20240617":17.15,"20240618":16.64,"20240619":16.2,"20240620":17.22,"20240621":18.31,"20240622":17.79,"20240623":18.1,"20240624":17.72,"20240625":16.87,"20240626":16.52,"20240627":16.83,"20240628":16.43,"20240629":16.9,"20240630":17.31,"20240701":18.06,"20240702":17.86,"20240703":17.95,"20240704":17.91,"20240705":16.59,"20240706":16.9,"20240707":17.37,"20240708":17.66,"20240709":16.78,"20240710":16.91,"20240711":16.82,"20240712":16.43,"20240713":16.92,"20240714":17.57,"20240715":17.28,"20240716":17.38,"20240717":17.62,"20240718":17.25,"20240719":16.73,"20240720":16.14,"20240721":16.31,"20240722":16.72,"20240723":17.35,"20240724":17.24,"20240725":17.15,"20240726":17.83,"20240727":17.8,"20240728":18.22,"20240729":17.89,"20240730":18.1,"20240731":18.35,"20240801":18.65,"20240802":17.51,"20240803":16.91,"20240804":16.9,"20240805":17.14,"20240806":17.19,"20240807":17.26,"20240808":16.66,"20240809":16.8,"20240810":17.27,"20240811":17.33,"20240812":17.2,"20240813":17.51,"20240814":17.85,"20240815":18.11,"20240816":17.9,"20240817":17.39,"20240818":17.39,"20240819":18.01,"20240820":17.93,"20240821":17.74,"20240822":17.12,"20240823":16.83,"20240824":16.87,"20240825":17.22,"20240826":17.56,"20240827":18.24,"20240828":17.62,"20240829":17.33,"20240830":17.09,"20240831":17.6,"20240901":17.35,"20240902":17.35,"20240903":17.31,"20240904":17.68,"20240905":18.25,"20240906":18.03,"20240907":18.79,"20240908":19.02,"20240909":18.82,"20240910":18.08,"20240911":18.47,"20240912":18.56,"20240913":18.68,"20240914":18.78,"20240915":18.77,"20240916":18.68,"20240917":19.36,"20240918":19.31,"20240919":18.58,"20240920":18.46,"20240921":17.99,"20240922":18.13,"20240923":17.95,"20240924":18.23,"20240925":18.15,"20240926":18.16,"20240927":18.01,"20240928":17.71,"20240929":18.01,"20240930":17.6,"20241001":17.87,"20241002":18.19,"20241003":18.54,"20241004":19.55,"20241005":19.64,"20241006":18.51,"20241007":18.02,"20241008":18.37,"20241009":18.2,"20241010":17.99,"20241011":18.01,"20241012":18.26,"20241013":18.96,"20241014":19.37,"20241015":19.15,"20241016":19.33,"20241017":19.87,"20241018":19.65,"20241019":19.1,"20241020":17.63,"20241021":16.78,"20241022":17.33,"20241023":17.11,"20241024":18.44,"20241025":18.12,"20241026":18.41,"20241027":18.46,"20241028":18.73,"20241029":18.86,"20241030":18.92,"20241031":18.84,"20241101":17.83,"20241102":17.41,"20241103":17.79,"20241104":18.23,"20241105":18.24,"20241106":17.85,"20241107":18.25,"20241108":17.27,"20241109":17.1,"20241110":18.09,"20241111":18.8,"20241112":17.19,"20241113":17.44,"20241114":18.11,"20241115":17.76,"20241116":18.42,"20241117":17.95,"20241118":18.82,"20241119":18.04,"20241120":17.65,"20241121":17.32,"20241122":17.74,"20241123":18.21,"20241124":18.62,"20241125":18.75,"20241126":18.52,"20241127":18.36,"20241128":18.98,"20241129":19.18,"20241130":19.07,"20241201":19.15,"20241202":18.8,"20241203":18.37,"20241204":18.69,"20241205":18.77,"20241206":17.88,"20241207":17.87,"20241208":18.26,"20241209":18.71,"20241210":19.11,"20241211":18.9,"20241212":18.67,"20241213":18.39,"20241214":17.63,"20241215":17.66,"20241216":17.97,"20241217":18.91,"20241218":18.71,"20241219":18.66,"20241220":19.47,"20241221":19.4,"20241222":18.87,"20241223":18.26,"20241224":18.58,"20241225":19.04,"20241226":18.65,"20241227":18.56,"20241228":19.38,"20241229":18.54,"20241230":18.62,"20241231":18.31},"T2M_MAX":{"20240101":22.79,"20240102":22.39,"20240103":22.02,"20240104":23.95,"20240105":24.95,"20240106":24.76,"20240107":25.25,"20240108":24.16,"20240109":25.54,"20240110":25.22,"20240111":24.17,"20240112":23.3,"20240113":24.36,"20240114":22.85,"20240115":24.68,"20240116":25.88,"20240117":23.92,"20240118":25.51,"20240119":24.89,"20240120":25.69,"20240121":25.8,"20240122":24.34,"20240123":25.62,"20240124":25.67,"20240125":26.42,"20240126":26.81,"20240127":25.63,"20240128":25.61,"20240129":26.0,"20240130":26.53,"20240131":26.51,"20240201":26.02,"20240202":24.65,"20240203":25.14,"20240204":27.31,"20240205":25.88,"20240206":26.07,"20240207":23.21,"20240208":25.52,"20240209":24.51,"20240210":26.35,"20240211":25.87,"20240212":23.79,"20240213":25.13,"20240214":26.52,"20240215":26.76,"20240216":27.39,"20240217":26.14,"20240218":25.02,"20240219":24.55,"20240220":24.38,"20240221":25.17,"20240222":24.79,"20240223":23.16,"20240224":23.26,"20240225":23.34,"20240226":24.41,"20240227":25.37,"20240228":24.22,"20240229":23.04,"20240301":22.76,"20240302":24.49,"20240303":25.06,"20240304":24.58,"20240305":24.05,"20240306":24.85,"20240307":25.68,"20240308":24.47,"20240309":25.52,"20240310":24.97,"20240311":25.72,"20240312":25.92,"20240313":26.42,"20240314":26.23,"20240315":26.89,"20240316":25.41,"20240317":23.48,"20240318":24.57,"20240319":23.32,"20240320":25.11,"20240321":25.05,"20240322":23.01,"20240323":22.67,"20240324":24.86,"20240325":24.48,"20240326":22.71,"20240327":23.0,"20240328":25.69,"20240329":24.84,"20240330":24.36,"20240331":24.58,"20240401":24.6,"20240402":24.13,"20240403":24.37,"20240404":23.7,"20240405":24.2,"20240406":24.8,"20240407":25.35,"20240408":24.28,"20240409":24.84,"20240410":24.17,"20240411":24.04,"20240412":25.17,"20240413":24.88,"20240414":24.34,"20240415":24.18,"20240416":24.1,"20240417":24.69,"20240418":24.63,"20240419":23.8,"20240420":24.45,"20240421":22.97,"20240422":24.32,"20240423":24.75,"20240424":24.77,"20240425":24.64,"20240426":23.96,"20240427":23.71,"20240428":23.41,"20240429":24.73,"20240430":24.25,"20240501":24.34,"20240502":24.09,"20240503":24.06,"20240504":22.65,"20240505":24.2,"20240506":23.9,"20240507":23.35,"20240508":24.24,"20240509":23.43,"20240510":23.23,"20240511":23.88,"20240512":22.97,"20240513":23.37,"20240514":23.61,"20240515":22.4,"20240516":22.43,"20240517":23.46,"20240518":23.95,"20240519":23.47,"20240520":24.07,"20240521":23.95,"20240522":23.29,"20240523":22.72,"20240524":22.5,"20240525":23.82,"20240526":22.85,"20240527":23.31,"20240528":22.07,"20240529":23.03,"20240530":23.48,"20240531":22.99,"20240601":24.01,"20240602":23.12,"20240603":24.69,"20240604":23.29,"20240605":22.46,"20240606":23.02,"20240607":23.37,"20240608":23.99,"20240609":22.28,"20240610":22.05,"20240611":23.23,"20240612":23.87,"20240613":21.79,"20240614":22.37,"20240615":21.93,"20240616":22.11,"20240617":21.6,"20240618":21.16,"20240619":20.75,"20240620":20.8,"20240621":22.41,"20240622":22.81,"20240623":22.69,"20240624":22.57,"20240625":21.83,"20240626":21.78,"20240627":22.25,"20240628":21.22,"20240629":21.54,"20240630":22.12,"20240701":22.66,"20240702":22.48,"20240703":22.73,"20240704":23.68,"20240705":21.49,"20240706":22.24,"20240707":21.66,"20240708":22.59,"20240709":21.81,"20240710":21.9,"20240711":22.1,"20240712":22.3,"20240713":22.39,"20240714":22.59,"20240715":22.46,"20240716":22.48,"20240717":23.55,"20240718":22.95,"20240719":22.5,"20240720":21.57,"20240721":21.61,"20240722":21.94,"20240723":21.93,"20240724":22.28,"20240725":21.57,"20240726":22.22,"20240727":22.5,"20240728":22.87,"20240729":22.8,"20240730":23.61,"20240731":23.02,"20240801":24.06,"20240802":21.99,"20240803":21.68,"20240804":21.66,"20240805":21.77,"20240806":21.99,"20240807":22.39,"20240808":21.99,"20240809":22.06,"20240810":22.13,"20240811":22.2,"20240812":21.44,"20240813":22.5,"20240814":22.6,"20240815":23.33,"20240816":23.06,"20240817":22.65,"20240818":21.83,"20240819":23.33,"20240820":22.56,"20240821":23.18,"20240822":22.02,"20240823":21.54,"20240824":20.77,"20240825":21.77,"20240826":23.17,"20240827":22.37,"20240828":23.03,"20240829":22.06,"20240830":21.62,"20240831":22.54,"20240901":22.96,"20240902":21.88,"20240903":22.27,"20240904":23.37,"20240905":23.91,"20240906":23.3,"20240907":23.05,"20240908":23.69,"20240909":23.66,"20240910":23.37,"20240911":23.26,"20240912":23.4,"20240913":22.34,"20240914":23.49,"20240915":23.13,"20240916":23.61,"20240917":23.92,"20240918":22.99,"20240919":22.82,"20240920":22.81,"20240921":22.59,"20240922":22.36,"20240923":22.3,"20240924":22.66,"20240925":22.46,"20240926":22.19,"20240927":23.07,"20240928":21.17,"20240929":22.12,"20240930":22.31,"20241001":22.17,"20241002":22.71,"20241003":23.45,"20241004":23.64,"20241005":23.98,"20241006":22.12,"20241007":21.25,"20241008":22.72,"20241009":22.78,"20241010":22.77,"20241011":22.08,"20241012":23.53,"20241013":23.26,"20241014":23.46,"20241015":23.0,"20241016":23.11,"20241017":23.94,"20241018":27.1,"20241019":23.5,"20241020":22.1,"20241021":20.29,"20241022":22.22,"20241023":20.31,"20241024":23.24,"20241025":22.73,"20241026":22.88,"20241027":23.4,"20241028":23.06,"20241029":22.67,"20241030":23.34,"20241031":23.26,"20241101":22.48,"20241102":21.39,"20241103":22.34,"20241104":22.13,"20241105":22.36,"20241106":21.67,"20241107":22.66,"20241108":20.94,"20241109":21.35,"20241110":21.86,"20241111":23.1,"20241112":18.91,"20241113":21.38,"20241114":21.78,"20241115":20.94,"20241116":22.63,"20241117":21.48,"20241118":23.48,"20241119":22.55,"20241120":21.65,"20241121":20.62,"20241122":22.3,"20241123":22.09,"20241124":22.43,"20241125":22.38,"20241126":22.53,"20241127":22.19,"20241128":23.03,"20241129":22.58,"20241130":23.46,"20241201":22.6,"20241202":22.3,"20241203":21.64,"20241204":22.96,"20241205":22.21,"20241206":21.7,"20241207":22.13,"20241208":22.38,"20241209":23.38,"20241210":22.87,"20241211":22.71,"20241212":22.38,"20241213":22.06,"20241214":20.42,"20241215":21.06,"20241216":21.15,"20241217":23.94,"20241218":21.55,"20241219":21.74,"20241220":23.92,"20241221":23.55,"20241222":23.05,"20241223":21.23,"20241224":22.81,"20241225":23.2,"20241226":22.61,"20241227":22.7,"20241228":23.77,"20241229":22.46,"20241230":22.09,"20241231":21.3},"T2M_MIN":{"20240101":16.67,"20240102":17.11,"20240103":16.71,"20240104":16.81,"20240105":17.86,"20240106":17.48,"20240107":17.39,"20240108":17.99,"20240109":17.14,"20240110":17.51,"20240111":17.44,"20240112":17.44,"20240113":17.01,"20240114":17.87,"20240115":16.96,"20240116":17.47,"20240117":18.43,"20240118":17.22,"20240119":18.52,"20240120":17.69,"20240121":17.95,"20240122":18.58,"20240123":19.16,"20240124":18.9,"20240125":19.05,"20240126":18.99,"20240127":19.07,"20240128":18.71,"20240129":19.46,"20240130":19.03,"20240131":19.05,"20240201":18.35,"20240202":18.16,"20240203":17.74,"20240204":18.54,"20240205":19.07,"20240206":18.16,"20240207":18.27,"20240208":18.86,"20240209":19.43,"20240210":19.25,"20240211":18.61,"20240212":18.91,"20240213":19.15,"20240214":19.58,"20240215":19.1,"20240216":19.0,"20240217":19.07,"20240218":19.05,"20240219":19.38,"20240220":18.5,"20240221":18.03,"20240222":17.93,"20240223":18.33,"20240224":18.52,"20240225":19.01,"20240226":17.72,"20240227":17.62,"20240228":18.27,"20240229":18.53,"20240301":18.17,"20240302":17.48,"20240303":16.83,"20240304":18.18,"20240305":18.38,"20240306":18.77,"20240307":18.82,"20240308":18.86,"20240309":18.82,"20240310":18.1,"20240311":18.57,"20240312":18.54,"20240313":18.56,"20240314":18.05,"20240315":17.74,"20240316":18.01,"20240317":18.83,"20240318":18.85,"20240319":18.92,"20240320":17.99,"20240321":18.3,"20240322":18.2,"20240323":18.33,"20240324":17.97,"20240325":18.81,"20240326":18.0,"20240327":17.71,"20240328":18.12,"20240329":17.43,"20240330":17.68,"20240331":17.65,"20240401":17.73,"20240402":16.97,"20240403":16.89,"20240404":17.3,"20240405":17.62,"20240406":17.13,"20240407":18.04,"20240408":17.78,"20240409":17.49,"20240410":17.76,"20240411":17.9,"20240412":18.22,"20240413":17.78,"20240414":16.14,"20240415":15.79,"20240416":16.08,"20240417":16.43,"20240418":16.27,"20240419":16.27,"20240420":16.31,"20240421":16.7,"20240422":15.84,"20240423":16.7,"20240424":16.73,"20240425":16.62,"20240426":17.34,"20240427":16.64,"20240428":16.71,"20240429":16.38,"20240430":17.32,"20240501":17.49,"20240502":16.93,"20240503":16.38,"20240504":16.51,"20240505":15.8,"20240506":16.01,"20240507":15.79,"20240508":16.14,"20240509":16.24,"20240510":16.1,"20240511":16.25,"20240512":16.17,"20240513":15.47,"20240514":16.61,"20240515":15.92,"20240516":14.84,"20240517":16.58,"20240518":15.38,"20240519":15.89,"20240520":16.35,"20240521":15.44,"20240522":14.81,"20240523":14.83,"20240524":14.92,"20240525":14.99,"20240526":14.86,"20240527":14.47,"20240528":14.66,"20240529":14.81,"20240530":13.85,"20240531":13.88,"20240601":14.33,"20240602":14.95,"20240603":13.73,"20240604":14.14,"20240605":13.73,"20240606":12.71,"20240607":12.78,"20240608":12.45,"20240609":13.45,"20240610":13.32,"20240611":14.87,"20240612":15.65,"20240613":14.83,"20240614":13.77,"20240615":14.3,"20240616":14.58,"20240617":14.25,"20240618":13.68,"20240619":13.43,"20240620":14.98,"20240621":15.92,"20240622":14.53,"20240623":14.68,"20240624":14.57,"20240625":13.27,"20240626":13.0,"20240627":13.05,"20240628":12.8,"20240629":14.16,"20240630":13.99,"20240701":14.52,"20240702":14.67,"20240703":14.79,"20240704":14.2,"20240705":13.4,"20240706":13.29,"20240707":14.61,"20240708":14.18,"20240709":13.02,"20240710":12.76,"20240711":12.92,"20240712":11.76,"20240713":12.92,"20240714":14.36,"20240715":13.49,"20240716":13.16,"20240717":13.12,"20240718":12.61,"20240719":12.05,"20240720":12.04,"20240721":12.4,"20240722":12.98,"20240723":14.01,"20240724":13.35,"20240725":13.65,"20240726":14.54,"20240727":14.35,"20240728":15.11,"20240729":14.6,"20240730":14.59,"20240731":14.75,"20240801":14.54,"20240802":14.27,"20240803":13.02,"20240804":13.34,"20240805":13.58,"20240806":13.81,"20240807":13.15,"20240808":12.81,"20240809":13.1,"20240810":13.98,"20240811":13.6,"20240812":13.53,"20240813":13.59,"20240814":14.12,"20240815":13.7,"20240816":13.66,"20240817":13.6,"20240818":13.46,"20240819":15.04,"20240820":13.76,"20240821":14.34,"20240822":13.96,"20240823":13.04,"20240824":13.95,"20240825":13.65,"20240826":13.78,"20240827":14.94,"20240828":13.36,"20240829":13.94,"20240830":13.15,"20240831":13.79,"20240901":12.63,"20240902":14.28,"20240903":13.8,"20240904":13.46,"20240905":14.07,"20240906":13.71,"20240907":15.64,"20240908":15.51,"20240909":15.27,"20240910":14.23,"20240911":14.76,"20240912":15.13,"20240913":15.46,"20240914":15.04,"20240915":15.55,"20240916":14.72,"20240917":15.89,"20240918":16.09,"20240919":15.57,"20240920":14.83,"20240921":14.46,"20240922":15.34,"20240923":14.06,"20240924":14.77,"20240925":15.23,"20240926":15.2,"20240927":14.47,"20240928":15.25,"20240929":15.2,"20240930":13.63,"20241001":14.72,"20241002":14.6,"20241003":14.03,"20241004":15.67,"20241005":15.75,"20241006":15.47,"20241007":15.03,"20241008":15.09,"20241009":14.12,"20241010":14.62,"20241011":14.69,"20241012":13.79,"20241013":15.88,"20241014":15.93,"20241015":16.22,"20241016":16.24,"20241017":16.93,"20241018":15.44,"20241019":16.33,"20241020":14.56,"20241021":14.83,"20241022":14.07,"20241023":15.16,"20241024":14.85,"20241025":14.0,"20241026":14.55,"20241027":14.88,"20241028":15.12,"20241029":15.61,"20241030":15.68,"20241031":15.24,"20241101":13.99,"20241102":14.12,"20241103":15.02,"20241104":15.59,"20241105":15.75,"20241106":14.87,"20241107":14.72,"20241108":14.56,"20241109":13.89,"20241110":14.92,"20241111":16.21,"20241112":15.49,"20241113":14.46,"20241114":15.68,"20241115":15.5,"20241116":15.58,"20241117":15.36,"20241118":15.89,"20241119":15.05,"20241120":15.03,"20241121":15.43,"20241122":14.62,"20241123":15.91,"20241124":15.55,"20241125":15.8,"20241126":15.39,"20241127":15.63,"20241128":16.17,"20241129":16.34,"20241130":15.88,"20241201":16.72,"20241202":16.14,"20241203":15.72,"20241204":15.67,"20241205":16.38,"20241206":15.44,"20241207":15.11,"20241208":15.24,"20241209":15.45,"20241210":16.15,"20241211":16.18,"20241212":16.5,"20241213":16.07,"20241214":15.27,"20241215":15.47,"20241216":15.77,"20241217":15.38,"20241218":16.45,"20241219":16.29,"20241220":16.71,"20241221":16.76,"20241222":15.59,"20241223":15.68,"20241224":15.41,"20241225":15.75,"20241226":15.91,"20241227":15.71,"20241228":16.39,"20241229":16.33,"20241230":15.98,"20241231":15.67},"PRECTOTCORR":{"20240101":0.06,"20240102":0.13,"20240103":0.13,"20240104":0.1,"20240105":0.02,"20240106":0.03,"20240107":0.01,"20240108":0.03,"20240109":0.03,"20240110":0.0,"20240111":0.02,"20240112":0.13,"20240113":0.19,"20240114":0.53,"20240115":0.14,"20240116":0.06,"20240117":0.05,"20240118":0.14,"20240119":0.15,"20240120":0.06,"20240121":0.05,"20240122":0.03,"20240123":0.09,"20240124":0.0,"20240125":0.0,"20240126":0.02,"20240127":0.05,"20240128":0.1,"20240129":0.03,"20240130":0.04,"20240131":0.06,"20240201":0.08,"20240202":0.11,"20240203":0.17,"20240204":0.69,"20240205":0.03,"20240206":0.04,"20240207":0.25,"20240208":0.03,"20240209":0.01,"20240210":0.02,"20240211":0.06,"20240212":0.12,"20240213":0.15,"20240214":0.14,"20240215":0.21,"20240216":0.24,"20240217":0.17,"20240218":0.23,"20240219":0.06,"20240220":0.1,"20240221":0.12,"20240222":0.06,"20240223":0.17,"20240224":0.13,"20240225":0.46,"20240226":0.22,"20240227":0.4,"20240228":0.52,"20240229":1.12,"20240301":0.14,"20240302":0.23,"20240303":0.13,"20240304":0.38,"20240305":0.08,"20240306":0.07,"20240307":0.07,"20240308":0.09,"20240309":0.15,"20240310":0.37,"20240311":0.18,"20240312":0.08,"20240313":0.0,"20240314":0.0,"20240315":0.01,"20240316":0.03,"20240317":0.71,"20240318":0.4,"20240319":0.38,"20240320":0.02,"20240321":0.04,"20240322":0.12,"20240323":0.26,"20240324":0.45,"20240325":0.14,"20240326":0.15,"20240327":0.34,"20240328":0.11,"20240329":0.13,"20240330":0.06,"20240331":0.14,"20240401":0.92,"20240402":0.32,"20240403":0.11,"20240404":0.26,"20240405":0.09,"20240406":0.09,"20240407":0.33,"20240408":0.05,"20240409":0.24,"20240410":0.57,"20240411":0.05,"20240412":0.07,"20240413":0.05,"20240414":0.07,"20240415":0.06,"20240416":0.0,"20240417":0.0,"20240418":0.0,"20240419":0.0,"20240420":0.0,"20240421":0.06,"20240422":0.07,"20240423":0.11,"20240424":0.02,"20240425":0.03,"20240426":0.02,"20240427":0.0,"20240428":0.0,"20240429":0.0,"20240430":0.0,"20240501":0.02,"20240502":0.02,"20240503":0.01,"20240504":0.0,"20240505":0.0,"20240506":0.0,"20240507":0.0,"20240508":0.0,"20240509":0.0,"20240510":0.0,"20240511":0.01,"20240512":0.01,"20240513":0.01,"20240514":0.01,"20240515":0.01,"20240516":0.02,"20240517":0.03,"20240518":0.01,"20240519":0.0,"20240520":0.02,"20240521":0.05,"20240522":0.0,"20240523":0.0,"20240524":0.0,"20240525":0.0,"20240526":0.0,"20240527":0.0,"20240528":0.27,"20240529":0.49,"20240530":0.0,"20240531":0.0,"20240601":0.0,"20240602":0.02,"20240603":0.06,"20240604":0.0,"20240605":0.0,"20240606":0.0,"20240607":0.0,"20240608":0.0,"20240609":0.0,"20240610":0.0,"20240611":0.0,"20240612":0.0,"20240613":0.0,"20240614":0.0,"20240615":0.03,"20240616":0.04,"20240617":0.03,"20240618":0.03,"20240619":0.17,"20240620":0.13,"20240621":0.02,"20240622":0.03,"20240623":0.05,"20240624":0.07,"20240625":0.01,"20240626":0.02,"20240627":0.03,"20240628":0.05,"20240629":0.15,"20240630":0.11,"20240701":0.0,"20240702":0.0,"20240703":0.0,"20240704":0.0,"20240705":0.08,"20240706":0.04,"20240707":0.01,"20240708":0.03,"20240709":0.08,"20240710":0.03,"20240711":0.0,"20240712":0.0,"20240713":0.05,"20240714":0.07,"20240715":0.0,"20240716":0.0,"20240717":0.0,"20240718":0.0,"20240719":0.0,"20240720":0.0,"20240721":0.0,"20240722":0.21,"20240723":0.2,"20240724":0.0,"20240725":0.0,"20240726":0.0,"20240727":0.0,"20240728":0.0,"20240729":0.0,"20240730":0.0,"20240731":0.0,"20240801":0.0,"20240802":0.0,"20240803":0.0,"20240804":0.0,"20240805":0.0,"20240806":0.0,"20240807":0.0,"20240808":0.0,"20240809":0.01,"20240810":0.01,"20240811":0.0,"20240812":0.0,"20240813":0.0,"20240814":0.0,"20240815":0.0,"20240816":0.0,"20240817":0.0,"20240818":0.0,"20240819":0.01,"20240820":0.0,"20240821":0.03,"20240822":0.07,"20240823":0.01,"20240824":0.01,"20240825":0.16,"20240826":0.17,"20240827":0.01,"20240828":0.02,"20240829":0.0,"20240830":0.0,"20240831":0.0,"20240901":0.0,"20240902":0.0,"20240903":0.35,"20240904":0.26,"20240905":0.03,"20240906":0.09,"20240907":0.0,"20240908":0.0,"20240909":0.0,"20240910":0.0,"20240911":0.0,"20240912":0.0,"20240913":0.0,"20240914":0.01,"20240915":0.0,"20240916":0.0,"20240917":0.0,"20240918":0.0,"20240919":0.0,"20240920":0.0,"20240921":0.0,"20240922":0.0,"20240923":0.02,"20240924":0.03,"20240925":0.02,"20240926":0.02,"20240927":0.07,"20240928":0.08,"20240929":0.01,"20240930":0.0,"20241001":0.0,"20241002":0.02,"20241003":0.04,"20241004":0.04,"20241005":0.2,"20241006":0.03,"20241007":0.03,"20241008":0.01,"20241009":0.0,"20241010":0.0,"20241011":0.0,"20241012":0.0,"20241013":0.0,"20241014":0.01,"20241015":0.02,"20241016":0.02,"20241017":0.01,"20241018":0.0,"20241019":0.0,"20241020":0.0,"20241021":0.0,"20241022":0.02,"20241023":0.04,"20241024":0.06,"20241025":0.06,"20241026":0.0,"20241027":0.0,"20241028":0.0,"20241029":0.02,"20241030":0.01,"20241031":0.02,"20241101":0.01,"20241102":0.01,"20241103":0.19,"20241104":0.05,"20241105":0.02,"20241106":0.02,"20241107":0.01,"20241108":0.09,"20241109":0.11,"20241110":0.02,"20241111":0.01,"20241112":0.09,"20241113":0.11,"20241114":0.0,"20241115":0.13,"20241116":0.07,"20241117":0.0,"20241118":0.0,"20241119":0.01,"20241120":0.0,"20241121":0.13,"20241122":0.18,"20241123":0.57,"20241124":0.2,"20241125":0.21,"20241126":1.46,"20241127":0.06,"20241128":0.16,"20241129":0.3,"20241130":0.22,"20241201":0.6,"20241202":0.27,"20241203":0.96,"20241204":0.01,"20241205":0.02,"20241206":0.03,"20241207":0.04,"20241208":1.46,"20241209":0.4,"20241210":0.34,"20241211":0.52,"20241212":0.36,"20241213":0.13,"20241214":0.24,"20241215":0.47,"20241216":0.37,"20241217":0.31,"20241218":0.03,"20241219":0.02,"20241220":0.01,"20241221":0.01,"20241222":0.04,"20241223":0.42,"20241224":0.06,"20241225":0.04,"20241226":0.07,"20241227":0.16,"20241228":0.06,"20241229":0.15,"20241230":0.12,"20241231":0.63},"WS10M":{"20240101":3.28,"20240102":3.02,"20240103":2.48,"20240104":3.02,"20240105":3.75,"20240106":3.6,"20240107":4.16,"20240108":3.7,"20240109":3.71,"20240110":3.96,"20240111":3.76,"20240112":2.91,"20240113":3.33,"20240114":2.89,"20240115":3.53,"20240116":3.48,"20240117":3.04,"20240118":3.84,"20240119":3.46,"20240120":4.1,"20240121":3.43,"20240122":2.97,"20240123":2.39,"20240124":2.99,"20240125":3.31,"20240126":3.56,"20240127":3.21,"20240128":3.53,"20240129":3.76,"20240130":3.41,"20240131":3.96,"20240201":3.5,"20240202":3.4,"20240203":3.66,"20240204":3.42,"20240205":3.48,"20240206":3.9,"20240207":3.06,"20240208":2.8,"20240209":3.13,"20240210":3.47,"20240211":3.76,"20240212":3.28,"20240213":3.4,"20240214":3.09,"20240215":3.32,"20240216":3.99,"20240217":3.9,"20240218":3.12,"20240219":2.67,"20240220":2.88,"20240221":2.64,"20240222":3.38,"20240223":2.87,"20240224":2.6,"20240225":2.56,"20240226":3.23,"20240227":3.58,"20240228":3.52,"20240229":2.68,"20240301":2.19,"20240302":2.52,"20240303":3.14,"20240304":2.77,"20240305":2.61,"20240306":3.09,"20240307":3.05,"20240308":2.94,"20240309":2.74,"20240310":2.79,"20240311":3.08,"20240312":3.29,"20240313":2.86,"20240314":3.25,"20240315":3.02,"20240316":3.2,"20240317":2.49,"20240318":2.58,"20240319":2.49,"20240320":3.22,"20240321":2.91,"20240322":2.9,"20240323":2.84,"20240324":2.86,"20240325":2.98,"20240326":2.58,"20240327":2.6,"20240328":3.3,"20240329":3.21,"20240330":3.35,"20240331":3.27,"20240401":3.3,"20240402":3.04,"20240403":3.03,"20240404":2.97,"20240405":3.18,"20240406":3.49,"20240407":3.19,"20240408":3.27,"20240409":3.23,"20240410":2.87,"20240411":3.25,"20240412":3.65,"20240413":3.46,"20240414":3.42,"20240415":3.67,"20240416":3.22,"20240417":3.09,"20240418":3.11,"20240419":3.12,"20240420":2.9,"20240421":3.03,"20240422":3.42,"20240423":3.17,"20240424":3.08,"20240425":3.24,"20240426":2.75,"20240427":2.83,"20240428":2.61,"20240429":3.14,"20240430":2.92,"20240501":3.1,"20240502":3.03,"20240503":2.85,"20240504":2.69,"20240505":3.5,"20240506":3.22,"20240507":3.5,"20240508":3.23,"20240509":2.84,"20240510":3.23,"20240511":3.3,"20240512":2.87,"20240513":2.73,"20240514":2.89,"20240515":3.25,"20240516":3.04,"20240517":3.38,"20240518":3.52,"20240519":3.29,"20240520":3.53,"20240521":3.32,"20240522":3.34,"20240523":3.17,"20240524":2.72,"20240525":3.01,"20240526":3.24,"20240527":3.3,"20240528":2.83,"20240529":3.04,"20240530":2.83,"20240531":3.0,"20240601":2.99,"20240602":2.7,"20240603":2.45,"20240604":2.67,"20240605":3.11,"20240606":3.13,"20240607":2.95,"20240608":3.23,"20240609":3.11,"20240610":2.73,"20240611":2.28,"20240612":2.74,"20240613":3.03,"20240614":2.59,"20240615":2.7,"20240616":2.93,"20240617":3.18,"20240618":3.26,"20240619":3.2,"20240620":3.55,"20240621":3.44,"20240622":3.13,"20240623":2.91,"20240624":3.2,"20240625":3.46,"20240626":3.27,"20240627":2.96,"20240628":2.66,"20240629":2.96,"20240630":3.26,"20240701":2.97,"20240702":2.63,"20240703":2.27,"20240704":2.56,"20240705":3.08,"20240706":3.37,"20240707":3.35,"20240708":3.63,"20240709":3.71,"20240710":3.54,"20240711":3.64,"20240712":3.47,"20240713":3.4,"20240714":3.58,"20240715":3.48,"20240716":3.11,"20240717":3.03,"20240718":3.35,"20240719":3.15,"20240720":3.9,"20240721":3.69,"20240722":3.09,"20240723":3.4,"20240724":3.18,"20240725":2.89,"20240726":3.17,"20240727":2.9,"20240728":2.76,"20240729":2.56,"20240730":2.66,"20240731":3.03,"20240801":3.09,"20240802":3.45,"20240803":3.22,"20240804":3.32,"20240805":3.8,"20240806":3.77,"20240807":3.53,"20240808":3.35,"20240809":3.44,"20240810":3.09,"20240811":3.41,"20240812":3.07,"20240813":3.06,"20240814":2.88,"20240815":3.01,"20240816":3.22,"20240817":2.87,"20240818":3.09,"20240819":3.36,"20240820":3.23,"20240821":4.06,"20240822":3.85,"20240823":3.36,"20240824":2.72,"20240825":2.95,"20240826":3.43,"20240827":3.31,"20240828":3.38,"20240829":4.46,"20240830":4.08,"20240831":4.04,"20240901":3.8,"20240902":3.51,"20240903":3.54,"20240904":3.61,"20240905":3.69,"20240906":3.19,"20240907":3.43,"20240908":3.54,"20240909":3.13,"20240910":3.27,"20240911":3.58,"20240912":3.58,"20240913":3.46,"20240914":3.5,"20240915":3.62,"20240916":3.36,"20240917":3.44,"20240918":3.57,"20240919":3.65,"20240920":3.34,"20240921":2.89,"20240922":2.85,"20240923":3.16,"20240924":3.15,"20240925":3.26,"20240926":2.8,"20240927":3.24,"20240928":3.23,"20240929":3.44,"20240930":3.45,"20241001":3.33,"20241002":3.03,"20241003":2.8,"20241004":2.85,"20241005":2.31,"20241006":2.07,"20241007":2.36,"20241008":3.46,"20241009":3.69,"20241010":3.49,"20241011":3.21,"20241012":3.13,"20241013":3.55,"20241014":3.32,"20241015":2.79,"20241016":3.36,"20241017":3.63,"20241018":2.88,"20241019":3.1,"20241020":3.12,"20241021":2.8,"20241022":3.14,"20241023":3.15,"20241024":3.47,"20241025":3.53,"20241026":3.49,"20241027":3.62,"20241028":3.01,"20241029":3.41,"20241030":3.27,"20241031":3.09,"20241101":3.39,"20241102":3.01,"20241103":3.38,"20241104":3.9,"20241105":3.22,"20241106":3.15,"20241107":3.46,"20241108":2.64,"20241109":2.87,"20241110":3.13,"20241111":3.32,"20241112":2.76,"20241113":2.96,"20241114":2.75,"20241115":2.89,"20241116":3.34,"20241117":3.38,"20241118":3.19,"20241119":3.22,"20241120":3.1,"20241121":2.97,"20241122":2.99,"20241123":2.84,"20241124":2.89,"20241125":2.96,"20241126":2.66,"20241127":2.81,"20241128":3.46,"20241129":3.01,"20241130":3.32,"20241201":3.05,"20241202":2.99,"20241203":2.47,"20241204":2.98,"20241205":3.28,"20241206":2.87,"20241207":3.2,"20241208":3.55,"20241209":2.94,"20241210":3.03,"20241211":3.33,"20241212":3.41,"20241213":3.08,"20241214":2.66,"20241215":3.11,"20241216":2.32,"20241217":3.09,"20241218":2.79,"20241219":3.17,"20241220":3.04,"20241221":2.91,"20241222":3.01,"20241223":2.89,"20241224":3.21,"20241225":3.34,"20241226":3.14,"20241227":3.19,"20241228":3.15,"20241229":2.88,"20241230":2.31,"20241231":2.55},"RH2M":{"20240101":82.17,"20240102":82.05,"20240103":82.45,"20240104":77.25,"20240105":74.52,"20240106":76.24,"20240107":75.59,"20240108":77.71,"20240109":78.19,"20240110":77.87,"20240111":78.64,"20240112":80.75,"20240113":79.66,"20240114":80.37,"20240115":78.16,"20240116":76.61,"20240117":76.6,"20240118":76.97,"20240119":75.83,"20240120":75.57,"20240121":73.01,"20240122":75.36,"20240123":75.99,"20240124":76.27,"20240125":73.24,"20240126":75.14,"20240127":81.11,"20240128":79.48,"20240129":75.84,"20240130":74.97,"20240131":75.01,"20240201":75.68,"20240202":79.88,"20240203":79.67,"20240204":73.82,"20240205":75.46,"20240206":77.13,"20240207":81.77,"20240208":75.97,"20240209":71.24,"20240210":74.94,"20240211":75.5,"20240212":80.48,"20240213":80.35,"20240214":75.4,"20240215":77.02,"20240216":76.49,"20240217":76.92,"20240218":76.97,"20240219":80.1,"20240220":77.78,"20240221":79.88,"20240222":80.48,"20240223":84.58,"20240224":82.11,"20240225":80.88,"20240226":79.5,"20240227":79.33,"20240228":80.66,"20240229":83.05,"20240301":81.49,"20240302":79.32,"20240303":78.61,"20240304":81.07,"20240305":80.16,"20240306":79.19,"20240307":75.66,"20240308":76.15,"20240309":77.78,"20240310":79.06,"20240311":76.99,"20240312":76.35,"20240313":74.56,"20240314":72.76,"20240315":70.69,"20240316":73.97,"20240317":79.98,"20240318":72.72,"20240319":76.4,"20240320":72.31,"20240321":71.63,"20240322":77.54,"20240323":81.8,"20240324":79.23,"20240325":74.71,"20240326":77.45,"20240327":76.64,"20240328":71.12,"20240329":76.11,"20240330":76.08,"20240331":79.06,"20240401":76.5,"20240402":79.92,"20240403":77.7,"20240404":77.49,"20240405":80.29,"20240406":79.14,"20240407":77.71,"20240408":78.21,"20240409":78.54,"20240410":79.39,"20240411":73.36,"20240412":68.82,"20240413":70.94,"20240414":67.04,"20240415":65.4,"20240416":70.38,"20240417":68.72,"20240418":65.13,"20240419":67.65,"20240420":70.7,"20240421":74.46,"20240422":74.43,"20240423":75.01,"20240424":72.83,"20240425":72.4,"20240426":75.26,"20240427":77.44,"20240428":76.58,"20240429":72.43,"20240430":72.34,"20240501":71.88,"20240502":71.48,"20240503":70.55,"20240504":68.74,"20240505":67.85,"20240506":69.78,"20240507":71.94,"20240508":71.36,"20240509":71.79,"20240510":70.77,"20240511":67.04,"20240512":67.51,"20240513":66.54,"20240514":62.73,"20240515":65.34,"20240516":71.0,"20240517":63.76,"20240518":62.05,"20240519":60.53,"20240520":54.35,"20240521":54.86,"20240522":58.65,"20240523":61.7,"20240524":61.98,"20240525":56.86,"20240526":52.53,"20240527":56.81,"20240528":62.05,"20240529":61.83,"20240530":60.59,"20240531":60.53,"20240601":56.05,"20240602":53.21,"20240603":59.35,"20240604":60.03,"20240605":57.75,"20240606":57.88,"20240607":53.84,"20240608":53.87,"20240609":61.67,"20240610":61.94,"20240611":64.01,"20240612":56.94,"20240613":61.7,"20240614":64.59,"20240615":66.48,"20240616":69.97,"20240617":70.27,"20240618":68.27,"20240619":65.79,"20240620":67.6,"20240621":57.29,"20240622":61.37,"20240623":60.17,"20240624":63.89,"20240625":68.49,"20240626":69.54,"20240627":67.85,"20240628":69.21,"20240629":69.29,"20240630":65.54,"20240701":55.75,"20240702":63.62,"20240703":64.4,"20240704":62.15,"20240705":66.57,"20240706":67.7,"20240707":66.09,"20240708":66.11,"20240709":62.15,"20240710":56.56,"20240711":50.96,"20240712":57.66,"20240713":56.02,"20240714":53.87,"20240715":58.67,"20240716":61.44,"20240717":53.89,"20240718":50.87,"20240719":53.6,"20240720":60.61,"20240721":63.1,"20240722":62.66,"20240723":62.8,"20240724":60.87,"20240725":65.37,"20240726":61.87,"20240727":63.44,"20240728":62.72,"20240729":64.09,"20240730":64.05,"20240731":59.53,"20240801":53.71,"20240802":56.05,"20240803":56.26,"20240804":54.32,"20240805":57.32,"20240806":55.53,"20240807":52.67,"20240808":51.07,"20240809":49.3,"20240810":54.92,"20240811":50.67,"20240812":60.45,"20240813":61.54,"20240814":58.54,"20240815":55.0,"20240816":55.58,"20240817":61.84,"20240818":62.13,"20240819":63.26,"20240820":62.54,"20240821":61.81,"20240822":63.6,"20240823":65.92,"20240824":66.71,"20240825":65.99,"20240826":63.65,"20240827":55.06,"20240828":60.76,"20240829":60.32,"20240830":61.63,"20240831":54.28,"20240901":55.3,"20240902":58.6,"20240903":58.78,"20240904":59.65,"20240905":54.86,"20240906":61.72,"20240907":58.88,"20240908":57.02,"20240909":57.4,"20240910":59.38,"20240911":58.38,"20240912":58.35,"20240913":58.01,"20240914":53.81,"20240915":55.57,"20240916":56.05,"20240917":54.09,"20240918":52.7,"20240919":57.56,"20240920":59.7,"20240921":62.06,"20240922":62.95,"20240923":63.1,"20240924":61.65,"20240925":61.72,"20240926":62.6,"20240927":62.63,"20240928":62.84,"20240929":62.85,"20240930":64.78,"20241001":64.42,"20241002":63.6,"20241003":62.98,"20241004":58.01,"20241005":57.05,"20241006":60.15,"20241007":64.89,"20241008":64.31,"20241009":61.28,"20241010":59.53,"20241011":54.91,"20241012":52.26,"20241013":50.87,"20241014":56.26,"20241015":56.89,"20241016":56.91,"20241017":52.86,"20241018":53.16,"20241019":50.55,"20241020":60.9,"20241021":64.04,"20241022":69.09,"20241023":71.1,"20241024":64.18,"20241025":63.87,"20241026":57.89,"20241027":60.25,"20241028":60.48,"20241029":63.6,"20241030":63.75,"20241031":63.48,"20241101":61.07,"20241102":70.3,"20241103":71.44,"20241104":71.37,"20241105":69.29,"20241106":70.62,"20241107":64.77,"20241108":71.8,"20241109":75.93,"20241110":71.43,"20241111":65.34,"20241112":72.62,"20241113":74.08,"20241114":70.62,"20241115":71.86,"20241116":68.77,"20241117":68.74,"20241118":64.96,"20241119":72.21,"20241120":73.64,"20241121":75.76,"20241122":76.42,"20241123":76.97,"20241124":74.43,"20241125":73.78,"20241126":74.32,"20241127":76.16,"20241128":71.99,"20241129":70.96,"20241130":74.69,"20241201":76.56,"20241202":77.45,"20241203":76.39,"20241204":72.53,"20241205":73.59,"20241206":77.82,"20241207":78.85,"20241208":75.52,"20241209":73.26,"20241210":73.14,"20241211":74.39,"20241212":73.96,"20241213":77.64,"20241214":79.42,"20241215":76.32,"20241216":76.94,"20241217":72.44,"20241218":76.94,"20241219":74.32,"20241220":67.35,"20241221":69.38,"20241222":74.45,"20241223":77.33,"20241224":76.96,"20241225":73.61,"20241226":74.56,"20241227":77.21,"20241228":74.0,"20241229":78.14,"20241230":77.16,"20241231":78.97}}},"header":{"title":"NASA/POWER Source Native Resolution Daily Data","api":{"version":"v2.9.6","name":"POWER Daily API"},"sources":["MERRA2","POWER"],"fill_value":-999.0,"time_standard":"UTC","start":"20240101","end":"20241231"},"messages":[],"parameters":{"T2M":{"units":"C","longname":"Temperature at 2 Meters"},"T2M_MAX":{"units":"C","longname":"Temperature at 2 Meters Maximum"},"T2M_MIN":{"units":"C","longname":"Temperature at 2 Meters Minimum"},"PRECTOTCORR":{"units":"mm/day","longname":"Precipitation Corrected"},"WS10M":{"units":"m/s","longname":"Wind Speed at 10 Meters"},"RH2M":{"units":"%","longname":"Relative Humidity at 2 Meters"}},"times":{"data":0.914,"process":0.02}}