{"type":"Feature","geometry":{"type":"Point","coordinates":[39.27,-6.823,44.56]},"properties":{"parameter":{"T2M":{"20240101":28.24,"20240102":28.53,"20240103":28.41,"20240104":27.96,"20240105":27.49,"20240106":27.91,"20240107":28.08,"20240108":27.82,"20240109":28.13,"20240110":28.02,"20240111":27.74,"20240112":27.63,"20240113":27.48,"20240114":27.84,"20240115":27.96,"20240116":27.69,"20240117":27.72,"20240118":27.75,"20240119":27.78,"20240120":27.85,"20240121":27.18,"20240122":27.48,"20240123":27.39,"20240124":27.31,"20240125":27.21,"20240126":27.58,"20240127":27.71,"20240128":27.98,"20240129":27.86,"20240130":27.69,"20240131":27.52,"20240201":27.51,"20240202":28.0,"20240203":28.08,"20240204":28.21,"20240205":28.05,"20240206":28.33,"20240207":28.18,"20240208":28.02,"20240209":28.57,"20240210":28.54,"20240211":28.62,"20240212":28.31,"20240213":28.31,"20240214":28.32,"20240215":28.51,"20240216":28.65,"20240217":28.76,"20240218":28.79,"20240219":28.08,"20240220":28.58,"20240221":28.56,"20240222":28.78,"20240223":28.89,"20240224":28.28,"20240225":27.98,"20240226":28.54,"20240227":28.29,"20240228":27.91,"20240229":28.15,"20240301":28.53,"20240302":28.6,"20240303":28.37,"20240304":28.8,"20240305":29.21,"20240306":28.59,"20240307":28.41,"20240308":28.24,"20240309":28.8,"20240310":29.17,"20240311":28.89,"20240312":28.71,"20240313":28.16,"20240314":27.68,"20240315":28.13,"20240316":27.8,"20240317":28.11,"20240318":27.47,"20240319":27.55,"20240320":28.31,"20240321":28.54,"20240322":28.47,"20240323":28.16,"20240324":27.89,"20240325":28.15,"20240326":28.48,"20240327":28.38,"20240328":28.48,"20240329":28.15,"20240330":28.27,"20240331":28.12,"20240401":28.19,"20240402":28.26,"20240403":27.6,"20240404":27.3,"20240405":28.24,"20240406":27.55,"20240407":27.67,"20240408":28.05,"20240409":27.5,"20240410":27.75,"20240411":27.67,"20240412":27.75,"20240413":27.69,"20240414":26.94,"20240415":26.82,"20240416":26.79,"20240417":26.64,"20240418":27.13,"20240419":26.46,"20240420":26.8,"20240421":27.41,"20240422":27.51,"20240423":26.97,"20240424":26.89,"20240425":26.96,"20240426":26.79,"20240427":26.85,"20240428":26.14,"20240429":25.99,"20240430":26.52,"20240501":27.11,"20240502":27.49,"20240503":27.49,"20240504":26.0,"20240505":25.9,"20240506":26.33,"20240507":27.03,"20240508":27.03,"20240509":26.91,"20240510":26.94,"20240511":26.51,"20240512":26.48,"20240513":26.9,"20240514":26.86,"20240515":26.53,"20240516":26.33,"20240517":26.52,"20240518":26.68,"20240519":26.65,"20240520":26.43,"20240521":25.38,"20240522":26.65,"20240523":26.96,"20240524":26.45,"20240525":26.12,"20240526":25.83,"20240527":25.8,"20240528":24.93,"20240529":24.88,"20240530":25.14,"20240531":25.76,"20240601":26.37,"20240602":26.27,"20240603":26.7,"20240604":26.65,"20240605":26.19,"20240606":26.06,"20240607":26.1,"20240608":26.07,"20240609":25.85,"20240610":24.89,"20240611":24.42,"20240612":24.14,"20240613":24.17,"20240614":24.01,"20240615":24.32,"20240616":24.86,"20240617":25.02,"20240618":25.38,"20240619":25.99,"20240620":26.19,"20240621":25.57,"20240622":24.66,"20240623":23.96,"20240624":24.19,"20240625":24.55,"20240626":24.9,"20240627":25.36,"20240628":25.04,"20240629":24.75,"20240630":25.07,"20240701":25.04,"20240702":25.28,"20240703":25.46,"20240704":25.5,"20240705":25.54,"20240706":25.21,"20240707":24.94,"20240708":24.89,"20240709":25.48,"20240710":25.54,"20240711":24.94,"20240712":25.12,"20240713":24.8,"20240714":24.75,"20240715":25.34,"20240716":24.97,"20240717":25.17,"20240718":25.21,"20240719":25.13,"20240720":25.42,"20240721":24.93,"20240722":24.37,"20240723":25.02,"20240724":25.1,"20240725":24.97,"20240726":25.16,"20240727":24.95,"20240728":24.92,"20240729":25.18,"20240730":25.35,"20240731":24.99,"20240801":25.04,"20240802":25.04,"20240803":25.03,"20240804":24.82,"20240805":25.02,"20240806":25.44,"20240807":25.68,"20240808":25.34,"20240809":24.95,"20240810":25.31,"20240811":25.08,"20240812":25.31,"20240813":25.7,"20240814":25.51,"20240815":25.63,"20240816":25.83,"20240817":26.2,"20240818":26.18,"20240819":25.77,"20240820":25.96,"20240821":25.96,"20240822":25.55,"20240823":25.78,"20240824":25.75,"20240825":25.9,"20240826":25.58,"20240827":26.23,"20240828":26.18,"20240829":25.95,"20240830":25.89,"20240831":25.97,"20240901":25.93,"20240902":25.91,"20240903":25.78,"20240904":26.02,"20240905":26.08,"20240906":26.3,"20240907":26.38,"20240908":26.28,"20240909":26.14,"20240910":25.85,"20240911":25.58,"20240912":25.79,"20240913":26.05,"20240914":25.65,"20240915":25.76,"20240916":26.41,"20240917":26.26,"20240918":25.91,"20240919":26.02,"20240920":26.27,"20240921":26.73,"20240922":26.99,"20240923":26.8,"20240924":26.97,"20240925":26.79,"20240926":26.71,"20240927":26.44,"20240928":26.35,"20240929":26.44,"20240930":26.48,"20241001":26.59,"20241002":27.07,"20241003":26.96,"20241004":26.76,"20241005":26.51,"20241006":26.56,"20241007":26.45,"20241008":26.58,"20241009":26.71,"20241010":26.88,"20241011":26.95,"20241012":27.21,"20241013":27.25,"20241014":27.27,"20241015":27.1,"20241016":27.18,"20241017":27.35,"20241018":27.47,"20241019":27.61,"20241020":27.72,"20241021":27.56,"20241022":27.67,"20241023":27.34,"20241024":27.53,"20241025":27.9,"20241026":28.24,"20241027":28.21,"20241028":28.5,"20241029":28.36,"20241030":28.56,"20241031":27.25,"20241101":27.59,"20241102":27.84,"20241103":27.9,"20241104":27.81,"20241105":28.02,"20241106":28.08,"20241107":28.37,"20241108":27.38,"20241109":27.51,"20241110":27.39,"20241111":27.72,"20241112":28.18,"20241113":27.81,"20241114":28.1,"20241115":27.85,"20241116":28.06,"20241117":27.97,"20241118":28.07,"20241119":28.16,"20241120":27.81,"20241121":27.74,"20241122":27.86,"20241123":28.3,"20241124":28.53,"20241125":28.49,"20241126":28.26,"20241127":28.39,"20241128":28.79,"20241129":29.03,"20241130":28.79,"20241201":28.21,"20241202":27.11,"20241203":27.88,"20241204":27.94,"20241205":28.02,"20241206":27.88,"20241207":27.8,"20241208":27.86,"20241209":27.53,"20241210":27.46,"20241211":27.7,"20241212":28.16,"20241213":28.37,"20241214":28.39,"20241215":28.72,"20241216":28.58,"20241217":28.18,"20241218":27.63,"20241219":27.85,"20241220":27.33,"20241221":27.41,"20241222":27.8,"20241223":27.88,"20241224":28.04,"20241225":27.88,"20241226":27.95,"20241227":28.39,"20241228":28.38,"20241229":28.72,"20241230":28.48,"20241231":28.23},"T2M_MAX":{"20240101":29.5,"20240102":30.24,"20240103":29.78,"20240104":29.29,"20240105":28.77,"20240106":29.63,"20240107":29.56,"20240108":28.9,"20240109":29.75,"20240110":29.41,"20240111":29.15,"20240112":28.89,"20240113":28.45,"20240114":29.01,"20240115":28.98,"20240116":28.85,"20240117":29.01,"20240118":29.39,"20240119":28.98,"20240120":28.88,"20240121":28.24,"20240122":28.59,"20240123":28.54,"20240124":28.31,"20240125":28.72,"20240126":29.48,"20240127":29.09,"20240128":29.79,"20240129":29.79,"20240130":29.04,"20240131":28.74,"20240201":28.58,"20240202":29.88,"20240203":29.96,"20240204":30.11,"20240205":29.59,"20240206":29.7,"20240207":29.82,"20240208":29.39,"20240209":30.36,"20240210":30.47,"20240211":30.61,"20240212":29.88,"20240213":29.66,"20240214":30.3,"20240215":30.69,"20240216":30.51,"20240217":30.56,"20240218":30.22,"20240219":28.78,"20240220":30.07,"20240221":30.23,"20240222":30.88,"20240223":30.92,"20240224":30.08,"20240225":29.22,"20240226":29.95,"20240227":29.55,"20240228":29.0,"20240229":29.71,"20240301":30.11,"20240302":30.16,"20240303":29.72,"20240304":30.11,"20240305":31.03,"20240306":30.33,"20240307":29.96,"20240308":29.5,"20240309":30.28,"20240310":31.27,"20240311":31.1,"20240312":30.65,"20240313":29.26,"20240314":29.06,"20240315":29.4,"20240316":28.85,"20240317":29.43,"20240318":28.93,"20240319":28.74,"20240320":29.68,"20240321":30.24,"20240322":29.71,"20240323":29.48,"20240324":29.43,"20240325":30.0,"20240326":30.54,"20240327":29.85,"20240328":29.96,"20240329":29.86,"20240330":30.16,"20240331":29.27,"20240401":29.66,"20240402":29.71,"20240403":29.33,"20240404":28.38,"20240405":29.93,"20240406":28.98,"20240407":29.06,"20240408":29.29,"20240409":28.73,"20240410":29.31,"20240411":29.37,"20240412":29.16,"20240413":29.12,"20240414":27.87,"20240415":28.14,"20240416":27.93,"20240417":27.88,"20240418":28.3,"20240419":27.41,"20240420":28.79,"20240421":29.2,"20240422":29.14,"20240423":28.84,"20240424":28.03,"20240425":28.33,"20240426":27.91,"20240427":28.58,"20240428":28.27,"20240429":28.19,"20240430":28.99,"20240501":29.35,"20240502":29.35,"20240503":29.52,"20240504":26.49,"20240505":27.03,"20240506":27.56,"20240507":28.78,"20240508":28.74,"20240509":28.35,"20240510":28.78,"20240511":28.69,"20240512":28.83,"20240513":29.04,"20240514":28.8,"20240515":28.42,"20240516":28.46,"20240517":29.0,"20240518":28.59,"20240519":28.46,"20240520":28.2,"20240521":26.32,"20240522":28.51,"20240523":28.93,"20240524":28.48,"20240525":28.21,"20240526":27.94,"20240527":28.17,"20240528":27.31,"20240529":27.58,"20240530":27.49,"20240531":27.95,"20240601":28.89,"20240602":28.5,"20240603":29.33,"20240604":29.04,"20240605":28.34,"20240606":28.33,"20240607":28.83,"20240608":28.62,"20240609":27.98,"20240610":26.65,"20240611":26.73,"20240612":26.69,"20240613":26.9,"20240614":26.99,"20240615":27.28,"20240616":27.86,"20240617":27.48,"20240618":27.16,"20240619":27.66,"20240620":28.01,"20240621":27.78,"20240622":26.8,"20240623":25.43,"20240624":26.33,"20240625":27.34,"20240626":27.08,"20240627":27.65,"20240628":27.15,"20240629":26.93,"20240630":27.39,"20240701":27.2,"20240702":27.4,"20240703":27.59,"20240704":28.13,"20240705":28.17,"20240706":27.31,"20240707":27.57,"20240708":28.48,"20240709":28.39,"20240710":28.03,"20240711":26.91,"20240712":26.88,"20240713":27.57,"20240714":27.51,"20240715":27.82,"20240716":27.4,"20240717":28.27,"20240718":27.74,"20240719":27.43,"20240720":28.19,"20240721":27.61,"20240722":27.31,"20240723":27.9,"20240724":27.73,"20240725":28.06,"20240726":28.62,"20240727":28.11,"20240728":28.11,"20240729":28.43,"20240730":28.71,"20240731":27.85,"20240801":28.11,"20240802":27.73,"20240803":27.85,"20240804":27.76,"20240805":28.15,"20240806":28.72,"20240807":28.29,"20240808":28.06,"20240809":27.79,"20240810":28.07,"20240811":27.69,"20240812":28.67,"20240813":28.86,"20240814":28.41,"20240815":28.54,"20240816":29.06,"20240817":29.05,"20240818":28.74,"20240819":27.97,"20240820":28.57,"20240821":28.31,"20240822":28.06,"20240823":28.92,"20240824":28.71,"20240825":28.61,"20240826":27.9,"20240827":28.73,"20240828":28.52,"20240829":28.36,"20240830":28.21,"20240831":28.61,"20240901":28.57,"20240902":28.35,"20240903":28.43,"20240904":28.77,"20240905":28.73,"20240906":29.29,"20240907":29.39,"20240908":29.57,"20240909":29.02,"20240910":28.68,"20240911":28.34,"20240912":29.0,"20240913":29.52,"20240914":28.57,"20240915":28.93,"20240916":29.24,"20240917":28.84,"20240918":28.61,"20240919":29.26,"20240920":29.13,"20240921":29.56,"20240922":29.99,"20240923":29.86,"20240924":29.67,"20240925":29.83,"20240926":29.75,"20240927":29.59,"20240928":29.74,"20240929":29.82,"20240930":30.25,"20241001":29.76,"20241002":30.16,"20241003":29.84,"20241004":29.12,"20241005":29.17,"20241006":29.17,"20241007":28.95,"20241008":29.57,"20241009":29.35,"20241010":29.72,"20241011":29.88,"20241012":29.55,"20241013":30.15,"20241014":30.71,"20241015":30.47,"20241016":30.41,"20241017":29.95,"20241018":30.03,"20241019":30.65,"20241020":30.68,"20241021":30.46,"20241022":30.61,"20241023":30.34,"20241024":30.8,"20241025":31.16,"20241026":31.06,"20241027":30.57,"20241028":31.5,"20241029":31.35,"20241030":31.63,"20241031":28.7,"20241101":29.89,"20241102":30.35,"20241103":30.54,"20241104":30.71,"20241105":31.21,"20241106":30.83,"20241107":30.99,"20241108":29.36,"20241109":29.91,"20241110":29.98,"20241111":30.37,"20241112":30.91,"20241113":29.69,"20241114":30.74,"20241115":30.13,"20241116":30.83,"20241117":30.3,"20241118":29.86,"20241119":30.53,"20241120":29.28,"20241121":30.53,"20241122":30.76,"20241123":30.98,"20241124":31.32,"20241125":31.73,"20241126":31.39,"20241127":31.67,"20241128":32.21,"20241129":31.96,"20241130":31.2,"20241201":30.78,"20241202":28.35,"20241203":29.99,"20241204":29.6,"20241205":29.85,"20241206":29.47,"20241207":29.39,"20241208":30.06,"20241209":29.15,"20241210":29.45,"20241211":29.95,"20241212":30.48,"20241213":30.57,"20241214":30.28,"20241215":30.93,"20241216":30.78,"20241217":30.27,"20241218":29.65,"20241219":30.37,"20241220":29.55,"20241221":30.19,"20241222":30.66,"20241223":29.79,"20241224":30.17,"20241225":29.86,"20241226":29.94,"20241227":30.77,"20241228":30.44,"20241229":30.96,"20241230":30.25,"20241231":29.82},"T2M_MIN":{"20240101":27.19,"20240102":27.2,"20240103":27.3,"20240104":26.98,"20240105":26.23,"20240106":26.15,"20240107":26.95,"20240108":26.85,"20240109":26.98,"20240110":26.88,"20240111":26.82,"20240112":26.9,"20240113":26.87,"20240114":27.06,"20240115":27.12,"20240116":26.74,"20240117":26.58,"20240118":26.69,"20240119":26.61,"20240120":26.73,"20240121":26.32,"20240122":26.64,"20240123":26.44,"20240124":26.21,"20240125":25.84,"20240126":26.18,"20240127":26.52,"20240128":26.54,"20240129":26.37,"20240130":26.71,"20240131":26.6,"20240201":26.62,"20240202":26.45,"20240203":26.38,"20240204":26.57,"20240205":26.47,"20240206":27.09,"20240207":26.94,"20240208":26.66,"20240209":27.1,"20240210":27.24,"20240211":27.0,"20240212":27.1,"20240213":27.16,"20240214":26.97,"20240215":27.0,"20240216":27.16,"20240217":27.17,"20240218":27.52,"20240219":27.34,"20240220":27.34,"20240221":27.01,"20240222":26.87,"20240223":27.28,"20240224":27.0,"20240225":26.89,"20240226":27.2,"20240227":27.09,"20240228":26.78,"20240229":26.99,"20240301":27.16,"20240302":27.47,"20240303":27.37,"20240304":27.74,"20240305":27.78,"20240306":27.12,"20240307":27.15,"20240308":27.05,"20240309":27.85,"20240310":27.61,"20240311":27.36,"20240312":27.17,"20240313":26.87,"20240314":26.49,"20240315":26.96,"20240316":26.94,"20240317":26.97,"20240318":26.18,"20240319":26.28,"20240320":27.08,"20240321":27.31,"20240322":27.35,"20240323":26.93,"20240324":26.75,"20240325":26.61,"20240326":26.57,"20240327":27.08,"20240328":27.21,"20240329":26.92,"20240330":26.92,"20240331":27.17,"20240401":26.98,"20240402":27.12,"20240403":26.07,"20240404":26.09,"20240405":26.74,"20240406":26.29,"20240407":26.16,"20240408":27.06,"20240409":26.45,"20240410":26.3,"20240411":26.07,"20240412":25.96,"20240413":26.84,"20240414":26.26,"20240415":25.98,"20240416":26.0,"20240417":25.89,"20240418":26.16,"20240419":25.68,"20240420":25.02,"20240421":25.95,"20240422":26.34,"20240423":25.45,"20240424":25.39,"20240425":25.84,"20240426":25.94,"20240427":25.11,"20240428":24.21,"20240429":23.68,"20240430":23.96,"20240501":24.77,"20240502":25.75,"20240503":25.9,"20240504":25.04,"20240505":25.17,"20240506":25.19,"20240507":25.65,"20240508":25.73,"20240509":25.73,"20240510":25.14,"20240511":24.6,"20240512":24.29,"20240513":25.11,"20240514":25.38,"20240515":24.85,"20240516":24.73,"20240517":23.99,"20240518":24.85,"20240519":25.13,"20240520":24.92,"20240521":24.8,"20240522":24.89,"20240523":25.29,"20240524":24.98,"20240525":24.58,"20240526":24.14,"20240527":23.65,"20240528":22.84,"20240529":22.38,"20240530":22.5,"20240531":23.44,"20240601":24.61,"20240602":24.52,"20240603":24.35,"20240604":24.77,"20240605":24.51,"20240606":24.04,"20240607":23.8,"20240608":23.77,"20240609":24.1,"20240610":23.45,"20240611":22.67,"20240612":21.96,"20240613":21.64,"20240614":21.1,"20240615":21.06,"20240616":21.98,"20240617":22.07,"20240618":23.39,"20240619":24.43,"20240620":24.76,"20240621":23.68,"20240622":22.8,"20240623":21.85,"20240624":22.35,"20240625":21.68,"20240626":23.09,"20240627":23.82,"20240628":23.47,"20240629":23.05,"20240630":23.32,"20240701":23.51,"20240702":23.33,"20240703":23.68,"20240704":23.54,"20240705":23.32,"20240706":23.61,"20240707":22.51,"20240708":21.88,"20240709":22.83,"20240710":23.62,"20240711":23.15,"20240712":23.11,"20240713":22.43,"20240714":21.71,"20240715":23.46,"20240716":23.07,"20240717":22.72,"20240718":23.15,"20240719":23.39,"20240720":23.25,"20240721":22.37,"20240722":21.88,"20240723":22.32,"20240724":22.94,"20240725":22.45,"20240726":22.37,"20240727":22.45,"20240728":22.4,"20240729":22.49,"20240730":22.79,"20240731":22.76,"20240801":22.73,"20240802":22.94,"20240803":22.72,"20240804":22.41,"20240805":22.55,"20240806":22.4,"20240807":23.87,"20240808":23.0,"20240809":22.54,"20240810":22.8,"20240811":22.84,"20240812":22.57,"20240813":22.93,"20240814":23.59,"20240815":23.61,"20240816":23.13,"20240817":23.64,"20240818":24.67,"20240819":23.94,"20240820":24.16,"20240821":24.27,"20240822":23.38,"20240823":23.28,"20240824":23.62,"20240825":23.61,"20240826":24.28,"20240827":24.11,"20240828":24.56,"20240829":24.28,"20240830":24.11,"20240831":24.05,"20240901":23.97,"20240902":24.03,"20240903":23.78,"20240904":23.82,"20240905":24.27,"20240906":24.31,"20240907":24.24,"20240908":23.83,"20240909":24.17,"20240910":23.77,"20240911":23.26,"20240912":23.12,"20240913":23.3,"20240914":23.6,"20240915":23.39,"20240916":23.77,"20240917":24.57,"20240918":23.9,"20240919":23.59,"20240920":23.86,"20240921":24.72,"20240922":24.7,"20240923":24.71,"20240924":25.01,"20240925":24.66,"20240926":24.49,"20240927":23.88,"20240928":23.65,"20240929":23.81,"20240930":23.63,"20241001":23.92,"20241002":24.8,"20241003":24.62,"20241004":25.19,"20241005":24.99,"20241006":24.72,"20241007":24.72,"20241008":24.65,"20241009":24.57,"20241010":24.84,"20241011":24.72,"20241012":25.29,"20241013":25.27,"20241014":24.96,"20241015":25.04,"20241016":24.82,"20241017":25.43,"20241018":25.81,"20241019":25.8,"20241020":25.68,"20241021":25.7,"20241022":25.85,"20241023":25.66,"20241024":25.56,"20241025":25.34,"20241026":26.22,"20241027":26.56,"20241028":26.47,"20241029":26.4,"20241030":26.18,"20241031":26.05,"20241101":25.93,"20241102":25.98,"20241103":25.97,"20241104":25.8,"20241105":25.81,"20241106":26.15,"20241107":26.33,"20241108":26.1,"20241109":25.74,"20241110":25.74,"20241111":25.73,"20241112":26.1,"20241113":26.5,"20241114":26.19,"20241115":25.9,"20241116":26.08,"20241117":26.23,"20241118":26.38,"20241119":26.92,"20241120":26.54,"20241121":25.63,"20241122":25.48,"20241123":26.18,"20241124":26.46,"20241125":26.25,"20241126":25.99,"20241127":26.04,"20241128":26.23,"20241129":26.7,"20241130":26.91,"20241201":26.78,"20241202":25.97,"20241203":25.94,"20241204":26.69,"20241205":26.52,"20241206":26.63,"20241207":26.29,"20241208":26.05,"20241209":26.11,"20241210":25.93,"20241211":25.91,"20241212":26.21,"20241213":26.52,"20241214":26.85,"20241215":27.07,"20241216":27.04,"20241217":26.59,"20241218":26.12,"20241219":26.03,"20241220":25.47,"20241221":25.25,"20241222":25.37,"20241223":26.3,"20241224":26.46,"20241225":26.44,"20241226":26.39,"20241227":26.5,"20241228":26.57,"20241229":26.87,"20241230":27.39,"20241231":27.08},"PRECTOTCORR":{"20240101":4.79,"20240102":3.25,"20240103":13.27,"20240104":15.05,"20240105":23.33,"20240106":38.51,"20240107":13.81,"20240108":13.02,"20240109":12.76,"20240110":19.38,"20240111":11.48,"20240112":20.99,"20240113":14.47,"20240114":9.14,"20240115":5.21,"20240116":9.51,"20240117":11.59,"20240118":9.65,"20240119":14.39,"20240120":74.71,"20240121":52.62,"20240122":8.18,"20240123":1.3,"20240124":3.91,"20240125":7.22,"20240126":5.23,"20240127":4.48,"20240128":1.84,"20240129":0.86,"20240130":2.42,"20240131":2.2,"20240201":1.31,"20240202":0.13,"20240203":1.54,"20240204":3.23,"20240205":0.05,"20240206":0.25,"20240207":0.11,"20240208":0.05,"20240209":0.08,"20240210":0.59,"20240211":0.73,"20240212":1.58,"20240213":1.69,"20240214":1.17,"20240215":0.12,"20240216":0.46,"20240217":0.76,"20240218":0.96,"20240219":1.31,"20240220":14.12,"20240221":3.52,"20240222":1.06,"20240223":2.46,"20240224":4.8,"20240225":0.21,"20240226":0.06,"20240227":1.6,"20240228":1.62,"20240229":2.06,"20240301":3.14,"20240302":11.3,"20240303":4.95,"20240304":4.77,"20240305":3.02,"20240306":2.67,"20240307":0.13,"20240308":0.12,"20240309":0.93,"20240310":0.03,"20240311":0.01,"20240312":0.94,"20240313":6.17,"20240314":5.17,"20240315":9.49,"20240316":9.88,"20240317":16.05,"20240318":9.84,"20240319":13.65,"20240320":9.8,"20240321":4.6,"20240322":4.59,"20240323":12.58,"20240324":6.93,"20240325":1.05,"20240326":2.9,"20240327":56.79,"20240328":34.28,"20240329":0.54,"20240330":4.98,"20240331":10.27,"20240401":5.45,"20240402":14.08,"20240403":13.99,"20240404":16.6,"20240405":10.8,"20240406":2.75,"20240407":3.61,"20240408":13.63,"20240409":3.19,"20240410":3.34,"20240411":3.18,"20240412":6.56,"20240413":15.52,"20240414":11.17,"20240415":14.04,"20240416":8.46,"20240417":22.82,"20240418":4.85,"20240419":17.39,"20240420":9.73,"20240421":22.75,"20240422":15.56,"20240423":25.14,"20240424":33.32,"20240425":40.3,"20240426":10.87,"20240427":1.1,"20240428":0.49,"20240429":0.01,"20240430":0.1,"20240501":0.18,"20240502":0.25,"20240503":2.58,"20240504":38.32,"20240505":5.23,"20240506":1.88,"20240507":4.52,"20240508":3.74,"20240509":3.65,"20240510":0.55,"20240511":0.04,"20240512":0.08,"20240513":0.09,"20240514":0.02,"20240515":0.01,"20240516":0.01,"20240517":0.1,"20240518":0.13,"20240519":0.27,"20240520":0.96,"20240521":7.41,"20240522":4.58,"20240523":2.21,"20240524":0.26,"20240525":0.06,"20240526":0.04,"20240527":0.01,"20240528":0.0,"20240529":0.0,"20240530":0.0,"20240531":0.16,"20240601":0.21,"20240602":0.12,"20240603":0.02,"20240604":0.11,"20240605":0.04,"20240606":0.04,"20240607":0.01,"20240608":0.01,"20240609":0.01,"20240610":0.27,"20240611":0.01,"20240612":0.0,"20240613":0.02,"20240614":0.0,"20240615":0.05,"20240616":0.1,"20240617":0.61,"20240618":14.77,"20240619":39.6,"20240620":1.78,"20240621":0.28,"20240622":2.21,"20240623":3.43,"20240624":0.93,"20240625":0.44,"20240626":0.94,"20240627":0.06,"20240628":0.05,"20240629":0.69,"20240630":0.15,"20240701":0.01,"20240702":0.0,"20240703":0.01,"20240704":0.0,"20240705":0.01,"20240706":0.03,"20240707":0.03,"20240708":0.0,"20240709":0.0,"20240710":0.06,"20240711":0.63,"20240712":4.41,"20240713":0.03,"20240714":0.37,"20240715":0.03,"20240716":0.0,"20240717":0.0,"20240718":0.04,"20240719":0.01,"20240720":0.01,"20240721":0.01,"20240722":0.0,"20240723":0.04,"20240724":0.02,"20240725":0.0,"20240726":0.0,"20240727":0.0,"20240728":0.0,"20240729":0.02,"20240730":0.03,"20240731":0.04,"20240801":0.27,"20240802":0.18,"20240803":0.17,"20240804":0.03,"20240805":0.01,"20240806":0.01,"20240807":0.16,"20240808":0.01,"20240809":0.52,"20240810":3.04,"20240811":3.72,"20240812":0.06,"20240813":0.38,"20240814":0.28,"20240815":0.25,"20240816":0.03,"20240817":0.2,"20240818":0.81,"20240819":1.58,"20240820":0.11,"20240821":0.11,"20240822":0.14,"20240823":0.06,"20240824":0.07,"20240825":0.63,"20240826":1.58,"20240827":0.61,"20240828":0.68,"20240829":0.45,"20240830":0.52,"20240831":0.29,"20240901":0.13,"20240902":0.53,"20240903":0.28,"20240904":0.19,"20240905":0.98,"20240906":0.61,"20240907":0.46,"20240908":0.05,"20240909":0.06,"20240910":0.1,"20240911":0.04,"20240912":0.04,"20240913":0.11,"20240914":0.19,"20240915":0.08,"20240916":0.2,"20240917":0.21,"20240918":0.19,"20240919":0.54,"20240920":0.35,"20240921":0.19,"20240922":0.1,"20240923":0.18,"20240924":0.46,"20240925":0.42,"20240926":0.16,"20240927":0.14,"20240928":0.01,"20240929":0.01,"20240930":0.02,"20241001":0.08,"20241002":0.27,"20241003":1.02,"20241004":6.34,"20241005":2.8,"20241006":2.56,"20241007":0.8,"20241008":0.22,"20241009":0.38,"20241010":0.09,"20241011":0.41,"20241012":1.11,"20241013":0.2,"20241014":0.18,"20241015":0.09,"20241016":0.1,"20241017":0.41,"20241018":0.25,"20241019":0.15,"20241020":0.05,"20241021":0.03,"20241022":0.03,"20241023":0.59,"20241024":0.18,"20241025":0.77,"20241026":1.56,"20241027":0.87,"20241028":1.14,"20241029":0.99,"20241030":44.0,"20241031":55.25,"20241101":6.44,"20241102":0.28,"20241103":0.27,"20241104":0.14,"20241105":0.23,"20241106":1.08,"20241107":2.41,"20241108":122.29,"20241109":1.32,"20241110":0.9,"20241111":0.34,"20241112":5.28,"20241113":5.33,"20241114":0.75,"20241115":2.36,"20241116":1.54,"20241117":1.19,"20241118":2.03,"20241119":1.89,"20241120":2.29,"20241121":0.25,"20241122":0.65,"20241123":1.42,"20241124":2.27,"20241125":0.43,"20241126":0.47,"20241127":0.96,"20241128":0.36,"20241129":1.53,"20241130":4.29,"20241201":8.76,"20241202":25.25,"20241203":8.76,"20241204":14.83,"20241205":10.05,"20241206":13.26,"20241207":13.98,"20241208":10.06,"20241209":10.51,"20241210":6.38,"20241211":4.62,"20241212":1.4,"20241213":1.29,"20241214":2.14,"20241215":1.66,"20241216":0.65,"20241217":11.19,"20241218":8.92,"20241219":5.91,"20241220":5.69,"20241221":1.85,"20241222":1.09,"20241223":7.85,"20241224":5.78,"20241225":10.23,"20241226":8.52,"20241227":0.87,"20241228":2.25,"20241229":2.14,"20241230":3.6,"20241231":3.55},"WS10M":{"20240101":4.31,"20240102":4.19,"20240103":4.91,"20240104":5.17,"20240105":3.68,"20240106":4.35,"20240107":4.06,"20240108":4.65,"20240109":5.53,"20240110":5.41,"20240111":5.28,"20240112":5.59,"20240113":6.11,"20240114":5.13,"20240115":5.69,"20240116":4.39,"20240117":3.09,"20240118":2.71,"20240119":4.74,"20240120":5.47,"20240121":5.86,"20240122":5.65,"20240123":4.16,"20240124":2.42,"20240125":2.34,"20240126":2.06,"20240127":3.53,"20240128":5.01,"20240129":5.04,"20240130":4.7,"20240131":4.13,"20240201":3.05,"20240202":3.15,"20240203":3.47,"20240204":3.94,"20240205":3.84,"20240206":3.97,"20240207":3.53,"20240208":4.23,"20240209":5.46,"20240210":5.19,"20240211":4.25,"20240212":3.28,"20240213":3.93,"20240214":4.83,"20240215":5.17,"20240216":4.94,"20240217":4.35,"20240218":3.72,"20240219":2.59,"20240220":2.9,"20240221":4.43,"20240222":6.48,"20240223":5.14,"20240224":3.04,"20240225":2.36,"20240226":2.61,"20240227":1.62,"20240228":2.0,"20240229":2.15,"20240301":2.11,"20240302":2.96,"20240303":3.15,"20240304":4.41,"20240305":4.44,"20240306":3.02,"20240307":2.11,"20240308":2.56,"20240309":3.02,"20240310":2.88,"20240311":3.45,"20240312":2.39,"20240313":1.62,"20240314":2.07,"20240315":2.54,"20240316":3.51,"20240317":3.69,"20240318":4.01,"20240319":4.17,"20240320":3.75,"20240321":3.77,"20240322":3.89,"20240323":4.67,"20240324":3.69,"20240325":3.76,"20240326":3.63,"20240327":2.63,"20240328":1.8,"20240329":2.03,"20240330":1.88,"20240331":2.4,"20240401":4.38,"20240402":4.72,"20240403":3.34,"20240404":2.68,"20240405":3.31,"20240406":3.05,"20240407":3.83,"20240408":4.17,"20240409":3.08,"20240410":2.86,"20240411":2.63,"20240412":3.8,"20240413":6.14,"20240414":7.31,"20240415":6.15,"20240416":6.72,"20240417":6.53,"20240418":5.73,"20240419":5.24,"20240420":4.48,"20240421":4.45,"20240422":5.02,"20240423":5.64,"20240424":4.2,"20240425":4.31,"20240426":4.44,"20240427":6.49,"20240428":5.98,"20240429":6.12,"20240430":6.32,"20240501":6.07,"20240502":6.29,"20240503":8.86,"20240504":9.84,"20240505":6.92,"20240506":4.82,"20240507":5.7,"20240508":6.41,"20240509":5.79,"20240510":5.73,"20240511":4.93,"20240512":4.5,"20240513":5.28,"20240514":5.83,"20240515":5.83,"20240516":5.31,"20240517":4.73,"20240518":5.81,"20240519":6.34,"20240520":7.67,"20240521":6.9,"20240522":5.89,"20240523":6.57,"20240524":5.59,"20240525":5.99,"20240526":5.79,"20240527":5.9,"20240528":6.09,"20240529":5.38,"20240530":5.53,"20240531":4.76,"20240601":4.68,"20240602":4.06,"20240603":3.7,"20240604":3.84,"20240605":3.91,"20240606":3.67,"20240607":4.44,"20240608":5.12,"20240609":5.95,"20240610":7.33,"20240611":7.12,"20240612":6.56,"20240613":5.79,"20240614":5.83,"20240615":5.41,"20240616":6.08,"20240617":5.74,"20240618":5.77,"20240619":4.99,"20240620":6.88,"20240621":6.93,"20240622":6.35,"20240623":5.83,"20240624":5.95,"20240625":6.51,"20240626":6.6,"20240627":7.16,"20240628":6.33,"20240629":5.86,"20240630":5.82,"20240701":6.01,"20240702":5.85,"20240703":5.67,"20240704":4.94,"20240705":4.22,"20240706":5.16,"20240707":5.6,"20240708":4.89,"20240709":4.57,"20240710":6.31,"20240711":5.53,"20240712":6.18,"20240713":5.42,"20240714":5.65,"20240715":5.54,"20240716":5.92,"20240717":5.26,"20240718":5.73,"20240719":5.57,"20240720":5.62,"20240721":5.84,"20240722":4.85,"20240723":5.43,"20240724":5.73,"20240725":5.16,"20240726":4.98,"20240727":5.73,"20240728":5.04,"20240729":4.72,"20240730":4.93,"20240731":5.89,"20240801":6.02,"20240802":6.07,"20240803":5.92,"20240804":5.08,"20240805":4.71,"20240806":4.67,"20240807":6.31,"20240808":5.52,"20240809":4.81,"20240810":5.14,"20240811":4.74,"20240812":3.87,"20240813":4.32,"20240814":4.05,"20240815":5.01,"20240816":5.83,"20240817":7.26,"20240818":7.01,"20240819":6.59,"20240820":7.22,"20240821":7.21,"20240822":6.09,"20240823":6.56,"20240824":7.0,"20240825":6.18,"20240826":5.78,"20240827":5.66,"20240828":6.02,"20240829":6.18,"20240830":6.5,"20240831":6.99,"20240901":6.81,"20240902":7.67,"20240903":7.43,"20240904":7.07,"20240905":6.22,"20240906":5.18,"20240907":5.03,"20240908":5.21,"20240909":5.2,"20240910":4.9,"20240911":4.74,"20240912":4.8,"20240913":4.57,"20240914":4.02,"20240915":4.92,"20240916":5.01,"20240917":5.85,"20240918":5.22,"20240919":4.44,"20240920":5.13,"20240921":5.35,"20240922":5.42,"20240923":5.6,"20240924":6.78,"20240925":5.09,"20240926":5.09,"20240927":5.21,"20240928":5.14,"20240929":4.96,"20240930":4.01,"20241001":4.37,"20241002":5.4,"20241003":4.73,"20241004":8.76,"20241005":7.75,"20241006":5.13,"20241007":4.42,"20241008":4.25,"20241009":5.41,"20241010":5.78,"20241011":5.65,"20241012":6.16,"20241013":4.73,"20241014":3.92,"20241015":4.44,"20241016":4.99,"20241017":6.18,"20241018":6.31,"20241019":5.06,"20241020":4.95,"20241021":5.52,"20241022":5.36,"20241023":5.19,"20241024":5.24,"20241025":4.85,"20241026":5.57,"20241027":4.61,"20241028":4.77,"20241029":4.39,"20241030":4.65,"20241031":6.3,"20241101":5.05,"20241102":4.12,"20241103":3.94,"20241104":3.79,"20241105":3.6,"20241106":3.74,"20241107":3.99,"20241108":4.9,"20241109":3.55,"20241110":3.97,"20241111":3.58,"20241112":3.79,"20241113":3.6,"20241114":3.4,"20241115":4.31,"20241116":3.97,"20241117":3.76,"20241118":4.49,"20241119":4.14,"20241120":4.64,"20241121":4.15,"20241122":3.74,"20241123":3.62,"20241124":3.6,"20241125":3.58,"20241126":3.62,"20241127":3.3,"20241128":3.6,"20241129":4.37,"20241130":4.48,"20241201":3.77,"20241202":2.64,"20241203":3.7,"20241204":4.94,"20241205":4.16,"20241206":4.46,"20241207":4.0,"20241208":3.46,"20241209":2.74,"20241210":2.22,"20241211":2.88,"20241212":3.31,"20241213":3.96,"20241214":4.53,"20241215":5.43,"20241216":5.15,"20241217":3.54,"20241218":2.74,"20241219":3.67,"20241220":3.15,"20241221":2.87,"20241222":2.63,"20241223":2.75,"20241224":3.36,"20241225":3.62,"20241226":3.15,"20241227":3.83,"20241228":4.96,"20241229":5.76,"20241230":5.34,"20241231":5.16},"RH2M":{"20240101":83.47,"20240102":82.35,"20240103":83.01,"20240104":84.68,"20240105":85.87,"20240106":82.86,"20240107":83.06,"20240108":83.69,"20240109":82.29,"20240110":83.06,"20240111":84.2,"20240112":86.78,"20240113":88.16,"20240114":88.57,"20240115":88.41,"20240116":88.14,"20240117":87.51,"20240118":85.52,"20240119":89.79,"20240120":90.82,"20240121":88.39,"20240122":87.12,"20240123":86.26,"20240124":86.19,"20240125":86.68,"20240126":83.18,"20240127":86.03,"20240128":83.65,"20240129":83.49,"20240130":83.86,"20240131":84.6,"20240201":85.41,"20240202":82.73,"20240203":82.7,"20240204":82.18,"20240205":82.15,"20240206":83.12,"20240207":82.96,"20240208":84.49,"20240209":82.65,"20240210":81.69,"20240211":81.06,"20240212":82.93,"20240213":83.46,"20240214":82.14,"20240215":81.91,"20240216":83.19,"20240217":84.07,"20240218":84.96,"20240219":84.11,"20240220":84.11,"20240221":83.18,"20240222":80.56,"20240223":80.84,"20240224":83.01,"20240225":81.89,"20240226":79.81,"20240227":80.48,"20240228":82.7,"20240229":83.39,"20240301":82.27,"20240302":84.12,"20240303":84.65,"20240304":83.82,"20240305":81.62,"20240306":82.79,"20240307":80.69,"20240308":83.5,"20240309":83.0,"20240310":79.35,"20240311":78.04,"20240312":77.72,"20240313":80.67,"20240314":81.64,"20240315":81.88,"20240316":84.99,"20240317":83.62,"20240318":86.86,"20240319":87.15,"20240320":84.03,"20240321":83.41,"20240322":87.72,"20240323":86.64,"20240324":81.25,"20240325":78.82,"20240326":80.13,"20240327":84.09,"20240328":81.7,"20240329":80.64,"20240330":78.81,"20240331":83.74,"20240401":84.37,"20240402":85.52,"20240403":84.78,"20240404":85.9,"20240405":82.28,"20240406":85.1,"20240407":86.5,"20240408":86.89,"20240409":88.59,"20240410":85.17,"20240411":82.87,"20240412":88.39,"20240413":90.29,"20240414":86.68,"20240415":85.97,"20240416":86.9,"20240417":87.74,"20240418":86.4,"20240419":84.75,"20240420":85.15,"20240421":86.96,"20240422":85.88,"20240423":81.47,"20240424":88.68,"20240425":89.12,"20240426":88.04,"20240427":81.48,"20240428":81.02,"20240429":80.05,"20240430":81.58,"20240501":84.38,"20240502":85.41,"20240503":86.29,"20240504":89.93,"20240505":90.5,"20240506":83.85,"20240507":84.63,"20240508":84.09,"20240509":84.37,"20240510":79.98,"20240511":80.99,"20240512":81.76,"20240513":83.39,"20240514":82.16,"20240515":80.49,"20240516":77.66,"20240517":81.72,"20240518":84.39,"20240519":84.84,"20240520":84.23,"20240521":89.73,"20240522":86.89,"20240523":81.38,"20240524":79.52,"20240525":78.18,"20240526":78.65,"20240527":77.17,"20240528":74.64,"20240529":74.19,"20240530":77.31,"20240531":82.81,"20240601":83.31,"20240602":83.55,"20240603":80.1,"20240604":81.82,"20240605":83.58,"20240606":82.38,"20240607":79.12,"20240608":77.74,"20240609":77.31,"20240610":76.88,"20240611":74.43,"20240612":73.78,"20240613":73.83,"20240614":68.34,"20240615":72.73,"20240616":71.26,"20240617":73.93,"20240618":83.02,"20240619":87.38,"20240620":80.72,"20240621":75.44,"20240622":77.01,"20240623":79.3,"20240624":78.02,"20240625":79.44,"20240626":83.62,"20240627":79.38,"20240628":79.55,"20240629":80.1,"20240630":78.98,"20240701":77.76,"20240702":77.28,"20240703":76.3,"20240704":77.93,"20240705":78.88,"20240706":79.18,"20240707":72.69,"20240708":64.64,"20240709":75.02,"20240710":77.64,"20240711":77.56,"20240712":78.75,"20240713":73.93,"20240714":75.85,"20240715":77.91,"20240716":76.42,"20240717":73.4,"20240718":78.96,"20240719":74.41,"20240720":75.17,"20240721":72.36,"20240722":69.61,"20240723":77.51,"20240724":75.23,"20240725":69.22,"20240726":65.96,"20240727":70.98,"20240728":71.92,"20240729":77.44,"20240730":75.17,"20240731":72.83,"20240801":71.6,"20240802":73.5,"20240803":72.74,"20240804":73.84,"20240805":71.4,"20240806":70.17,"20240807":76.33,"20240808":73.83,"20240809":75.63,"20240810":77.17,"20240811":76.22,"20240812":74.39,"20240813":77.37,"20240814":77.68,"20240815":77.25,"20240816":72.19,"20240817":74.17,"20240818":72.33,"20240819":73.49,"20240820":71.56,"20240821":70.52,"20240822":71.7,"20240823":69.78,"20240824":69.21,"20240825":71.79,"20240826":76.99,"20240827":77.96,"20240828":75.22,"20240829":75.24,"20240830":76.04,"20240831":74.0,"20240901":72.15,"20240902":71.82,"20240903":71.97,"20240904":73.96,"20240905":76.07,"20240906":77.04,"20240907":75.91,"20240908":76.79,"20240909":76.9,"20240910":77.56,"20240911":75.8,"20240912":74.84,"20240913":75.91,"20240914":76.59,"20240915":73.03,"20240916":72.42,"20240917":73.35,"20240918":72.85,"20240919":75.47,"20240920":71.93,"20240921":69.18,"20240922":69.38,"20240923":72.75,"20240924":72.55,"20240925":71.85,"20240926":72.81,"20240927":69.66,"20240928":72.15,"20240929":70.96,"20240930":71.09,"20241001":75.5,"20241002":74.39,"20241003":72.15,"20241004":74.28,"20241005":73.52,"20241006":74.52,"20241007":75.79,"20241008":75.88,"20241009":74.06,"20241010":71.62,"20241011":73.5,"20241012":72.17,"20241013":71.07,"20241014":71.69,"20241015":72.37,"20241016":72.31,"20241017":72.82,"20241018":74.58,"20241019":73.72,"20241020":71.69,"20241021":70.86,"20241022":70.55,"20241023":73.06,"20241024":68.93,"20241025":75.4,"20241026":76.77,"20241027":77.29,"20241028":76.15,"20241029":76.41,"20241030":75.74,"20241031":83.88,"20241101":80.15,"20241102":73.04,"20241103":73.24,"20241104":72.84,"20241105":74.3,"20241106":77.76,"20241107":75.27,"20241108":82.99,"20241109":77.85,"20241110":77.86,"20241111":76.76,"20241112":78.52,"20241113":81.45,"20241114":77.09,"20241115":78.51,"20241116":76.03,"20241117":78.54,"20241118":80.16,"20241119":79.48,"20241120":80.13,"20241121":76.76,"20241122":75.12,"20241123":74.3,"20241124":73.44,"20241125":74.48,"20241126":72.9,"20241127":75.28,"20241128":73.5,"20241129":77.05,"20241130":79.37,"20241201":80.06,"20241202":83.68,"20241203":79.48,"20241204":80.35,"20241205":80.3,"20241206":81.65,"20241207":82.24,"20241208":80.6,"20241209":81.62,"20241210":81.18,"20241211":80.52,"20241212":77.99,"20241213":78.43,"20241214":82.15,"20241215":80.4,"20241216":75.74,"20241217":78.48,"20241218":79.65,"20241219":77.33,"20241220":79.16,"20241221":78.56,"20241222":74.95,"20241223":78.73,"20241224":79.96,"20241225":81.3,"20241226":80.85,"20241227":77.39,"20241228":77.93,"20241229":78.31,"20241230":80.47,"20241231":80.38}}},"header":{"title":"NASA/POWER Source Native Resolution Daily Data","api":{"version":"v2.9.6","name":"POWER Daily API"},"sources":["MERRA2","POWER"],"fill_value":-999.0,"time_standard":"UTC","start":"20240101","end":"20241231"},"messages":[],"parameters":{"T2M":{"units":"C","longname":"Temperature at 2 Meters"},"T2M_MAX":{"units":"C","longname":"Temperature at 2 Meters Maximum"},"T2M_MIN":{"units":"C","longname":"Temperature at 2 Meters Minimum"},"PRECTOTCORR":{"units":"mm/day","longname":"Precipitation Corrected"},"WS10M":{"units":"m/s","longname":"Wind Speed at 10 Meters"},"RH2M":{"units":"%","longname":"Relative Humidity at 2 Meters"}},"times":{"data":0.748,"process":0.01}}