{"type":"Feature","geometry":{"type":"Point","coordinates":[-70.648,-33.457,1154.13]},"properties":{"parameter":{"T2M":{"20240101":22.08,"20240102":22.2,"20240103":22.6,"20240104":22.85,"20240105":22.03,"20240106":22.27,"20240107":21.14,"20240108":21.78,"20240109":21.55,"20240110":21.46,"20240111":21.65,"20240112":21.6,"20240113":21.05,"20240114":22.92,"20240115":23.26,"20240116":20.3,"20240117":23.15,"20240118":22.49,"20240119":24.95,"20240120":24.3,"20240121":23.31,"20240122":24.92,"20240123":24.53,"20240124":24.59,"20240125":25.1,"20240126":23.5,"20240127":23.86,"20240128":24.4,"20240129":25.26,"20240130":26.37,"20240131":26.43,"20240201":25.7,"20240202":24.86,"20240203":26.34,"20240204":25.44,"20240205":24.36,"20240206":23.47,"20240207":23.98,"20240208":23.47,"20240209":22.48,"20240210":23.28,"20240211":23.66,"20240212":24.03,"20240213":24.61,"20240214":23.63,"20240215":24.16,"20240216":24.24,"20240217":24.11,"20240218":25.26,"20240219":23.46,"20240220":21.82,"20240221":20.1,"20240222":17.43,"20240223":18.86,"20240224":20.77,"20240225":21.95,"20240226":22.06,"20240227":22.33,"20240228":22.32,"20240229":23.42,"20240301":23.32,"20240302":22.66,"20240303":22.59,"20240304":22.53,"20240305":22.38,"20240306":21.65,"20240307":20.29,"20240308":19.17,"20240309":21.37,"20240310":21.87,"20240311":21.16,"20240312":20.62,"20240313":21.13,"20240314":21.97,"20240315":21.1,"20240316":20.6,"20240317":21.28,"20240318":22.12,"20240319":21.13,"20240320":17.67,"20240321":20.91,"20240322":23.62,"20240323":22.94,"20240324":23.73,"20240325":23.28,"20240326":22.01,"20240327":21.36,"20240328":21.51,"20240329":21.77,"20240330":23.13,"20240331":21.45,"20240401":19.83,"20240402":19.15,"20240403":17.62,"20240404":19.14,"20240405":19.85,"20240406":17.96,"20240407":20.08,"20240408":19.88,"20240409":19.69,"20240410":19.26,"20240411":17.11,"20240412":15.41,"20240413":12.52,"20240414":11.55,"20240415":10.01,"20240416":12.19,"20240417":17.82,"20240418":21.23,"20240419":18.73,"20240420":17.54,"20240421":16.58,"20240422":13.14,"20240423":14.98,"20240424":15.82,"20240425":13.71,"20240426":12.66,"20240427":12.32,"20240428":11.92,"20240429":10.22,"20240430":9.91,"20240501":9.59,"20240502":8.08,"20240503":8.78,"20240504":10.27,"20240505":10.29,"20240506":8.84,"20240507":4.59,"20240508":7.23,"20240509":12.34,"20240510":10.12,"20240511":8.32,"20240512":6.17,"20240513":6.57,"20240514":9.08,"20240515":8.12,"20240516":5.75,"20240517":6.57,"20240518":7.15,"20240519":9.38,"20240520":9.93,"20240521":9.21,"20240522":8.38,"20240523":6.0,"20240524":7.82,"20240525":10.52,"20240526":6.95,"20240527":7.97,"20240528":13.3,"20240529":14.29,"20240530":14.64,"20240531":13.32,"20240601":12.13,"20240602":14.51,"20240603":15.98,"20240604":13.44,"20240605":12.73,"20240606":13.6,"20240607":15.3,"20240608":13.92,"20240609":8.43,"20240610":10.89,"20240611":13.18,"20240612":13.29,"20240613":4.85,"20240614":4.39,"20240615":6.29,"20240616":7.69,"20240617":7.42,"20240618":4.9,"20240619":7.37,"20240620":8.31,"20240621":5.02,"20240622":3.31,"20240623":4.75,"20240624":5.49,"20240625":3.55,"20240626":6.5,"20240627":10.76,"20240628":10.25,"20240629":10.91,"20240630":11.68,"20240701":12.19,"20240702":11.06,"20240703":13.12,"20240704":11.21,"20240705":8.61,"20240706":7.52,"20240707":7.89,"20240708":7.65,"20240709":6.53,"20240710":4.1,"20240711":4.94,"20240712":6.94,"20240713":8.7,"20240714":10.64,"20240715":11.26,"20240716":13.17,"20240717":15.56,"20240718":13.27,"20240719":12.13,"20240720":11.45,"20240721":9.28,"20240722":12.92,"20240723":8.45,"20240724":7.78,"20240725":12.25,"20240726":11.32,"20240727":11.24,"20240728":11.93,"20240729":13.68,"20240730":15.84,"20240731":13.34,"20240801":12.48,"20240802":6.72,"20240803":7.35,"20240804":9.82,"20240805":8.14,"20240806":4.62,"20240807":3.7,"20240808":5.35,"20240809":9.73,"20240810":11.77,"20240811":14.01,"20240812":16.54,"20240813":16.49,"20240814":14.19,"20240815":12.66,"20240816":9.81,"20240817":11.54,"20240818":10.5,"20240819":9.56,"20240820":6.11,"20240821":3.62,"20240822":4.18,"20240823":2.87,"20240824":6.93,"20240825":13.15,"20240826":11.37,"20240827":12.66,"20240828":12.01,"20240829":10.73,"20240830":7.61,"20240831":10.79,"20240901":16.64,"20240902":12.05,"20240903":10.14,"20240904":12.03,"20240905":15.74,"20240906":14.68,"20240907":12.81,"20240908":13.63,"20240909":16.07,"20240910":13.18,"20240911":11.9,"20240912":12.23,"20240913":11.24,"20240914":13.73,"20240915":14.72,"20240916":16.74,"20240917":15.09,"20240918":14.77,"20240919":8.65,"20240920":11.49,"20240921":13.3,"20240922":8.68,"20240923":9.74,"20240924":10.82,"20240925":10.99,"20240926":13.55,"20240927":15.99,"20240928":17.57,"20240929":15.45,"20240930":13.29,"20241001":11.06,"20241002":13.41,"20241003":17.42,"20241004":19.41,"20241005":20.46,"20241006":18.95,"20241007":16.33,"20241008":10.4,"20241009":10.99,"20241010":13.2,"20241011":13.45,"20241012":13.85,"20241013":15.9,"20241014":16.06,"20241015":18.41,"20241016":16.82,"20241017":17.8,"20241018":20.28,"20241019":20.24,"20241020":13.99,"20241021":14.97,"20241022":16.66,"20241023":12.92,"20241024":15.27,"20241025":16.06,"20241026":19.78,"20241027":20.84,"20241028":22.58,"20241029":21.81,"20241030":21.28,"20241031":21.33,"20241101":17.43,"20241102":16.89,"20241103":17.42,"20241104":15.22,"20241105":18.24,"20241106":19.81,"20241107":20.03,"20241108":21.33,"20241109":22.29,"20241110":16.3,"20241111":17.49,"20241112":21.26,"20241113":22.65,"20241114":20.7,"20241115":19.66,"20241116":18.06,"20241117":18.05,"20241118":19.18,"20241119":18.93,"20241120":19.57,"20241121":19.75,"20241122":19.49,"20241123":19.89,"20241124":19.85,"20241125":20.02,"20241126":19.33,"20241127":18.08,"20241128":18.25,"20241129":20.21,"20241130":19.31,"20241201":15.44,"20241202":17.94,"20241203":18.14,"20241204":18.09,"20241205":15.62,"20241206":16.65,"20241207":18.8,"20241208":17.63,"20241209":19.99,"20241210":22.46,"20241211":22.64,"20241212":19.66,"20241213":21.05,"20241214":21.94,"20241215":20.73,"20241216":20.74,"20241217":19.64,"20241218":19.41,"20241219":23.17,"20241220":21.88,"20241221":22.76,"20241222":25.05,"20241223":24.23,"20241224":23.51,"20241225":23.35,"20241226":22.98,"20241227":21.62,"20241228":21.8,"20241229":23.08,"20241230":22.75,"20241231":22.79},"T2M_MAX":{"20240101":30.28,"20240102":30.43,"20240103":30.08,"20240104":30.24,"20240105":28.21,"20240106":29.68,"20240107":29.28,"20240108":29.75,"20240109":30.58,"20240110":30.13,"20240111":28.92,"20240112":29.31,"20240113":29.04,"20240114":33.16,"20240115":31.57,"20240116":29.24,"20240117":29.59,"20240118":31.3,"20240119":33.16,"20240120":31.63,"20240121":31.07,"20240122":33.18,"20240123":31.5,"20240124":32.32,"20240125":31.82,"20240126":29.56,"20240127":31.41,"20240128":32.03,"20240129":33.46,"20240130":35.19,"20240131":34.84,"20240201":33.36,"20240202":33.5,"20240203":36.65,"20240204":32.75,"20240205":33.68,"20240206":30.43,"20240207":32.32,"20240208":30.09,"20240209":29.17,"20240210":31.92,"20240211":31.53,"20240212":32.8,"20240213":32.83,"20240214":31.65,"20240215":31.59,"20240216":30.68,"20240217":32.7,"20240218":34.27,"20240219":29.54,"20240220":29.47,"20240221":26.27,"20240222":23.36,"20240223":26.48,"20240224":27.56,"20240225":29.5,"20240226":30.26,"20240227":29.41,"20240228":31.31,"20240229":32.4,"20240301":30.91,"20240302":30.14,"20240303":31.03,"20240304":31.28,"20240305":30.27,"20240306":29.81,"20240307":28.61,"20240308":27.72,"20240309":32.05,"20240310":29.69,"20240311":30.07,"20240312":29.86,"20240313":30.53,"20240314":31.64,"20240315":30.16,"20240316":30.18,"20240317":31.56,"20240318":31.29,"20240319":28.8,"20240320":23.27,"20240321":29.88,"20240322":32.32,"20240323":30.89,"20240324":33.07,"20240325":30.9,"20240326":30.02,"20240327":28.42,"20240328":29.36,"20240329":29.84,"20240330":32.14,"20240331":28.79,"20240401":27.93,"20240402":26.17,"20240403":24.01,"20240404":27.33,"20240405":27.54,"20240406":26.02,"20240407":29.21,"20240408":28.38,"20240409":28.8,"20240410":27.67,"20240411":24.38,"20240412":20.81,"20240413":17.16,"20240414":17.12,"20240415":14.35,"20240416":21.79,"20240417":30.69,"20240418":31.71,"20240419":27.18,"20240420":24.01,"20240421":22.45,"20240422":19.24,"20240423":24.74,"20240424":23.41,"20240425":22.25,"20240426":19.99,"20240427":20.82,"20240428":19.38,"20240429":15.7,"20240430":16.38,"20240501":13.36,"20240502":17.78,"20240503":16.4,"20240504":18.44,"20240505":16.19,"20240506":16.04,"20240507":9.67,"20240508":20.33,"20240509":21.33,"20240510":15.48,"20240511":15.6,"20240512":11.95,"20240513":14.8,"20240514":17.97,"20240515":13.22,"20240516":13.97,"20240517":12.46,"20240518":15.04,"20240519":20.63,"20240520":14.15,"20240521":14.65,"20240522":11.09,"20240523":11.57,"20240524":16.24,"20240525":16.41,"20240526":11.59,"20240527":18.68,"20240528":22.73,"20240529":22.05,"20240530":22.86,"20240531":18.46,"20240601":22.09,"20240602":24.34,"20240603":21.2,"20240604":19.3,"20240605":17.05,"20240606":20.74,"20240607":22.01,"20240608":16.47,"20240609":13.68,"20240610":16.59,"20240611":20.64,"20240612":18.45,"20240613":9.84,"20240614":8.7,"20240615":12.35,"20240616":15.59,"20240617":14.49,"20240618":6.41,"20240619":14.61,"20240620":11.53,"20240621":7.5,"20240622":4.66,"20240623":10.6,"20240624":9.9,"20240625":9.78,"20240626":18.5,"20240627":17.01,"20240628":19.38,"20240629":20.64,"20240630":20.72,"20240701":20.34,"20240702":20.47,"20240703":20.0,"20240704":17.58,"20240705":18.87,"20240706":16.28,"20240707":17.84,"20240708":17.37,"20240709":14.07,"20240710":10.91,"20240711":12.52,"20240712":16.75,"20240713":17.49,"20240714":20.93,"20240715":21.46,"20240716":22.97,"20240717":25.45,"20240718":19.52,"20240719":19.29,"20240720":18.96,"20240721":16.49,"20240722":22.88,"20240723":11.1,"20240724":15.44,"20240725":21.55,"20240726":19.52,"20240727":20.43,"20240728":21.9,"20240729":24.06,"20240730":22.84,"20240731":19.75,"20240801":17.88,"20240802":12.12,"20240803":14.5,"20240804":15.75,"20240805":13.11,"20240806":10.95,"20240807":11.63,"20240808":14.81,"20240809":19.48,"20240810":21.7,"20240811":23.68,"20240812":25.81,"20240813":24.68,"20240814":22.04,"20240815":17.98,"20240816":14.02,"20240817":19.03,"20240818":16.13,"20240819":15.47,"20240820":10.61,"20240821":9.59,"20240822":10.56,"20240823":7.07,"20240824":18.8,"20240825":23.15,"20240826":20.26,"20240827":22.99,"20240828":19.33,"20240829":18.84,"20240830":11.76,"20240831":20.86,"20240901":27.82,"20240902":16.48,"20240903":20.48,"20240904":24.31,"20240905":25.51,"20240906":20.86,"20240907":20.66,"20240908":22.7,"20240909":24.58,"20240910":18.34,"20240911":21.44,"20240912":19.46,"20240913":20.16,"20240914":24.68,"20240915":24.82,"20240916":28.64,"20240917":23.37,"20240918":19.87,"20240919":15.2,"20240920":20.54,"20240921":20.9,"20240922":11.78,"20240923":15.74,"20240924":18.88,"20240925":19.59,"20240926":25.44,"20240927":25.17,"20240928":27.46,"20240929":24.01,"20240930":19.82,"20241001":19.02,"20241002":24.24,"20241003":26.12,"20241004":28.01,"20241005":30.36,"20241006":24.65,"20241007":22.64,"20241008":12.42,"20241009":15.67,"20241010":19.7,"20241011":21.21,"20241012":20.27,"20241013":25.22,"20241014":24.17,"20241015":29.77,"20241016":24.11,"20241017":28.93,"20241018":31.03,"20241019":29.13,"20241020":20.95,"20241021":24.57,"20241022":23.97,"20241023":17.73,"20241024":25.79,"20241025":25.07,"20241026":29.53,"20241027":29.76,"20241028":32.87,"20241029":29.42,"20241030":30.39,"20241031":30.08,"20241101":24.57,"20241102":26.86,"20241103":24.1,"20241104":25.56,"20241105":28.34,"20241106":28.73,"20241107":28.25,"20241108":30.17,"20241109":31.98,"20241110":22.28,"20241111":27.58,"20241112":30.28,"20241113":30.54,"20241114":29.6,"20241115":27.71,"20241116":25.58,"20241117":26.74,"20241118":27.34,"20241119":26.32,"20241120":26.92,"20241121":27.34,"20241122":27.14,"20241123":28.04,"20241124":28.54,"20241125":27.99,"20241126":28.0,"20241127":26.13,"20241128":26.84,"20241129":28.98,"20241130":27.54,"20241201":23.15,"20241202":26.76,"20241203":25.62,"20241204":25.97,"20241205":22.72,"20241206":25.72,"20241207":26.77,"20241208":25.78,"20241209":29.83,"20241210":31.84,"20241211":32.24,"20241212":28.03,"20241213":29.67,"20241214":30.59,"20241215":28.35,"20241216":28.8,"20241217":25.06,"20241218":27.08,"20241219":32.84,"20241220":30.04,"20241221":31.97,"20241222":33.58,"20241223":32.31,"20241224":31.8,"20241225":31.3,"20241226":29.34,"20241227":27.65,"20241228":27.94,"20241229":31.45,"20241230":30.43,"20241231":31.1},"T2M_MIN":{"20240101":13.68,"20240102":14.13,"20240103":16.15,"20240104":16.75,"20240105":14.98,"20240106":15.37,"20240107":12.46,"20240108":14.11,"20240109":13.31,"20240110":13.15,"20240111":14.83,"20240112":13.85,"20240113":12.32,"20240114":13.61,"20240115":16.39,"20240116":11.1,"20240117":17.29,"20240118":13.86,"20240119":17.51,"20240120":17.68,"20240121":16.47,"20240122":18.11,"20240123":18.44,"20240124":17.78,"20240125":20.28,"20240126":18.06,"20240127":16.93,"20240128":17.3,"20240129":17.79,"20240130":18.58,"20240131":19.28,"20240201":18.74,"20240202":16.95,"20240203":17.2,"20240204":18.35,"20240205":17.35,"20240206":16.61,"20240207":17.02,"20240208":16.81,"20240209":16.46,"20240210":15.66,"20240211":16.47,"20240212":16.16,"20240213":17.57,"20240214":17.0,"20240215":17.97,"20240216":18.66,"20240217":17.0,"20240218":18.53,"20240219":19.15,"20240220":15.15,"20240221":14.34,"20240222":12.57,"20240223":11.81,"20240224":15.49,"20240225":16.01,"20240226":14.81,"20240227":16.39,"20240228":15.15,"20240229":16.44,"20240301":16.72,"20240302":16.9,"20240303":14.85,"20240304":15.72,"20240305":16.14,"20240306":15.19,"20240307":13.7,"20240308":11.3,"20240309":12.52,"20240310":16.06,"20240311":13.98,"20240312":12.26,"20240313":13.26,"20240314":14.33,"20240315":13.71,"20240316":12.86,"20240317":13.9,"20240318":14.89,"20240319":15.53,"20240320":13.62,"20240321":14.19,"20240322":16.92,"20240323":16.89,"20240324":17.67,"20240325":18.46,"20240326":16.76,"20240327":15.62,"20240328":16.32,"20240329":16.32,"20240330":16.07,"20240331":15.42,"20240401":14.09,"20240402":13.88,"20240403":13.09,"20240404":12.61,"20240405":15.01,"20240406":11.38,"20240407":13.97,"20240408":13.09,"20240409":13.73,"20240410":13.85,"20240411":12.58,"20240412":11.14,"20240413":9.5,"20240414":7.82,"20240415":6.83,"20240416":5.21,"20240417":9.06,"20240418":14.48,"20240419":12.44,"20240420":12.74,"20240421":12.18,"20240422":8.3,"20240423":8.09,"20240424":10.73,"20240425":7.7,"20240426":6.78,"20240427":5.38,"20240428":7.7,"20240429":5.62,"20240430":6.19,"20240501":5.15,"20240502":0.83,"20240503":2.16,"20240504":5.22,"20240505":7.31,"20240506":4.44,"20240507":2.03,"20240508":-0.88,"20240509":6.97,"20240510":5.33,"20240511":3.09,"20240512":1.7,"20240513":1.55,"20240514":2.87,"20240515":4.61,"20240516":-0.43,"20240517":2.84,"20240518":2.45,"20240519":1.82,"20240520":7.7,"20240521":6.59,"20240522":5.79,"20240523":1.77,"20240524":2.63,"20240525":7.37,"20240526":3.27,"20240527":1.83,"20240528":8.28,"20240529":9.72,"20240530":10.04,"20240531":9.13,"20240601":6.47,"20240602":9.25,"20240603":12.57,"20240604":10.81,"20240605":10.39,"20240606":9.35,"20240607":11.93,"20240608":7.86,"20240609":4.65,"20240610":7.74,"20240611":9.76,"20240612":9.21,"20240613":2.3,"20240614":2.0,"20240615":2.64,"20240616":2.17,"20240617":3.31,"20240618":2.59,"20240619":3.18,"20240620":6.43,"20240621":1.58,"20240622":2.07,"20240623":1.54,"20240624":2.29,"20240625":-0.09,"20240626":-1.0,"20240627":7.43,"20240628":3.57,"20240629":4.92,"20240630":6.58,"20240701":7.48,"20240702":5.05,"20240703":8.06,"20240704":6.83,"20240705":1.71,"20240706":2.33,"20240707":2.38,"20240708":1.59,"20240709":1.59,"20240710":0.54,"20240711":0.66,"20240712":1.43,"20240713":4.62,"20240714":5.43,"20240715":6.04,"20240716":7.17,"20240717":10.32,"20240718":9.71,"20240719":8.01,"20240720":7.47,"20240721":5.11,"20240722":7.57,"20240723":4.4,"20240724":2.52,"20240725":6.68,"20240726":6.79,"20240727":5.2,"20240728":5.66,"20240729":6.31,"20240730":9.56,"20240731":10.6,"20240801":8.96,"20240802":2.12,"20240803":3.02,"20240804":4.78,"20240805":3.92,"20240806":-0.03,"20240807":-1.3,"20240808":-0.29,"20240809":3.88,"20240810":5.0,"20240811":7.68,"20240812":10.91,"20240813":10.65,"20240814":8.53,"20240815":8.85,"20240816":7.52,"20240817":6.91,"20240818":6.96,"20240819":5.79,"20240820":2.99,"20240821":-0.68,"20240822":0.07,"20240823":-1.04,"20240824":-1.6,"20240825":6.65,"20240826":4.95,"20240827":6.31,"20240828":5.84,"20240829":6.87,"20240830":4.06,"20240831":3.78,"20240901":9.38,"20240902":7.43,"20240903":2.56,"20240904":2.43,"20240905":8.43,"20240906":9.62,"20240907":6.71,"20240908":7.47,"20240909":9.84,"20240910":9.18,"20240911":3.37,"20240912":7.33,"20240913":4.56,"20240914":5.8,"20240915":6.58,"20240916":10.01,"20240917":6.27,"20240918":9.54,"20240919":4.65,"20240920":4.89,"20240921":8.11,"20240922":6.35,"20240923":5.57,"20240924":4.59,"20240925":3.39,"20240926":4.12,"20240927":8.96,"20240928":10.48,"20240929":8.84,"20240930":9.72,"20241001":4.83,"20241002":5.26,"20241003":10.23,"20241004":11.84,"20241005":13.01,"20241006":15.62,"20241007":12.83,"20241008":8.19,"20241009":7.77,"20241010":8.29,"20241011":6.48,"20241012":9.05,"20241013":8.38,"20241014":9.92,"20241015":10.6,"20241016":9.54,"20241017":8.3,"20241018":12.0,"20241019":13.72,"20241020":7.49,"20241021":6.46,"20241022":12.85,"20241023":8.98,"20241024":7.1,"20241025":7.45,"20241026":11.79,"20241027":13.07,"20241028":13.97,"20241029":15.87,"20241030":13.37,"20241031":14.27,"20241101":11.64,"20241102":8.28,"20241103":12.88,"20241104":5.98,"20241105":9.06,"20241106":12.29,"20241107":13.45,"20241108":14.07,"20241109":13.81,"20241110":10.8,"20241111":8.21,"20241112":13.34,"20241113":15.71,"20241114":13.4,"20241115":11.47,"20241116":10.25,"20241117":9.33,"20241118":12.6,"20241119":11.23,"20241120":13.06,"20241121":12.04,"20241122":11.67,"20241123":11.69,"20241124":11.1,"20241125":12.31,"20241126":10.55,"20241127":10.17,"20241128":9.61,"20241129":11.89,"20241130":12.12,"20241201":7.17,"20241202":9.72,"20241203":10.48,"20241204":9.99,"20241205":8.51,"20241206":7.8,"20241207":11.79,"20241208":9.2,"20241209":10.49,"20241210":13.84,"20241211":12.92,"20241212":10.35,"20241213":13.5,"20241214":13.96,"20241215":14.84,"20241216":13.62,"20241217":12.65,"20241218":12.13,"20241219":14.49,"20241220":13.99,"20241221":13.78,"20241222":17.54,"20241223":16.34,"20241224":15.3,"20241225":16.34,"20241226":16.5,"20241227":15.58,"20241228":15.6,"20241229":15.12,"20241230":14.55,"20241231":14.42},"PRECTOTCORR":{"20240101":0.0,"20240102":0.01,"20240103":0.48,"20240104":0.0,"20240105":0.0,"20240106":0.0,"20240107":0.0,"20240108":0.0,"20240109":0.0,"20240110":0.35,"20240111":0.16,"20240112":0.39,"20240113":0.02,"20240114":0.0,"20240115":0.0,"20240116":0.0,"20240117":0.0,"20240118":0.0,"20240119":0.0,"20240120":0.0,"20240121":1.37,"20240122":3.22,"20240123":0.04,"20240124":0.0,"20240125":0.0,"20240126":0.0,"20240127":0.6,"20240128":0.35,"20240129":0.01,"20240130":0.06,"20240131":0.5,"20240201":0.67,"20240202":0.09,"20240203":0.56,"20240204":0.0,"20240205":0.69,"20240206":1.48,"20240207":0.0,"20240208":0.61,"20240209":1.07,"20240210":0.04,"20240211":0.0,"20240212":0.0,"20240213":0.0,"20240214":0.0,"20240215":0.0,"20240216":0.0,"20240217":0.05,"20240218":0.91,"20240219":0.0,"20240220":0.0,"20240221":0.46,"20240222":0.43,"20240223":0.43,"20240224":0.39,"20240225":0.03,"20240226":0.01,"20240227":0.0,"20240228":0.0,"20240229":0.51,"20240301":0.0,"20240302":0.0,"20240303":0.0,"20240304":0.0,"20240305":0.0,"20240306":0.0,"20240307":0.03,"20240308":0.02,"20240309":0.0,"20240310":0.0,"20240311":0.0,"20240312":0.0,"20240313":0.0,"20240314":0.0,"20240315":0.0,"20240316":0.0,"20240317":0.0,"20240318":0.0,"20240319":0.0,"20240320":0.03,"20240321":0.49,"20240322":0.0,"20240323":0.0,"20240324":0.0,"20240325":0.0,"20240326":0.0,"20240327":0.12,"20240328":1.33,"20240329":0.0,"20240330":0.0,"20240331":0.0,"20240401":0.0,"20240402":0.0,"20240403":0.46,"20240404":0.0,"20240405":0.0,"20240406":0.0,"20240407":0.0,"20240408":0.0,"20240409":0.0,"20240410":0.0,"20240411":0.01,"20240412":0.25,"20240413":2.38,"20240414":0.18,"20240415":0.02,"20240416":0.0,"20240417":0.0,"20240418":0.0,"20240419":0.0,"20240420":0.0,"20240421":0.08,"20240422":0.12,"20240423":0.01,"20240424":0.0,"20240425":0.0,"20240426":0.0,"20240427":0.0,"20240428":0.0,"20240429":0.14,"20240430":0.92,"20240501":0.0,"20240502":0.0,"20240503":0.0,"20240504":0.02,"20240505":0.0,"20240506":0.0,"20240507":0.44,"20240508":0.0,"20240509":0.0,"20240510":0.0,"20240511":0.0,"20240512":0.2,"20240513":0.22,"20240514":0.06,"20240515":0.0,"20240516":0.0,"20240517":0.0,"20240518":0.0,"20240519":0.0,"20240520":7.39,"20240521":3.59,"20240522":3.29,"20240523":3.26,"20240524":0.08,"20240525":0.15,"20240526":0.28,"20240527":0.0,"20240528":0.0,"20240529":0.03,"20240530":0.01,"20240531":0.0,"20240601":0.0,"20240602":0.16,"20240603":0.01,"20240604":0.01,"20240605":0.0,"20240606":0.01,"20240607":0.0,"20240608":0.01,"20240609":0.72,"20240610":0.01,"20240611":0.0,"20240612":1.59,"20240613":18.62,"20240614":3.17,"20240615":0.0,"20240616":0.0,"20240617":0.47,"20240618":2.7,"20240619":0.2,"20240620":0.81,"20240621":7.88,"20240622":0.58,"20240623":0.04,"20240624":4.48,"20240625":0.09,"20240626":0.0,"20240627":0.0,"20240628":0.0,"20240629":0.01,"20240630":0.0,"20240701":0.0,"20240702":0.0,"20240703":0.0,"20240704":0.0,"20240705":0.0,"20240706":0.0,"20240707":0.0,"20240708":0.0,"20240709":0.0,"20240710":0.0,"20240711":0.0,"20240712":0.0,"20240713":0.0,"20240714":0.0,"20240715":0.0,"20240716":0.0,"20240717":0.0,"20240718":0.0,"20240719":0.03,"20240720":0.0,"20240721":0.0,"20240722":0.0,"20240723":0.18,"20240724":0.02,"20240725":0.0,"20240726":0.0,"20240727":0.0,"20240728":0.0,"20240729":0.0,"20240730":0.0,"20240731":0.0,"20240801":0.0,"20240802":0.0,"20240803":0.0,"20240804":0.0,"20240805":3.68,"20240806":1.62,"20240807":0.03,"20240808":0.0,"20240809":0.0,"20240810":0.0,"20240811":0.0,"20240812":0.0,"20240813":0.0,"20240814":0.0,"20240815":0.0,"20240816":0.0,"20240817":0.0,"20240818":0.03,"20240819":1.25,"20240820":1.12,"20240821":0.16,"20240822":0.29,"20240823":0.0,"20240824":0.0,"20240825":0.0,"20240826":0.0,"20240827":0.0,"20240828":0.01,"20240829":1.13,"20240830":1.65,"20240831":0.0,"20240901":0.0,"20240902":0.05,"20240903":0.02,"20240904":0.01,"20240905":0.0,"20240906":0.0,"20240907":0.0,"20240908":0.0,"20240909":0.0,"20240910":0.0,"20240911":0.0,"20240912":0.01,"20240913":0.01,"20240914":0.0,"20240915":0.0,"20240916":0.01,"20240917":0.0,"20240918":0.01,"20240919":2.05,"20240920":0.0,"20240921":0.0,"20240922":1.44,"20240923":5.86,"20240924":0.05,"20240925":0.0,"20240926":0.01,"20240927":0.0,"20240928":0.0,"20240929":0.07,"20240930":0.05,"20241001":0.1,"20241002":0.0,"20241003":0.0,"20241004":0.0,"20241005":0.0,"20241006":0.23,"20241007":3.43,"20241008":6.99,"20241009":0.74,"20241010":0.05,"20241011":0.02,"20241012":0.0,"20241013":0.0,"20241014":0.0,"20241015":0.0,"20241016":0.0,"20241017":0.0,"20241018":0.0,"20241019":0.01,"20241020":0.22,"20241021":0.05,"20241022":1.78,"20241023":0.53,"20241024":0.0,"20241025":0.0,"20241026":0.0,"20241027":0.0,"20241028":0.0,"20241029":0.0,"20241030":0.03,"20241031":0.0,"20241101":0.0,"20241102":0.0,"20241103":0.01,"20241104":0.0,"20241105":0.0,"20241106":0.0,"20241107":0.0,"20241108":0.0,"20241109":0.05,"20241110":0.01,"20241111":0.0,"20241112":0.0,"20241113":0.0,"20241114":0.0,"20241115":0.0,"20241116":0.0,"20241117":0.0,"20241118":0.0,"20241119":0.0,"20241120":0.0,"20241121":0.0,"20241122":0.0,"20241123":0.0,"20241124":0.0,"20241125":0.0,"20241126":0.0,"20241127":0.0,"20241128":0.0,"20241129":0.0,"20241130":0.0,"20241201":0.02,"20241202":0.0,"20241203":0.0,"20241204":0.0,"20241205":0.0,"20241206":0.0,"20241207":0.0,"20241208":0.0,"20241209":0.0,"20241210":0.0,"20241211":0.0,"20241212":0.0,"20241213":0.0,"20241214":0.0,"20241215":0.24,"20241216":0.13,"20241217":0.18,"20241218":0.1,"20241219":0.0,"20241220":0.04,"20241221":0.0,"20241222":0.0,"20241223":0.0,"20241224":0.0,"20241225":0.0,"20241226":0.0,"20241227":0.19,"20241228":0.8,"20241229":0.12,"20241230":0.38,"20241231":0.0},"WS10M":{"20240101":3.03,"20240102":3.14,"20240103":3.05,"20240104":2.9,"20240105":2.84,"20240106":2.78,"20240107":3.02,"20240108":3.1,"20240109":2.96,"20240110":2.93,"20240111":2.87,"20240112":2.83,"20240113":2.85,"20240114":2.88,"20240115":3.37,"20240116":3.21,"20240117":3.22,"20240118":3.28,"20240119":3.4,"20240120":3.21,"20240121":3.4,"20240122":3.64,"20240123":3.29,"20240124":3.78,"20240125":3.3,"20240126":3.1,"20240127":3.34,"20240128":2.88,"20240129":3.03,"20240130":3.27,"20240131":3.4,"20240201":3.54,"20240202":3.72,"20240203":3.65,"20240204":3.11,"20240205":3.38,"20240206":3.24,"20240207":3.5,"20240208":2.98,"20240209":2.62,"20240210":2.82,"20240211":2.85,"20240212":3.48,"20240213":3.76,"20240214":2.92,"20240215":3.06,"20240216":2.95,"20240217":3.18,"20240218":3.59,"20240219":3.02,"20240220":2.47,"20240221":2.8,"20240222":3.24,"20240223":2.99,"20240224":2.82,"20240225":2.93,"20240226":2.76,"20240227":2.93,"20240228":2.91,"20240229":2.96,"20240301":2.62,"20240302":2.11,"20240303":2.83,"20240304":3.25,"20240305":2.92,"20240306":2.91,"20240307":2.92,"20240308":3.04,"20240309":2.93,"20240310":2.67,"20240311":2.77,"20240312":2.55,"20240313":2.71,"20240314":2.67,"20240315":2.75,"20240316":2.8,"20240317":2.75,"20240318":2.68,"20240319":3.1,"20240320":2.5,"20240321":2.55,"20240322":2.82,"20240323":2.58,"20240324":3.06,"20240325":2.86,"20240326":2.57,"20240327":2.78,"20240328":2.79,"20240329":2.75,"20240330":2.72,"20240331":2.58,"20240401":2.18,"20240402":2.67,"20240403":2.41,"20240404":2.27,"20240405":2.69,"20240406":2.47,"20240407":2.51,"20240408":2.35,"20240409":2.41,"20240410":2.63,"20240411":2.39,"20240412":1.67,"20240413":2.22,"20240414":2.64,"20240415":1.41,"20240416":2.61,"20240417":3.05,"20240418":2.93,"20240419":2.46,"20240420":2.4,"20240421":2.63,"20240422":2.62,"20240423":2.32,"20240424":2.68,"20240425":2.42,"20240426":2.16,"20240427":2.12,"20240428":2.56,"20240429":3.81,"20240430":2.99,"20240501":1.99,"20240502":2.61,"20240503":2.53,"20240504":2.95,"20240505":1.9,"20240506":3.09,"20240507":3.41,"20240508":2.5,"20240509":2.73,"20240510":2.01,"20240511":2.03,"20240512":1.64,"20240513":2.08,"20240514":2.36,"20240515":2.67,"20240516":2.73,"20240517":2.22,"20240518":2.01,"20240519":2.89,"20240520":2.81,"20240521":2.07,"20240522":2.19,"20240523":1.41,"20240524":2.83,"20240525":2.43,"20240526":2.25,"20240527":2.91,"20240528":2.72,"20240529":2.22,"20240530":2.28,"20240531":1.89,"20240601":2.51,"20240602":2.87,"20240603":2.34,"20240604":2.73,"20240605":2.58,"20240606":2.32,"20240607":1.89,"20240608":2.43,"20240609":2.97,"20240610":2.56,"20240611":2.78,"20240612":3.49,"20240613":4.77,"20240614":3.95,"20240615":2.08,"20240616":2.09,"20240617":3.02,"20240618":4.25,"20240619":3.44,"20240620":2.93,"20240621":5.21,"20240622":3.09,"20240623":2.16,"20240624":2.12,"20240625":1.63,"20240626":3.47,"20240627":2.5,"20240628":1.99,"20240629":2.93,"20240630":2.53,"20240701":2.64,"20240702":2.73,"20240703":1.99,"20240704":1.77,"20240705":2.84,"20240706":2.49,"20240707":2.4,"20240708":2.72,"20240709":2.39,"20240710":2.16,"20240711":2.17,"20240712":2.78,"20240713":1.99,"20240714":2.55,"20240715":2.66,"20240716":2.67,"20240717":2.43,"20240718":1.9,"20240719":2.29,"20240720":2.07,"20240721":2.39,"20240722":2.06,"20240723":1.19,"20240724":1.95,"20240725":2.75,"20240726":2.23,"20240727":2.44,"20240728":2.47,"20240729":2.83,"20240730":2.7,"20240731":3.27,"20240801":5.02,"20240802":5.25,"20240803":2.79,"20240804":2.44,"20240805":3.36,"20240806":1.65,"20240807":2.4,"20240808":2.53,"20240809":2.26,"20240810":2.72,"20240811":2.55,"20240812":2.55,"20240813":2.42,"20240814":2.4,"20240815":2.44,"20240816":1.46,"20240817":2.46,"20240818":2.51,"20240819":2.26,"20240820":1.89,"20240821":3.42,"20240822":2.85,"20240823":2.26,"20240824":2.6,"20240825":3.09,"20240826":2.2,"20240827":2.55,"20240828":2.19,"20240829":2.5,"20240830":1.97,"20240831":2.38,"20240901":2.56,"20240902":2.2,"20240903":2.38,"20240904":3.18,"20240905":2.46,"20240906":2.24,"20240907":2.08,"20240908":2.22,"20240909":2.31,"20240910":2.47,"20240911":2.42,"20240912":2.45,"20240913":2.39,"20240914":3.18,"20240915":3.08,"20240916":3.1,"20240917":2.54,"20240918":2.6,"20240919":4.02,"20240920":2.71,"20240921":3.71,"20240922":2.69,"20240923":2.8,"20240924":2.64,"20240925":2.34,"20240926":2.86,"20240927":2.6,"20240928":2.83,"20240929":3.08,"20240930":3.35,"20241001":2.45,"20241002":2.76,"20241003":2.52,"20241004":2.85,"20241005":2.8,"20241006":2.21,"20241007":2.28,"20241008":2.77,"20241009":2.16,"20241010":2.48,"20241011":2.35,"20241012":1.69,"20241013":2.72,"20241014":2.19,"20241015":2.88,"20241016":3.05,"20241017":2.88,"20241018":3.01,"20241019":2.9,"20241020":2.66,"20241021":2.65,"20241022":3.22,"20241023":2.01,"20241024":2.7,"20241025":2.43,"20241026":3.32,"20241027":2.77,"20241028":3.35,"20241029":3.01,"20241030":2.57,"20241031":2.82,"20241101":3.11,"20241102":2.62,"20241103":3.02,"20241104":3.1,"20241105":3.39,"20241106":2.84,"20241107":2.45,"20241108":2.88,"20241109":3.2,"20241110":2.55,"20241111":3.19,"20241112":4.02,"20241113":3.14,"20241114":2.85,"20241115":2.72,"20241116":2.64,"20241117":2.86,"20241118":2.92,"20241119":2.79,"20241120":2.61,"20241121":2.89,"20241122":2.86,"20241123":2.99,"20241124":2.67,"20241125":3.16,"20241126":3.0,"20241127":3.16,"20241128":2.88,"20241129":2.88,"20241130":3.28,"20241201":2.4,"20241202":3.17,"20241203":2.98,"20241204":2.95,"20241205":3.2,"20241206":2.86,"20241207":3.08,"20241208":2.81,"20241209":2.91,"20241210":3.08,"20241211":3.02,"20241212":2.36,"20241213":3.12,"20241214":3.54,"20241215":3.21,"20241216":3.1,"20241217":2.42,"20241218":3.57,"20241219":3.24,"20241220":3.0,"20241221":3.15,"20241222":3.43,"20241223":3.05,"20241224":3.79,"20241225":3.67,"20241226":3.02,"20241227":3.36,"20241228":3.38,"20241229":2.83,"20241230":3.22,"20241231":3.03},"RH2M":{"20240101":22.28,"20240102":24.89,"20240103":25.96,"20240104":25.87,"20240105":32.82,"20240106":36.21,"20240107":31.63,"20240108":24.08,"20240109":22.93,"20240110":25.5,"20240111":23.66,"20240112":22.29,"20240113":26.41,"20240114":17.8,"20240115":14.49,"20240116":22.94,"20240117":25.35,"20240118":30.73,"20240119":17.86,"20240120":19.85,"20240121":23.08,"20240122":33.12,"20240123":33.67,"20240124":29.59,"20240125":29.29,"20240126":32.52,"20240127":33.45,"20240128":35.95,"20240129":29.14,"20240130":21.39,"20240131":15.26,"20240201":18.5,"20240202":23.03,"20240203":20.06,"20240204":25.36,"20240205":28.2,"20240206":31.52,"20240207":25.9,"20240208":44.65,"20240209":44.39,"20240210":35.3,"20240211":31.67,"20240212":25.1,"20240213":22.71,"20240214":31.36,"20240215":33.39,"20240216":32.13,"20240217":24.2,"20240218":26.02,"20240219":31.87,"20240220":45.68,"20240221":47.8,"20240222":58.31,"20240223":45.63,"20240224":41.77,"20240225":38.07,"20240226":33.13,"20240227":25.65,"20240228":25.44,"20240229":25.86,"20240301":21.28,"20240302":20.34,"20240303":16.25,"20240304":15.52,"20240305":23.59,"20240306":18.54,"20240307":23.88,"20240308":25.54,"20240309":19.17,"20240310":19.71,"20240311":26.14,"20240312":25.9,"20240313":20.01,"20240314":14.65,"20240315":14.27,"20240316":13.42,"20240317":12.21,"20240318":14.52,"20240319":22.61,"20240320":41.99,"20240321":32.16,"20240322":25.5,"20240323":26.88,"20240324":24.09,"20240325":28.01,"20240326":31.14,"20240327":34.32,"20240328":35.53,"20240329":26.82,"20240330":21.15,"20240331":20.24,"20240401":23.03,"20240402":25.79,"20240403":36.08,"20240404":34.03,"20240405":22.6,"20240406":26.79,"20240407":18.93,"20240408":17.41,"20240409":14.7,"20240410":14.66,"20240411":26.02,"20240412":35.42,"20240413":60.45,"20240414":69.15,"20240415":73.25,"20240416":41.47,"20240417":13.17,"20240418":13.78,"20240419":19.34,"20240420":21.02,"20240421":33.81,"20240422":67.07,"20240423":43.27,"20240424":26.0,"20240425":25.5,"20240426":38.76,"20240427":34.59,"20240428":17.55,"20240429":31.89,"20240430":61.12,"20240501":48.38,"20240502":24.78,"20240503":20.06,"20240504":23.41,"20240505":35.59,"20240506":47.78,"20240507":70.47,"20240508":39.12,"20240509":11.97,"20240510":27.02,"20240511":34.39,"20240512":34.72,"20240513":18.41,"20240514":10.34,"20240515":40.4,"20240516":40.59,"20240517":31.17,"20240518":33.17,"20240519":14.07,"20240520":35.78,"20240521":80.59,"20240522":79.33,"20240523":75.33,"20240524":42.94,"20240525":47.66,"20240526":69.54,"20240527":41.74,"20240528":29.8,"20240529":34.49,"20240530":35.38,"20240531":40.32,"20240601":42.78,"20240602":39.7,"20240603":45.14,"20240604":42.73,"20240605":49.24,"20240606":43.41,"20240607":39.49,"20240608":48.28,"20240609":74.61,"20240610":54.49,"20240611":45.78,"20240612":44.63,"20240613":84.67,"20240614":85.76,"20240615":69.24,"20240616":56.21,"20240617":53.09,"20240618":90.57,"20240619":66.95,"20240620":56.56,"20240621":79.58,"20240622":92.11,"20240623":69.43,"20240624":57.2,"20240625":59.49,"20240626":39.76,"20240627":57.03,"20240628":49.56,"20240629":33.55,"20240630":40.15,"20240701":35.55,"20240702":36.86,"20240703":33.77,"20240704":40.62,"20240705":33.71,"20240706":26.74,"20240707":34.54,"20240708":34.09,"20240709":32.21,"20240710":39.34,"20240711":42.75,"20240712":36.53,"20240713":31.52,"20240714":28.28,"20240715":29.37,"20240716":30.73,"20240717":29.44,"20240718":42.56,"20240719":52.54,"20240720":43.57,"20240721":56.56,"20240722":42.26,"20240723":63.65,"20240724":61.0,"20240725":35.56,"20240726":39.53,"20240727":39.72,"20240728":34.9,"20240729":26.2,"20240730":27.86,"20240731":36.56,"20240801":41.83,"20240802":70.23,"20240803":60.11,"20240804":36.78,"20240805":53.87,"20240806":67.24,"20240807":43.97,"20240808":36.15,"20240809":25.66,"20240810":28.43,"20240811":36.24,"20240812":33.02,"20240813":32.78,"20240814":41.81,"20240815":46.49,"20240816":47.96,"20240817":36.41,"20240818":38.78,"20240819":48.14,"20240820":67.24,"20240821":57.73,"20240822":55.58,"20240823":59.38,"20240824":24.6,"20240825":20.24,"20240826":28.8,"20240827":21.12,"20240828":33.8,"20240829":45.76,"20240830":72.22,"20240831":47.03,"20240901":25.67,"20240902":44.69,"20240903":34.97,"20240904":17.11,"20240905":14.57,"20240906":29.43,"20240907":31.26,"20240908":21.43,"20240909":24.42,"20240910":40.62,"20240911":54.56,"20240912":25.09,"20240913":35.83,"20240914":14.99,"20240915":14.85,"20240916":16.55,"20240917":19.83,"20240918":22.09,"20240919":65.26,"20240920":25.47,"20240921":25.76,"20240922":46.54,"20240923":64.07,"20240924":47.61,"20240925":35.57,"20240926":22.23,"20240927":19.32,"20240928":21.06,"20240929":30.19,"20240930":48.8,"20241001":54.47,"20241002":31.92,"20241003":25.53,"20241004":23.48,"20241005":20.58,"20241006":35.8,"20241007":54.68,"20241008":85.06,"20241009":78.94,"20241010":68.73,"20241011":59.48,"20241012":49.24,"20241013":42.93,"20241014":38.21,"20241015":26.03,"20241016":32.71,"20241017":24.29,"20241018":20.1,"20241019":24.32,"20241020":56.67,"20241021":51.1,"20241022":45.62,"20241023":68.38,"20241024":38.25,"20241025":32.23,"20241026":15.53,"20241027":18.3,"20241028":11.88,"20241029":23.1,"20241030":28.83,"20241031":21.02,"20241101":30.28,"20241102":30.16,"20241103":21.34,"20241104":20.97,"20241105":15.65,"20241106":16.03,"20241107":19.17,"20241108":23.24,"20241109":26.41,"20241110":49.72,"20241111":31.36,"20241112":17.17,"20241113":23.22,"20241114":30.22,"20241115":30.23,"20241116":34.76,"20241117":28.32,"20241118":20.04,"20241119":26.62,"20241120":21.43,"20241121":20.98,"20241122":26.21,"20241123":26.81,"20241124":30.32,"20241125":25.44,"20241126":23.02,"20241127":23.6,"20241128":23.16,"20241129":20.41,"20241130":20.23,"20241201":34.34,"20241202":20.4,"20241203":26.36,"20241204":32.32,"20241205":36.21,"20241206":27.53,"20241207":23.51,"20241208":27.67,"20241209":18.59,"20241210":13.06,"20241211":16.61,"20241212":24.12,"20241213":18.53,"20241214":20.33,"20241215":29.35,"20241216":30.58,"20241217":30.08,"20241218":27.52,"20241219":20.52,"20241220":19.9,"20241221":26.4,"20241222":19.06,"20241223":19.2,"20241224":17.48,"20241225":22.54,"20241226":31.79,"20241227":39.52,"20241228":41.83,"20241229":36.42,"20241230":28.22,"20241231":23.5}}},"header":{"title":"NASA/POWER Source Native Resolution Daily Data","api":{"version":"v2.9.6","name":"POWER Daily API"},"sources":["MERRA2","POWER"],"fill_value":-999.0,"time_standard":"UTC","start":"20240101","end":"20241231"},"messages":[],"parameters":{"T2M":{"units":"C","longname":"Temperature at 2 Meters"},"T2M_MAX":{"units":"C","longname":"Temperature at 2 Meters Maximum"},"T2M_MIN":{"units":"C","longname":"Temperature at 2 Meters Minimum"},"PRECTOTCORR":{"units":"mm/day","longname":"Precipitation Corrected"},"WS10M":{"units":"m/s","longname":"Wind Speed at 10 Meters"},"RH2M":{"units":"%","longname":"Relative Humidity at 2 Meters"}},"times":{"data":0.881,"process":0.02}}