{"type":"Feature","geometry":{"type":"Point","coordinates":[106.845,-6.215,12.32]},"properties":{"parameter":{"T2M":{"20240101":28.57,"20240102":29.14,"20240103":28.06,"20240104":27.28,"20240105":28.79,"20240106":28.21,"20240107":27.46,"20240108":27.9,"20240109":28.71,"20240110":28.53,"20240111":27.96,"20240112":27.82,"20240113":28.58,"20240114":28.14,"20240115":28.53,"20240116":28.77,"20240117":28.24,"20240118":27.93,"20240119":26.88,"20240120":28.45,"20240121":28.17,"20240122":28.09,"20240123":28.27,"20240124":28.25,"20240125":28.23,"20240126":27.96,"20240127":27.71,"20240128":27.83,"20240129":27.06,"20240130":26.88,"20240131":27.35,"20240201":27.13,"20240202":27.84,"20240203":27.51,"20240204":27.4,"20240205":27.58,"20240206":27.05,"20240207":27.65,"20240208":28.44,"20240209":28.12,"20240210":27.25,"20240211":28.04,"20240212":27.61,"20240213":28.08,"20240214":27.38,"20240215":28.46,"20240216":27.42,"20240217":27.77,"20240218":28.14,"20240219":28.07,"20240220":28.63,"20240221":28.86,"20240222":28.71,"20240223":28.57,"20240224":28.3,"20240225":27.43,"20240226":27.76,"20240227":28.15,"20240228":27.76,"20240229":27.91,"20240301":28.5,"20240302":27.88,"20240303":27.68,"20240304":28.49,"20240305":28.53,"20240306":28.09,"20240307":28.22,"20240308":27.42,"20240309":26.95,"20240310":27.47,"20240311":27.84,"20240312":27.47,"20240313":27.65,"20240314":27.92,"20240315":27.57,"20240316":27.05,"20240317":27.47,"20240318":27.71,"20240319":28.09,"20240320":27.96,"20240321":28.19,"20240322":27.86,"20240323":28.9,"20240324":28.89,"20240325":28.15,"20240326":28.46,"20240327":28.14,"20240328":28.41,"20240329":28.77,"20240330":28.67,"20240331":28.46,"20240401":28.56,"20240402":28.89,"20240403":28.82,"20240404":29.05,"20240405":28.79,"20240406":29.0,"20240407":28.58,"20240408":29.0,"20240409":29.16,"20240410":29.16,"20240411":28.52,"20240412":28.31,"20240413":28.88,"20240414":28.79,"20240415":28.96,"20240416":28.83,"20240417":28.78,"20240418":28.81,"20240419":28.72,"20240420":28.58,"20240421":28.9,"20240422":29.28,"20240423":28.87,"20240424":28.85,"20240425":28.65,"20240426":28.85,"20240427":28.87,"20240428":28.75,"20240429":29.2,"20240430":29.39,"20240501":28.81,"20240502":29.09,"20240503":29.11,"20240504":28.5,"20240505":28.9,"20240506":28.7,"20240507":28.77,"20240508":28.65,"20240509":28.73,"20240510":29.06,"20240511":28.89,"20240512":28.58,"20240513":28.61,"20240514":28.5,"20240515":28.72,"20240516":28.63,"20240517":28.51,"20240518":28.98,"20240519":28.76,"20240520":28.55,"20240521":28.68,"20240522":28.6,"20240523":28.37,"20240524":28.57,"20240525":28.38,"20240526":28.75,"20240527":29.13,"20240528":28.94,"20240529":29.11,"20240530":28.84,"20240531":28.98,"20240601":28.67,"20240602":28.66,"20240603":27.76,"20240604":28.37,"20240605":28.96,"20240606":28.33,"20240607":28.43,"20240608":28.35,"20240609":28.26,"20240610":28.29,"20240611":27.95,"20240612":28.31,"20240613":28.41,"20240614":28.36,"20240615":28.75,"20240616":28.1,"20240617":28.38,"20240618":28.31,"20240619":28.06,"20240620":27.67,"20240621":28.15,"20240622":27.55,"20240623":27.84,"20240624":28.05,"20240625":27.69,"20240626":28.2,"20240627":27.99,"20240628":28.14,"20240629":28.06,"20240630":28.11,"20240701":27.7,"20240702":27.62,"20240703":28.19,"20240704":27.63,"20240705":27.81,"20240706":27.4,"20240707":27.8,"20240708":27.81,"20240709":27.34,"20240710":27.89,"20240711":27.61,"20240712":26.83,"20240713":26.99,"20240714":26.0,"20240715":26.6,"20240716":26.88,"20240717":27.46,"20240718":27.6,"20240719":27.01,"20240720":27.41,"20240721":27.49,"20240722":27.81,"20240723":27.48,"20240724":27.72,"20240725":27.12,"20240726":27.19,"20240727":27.18,"20240728":27.3,"20240729":26.93,"20240730":27.1,"20240731":27.39,"20240801":27.91,"20240802":27.61,"20240803":27.72,"20240804":28.2,"20240805":27.38,"20240806":27.15,"20240807":27.16,"20240808":27.63,"20240809":27.52,"20240810":27.73,"20240811":27.41,"20240812":26.43,"20240813":26.51,"20240814":27.14,"20240815":27.44,"20240816":27.43,"20240817":27.29,"20240818":27.41,"20240819":27.22,"20240820":27.29,"20240821":27.39,"20240822":27.32,"20240823":27.76,"20240824":27.9,"20240825":27.64,"20240826":28.01,"20240827":27.95,"20240828":27.88,"20240829":27.9,"20240830":27.81,"20240831":27.51,"20240901":27.84,"20240902":28.39,"20240903":28.56,"20240904":28.52,"20240905":28.37,"20240906":28.12,"20240907":28.32,"20240908":28.16,"20240909":27.32,"20240910":27.45,"20240911":28.22,"20240912":28.34,"20240913":27.74,"20240914":27.81,"20240915":27.96,"20240916":27.78,"20240917":27.34,"20240918":27.49,"20240919":27.81,"20240920":28.02,"20240921":28.33,"20240922":28.63,"20240923":28.14,"20240924":27.85,"20240925":27.85,"20240926":27.53,"20240927":28.47,"20240928":28.55,"20240929":28.68,"20240930":27.95,"20241001":29.18,"20241002":28.63,"20241003":28.34,"20241004":28.4,"20241005":28.43,"20241006":28.55,"20241007":28.56,"20241008":28.42,"20241009":29.09,"20241010":29.15,"20241011":28.82,"20241012":28.97,"20241013":28.06,"20241014":28.56,"20241015":28.58,"20241016":28.56,"20241017":28.74,"20241018":28.17,"20241019":28.48,"20241020":28.72,"20241021":28.89,"20241022":29.32,"20241023":29.13,"20241024":28.47,"20241025":28.71,"20241026":29.24,"20241027":29.08,"20241028":29.47,"20241029":29.15,"20241030":29.46,"20241031":29.12,"20241101":28.42,"20241102":28.74,"20241103":27.32,"20241104":28.15,"20241105":28.07,"20241106":28.48,"20241107":28.87,"20241108":29.31,"20241109":29.11,"20241110":28.32,"20241111":28.49,"20241112":28.24,"20241113":28.76,"20241114":29.15,"20241115":28.64,"20241116":28.74,"20241117":28.87,"20241118":28.63,"20241119":29.08,"20241120":28.23,"20241121":28.68,"20241122":28.75,"20241123":28.3,"20241124":28.0,"20241125":29.0,"20241126":28.34,"20241127":27.44,"20241128":27.26,"20241129":27.89,"20241130":28.85,"20241201":28.33,"20241202":27.91,"20241203":26.73,"20241204":27.13,"20241205":27.06,"20241206":27.5,"20241207":28.28,"20241208":27.99,"20241209":27.22,"20241210":28.2,"20241211":28.23,"20241212":28.0,"20241213":28.25,"20241214":27.85,"20241215":27.48,"20241216":27.61,"20241217":27.71,"20241218":27.92,"20241219":27.51,"20241220":27.31,"20241221":27.78,"20241222":27.61,"20241223":27.72,"20241224":26.82,"20241225":27.2,"20241226":27.26,"20241227":27.82,"20241228":27.7,"20241229":27.99,"20241230":27.52,"20241231":27.32},"T2M_MAX":{"20240101":29.94,"20240102":31.31,"20240103":29.53,"20240104":28.94,"20240105":30.86,"20240106":30.47,"20240107":28.21,"20240108":29.4,"20240109":31.04,"20240110":30.33,"20240111":29.74,"20240112":29.69,"20240113":31.32,"20240114":30.37,"20240115":31.22,"20240116":31.67,"20240117":30.62,"20240118":30.18,"20240119":28.49,"20240120":31.95,"20240121":30.52,"20240122":30.79,"20240123":31.2,"20240124":30.7,"20240125":30.57,"20240126":29.96,"20240127":29.21,"20240128":29.11,"20240129":27.8,"20240130":28.21,"20240131":28.83,"20240201":28.87,"20240202":29.73,"20240203":29.83,"20240204":29.24,"20240205":29.61,"20240206":28.84,"20240207":30.21,"20240208":31.55,"20240209":30.52,"20240210":28.73,"20240211":30.0,"20240212":28.97,"20240213":29.66,"20240214":28.73,"20240215":30.97,"20240216":28.61,"20240217":29.21,"20240218":30.01,"20240219":29.9,"20240220":30.76,"20240221":31.28,"20240222":31.11,"20240223":30.54,"20240224":30.43,"20240225":29.23,"20240226":29.53,"20240227":29.73,"20240228":29.17,"20240229":29.86,"20240301":30.66,"20240302":29.64,"20240303":29.66,"20240304":31.18,"20240305":31.01,"20240306":29.78,"20240307":30.34,"20240308":28.89,"20240309":28.93,"20240310":29.54,"20240311":29.23,"20240312":29.13,"20240313":29.52,"20240314":30.22,"20240315":29.5,"20240316":28.77,"20240317":29.39,"20240318":29.94,"20240319":31.2,"20240320":31.65,"20240321":30.71,"20240322":29.59,"20240323":31.33,"20240324":30.87,"20240325":30.28,"20240326":30.36,"20240327":30.13,"20240328":30.53,"20240329":30.97,"20240330":30.83,"20240331":29.31,"20240401":30.5,"20240402":30.12,"20240403":30.32,"20240404":30.72,"20240405":30.78,"20240406":31.0,"20240407":31.08,"20240408":31.97,"20240409":31.71,"20240410":31.08,"20240411":30.09,"20240412":30.04,"20240413":30.94,"20240414":30.85,"20240415":31.29,"20240416":30.47,"20240417":30.57,"20240418":31.31,"20240419":30.71,"20240420":30.31,"20240421":31.06,"20240422":31.05,"20240423":30.67,"20240424":30.37,"20240425":30.47,"20240426":30.79,"20240427":30.81,"20240428":30.05,"20240429":30.72,"20240430":31.43,"20240501":30.06,"20240502":30.8,"20240503":31.19,"20240504":30.45,"20240505":31.13,"20240506":31.14,"20240507":31.07,"20240508":31.05,"20240509":30.95,"20240510":31.19,"20240511":31.26,"20240512":30.75,"20240513":30.41,"20240514":30.72,"20240515":31.16,"20240516":30.94,"20240517":31.04,"20240518":31.45,"20240519":31.02,"20240520":30.84,"20240521":30.82,"20240522":30.72,"20240523":30.34,"20240524":30.67,"20240525":30.66,"20240526":31.06,"20240527":31.3,"20240528":31.07,"20240529":31.14,"20240530":30.69,"20240531":31.17,"20240601":30.62,"20240602":30.56,"20240603":28.81,"20240604":30.53,"20240605":31.18,"20240606":31.1,"20240607":31.0,"20240608":30.58,"20240609":29.67,"20240610":29.79,"20240611":29.74,"20240612":30.47,"20240613":30.49,"20240614":30.21,"20240615":30.84,"20240616":28.9,"20240617":30.49,"20240618":30.13,"20240619":30.49,"20240620":30.08,"20240621":30.56,"20240622":30.38,"20240623":30.35,"20240624":30.93,"20240625":29.92,"20240626":30.55,"20240627":30.04,"20240628":30.43,"20240629":30.13,"20240630":29.9,"20240701":29.19,"20240702":29.04,"20240703":30.08,"20240704":29.59,"20240705":29.08,"20240706":28.47,"20240707":30.29,"20240708":29.69,"20240709":29.08,"20240710":29.98,"20240711":30.77,"20240712":29.49,"20240713":29.33,"20240714":28.86,"20240715":29.34,"20240716":29.42,"20240717":29.63,"20240718":29.88,"20240719":29.48,"20240720":29.65,"20240721":29.95,"20240722":30.34,"20240723":29.88,"20240724":29.61,"20240725":28.8,"20240726":29.33,"20240727":29.88,"20240728":29.87,"20240729":29.6,"20240730":30.03,"20240731":29.98,"20240801":30.13,"20240802":29.88,"20240803":30.09,"20240804":30.46,"20240805":30.22,"20240806":29.75,"20240807":29.62,"20240808":30.01,"20240809":30.25,"20240810":30.45,"20240811":29.83,"20240812":29.31,"20240813":29.43,"20240814":29.81,"20240815":30.38,"20240816":29.98,"20240817":29.49,"20240818":30.2,"20240819":30.06,"20240820":30.35,"20240821":30.02,"20240822":29.18,"20240823":30.03,"20240824":30.6,"20240825":30.42,"20240826":30.94,"20240827":31.01,"20240828":30.99,"20240829":30.63,"20240830":30.74,"20240831":30.42,"20240901":30.79,"20240902":30.96,"20240903":31.49,"20240904":31.05,"20240905":31.33,"20240906":30.67,"20240907":31.43,"20240908":30.7,"20240909":28.98,"20240910":28.95,"20240911":31.05,"20240912":31.19,"20240913":30.64,"20240914":31.02,"20240915":30.91,"20240916":31.24,"20240917":30.75,"20240918":30.1,"20240919":30.65,"20240920":31.0,"20240921":30.71,"20240922":30.72,"20240923":30.34,"20240924":29.25,"20240925":29.86,"20240926":29.48,"20240927":30.9,"20240928":30.51,"20240929":31.17,"20240930":30.2,"20241001":31.6,"20241002":31.1,"20241003":30.33,"20241004":30.66,"20241005":30.55,"20241006":31.23,"20241007":31.44,"20241008":30.71,"20241009":31.81,"20241010":31.9,"20241011":31.2,"20241012":31.25,"20241013":29.79,"20241014":31.01,"20241015":30.77,"20241016":31.97,"20241017":31.97,"20241018":30.94,"20241019":31.13,"20241020":32.15,"20241021":31.53,"20241022":32.24,"20241023":31.87,"20241024":30.9,"20241025":31.79,"20241026":32.06,"20241027":31.28,"20241028":31.86,"20241029":31.71,"20241030":32.39,"20241031":31.71,"20241101":30.63,"20241102":31.27,"20241103":28.88,"20241104":29.96,"20241105":29.73,"20241106":30.91,"20241107":31.07,"20241108":31.19,"20241109":31.44,"20241110":30.18,"20241111":30.56,"20241112":30.06,"20241113":30.84,"20241114":31.74,"20241115":30.16,"20241116":30.91,"20241117":31.08,"20241118":30.49,"20241119":31.53,"20241120":29.76,"20241121":31.41,"20241122":31.22,"20241123":30.73,"20241124":30.25,"20241125":32.13,"20241126":31.05,"20241127":29.14,"20241128":28.55,"20241129":30.18,"20241130":32.18,"20241201":31.0,"20241202":30.26,"20241203":27.64,"20241204":28.39,"20241205":28.29,"20241206":28.69,"20241207":29.83,"20241208":28.94,"20241209":28.32,"20241210":30.09,"20241211":30.46,"20241212":29.93,"20241213":30.03,"20241214":29.33,"20241215":29.44,"20241216":29.45,"20241217":29.57,"20241218":30.43,"20241219":29.06,"20241220":29.01,"20241221":29.75,"20241222":28.82,"20241223":29.8,"20241224":28.05,"20241225":28.71,"20241226":29.28,"20241227":29.89,"20241228":30.07,"20241229":30.12,"20241230":29.65,"20241231":29.07},"T2M_MIN":{"20240101":27.34,"20240102":27.56,"20240103":26.08,"20240104":25.98,"20240105":27.1,"20240106":26.98,"20240107":26.47,"20240108":26.48,"20240109":27.15,"20240110":27.22,"20240111":26.6,"20240112":26.48,"20240113":26.06,"20240114":26.16,"20240115":26.15,"20240116":26.32,"20240117":26.22,"20240118":26.41,"20240119":25.57,"20240120":25.95,"20240121":26.51,"20240122":25.99,"20240123":25.84,"20240124":26.23,"20240125":26.14,"20240126":26.67,"20240127":26.49,"20240128":26.95,"20240129":25.89,"20240130":25.58,"20240131":26.0,"20240201":26.02,"20240202":26.15,"20240203":25.67,"20240204":25.89,"20240205":25.79,"20240206":25.4,"20240207":25.19,"20240208":25.96,"20240209":26.17,"20240210":26.17,"20240211":26.34,"20240212":26.06,"20240213":26.45,"20240214":26.22,"20240215":26.36,"20240216":26.65,"20240217":26.48,"20240218":27.1,"20240219":26.58,"20240220":26.5,"20240221":26.84,"20240222":26.88,"20240223":27.01,"20240224":26.39,"20240225":26.34,"20240226":26.54,"20240227":26.72,"20240228":26.64,"20240229":26.19,"20240301":27.01,"20240302":26.1,"20240303":26.06,"20240304":26.65,"20240305":26.92,"20240306":26.93,"20240307":26.7,"20240308":25.88,"20240309":25.69,"20240310":25.72,"20240311":26.77,"20240312":25.93,"20240313":26.58,"20240314":26.31,"20240315":26.01,"20240316":25.57,"20240317":25.88,"20240318":25.62,"20240319":25.19,"20240320":24.77,"20240321":26.32,"20240322":26.92,"20240323":26.84,"20240324":27.22,"20240325":26.34,"20240326":27.03,"20240327":26.71,"20240328":26.41,"20240329":27.0,"20240330":27.35,"20240331":27.23,"20240401":27.07,"20240402":27.76,"20240403":27.25,"20240404":27.52,"20240405":27.09,"20240406":26.98,"20240407":25.47,"20240408":26.85,"20240409":27.14,"20240410":27.34,"20240411":27.0,"20240412":26.36,"20240413":27.46,"20240414":27.04,"20240415":27.23,"20240416":27.65,"20240417":27.29,"20240418":27.34,"20240419":27.06,"20240420":27.0,"20240421":27.07,"20240422":27.42,"20240423":27.62,"20240424":27.41,"20240425":27.26,"20240426":27.42,"20240427":27.42,"20240428":27.58,"20240429":27.89,"20240430":28.14,"20240501":27.82,"20240502":27.85,"20240503":27.36,"20240504":27.05,"20240505":26.53,"20240506":26.26,"20240507":26.74,"20240508":26.52,"20240509":27.26,"20240510":27.44,"20240511":27.16,"20240512":26.2,"20240513":27.15,"20240514":27.06,"20240515":26.5,"20240516":26.47,"20240517":26.28,"20240518":27.03,"20240519":26.3,"20240520":26.62,"20240521":27.01,"20240522":26.79,"20240523":26.97,"20240524":26.82,"20240525":26.56,"20240526":26.68,"20240527":27.3,"20240528":27.2,"20240529":27.46,"20240530":27.0,"20240531":27.14,"20240601":27.0,"20240602":27.31,"20240603":27.06,"20240604":26.53,"20240605":26.84,"20240606":25.87,"20240607":26.08,"20240608":26.67,"20240609":26.77,"20240610":27.11,"20240611":26.13,"20240612":26.77,"20240613":26.3,"20240614":26.96,"20240615":26.9,"20240616":27.05,"20240617":26.54,"20240618":26.78,"20240619":25.22,"20240620":25.51,"20240621":26.03,"20240622":24.5,"20240623":25.84,"20240624":26.42,"20240625":25.76,"20240626":26.33,"20240627":26.14,"20240628":26.22,"20240629":26.86,"20240630":26.69,"20240701":26.4,"20240702":26.56,"20240703":27.14,"20240704":26.24,"20240705":27.05,"20240706":26.58,"20240707":26.08,"20240708":26.55,"20240709":26.09,"20240710":25.71,"20240711":24.72,"20240712":24.14,"20240713":23.8,"20240714":23.1,"20240715":23.84,"20240716":24.7,"20240717":25.48,"20240718":25.49,"20240719":24.27,"20240720":25.39,"20240721":25.29,"20240722":26.19,"20240723":25.52,"20240724":26.29,"20240725":25.71,"20240726":24.83,"20240727":24.47,"20240728":24.58,"20240729":24.26,"20240730":24.34,"20240731":24.95,"20240801":26.28,"20240802":25.93,"20240803":26.0,"20240804":25.65,"20240805":24.53,"20240806":24.45,"20240807":24.94,"20240808":25.32,"20240809":25.01,"20240810":25.95,"20240811":24.85,"20240812":23.53,"20240813":23.89,"20240814":24.22,"20240815":24.88,"20240816":25.39,"20240817":25.22,"20240818":24.92,"20240819":24.68,"20240820":24.94,"20240821":25.66,"20240822":25.53,"20240823":25.66,"20240824":25.75,"20240825":25.11,"20240826":25.27,"20240827":24.24,"20240828":25.33,"20240829":24.18,"20240830":25.06,"20240831":25.21,"20240901":25.52,"20240902":26.66,"20240903":26.2,"20240904":26.97,"20240905":26.1,"20240906":25.46,"20240907":25.98,"20240908":26.2,"20240909":26.15,"20240910":25.99,"20240911":25.95,"20240912":26.28,"20240913":24.56,"20240914":24.67,"20240915":25.05,"20240916":24.76,"20240917":23.96,"20240918":24.72,"20240919":26.04,"20240920":25.7,"20240921":26.59,"20240922":27.2,"20240923":26.78,"20240924":26.77,"20240925":26.66,"20240926":25.75,"20240927":26.39,"20240928":27.31,"20240929":27.02,"20240930":25.57,"20241001":27.49,"20241002":26.57,"20241003":26.9,"20241004":26.75,"20241005":26.79,"20241006":26.39,"20241007":26.01,"20241008":26.27,"20241009":27.04,"20241010":27.03,"20241011":26.99,"20241012":27.38,"20241013":26.65,"20241014":26.48,"20241015":27.09,"20241016":24.69,"20241017":26.39,"20241018":25.49,"20241019":26.0,"20241020":25.56,"20241021":26.72,"20241022":26.62,"20241023":26.6,"20241024":26.28,"20241025":25.88,"20241026":26.79,"20241027":26.79,"20241028":27.05,"20241029":26.97,"20241030":27.07,"20241031":27.17,"20241101":26.5,"20241102":26.75,"20241103":25.78,"20241104":26.76,"20241105":26.85,"20241106":26.59,"20241107":27.05,"20241108":27.44,"20241109":27.25,"20241110":26.92,"20241111":26.72,"20241112":26.69,"20241113":26.83,"20241114":27.14,"20241115":27.45,"20241116":27.27,"20241117":27.0,"20241118":27.24,"20241119":27.25,"20241120":26.39,"20241121":26.57,"20241122":26.73,"20241123":26.29,"20241124":26.24,"20241125":26.58,"20241126":25.84,"20241127":26.49,"20241128":25.95,"20241129":26.31,"20241130":26.76,"20241201":26.42,"20241202":26.4,"20241203":25.9,"20241204":26.26,"20241205":25.87,"20241206":26.6,"20241207":26.73,"20241208":26.61,"20241209":26.5,"20241210":26.61,"20241211":26.3,"20241212":26.49,"20241213":26.88,"20241214":26.76,"20241215":26.26,"20241216":26.11,"20241217":26.55,"20241218":26.18,"20241219":26.17,"20241220":26.06,"20241221":26.22,"20241222":26.43,"20241223":26.13,"20241224":25.86,"20241225":25.6,"20241226":25.32,"20241227":25.64,"20241228":25.65,"20241229":26.1,"20241230":25.81,"20241231":25.42},"PRECTOTCORR":{"20240101":5.81,"20240102":10.32,"20240103":9.71,"20240104":16.51,"20240105":7.02,"20240106":11.17,"20240107":16.2,"20240108":8.98,"20240109":7.26,"20240110":10.98,"20240111":20.6,"20240112":5.97,"20240113":10.97,"20240114":6.51,"20240115":4.79,"20240116":2.62,"20240117":6.47,"20240118":16.87,"20240119":27.69,"20240120":0.67,"20240121":5.75,"20240122":4.25,"20240123":2.58,"20240124":6.57,"20240125":4.47,"20240126":9.76,"20240127":12.54,"20240128":14.42,"20240129":14.41,"20240130":35.69,"20240131":22.64,"20240201":14.83,"20240202":8.99,"20240203":9.36,"20240204":4.89,"20240205":7.82,"20240206":13.03,"20240207":1.19,"20240208":0.96,"20240209":6.43,"20240210":12.88,"20240211":4.25,"20240212":4.61,"20240213":32.47,"20240214":35.54,"20240215":28.69,"20240216":25.51,"20240217":10.47,"20240218":7.58,"20240219":3.68,"20240220":2.9,"20240221":8.14,"20240222":5.22,"20240223":3.66,"20240224":5.97,"20240225":14.59,"20240226":14.3,"20240227":16.18,"20240228":11.35,"20240229":7.23,"20240301":11.7,"20240302":12.67,"20240303":3.87,"20240304":1.83,"20240305":8.0,"20240306":3.85,"20240307":5.71,"20240308":14.09,"20240309":20.72,"20240310":8.68,"20240311":6.01,"20240312":21.07,"20240313":29.78,"20240314":19.63,"20240315":19.11,"20240316":25.59,"20240317":11.79,"20240318":3.65,"20240319":0.81,"20240320":0.35,"20240321":17.49,"20240322":3.63,"20240323":1.08,"20240324":5.46,"20240325":1.3,"20240326":4.86,"20240327":5.26,"20240328":2.9,"20240329":3.33,"20240330":5.75,"20240331":12.06,"20240401":3.61,"20240402":5.17,"20240403":6.12,"20240404":5.55,"20240405":8.16,"20240406":10.26,"20240407":2.31,"20240408":1.19,"20240409":4.23,"20240410":5.12,"20240411":6.62,"20240412":45.93,"20240413":2.08,"20240414":6.89,"20240415":1.2,"20240416":2.32,"20240417":8.51,"20240418":5.45,"20240419":4.65,"20240420":3.87,"20240421":3.34,"20240422":2.35,"20240423":13.74,"20240424":22.91,"20240425":11.47,"20240426":6.62,"20240427":6.4,"20240428":3.03,"20240429":1.65,"20240430":4.52,"20240501":6.47,"20240502":2.1,"20240503":2.58,"20240504":9.66,"20240505":0.57,"20240506":0.83,"20240507":0.1,"20240508":0.62,"20240509":0.86,"20240510":1.31,"20240511":5.41,"20240512":4.61,"20240513":4.06,"20240514":3.1,"20240515":0.85,"20240516":0.82,"20240517":0.84,"20240518":0.93,"20240519":0.17,"20240520":0.18,"20240521":0.78,"20240522":2.49,"20240523":4.03,"20240524":15.3,"20240525":3.34,"20240526":0.8,"20240527":0.35,"20240528":0.94,"20240529":2.15,"20240530":0.14,"20240531":1.52,"20240601":3.65,"20240602":11.67,"20240603":33.42,"20240604":3.5,"20240605":0.39,"20240606":0.61,"20240607":0.27,"20240608":1.35,"20240609":3.78,"20240610":1.94,"20240611":3.92,"20240612":2.79,"20240613":1.27,"20240614":2.35,"20240615":11.55,"20240616":3.07,"20240617":1.19,"20240618":7.0,"20240619":1.69,"20240620":0.01,"20240621":0.22,"20240622":0.12,"20240623":0.28,"20240624":3.39,"20240625":7.08,"20240626":1.55,"20240627":2.21,"20240628":2.38,"20240629":13.21,"20240630":24.25,"20240701":15.39,"20240702":36.71,"20240703":29.98,"20240704":34.8,"20240705":16.28,"20240706":19.7,"20240707":3.06,"20240708":9.72,"20240709":2.06,"20240710":0.07,"20240711":0.01,"20240712":0.0,"20240713":0.01,"20240714":0.0,"20240715":0.0,"20240716":0.0,"20240717":0.02,"20240718":0.0,"20240719":0.0,"20240720":0.0,"20240721":0.0,"20240722":0.0,"20240723":0.04,"20240724":0.0,"20240725":0.04,"20240726":0.0,"20240727":0.0,"20240728":0.0,"20240729":0.0,"20240730":0.0,"20240731":1.33,"20240801":7.09,"20240802":17.25,"20240803":7.12,"20240804":3.72,"20240805":0.26,"20240806":0.11,"20240807":0.11,"20240808":2.21,"20240809":0.03,"20240810":0.51,"20240811":0.18,"20240812":0.01,"20240813":0.0,"20240814":0.0,"20240815":0.0,"20240816":0.0,"20240817":0.0,"20240818":0.0,"20240819":0.0,"20240820":0.0,"20240821":0.0,"20240822":0.0,"20240823":0.0,"20240824":0.44,"20240825":0.02,"20240826":0.05,"20240827":0.14,"20240828":0.03,"20240829":0.16,"20240830":0.01,"20240831":0.01,"20240901":0.25,"20240902":0.68,"20240903":0.1,"20240904":1.25,"20240905":0.38,"20240906":0.31,"20240907":1.17,"20240908":4.77,"20240909":8.01,"20240910":10.16,"20240911":0.61,"20240912":13.92,"20240913":0.87,"20240914":0.23,"20240915":1.95,"20240916":0.17,"20240917":0.54,"20240918":0.07,"20240919":0.03,"20240920":0.19,"20240921":0.34,"20240922":2.74,"20240923":6.84,"20240924":28.67,"20240925":7.63,"20240926":16.49,"20240927":2.96,"20240928":0.98,"20240929":2.92,"20240930":0.5,"20241001":0.43,"20241002":1.34,"20241003":2.22,"20241004":3.34,"20241005":2.11,"20241006":0.85,"20241007":0.62,"20241008":0.19,"20241009":0.19,"20241010":0.92,"20241011":0.49,"20241012":1.0,"20241013":5.56,"20241014":11.6,"20241015":1.75,"20241016":0.2,"20241017":0.08,"20241018":0.07,"20241019":0.24,"20241020":0.37,"20241021":0.15,"20241022":0.83,"20241023":11.41,"20241024":42.04,"20241025":5.06,"20241026":2.12,"20241027":2.53,"20241028":6.32,"20241029":3.82,"20241030":1.84,"20241031":3.32,"20241101":4.91,"20241102":15.11,"20241103":5.17,"20241104":2.89,"20241105":11.02,"20241106":9.05,"20241107":0.02,"20241108":1.18,"20241109":7.77,"20241110":4.05,"20241111":6.82,"20241112":3.04,"20241113":0.91,"20241114":0.62,"20241115":1.87,"20241116":5.05,"20241117":11.08,"20241118":5.81,"20241119":9.34,"20241120":8.03,"20241121":8.24,"20241122":7.62,"20241123":9.16,"20241124":6.81,"20241125":2.6,"20241126":6.52,"20241127":40.47,"20241128":20.67,"20241129":1.92,"20241130":4.22,"20241201":16.73,"20241202":23.19,"20241203":35.24,"20241204":13.37,"20241205":23.77,"20241206":2.34,"20241207":11.07,"20241208":10.57,"20241209":17.35,"20241210":13.38,"20241211":6.01,"20241212":2.08,"20241213":6.75,"20241214":5.73,"20241215":5.55,"20241216":11.34,"20241217":4.74,"20241218":7.43,"20241219":21.83,"20241220":17.28,"20241221":12.55,"20241222":7.78,"20241223":12.01,"20241224":16.91,"20241225":11.62,"20241226":1.93,"20241227":2.41,"20241228":1.13,"20241229":7.87,"20241230":6.76,"20241231":5.53},"WS10M":{"20240101":2.09,"20240102":2.29,"20240103":2.96,"20240104":2.22,"20240105":1.52,"20240106":1.98,"20240107":2.19,"20240108":1.9,"20240109":2.13,"20240110":2.46,"20240111":3.27,"20240112":3.83,"20240113":2.44,"20240114":2.37,"20240115":3.33,"20240116":3.42,"20240117":3.81,"20240118":4.61,"20240119":6.06,"20240120":5.47,"20240121":5.0,"20240122":4.5,"20240123":4.0,"20240124":3.43,"20240125":3.46,"20240126":3.24,"20240127":3.77,"20240128":2.67,"20240129":2.24,"20240130":3.4,"20240131":2.29,"20240201":2.69,"20240202":3.87,"20240203":3.99,"20240204":3.13,"20240205":2.68,"20240206":3.05,"20240207":3.31,"20240208":2.46,"20240209":2.31,"20240210":3.64,"20240211":3.62,"20240212":3.78,"20240213":2.29,"20240214":2.74,"20240215":2.19,"20240216":2.61,"20240217":2.95,"20240218":2.19,"20240219":2.09,"20240220":1.74,"20240221":2.36,"20240222":3.58,"20240223":3.47,"20240224":2.8,"20240225":3.04,"20240226":1.69,"20240227":2.59,"20240228":2.43,"20240229":2.08,"20240301":2.14,"20240302":3.82,"20240303":2.99,"20240304":3.72,"20240305":4.93,"20240306":4.37,"20240307":4.33,"20240308":4.35,"20240309":2.96,"20240310":2.51,"20240311":4.94,"20240312":5.16,"20240313":4.49,"20240314":3.96,"20240315":3.59,"20240316":4.2,"20240317":4.62,"20240318":3.76,"20240319":4.19,"20240320":4.36,"20240321":2.85,"20240322":1.67,"20240323":1.73,"20240324":2.48,"20240325":2.4,"20240326":3.15,"20240327":2.58,"20240328":1.87,"20240329":2.18,"20240330":2.65,"20240331":2.23,"20240401":2.45,"20240402":1.51,"20240403":1.45,"20240404":1.79,"20240405":2.11,"20240406":1.54,"20240407":2.32,"20240408":2.49,"20240409":1.93,"20240410":1.47,"20240411":2.8,"20240412":2.64,"20240413":2.0,"20240414":2.45,"20240415":3.17,"20240416":2.33,"20240417":2.15,"20240418":2.07,"20240419":2.81,"20240420":3.47,"20240421":2.19,"20240422":2.04,"20240423":2.18,"20240424":2.31,"20240425":2.21,"20240426":3.12,"20240427":2.59,"20240428":2.25,"20240429":3.5,"20240430":2.51,"20240501":3.15,"20240502":3.2,"20240503":2.29,"20240504":1.88,"20240505":2.29,"20240506":2.97,"20240507":2.5,"20240508":2.56,"20240509":3.27,"20240510":4.57,"20240511":3.76,"20240512":3.86,"20240513":3.36,"20240514":3.04,"20240515":3.43,"20240516":3.37,"20240517":3.21,"20240518":3.33,"20240519":3.16,"20240520":3.42,"20240521":2.73,"20240522":3.05,"20240523":3.16,"20240524":3.38,"20240525":3.22,"20240526":2.85,"20240527":3.04,"20240528":2.76,"20240529":2.83,"20240530":1.88,"20240531":2.32,"20240601":1.87,"20240602":1.52,"20240603":2.2,"20240604":2.8,"20240605":2.2,"20240606":2.72,"20240607":1.89,"20240608":3.07,"20240609":2.04,"20240610":2.36,"20240611":2.4,"20240612":2.8,"20240613":2.21,"20240614":1.94,"20240615":1.13,"20240616":0.95,"20240617":2.3,"20240618":2.37,"20240619":4.61,"20240620":4.04,"20240621":3.15,"20240622":3.57,"20240623":3.12,"20240624":2.77,"20240625":3.59,"20240626":3.73,"20240627":3.2,"20240628":2.67,"20240629":1.66,"20240630":2.16,"20240701":1.99,"20240702":2.1,"20240703":2.02,"20240704":3.08,"20240705":5.8,"20240706":3.77,"20240707":2.19,"20240708":2.35,"20240709":3.43,"20240710":3.29,"20240711":3.19,"20240712":3.7,"20240713":3.08,"20240714":3.99,"20240715":2.83,"20240716":3.41,"20240717":3.84,"20240718":4.14,"20240719":4.2,"20240720":3.0,"20240721":2.73,"20240722":1.68,"20240723":1.69,"20240724":1.72,"20240725":2.07,"20240726":3.29,"20240727":4.1,"20240728":3.39,"20240729":3.28,"20240730":3.04,"20240731":2.88,"20240801":1.68,"20240802":1.77,"20240803":3.06,"20240804":2.15,"20240805":3.53,"20240806":3.23,"20240807":3.14,"20240808":3.61,"20240809":3.96,"20240810":3.15,"20240811":2.89,"20240812":3.9,"20240813":3.27,"20240814":3.43,"20240815":2.87,"20240816":2.6,"20240817":2.81,"20240818":2.89,"20240819":2.99,"20240820":2.98,"20240821":3.33,"20240822":2.49,"20240823":2.04,"20240824":2.02,"20240825":2.64,"20240826":2.39,"20240827":2.49,"20240828":2.21,"20240829":1.51,"20240830":2.38,"20240831":2.22,"20240901":2.68,"20240902":2.19,"20240903":2.13,"20240904":2.21,"20240905":2.81,"20240906":4.4,"20240907":4.48,"20240908":3.6,"20240909":2.57,"20240910":2.12,"20240911":3.56,"20240912":1.97,"20240913":2.13,"20240914":1.87,"20240915":1.88,"20240916":1.8,"20240917":2.32,"20240918":1.97,"20240919":1.52,"20240920":1.82,"20240921":1.82,"20240922":1.91,"20240923":2.89,"20240924":2.18,"20240925":2.06,"20240926":1.49,"20240927":2.4,"20240928":2.66,"20240929":2.57,"20240930":2.43,"20241001":1.52,"20241002":2.42,"20241003":2.94,"20241004":2.87,"20241005":1.94,"20241006":2.14,"20241007":3.15,"20241008":2.8,"20241009":2.6,"20241010":2.56,"20241011":3.59,"20241012":2.75,"20241013":1.9,"20241014":2.3,"20241015":1.55,"20241016":2.33,"20241017":1.61,"20241018":2.4,"20241019":2.2,"20241020":3.09,"20241021":2.09,"20241022":1.9,"20241023":1.98,"20241024":1.93,"20241025":2.73,"20241026":1.96,"20241027":2.22,"20241028":2.18,"20241029":2.69,"20241030":2.39,"20241031":2.48,"20241101":3.19,"20241102":2.72,"20241103":2.02,"20241104":1.09,"20241105":1.36,"20241106":3.57,"20241107":1.78,"20241108":1.47,"20241109":2.05,"20241110":2.45,"20241111":1.72,"20241112":1.87,"20241113":3.22,"20241114":2.33,"20241115":1.57,"20241116":1.7,"20241117":2.42,"20241118":1.7,"20241119":1.89,"20241120":2.47,"20241121":2.48,"20241122":3.14,"20241123":4.03,"20241124":4.25,"20241125":3.5,"20241126":2.75,"20241127":2.28,"20241128":4.1,"20241129":4.49,"20241130":4.91,"20241201":4.9,"20241202":5.56,"20241203":6.46,"20241204":5.31,"20241205":6.12,"20241206":3.85,"20241207":2.75,"20241208":2.61,"20241209":3.82,"20241210":5.85,"20241211":4.36,"20241212":4.49,"20241213":4.31,"20241214":5.14,"20241215":4.38,"20241216":3.83,"20241217":3.9,"20241218":5.52,"20241219":5.5,"20241220":5.32,"20241221":3.31,"20241222":2.34,"20241223":3.05,"20241224":3.15,"20241225":2.81,"20241226":3.73,"20241227":3.79,"20241228":3.33,"20241229":3.38,"20241230":5.06,"20241231":4.33},"RH2M":{"20240101":83.95,"20240102":81.4,"20240103":85.09,"20240104":82.16,"20240105":76.75,"20240106":82.97,"20240107":87.66,"20240108":82.92,"20240109":80.65,"20240110":83.83,"20240111":85.05,"20240112":83.51,"20240113":79.83,"20240114":81.52,"20240115":80.56,"20240116":80.19,"20240117":82.76,"20240118":83.93,"20240119":88.43,"20240120":80.35,"20240121":84.63,"20240122":82.92,"20240123":81.72,"20240124":82.59,"20240125":82.63,"20240126":84.18,"20240127":86.09,"20240128":85.17,"20240129":86.95,"20240130":86.6,"20240131":85.67,"20240201":88.75,"20240202":84.82,"20240203":84.61,"20240204":84.15,"20240205":85.5,"20240206":86.58,"20240207":81.63,"20240208":78.91,"20240209":80.68,"20240210":85.69,"20240211":81.79,"20240212":85.25,"20240213":83.6,"20240214":88.1,"20240215":81.45,"20240216":85.99,"20240217":88.01,"20240218":85.75,"20240219":83.28,"20240220":78.47,"20240221":82.19,"20240222":83.08,"20240223":83.9,"20240224":84.83,"20240225":84.3,"20240226":85.74,"20240227":85.38,"20240228":86.71,"20240229":85.12,"20240301":84.15,"20240302":88.15,"20240303":85.47,"20240304":83.92,"20240305":86.73,"20240306":87.39,"20240307":87.16,"20240308":89.22,"20240309":88.32,"20240310":83.65,"20240311":85.91,"20240312":86.23,"20240313":86.21,"20240314":84.47,"20240315":86.68,"20240316":88.45,"20240317":85.7,"20240318":84.85,"20240319":81.61,"20240320":79.65,"20240321":83.65,"20240322":81.68,"20240323":77.15,"20240324":82.94,"20240325":83.88,"20240326":84.92,"20240327":84.31,"20240328":78.93,"20240329":80.85,"20240330":85.21,"20240331":85.86,"20240401":83.64,"20240402":78.51,"20240403":80.87,"20240404":81.48,"20240405":84.03,"20240406":79.68,"20240407":81.48,"20240408":76.05,"20240409":79.54,"20240410":79.32,"20240411":83.91,"20240412":83.76,"20240413":76.72,"20240414":80.97,"20240415":82.77,"20240416":83.4,"20240417":83.65,"20240418":81.08,"20240419":83.38,"20240420":85.88,"20240421":81.33,"20240422":78.85,"20240423":84.78,"20240424":84.39,"20240425":85.21,"20240426":85.03,"20240427":81.88,"20240428":82.0,"20240429":85.79,"20240430":83.58,"20240501":87.98,"20240502":85.85,"20240503":83.31,"20240504":83.82,"20240505":78.18,"20240506":77.1,"20240507":76.96,"20240508":79.11,"20240509":83.29,"20240510":84.34,"20240511":84.58,"20240512":84.06,"20240513":82.57,"20240514":84.42,"20240515":82.58,"20240516":82.64,"20240517":80.57,"20240518":81.58,"20240519":78.83,"20240520":81.27,"20240521":81.59,"20240522":82.43,"20240523":86.13,"20240524":85.79,"20240525":83.01,"20240526":82.72,"20240527":82.33,"20240528":83.07,"20240529":83.07,"20240530":80.82,"20240531":81.04,"20240601":82.81,"20240602":82.97,"20240603":85.02,"20240604":83.88,"20240605":78.37,"20240606":77.47,"20240607":75.9,"20240608":82.99,"20240609":82.99,"20240610":85.54,"20240611":85.91,"20240612":83.87,"20240613":76.06,"20240614":80.02,"20240615":80.25,"20240616":82.33,"20240617":81.06,"20240618":81.26,"20240619":83.25,"20240620":78.38,"20240621":78.88,"20240622":78.51,"20240623":74.85,"20240624":81.52,"20240625":86.22,"20240626":84.32,"20240627":85.68,"20240628":83.42,"20240629":83.14,"20240630":83.38,"20240701":83.55,"20240702":84.16,"20240703":83.35,"20240704":84.69,"20240705":87.53,"20240706":89.31,"20240707":83.57,"20240708":85.32,"20240709":86.21,"20240710":81.88,"20240711":77.51,"20240712":76.23,"20240713":76.64,"20240714":76.15,"20240715":71.89,"20240716":79.5,"20240717":82.17,"20240718":81.21,"20240719":81.16,"20240720":78.2,"20240721":77.84,"20240722":76.37,"20240723":76.5,"20240724":75.94,"20240725":79.7,"20240726":81.47,"20240727":81.7,"20240728":79.09,"20240729":79.76,"20240730":77.69,"20240731":81.5,"20240801":78.71,"20240802":83.26,"20240803":84.72,"20240804":76.39,"20240805":78.23,"20240806":80.15,"20240807":79.32,"20240808":81.89,"20240809":83.62,"20240810":80.44,"20240811":78.42,"20240812":80.52,"20240813":76.55,"20240814":77.78,"20240815":77.09,"20240816":74.69,"20240817":78.04,"20240818":80.48,"20240819":80.48,"20240820":79.89,"20240821":79.96,"20240822":78.02,"20240823":76.18,"20240824":75.77,"20240825":73.82,"20240826":74.66,"20240827":72.94,"20240828":69.55,"20240829":70.25,"20240830":72.03,"20240831":75.01,"20240901":79.13,"20240902":78.93,"20240903":74.37,"20240904":73.94,"20240905":79.21,"20240906":80.66,"20240907":76.42,"20240908":81.16,"20240909":83.06,"20240910":81.77,"20240911":78.04,"20240912":78.03,"20240913":74.85,"20240914":66.3,"20240915":71.03,"20240916":69.35,"20240917":71.8,"20240918":71.62,"20240919":69.88,"20240920":73.05,"20240921":75.02,"20240922":80.25,"20240923":86.08,"20240924":83.26,"20240925":81.46,"20240926":81.92,"20240927":79.33,"20240928":82.08,"20240929":80.54,"20240930":81.6,"20241001":72.15,"20241002":79.88,"20241003":81.01,"20241004":81.02,"20241005":80.07,"20241006":78.75,"20241007":79.75,"20241008":75.81,"20241009":76.47,"20241010":78.05,"20241011":81.76,"20241012":80.04,"20241013":81.73,"20241014":80.27,"20241015":77.93,"20241016":73.68,"20241017":66.87,"20241018":75.07,"20241019":74.5,"20241020":70.76,"20241021":71.73,"20241022":73.16,"20241023":77.36,"20241024":78.98,"20241025":76.01,"20241026":74.88,"20241027":77.57,"20241028":77.1,"20241029":78.83,"20241030":76.04,"20241031":76.93,"20241101":78.95,"20241102":78.0,"20241103":81.43,"20241104":76.64,"20241105":79.65,"20241106":78.28,"20241107":73.61,"20241108":73.06,"20241109":77.57,"20241110":78.85,"20241111":78.23,"20241112":81.26,"20241113":81.27,"20241114":77.54,"20241115":78.45,"20241116":80.11,"20241117":79.45,"20241118":79.78,"20241119":78.1,"20241120":84.03,"20241121":78.5,"20241122":81.64,"20241123":83.16,"20241124":80.73,"20241125":78.24,"20241126":82.18,"20241127":83.84,"20241128":85.31,"20241129":80.85,"20241130":79.97,"20241201":82.62,"20241202":85.21,"20241203":89.46,"20241204":89.8,"20241205":88.41,"20241206":82.01,"20241207":81.07,"20241208":85.33,"20241209":88.47,"20241210":84.56,"20241211":82.28,"20241212":84.3,"20241213":82.74,"20241214":85.35,"20241215":84.43,"20241216":85.81,"20241217":85.1,"20241218":84.72,"20241219":87.82,"20241220":85.11,"20241221":82.64,"20241222":84.16,"20241223":84.33,"20241224":87.91,"20241225":83.51,"20241226":81.5,"20241227":82.23,"20241228":76.81,"20241229":82.78,"20241230":84.23,"20241231":85.19}}},"header":{"title":"NASA/POWER Source Native Resolution Daily Data","api":{"version":"v2.9.6","name":"POWER Daily API"},"sources":["MERRA2","POWER"],"fill_value":-999.0,"time_standard":"UTC","start":"20240101","end":"20241231"},"messages":[],"parameters":{"T2M":{"units":"C","longname":"Temperature at 2 Meters"},"T2M_MAX":{"units":"C","longname":"Temperature at 2 Meters Maximum"},"T2M_MIN":{"units":"C","longname":"Temperature at 2 Meters Minimum"},"PRECTOTCORR":{"units":"mm/day","longname":"Precipitation Corrected"},"WS10M":{"units":"m/s","longname":"Wind Speed at 10 Meters"},"RH2M":{"units":"%","longname":"Relative Humidity at 2 Meters"}},"times":{"data":0.897,"process":0.01}}