{"type":"Feature","geometry":{"type":"Point","coordinates":[-74.082,4.61,1790.38]},"properties":{"parameter":{"T2M":{"20240101":19.32,"20240102":19.71,"20240103":19.68,"20240104":19.92,"20240105":19.7,"20240106":19.78,"20240107":19.31,"20240108":19.06,"20240109":19.78,"20240110":19.45,"20240111":20.54,"20240112":19.68,"20240113":20.19,"20240114":20.49,"20240115":19.01,"20240116":18.43,"20240117":19.05,"20240118":21.06,"20240119":20.3,"20240120":20.78,"20240121":20.51,"20240122":20.8,"20240123":19.27,"20240124":18.84,"20240125":20.12,"20240126":19.54,"20240127":20.15,"20240128":21.69,"20240129":21.76,"20240130":21.34,"20240131":20.79,"20240201":21.32,"20240202":21.05,"20240203":19.85,"20240204":19.27,"20240205":19.06,"20240206":19.85,"20240207":20.63,"20240208":20.72,"20240209":20.75,"20240210":21.45,"20240211":20.94,"20240212":21.03,"20240213":21.6,"20240214":21.11,"20240215":21.53,"20240216":21.48,"20240217":21.12,"20240218":21.92,"20240219":21.45,"20240220":21.01,"20240221":20.4,"20240222":19.51,"20240223":20.23,"20240224":20.42,"20240225":19.38,"20240226":20.84,"20240227":20.49,"20240228":21.28,"20240229":21.35,"20240301":20.67,"20240302":20.68,"20240303":20.53,"20240304":21.2,"20240305":21.98,"20240306":22.38,"20240307":22.69,"20240308":22.08,"20240309":22.05,"20240310":22.01,"20240311":22.2,"20240312":22.02,"20240313":22.29,"20240314":22.75,"20240315":22.68,"20240316":22.71,"20240317":22.73,"20240318":22.12,"20240319":22.06,"20240320":21.91,"20240321":20.11,"20240322":21.8,"20240323":20.52,"20240324":20.64,"20240325":20.35,"20240326":19.99,"20240327":19.65,"20240328":20.05,"20240329":19.77,"20240330":20.4,"20240331":20.28,"20240401":20.31,"20240402":20.1,"20240403":20.23,"20240404":20.28,"20240405":19.79,"20240406":20.3,"20240407":20.4,"20240408":21.03,"20240409":21.08,"20240410":20.95,"20240411":21.17,"20240412":21.77,"20240413":23.04,"20240414":22.84,"20240415":22.5,"20240416":22.08,"20240417":21.43,"20240418":20.66,"20240419":19.81,"20240420":20.04,"20240421":19.45,"20240422":18.98,"20240423":19.83,"20240424":20.77,"20240425":19.92,"20240426":19.55,"20240427":19.55,"20240428":18.8,"20240429":19.17,"20240430":20.1,"20240501":20.49,"20240502":20.61,"20240503":19.83,"20240504":20.41,"20240505":19.16,"20240506":19.57,"20240507":20.98,"20240508":19.84,"20240509":19.37,"20240510":19.22,"20240511":19.85,"20240512":19.77,"20240513":20.66,"20240514":19.67,"20240515":19.76,"20240516":19.18,"20240517":19.6,"20240518":20.32,"20240519":19.65,"20240520":19.71,"20240521":19.51,"20240522":19.49,"20240523":19.8,"20240524":20.6,"20240525":19.6,"20240526":18.94,"20240527":19.37,"20240528":19.2,"20240529":19.12,"20240530":19.07,"20240531":19.51,"20240601":19.71,"20240602":19.96,"20240603":19.73,"20240604":19.1,"20240605":18.95,"20240606":19.3,"20240607":19.13,"20240608":19.46,"20240609":19.02,"20240610":19.38,"20240611":19.62,"20240612":18.78,"20240613":18.72,"20240614":19.47,"20240615":19.13,"20240616":18.97,"20240617":18.74,"20240618":19.08,"20240619":18.88,"20240620":19.23,"20240621":18.29,"20240622":18.25,"20240623":19.09,"20240624":18.78,"20240625":18.74,"20240626":18.31,"20240627":17.76,"20240628":18.64,"20240629":18.93,"20240630":19.35,"20240701":19.33,"20240702":18.55,"20240703":18.7,"20240704":18.9,"20240705":18.9,"20240706":18.39,"20240707":18.27,"20240708":17.58,"20240709":18.57,"20240710":19.16,"20240711":20.22,"20240712":19.34,"20240713":18.47,"20240714":17.41,"20240715":18.48,"20240716":18.96,"20240717":18.18,"20240718":17.58,"20240719":17.77,"20240720":18.72,"20240721":18.59,"20240722":18.82,"20240723":18.94,"20240724":19.11,"20240725":19.23,"20240726":19.36,"20240727":19.3,"20240728":19.57,"20240729":19.33,"20240730":18.8,"20240731":18.06,"20240801":18.15,"20240802":18.63,"20240803":19.34,"20240804":19.47,"20240805":18.74,"20240806":19.2,"20240807":19.57,"20240808":19.1,"20240809":19.43,"20240810":18.85,"20240811":18.25,"20240812":18.92,"20240813":18.73,"20240814":18.55,"20240815":19.17,"20240816":19.67,"20240817":18.95,"20240818":17.82,"20240819":18.47,"20240820":19.07,"20240821":19.51,"20240822":19.71,"20240823":20.14,"20240824":20.71,"20240825":18.97,"20240826":18.84,"20240827":18.44,"20240828":18.45,"20240829":18.25,"20240830":18.02,"20240831":18.5,"20240901":19.15,"20240902":18.8,"20240903":18.69,"20240904":20.14,"20240905":19.89,"20240906":19.86,"20240907":19.8,"20240908":19.55,"20240909":19.58,"20240910":19.6,"20240911":19.72,"20240912":20.56,"20240913":20.58,"20240914":20.63,"20240915":21.06,"20240916":20.74,"20240917":20.46,"20240918":19.6,"20240919":20.36,"20240920":19.97,"20240921":20.37,"20240922":20.18,"20240923":20.0,"20240924":20.18,"20240925":19.77,"20240926":19.79,"20240927":19.74,"20240928":18.38,"20240929":17.88,"20240930":18.24,"20241001":19.04,"20241002":19.26,"20241003":20.01,"20241004":19.69,"20241005":19.31,"20241006":18.53,"20241007":18.07,"20241008":18.54,"20241009":18.34,"20241010":19.3,"20241011":19.6,"20241012":19.37,"20241013":18.84,"20241014":18.6,"20241015":18.67,"20241016":19.62,"20241017":20.71,"20241018":20.15,"20241019":19.98,"20241020":19.21,"20241021":19.32,"20241022":19.19,"20241023":19.87,"20241024":19.86,"20241025":20.11,"20241026":21.22,"20241027":20.57,"20241028":19.98,"20241029":19.13,"20241030":19.31,"20241031":19.32,"20241101":18.56,"20241102":18.56,"20241103":18.38,"20241104":18.72,"20241105":19.26,"20241106":18.88,"20241107":19.22,"20241108":17.88,"20241109":18.27,"20241110":18.32,"20241111":18.69,"20241112":18.09,"20241113":17.68,"20241114":16.81,"20241115":18.39,"20241116":18.12,"20241117":18.54,"20241118":18.22,"20241119":18.67,"20241120":18.4,"20241121":18.44,"20241122":17.93,"20241123":18.16,"20241124":19.04,"20241125":19.01,"20241126":19.7,"20241127":19.28,"20241128":19.54,"20241129":19.46,"20241130":19.22,"20241201":19.99,"20241202":19.98,"20241203":19.74,"20241204":19.75,"20241205":20.11,"20241206":18.96,"20241207":18.67,"20241208":18.92,"20241209":20.02,"20241210":19.22,"20241211":19.55,"20241212":18.44,"20241213":18.51,"20241214":18.33,"20241215":18.38,"20241216":19.27,"20241217":19.75,"20241218":19.79,"20241219":20.14,"20241220":20.08,"20241221":19.92,"20241222":18.88,"20241223":19.34,"20241224":18.73,"20241225":19.47,"20241226":18.95,"20241227":18.52,"20241228":18.64,"20241229":18.02,"20241230":18.26,"20241231":18.65},"T2M_MAX":{"20240101":24.64,"20240102":24.97,"20240103":25.67,"20240104":25.89,"20240105":25.4,"20240106":26.05,"20240107":25.99,"20240108":26.02,"20240109":26.2,"20240110":26.25,"20240111":26.12,"20240112":22.74,"20240113":24.91,"20240114":26.52,"20240115":26.03,"20240116":25.81,"20240117":27.34,"20240118":26.59,"20240119":26.67,"20240120":26.45,"20240121":26.46,"20240122":26.91,"20240123":26.51,"20240124":27.14,"20240125":27.24,"20240126":27.52,"20240127":27.46,"20240128":27.5,"20240129":27.96,"20240130":27.62,"20240131":26.34,"20240201":26.62,"20240202":25.95,"20240203":23.21,"20240204":23.77,"20240205":23.62,"20240206":24.7,"20240207":26.39,"20240208":26.34,"20240209":27.38,"20240210":27.52,"20240211":26.97,"20240212":27.06,"20240213":27.91,"20240214":27.53,"20240215":27.18,"20240216":26.88,"20240217":27.37,"20240218":28.59,"20240219":28.88,"20240220":27.55,"20240221":25.06,"20240222":23.46,"20240223":26.81,"20240224":25.34,"20240225":24.14,"20240226":26.87,"20240227":25.91,"20240228":27.04,"20240229":26.65,"20240301":26.77,"20240302":26.16,"20240303":25.12,"20240304":27.19,"20240305":27.83,"20240306":28.67,"20240307":28.99,"20240308":27.57,"20240309":27.76,"20240310":28.51,"20240311":28.85,"20240312":28.14,"20240313":28.93,"20240314":29.09,"20240315":29.36,"20240316":28.86,"20240317":28.6,"20240318":29.21,"20240319":27.21,"20240320":28.46,"20240321":22.65,"20240322":28.66,"20240323":25.02,"20240324":24.86,"20240325":24.13,"20240326":24.35,"20240327":23.86,"20240328":25.08,"20240329":23.26,"20240330":26.3,"20240331":25.22,"20240401":26.65,"20240402":24.55,"20240403":25.03,"20240404":24.32,"20240405":25.81,"20240406":25.66,"20240407":26.8,"20240408":27.13,"20240409":26.74,"20240410":27.77,"20240411":28.44,"20240412":28.77,"20240413":29.16,"20240414":29.24,"20240415":28.6,"20240416":28.4,"20240417":26.62,"20240418":25.71,"20240419":24.25,"20240420":24.67,"20240421":23.03,"20240422":21.79,"20240423":25.35,"20240424":25.53,"20240425":25.93,"20240426":24.58,"20240427":23.39,"20240428":21.16,"20240429":23.62,"20240430":24.6,"20240501":25.01,"20240502":25.51,"20240503":22.62,"20240504":25.1,"20240505":23.36,"20240506":23.31,"20240507":26.51,"20240508":22.6,"20240509":23.75,"20240510":23.04,"20240511":24.79,"20240512":25.0,"20240513":24.78,"20240514":25.07,"20240515":24.38,"20240516":23.23,"20240517":24.92,"20240518":25.68,"20240519":25.3,"20240520":24.1,"20240521":22.75,"20240522":25.33,"20240523":25.11,"20240524":25.5,"20240525":24.0,"20240526":22.58,"20240527":24.2,"20240528":24.41,"20240529":23.23,"20240530":23.67,"20240531":23.34,"20240601":24.96,"20240602":24.88,"20240603":24.36,"20240604":22.1,"20240605":23.96,"20240606":24.67,"20240607":24.32,"20240608":24.27,"20240609":23.38,"20240610":24.08,"20240611":24.64,"20240612":23.84,"20240613":24.01,"20240614":24.72,"20240615":23.44,"20240616":23.54,"20240617":24.31,"20240618":24.47,"20240619":22.73,"20240620":24.09,"20240621":22.37,"20240622":24.48,"20240623":23.78,"20240624":23.49,"20240625":22.84,"20240626":23.6,"20240627":23.35,"20240628":23.14,"20240629":23.21,"20240630":24.78,"20240701":24.32,"20240702":23.07,"20240703":23.89,"20240704":23.5,"20240705":22.85,"20240706":22.93,"20240707":22.98,"20240708":23.71,"20240709":23.09,"20240710":24.51,"20240711":24.85,"20240712":23.61,"20240713":23.24,"20240714":23.4,"20240715":24.3,"20240716":24.2,"20240717":23.48,"20240718":22.73,"20240719":23.09,"20240720":24.18,"20240721":23.75,"20240722":24.04,"20240723":24.69,"20240724":23.71,"20240725":24.18,"20240726":24.75,"20240727":24.48,"20240728":24.35,"20240729":24.91,"20240730":23.22,"20240731":23.8,"20240801":23.49,"20240802":25.26,"20240803":24.71,"20240804":24.8,"20240805":24.47,"20240806":23.85,"20240807":23.96,"20240808":24.46,"20240809":24.45,"20240810":23.41,"20240811":23.6,"20240812":24.65,"20240813":23.14,"20240814":24.62,"20240815":25.66,"20240816":25.6,"20240817":25.33,"20240818":25.18,"20240819":25.51,"20240820":25.86,"20240821":25.78,"20240822":25.96,"20240823":25.51,"20240824":26.01,"20240825":25.04,"20240826":24.57,"20240827":25.43,"20240828":24.59,"20240829":24.7,"20240830":24.97,"20240831":25.28,"20240901":24.59,"20240902":25.04,"20240903":25.42,"20240904":25.9,"20240905":26.04,"20240906":26.43,"20240907":25.71,"20240908":25.98,"20240909":26.79,"20240910":25.98,"20240911":26.68,"20240912":26.24,"20240913":26.33,"20240914":26.24,"20240915":27.34,"20240916":26.48,"20240917":25.21,"20240918":27.27,"20240919":26.96,"20240920":26.29,"20240921":25.82,"20240922":25.82,"20240923":25.87,"20240924":26.81,"20240925":25.93,"20240926":24.45,"20240927":25.86,"20240928":22.95,"20240929":21.22,"20240930":22.59,"20241001":25.85,"20241002":24.78,"20241003":26.45,"20241004":24.17,"20241005":24.14,"20241006":21.68,"20241007":21.58,"20241008":23.75,"20241009":22.09,"20241010":24.95,"20241011":26.64,"20241012":25.77,"20241013":25.42,"20241014":25.92,"20241015":25.33,"20241016":24.58,"20241017":26.84,"20241018":26.68,"20241019":24.74,"20241020":23.41,"20241021":24.84,"20241022":23.5,"20241023":25.05,"20241024":25.84,"20241025":26.71,"20241026":26.46,"20241027":25.23,"20241028":25.84,"20241029":25.68,"20241030":25.1,"20241031":24.72,"20241101":23.15,"20241102":23.55,"20241103":22.59,"20241104":23.5,"20241105":24.61,"20241106":23.4,"20241107":24.47,"20241108":21.21,"20241109":22.83,"20241110":21.59,"20241111":23.24,"20241112":21.6,"20241113":21.46,"20241114":21.45,"20241115":24.16,"20241116":22.72,"20241117":22.64,"20241118":22.74,"20241119":23.27,"20241120":21.88,"20241121":23.03,"20241122":20.04,"20241123":21.83,"20241124":25.3,"20241125":25.61,"20241126":25.36,"20241127":24.33,"20241128":24.77,"20241129":24.84,"20241130":24.96,"20241201":25.28,"20241202":24.25,"20241203":25.51,"20241204":24.69,"20241205":24.93,"20241206":23.74,"20241207":23.77,"20241208":24.81,"20241209":25.45,"20241210":24.98,"20241211":26.08,"20241212":21.33,"20241213":23.91,"20241214":21.96,"20241215":21.77,"20241216":23.84,"20241217":25.26,"20241218":25.01,"20241219":24.77,"20241220":25.45,"20241221":25.07,"20241222":24.43,"20241223":24.66,"20241224":23.46,"20241225":24.36,"20241226":24.08,"20241227":21.78,"20241228":22.28,"20241229":21.66,"20241230":22.83,"20241231":23.8},"T2M_MIN":{"20240101":15.02,"20240102":15.37,"20240103":14.72,"20240104":14.81,"20240105":15.2,"20240106":14.6,"20240107":12.77,"20240108":12.34,"20240109":13.21,"20240110":12.99,"20240111":15.54,"20240112":17.09,"20240113":16.55,"20240114":15.33,"20240115":12.52,"20240116":12.01,"20240117":12.36,"20240118":16.28,"20240119":13.81,"20240120":16.46,"20240121":15.73,"20240122":16.2,"20240123":13.02,"20240124":11.76,"20240125":15.34,"20240126":12.78,"20240127":14.87,"20240128":16.3,"20240129":16.64,"20240130":16.07,"20240131":16.12,"20240201":16.92,"20240202":17.19,"20240203":17.46,"20240204":16.16,"20240205":14.86,"20240206":15.87,"20240207":16.26,"20240208":15.81,"20240209":14.81,"20240210":16.33,"20240211":16.1,"20240212":15.7,"20240213":16.15,"20240214":16.51,"20240215":16.72,"20240216":17.36,"20240217":16.52,"20240218":16.54,"20240219":14.86,"20240220":15.95,"20240221":16.73,"20240222":16.25,"20240223":15.13,"20240224":16.71,"20240225":15.44,"20240226":16.61,"20240227":16.37,"20240228":16.89,"20240229":17.13,"20240301":15.26,"20240302":16.38,"20240303":16.71,"20240304":17.19,"20240305":17.25,"20240306":17.28,"20240307":17.34,"20240308":18.02,"20240309":17.16,"20240310":16.83,"20240311":16.16,"20240312":16.91,"20240313":16.88,"20240314":17.47,"20240315":16.86,"20240316":17.34,"20240317":17.86,"20240318":16.24,"20240319":17.71,"20240320":17.22,"20240321":17.98,"20240322":17.39,"20240323":16.46,"20240324":16.74,"20240325":16.57,"20240326":16.79,"20240327":15.78,"20240328":16.05,"20240329":16.43,"20240330":15.36,"20240331":16.42,"20240401":15.24,"20240402":16.39,"20240403":16.94,"20240404":16.21,"20240405":14.4,"20240406":15.61,"20240407":14.11,"20240408":16.33,"20240409":16.71,"20240410":14.29,"20240411":14.65,"20240412":15.96,"20240413":18.25,"20240414":17.79,"20240415":17.46,"20240416":16.71,"20240417":17.12,"20240418":16.27,"20240419":16.58,"20240420":17.06,"20240421":17.04,"20240422":16.57,"20240423":15.24,"20240424":17.18,"20240425":15.21,"20240426":15.47,"20240427":16.78,"20240428":16.95,"20240429":15.89,"20240430":16.64,"20240501":17.47,"20240502":17.48,"20240503":17.14,"20240504":17.41,"20240505":15.86,"20240506":16.85,"20240507":16.96,"20240508":17.27,"20240509":15.24,"20240510":15.92,"20240511":15.82,"20240512":15.56,"20240513":17.79,"20240514":14.65,"20240515":15.81,"20240516":16.37,"20240517":15.2,"20240518":16.19,"20240519":15.05,"20240520":16.08,"20240521":16.64,"20240522":14.84,"20240523":15.02,"20240524":16.53,"20240525":15.36,"20240526":16.27,"20240527":15.25,"20240528":14.52,"20240529":15.86,"20240530":14.99,"20240531":16.14,"20240601":15.0,"20240602":15.75,"20240603":15.89,"20240604":16.22,"20240605":14.88,"20240606":14.37,"20240607":13.77,"20240608":15.45,"20240609":15.0,"20240610":15.51,"20240611":15.72,"20240612":14.53,"20240613":14.38,"20240614":15.07,"20240615":14.87,"20240616":15.99,"20240617":12.99,"20240618":15.49,"20240619":16.28,"20240620":15.45,"20240621":14.39,"20240622":12.36,"20240623":15.35,"20240624":14.21,"20240625":14.85,"20240626":13.48,"20240627":12.58,"20240628":15.27,"20240629":15.27,"20240630":14.67,"20240701":14.62,"20240702":14.12,"20240703":14.79,"20240704":14.8,"20240705":15.65,"20240706":15.06,"20240707":14.15,"20240708":11.93,"20240709":14.5,"20240710":14.16,"20240711":15.78,"20240712":16.57,"20240713":14.55,"20240714":12.22,"20240715":13.28,"20240716":15.26,"20240717":14.06,"20240718":13.15,"20240719":12.83,"20240720":13.73,"20240721":13.75,"20240722":13.2,"20240723":14.14,"20240724":14.88,"20240725":15.03,"20240726":14.48,"20240727":15.6,"20240728":15.83,"20240729":14.45,"20240730":15.58,"20240731":13.04,"20240801":13.85,"20240802":13.17,"20240803":15.23,"20240804":14.84,"20240805":13.77,"20240806":14.59,"20240807":15.92,"20240808":14.41,"20240809":14.98,"20240810":15.53,"20240811":13.72,"20240812":13.27,"20240813":15.27,"20240814":12.96,"20240815":13.31,"20240816":14.31,"20240817":13.64,"20240818":11.05,"20240819":12.43,"20240820":13.18,"20240821":13.81,"20240822":14.28,"20240823":16.13,"20240824":16.3,"20240825":13.51,"20240826":13.89,"20240827":12.42,"20240828":12.83,"20240829":13.55,"20240830":12.31,"20240831":12.48,"20240901":14.16,"20240902":13.05,"20240903":11.8,"20240904":14.93,"20240905":14.26,"20240906":14.17,"20240907":14.49,"20240908":14.18,"20240909":14.24,"20240910":14.18,"20240911":13.26,"20240912":15.85,"20240913":14.91,"20240914":15.92,"20240915":15.03,"20240916":15.86,"20240917":17.6,"20240918":13.57,"20240919":14.99,"20240920":14.79,"20240921":15.56,"20240922":15.02,"20240923":15.13,"20240924":14.31,"20240925":14.35,"20240926":16.24,"20240927":15.44,"20240928":15.15,"20240929":15.53,"20240930":14.87,"20241001":14.09,"20241002":15.03,"20241003":14.81,"20241004":16.61,"20241005":15.44,"20241006":16.01,"20241007":14.7,"20241008":15.78,"20241009":15.8,"20241010":14.32,"20241011":13.31,"20241012":13.71,"20241013":13.33,"20241014":12.45,"20241015":13.38,"20241016":15.81,"20241017":15.97,"20241018":14.1,"20241019":16.21,"20241020":16.19,"20241021":15.85,"20241022":16.49,"20241023":15.93,"20241024":15.29,"20241025":14.13,"20241026":16.78,"20241027":17.18,"20241028":14.9,"20241029":13.0,"20241030":14.71,"20241031":15.29,"20241101":15.66,"20241102":15.21,"20241103":15.35,"20241104":14.83,"20241105":15.29,"20241106":16.09,"20241107":15.79,"20241108":15.33,"20241109":15.04,"20241110":16.38,"20241111":15.29,"20241112":15.17,"20241113":14.62,"20241114":13.76,"20241115":14.4,"20241116":14.23,"20241117":15.58,"20241118":14.3,"20241119":15.23,"20241120":15.28,"20241121":15.44,"20241122":16.58,"20241123":15.39,"20241124":14.0,"20241125":12.36,"20241126":15.54,"20241127":14.67,"20241128":15.23,"20241129":14.91,"20241130":14.08,"20241201":15.57,"20241202":16.48,"20241203":15.41,"20241204":16.2,"20241205":16.3,"20241206":14.88,"20241207":14.89,"20241208":15.0,"20241209":15.4,"20241210":14.21,"20241211":14.1,"20241212":16.03,"20241213":14.67,"20241214":15.11,"20241215":15.69,"20241216":16.09,"20241217":15.67,"20241218":15.72,"20241219":16.42,"20241220":15.84,"20241221":15.59,"20241222":14.92,"20241223":15.23,"20241224":14.74,"20241225":15.88,"20241226":15.01,"20241227":16.16,"20241228":15.81,"20241229":15.12,"20241230":15.25,"20241231":15.65},"PRECTOTCORR":{"20240101":0.25,"20240102":0.06,"20240103":0.14,"20240104":0.0,"20240105":0.0,"20240106":0.0,"20240107":0.0,"20240108":0.0,"20240109":0.56,"20240110":0.72,"20240111":1.55,"20240112":13.72,"20240113":0.53,"20240114":0.08,"20240115":0.0,"20240116":0.0,"20240117":0.0,"20240118":0.0,"20240119":0.01,"20240120":0.03,"20240121":0.37,"20240122":0.04,"20240123":0.0,"20240124":0.0,"20240125":0.0,"20240126":0.0,"20240127":0.0,"20240128":0.0,"20240129":0.03,"20240130":0.33,"20240131":0.86,"20240201":3.57,"20240202":6.99,"20240203":10.11,"20240204":4.73,"20240205":6.17,"20240206":6.07,"20240207":0.99,"20240208":2.96,"20240209":2.43,"20240210":2.83,"20240211":0.7,"20240212":0.0,"20240213":0.42,"20240214":0.65,"20240215":0.25,"20240216":2.6,"20240217":4.2,"20240218":1.78,"20240219":1.03,"20240220":0.17,"20240221":0.38,"20240222":0.35,"20240223":0.0,"20240224":0.77,"20240225":1.0,"20240226":0.35,"20240227":2.68,"20240228":2.51,"20240229":0.88,"20240301":1.15,"20240302":2.17,"20240303":3.25,"20240304":0.79,"20240305":0.0,"20240306":0.0,"20240307":1.03,"20240308":3.32,"20240309":3.67,"20240310":5.41,"20240311":3.62,"20240312":2.83,"20240313":0.88,"20240314":0.19,"20240315":1.02,"20240316":0.92,"20240317":0.32,"20240318":1.11,"20240319":3.63,"20240320":0.16,"20240321":1.71,"20240322":6.03,"20240323":0.35,"20240324":1.01,"20240325":3.56,"20240326":1.63,"20240327":1.81,"20240328":0.98,"20240329":10.67,"20240330":9.51,"20240331":6.12,"20240401":5.57,"20240402":12.6,"20240403":8.09,"20240404":10.33,"20240405":7.88,"20240406":5.49,"20240407":4.59,"20240408":4.32,"20240409":1.5,"20240410":0.0,"20240411":0.0,"20240412":0.0,"20240413":0.04,"20240414":0.23,"20240415":4.26,"20240416":3.92,"20240417":2.3,"20240418":9.2,"20240419":28.14,"20240420":6.39,"20240421":8.87,"20240422":15.74,"20240423":5.87,"20240424":13.16,"20240425":6.87,"20240426":14.61,"20240427":9.04,"20240428":18.53,"20240429":12.85,"20240430":3.37,"20240501":5.59,"20240502":1.75,"20240503":7.84,"20240504":17.43,"20240505":18.02,"20240506":6.69,"20240507":8.32,"20240508":32.24,"20240509":25.68,"20240510":7.8,"20240511":12.02,"20240512":15.12,"20240513":28.21,"20240514":9.03,"20240515":11.43,"20240516":16.68,"20240517":0.98,"20240518":9.74,"20240519":2.82,"20240520":11.28,"20240521":5.78,"20240522":2.58,"20240523":3.98,"20240524":4.17,"20240525":30.41,"20240526":8.95,"20240527":3.42,"20240528":1.81,"20240529":47.48,"20240530":12.14,"20240531":3.17,"20240601":1.09,"20240602":2.51,"20240603":11.76,"20240604":21.41,"20240605":0.77,"20240606":0.64,"20240607":5.48,"20240608":6.02,"20240609":8.42,"20240610":9.35,"20240611":10.91,"20240612":8.03,"20240613":3.13,"20240614":8.53,"20240615":33.55,"20240616":11.67,"20240617":0.57,"20240618":6.76,"20240619":17.47,"20240620":15.83,"20240621":5.36,"20240622":2.02,"20240623":6.83,"20240624":6.38,"20240625":11.66,"20240626":4.88,"20240627":6.14,"20240628":9.21,"20240629":6.57,"20240630":4.76,"20240701":2.33,"20240702":14.26,"20240703":8.52,"20240704":9.47,"20240705":17.39,"20240706":10.39,"20240707":7.1,"20240708":1.26,"20240709":3.3,"20240710":0.19,"20240711":0.41,"20240712":3.07,"20240713":1.94,"20240714":3.82,"20240715":9.97,"20240716":4.59,"20240717":1.17,"20240718":0.6,"20240719":0.05,"20240720":0.01,"20240721":4.51,"20240722":4.09,"20240723":2.75,"20240724":5.01,"20240725":0.99,"20240726":0.27,"20240727":1.99,"20240728":2.43,"20240729":2.93,"20240730":3.59,"20240731":0.81,"20240801":0.25,"20240802":0.02,"20240803":2.1,"20240804":4.0,"20240805":3.48,"20240806":1.71,"20240807":3.92,"20240808":9.48,"20240809":4.34,"20240810":8.16,"20240811":2.84,"20240812":2.57,"20240813":1.65,"20240814":0.02,"20240815":0.01,"20240816":0.15,"20240817":0.03,"20240818":0.0,"20240819":0.0,"20240820":0.01,"20240821":0.21,"20240822":0.48,"20240823":2.84,"20240824":2.74,"20240825":2.29,"20240826":0.73,"20240827":0.55,"20240828":2.71,"20240829":1.88,"20240830":0.0,"20240831":0.13,"20240901":4.01,"20240902":1.62,"20240903":0.19,"20240904":0.2,"20240905":0.16,"20240906":0.51,"20240907":0.15,"20240908":0.0,"20240909":0.2,"20240910":0.79,"20240911":0.43,"20240912":7.96,"20240913":6.17,"20240914":0.07,"20240915":0.03,"20240916":1.56,"20240917":3.14,"20240918":0.35,"20240919":6.92,"20240920":1.5,"20240921":4.08,"20240922":6.21,"20240923":15.13,"20240924":0.09,"20240925":0.28,"20240926":1.51,"20240927":0.79,"20240928":6.16,"20240929":13.27,"20240930":2.54,"20241001":1.78,"20241002":3.78,"20241003":1.97,"20241004":6.95,"20241005":7.63,"20241006":9.97,"20241007":2.64,"20241008":15.11,"20241009":10.36,"20241010":5.63,"20241011":0.83,"20241012":3.31,"20241013":1.83,"20241014":0.27,"20241015":2.26,"20241016":2.56,"20241017":0.28,"20241018":0.86,"20241019":8.61,"20241020":9.86,"20241021":12.63,"20241022":13.09,"20241023":18.7,"20241024":2.78,"20241025":0.74,"20241026":9.95,"20241027":7.63,"20241028":0.67,"20241029":4.23,"20241030":4.67,"20241031":4.42,"20241101":5.77,"20241102":2.76,"20241103":5.59,"20241104":18.06,"20241105":2.07,"20241106":5.19,"20241107":9.38,"20241108":2.66,"20241109":4.28,"20241110":12.3,"20241111":5.94,"20241112":9.35,"20241113":4.4,"20241114":10.82,"20241115":5.38,"20241116":8.03,"20241117":3.75,"20241118":4.07,"20241119":29.94,"20241120":5.05,"20241121":7.64,"20241122":8.27,"20241123":12.52,"20241124":2.06,"20241125":0.21,"20241126":2.11,"20241127":5.84,"20241128":3.98,"20241129":0.16,"20241130":0.71,"20241201":0.2,"20241202":0.8,"20241203":2.54,"20241204":5.0,"20241205":0.74,"20241206":1.58,"20241207":2.39,"20241208":0.13,"20241209":0.05,"20241210":0.02,"20241211":0.12,"20241212":5.83,"20241213":3.06,"20241214":2.38,"20241215":0.29,"20241216":7.41,"20241217":8.5,"20241218":0.63,"20241219":2.04,"20241220":6.77,"20241221":5.58,"20241222":6.53,"20241223":15.78,"20241224":13.19,"20241225":1.35,"20241226":3.72,"20241227":15.71,"20241228":15.15,"20241229":18.17,"20241230":4.48,"20241231":7.31},"WS10M":{"20240101":1.35,"20240102":1.34,"20240103":1.63,"20240104":1.71,"20240105":1.85,"20240106":1.92,"20240107":2.26,"20240108":1.98,"20240109":2.05,"20240110":1.66,"20240111":1.24,"20240112":0.99,"20240113":1.01,"20240114":1.27,"20240115":2.7,"20240116":3.36,"20240117":3.41,"20240118":2.69,"20240119":2.78,"20240120":2.75,"20240121":3.01,"20240122":4.0,"20240123":4.91,"20240124":3.61,"20240125":3.17,"20240126":2.61,"20240127":2.03,"20240128":1.31,"20240129":1.51,"20240130":1.41,"20240131":1.18,"20240201":1.05,"20240202":1.2,"20240203":1.38,"20240204":1.32,"20240205":2.01,"20240206":0.82,"20240207":1.37,"20240208":0.92,"20240209":1.73,"20240210":2.5,"20240211":2.11,"20240212":1.64,"20240213":2.05,"20240214":3.33,"20240215":2.27,"20240216":2.28,"20240217":2.91,"20240218":2.17,"20240219":2.1,"20240220":2.48,"20240221":2.43,"20240222":2.64,"20240223":2.02,"20240224":1.92,"20240225":2.21,"20240226":1.62,"20240227":1.63,"20240228":1.26,"20240229":1.41,"20240301":1.91,"20240302":1.39,"20240303":1.15,"20240304":1.38,"20240305":1.17,"20240306":1.07,"20240307":1.4,"20240308":1.93,"20240309":1.46,"20240310":1.98,"20240311":2.65,"20240312":2.34,"20240313":2.92,"20240314":3.12,"20240315":2.16,"20240316":1.52,"20240317":2.22,"20240318":3.07,"20240319":1.64,"20240320":0.99,"20240321":0.98,"20240322":1.36,"20240323":1.8,"20240324":1.5,"20240325":1.72,"20240326":1.98,"20240327":1.68,"20240328":2.08,"20240329":1.52,"20240330":1.7,"20240331":1.16,"20240401":1.31,"20240402":1.48,"20240403":0.67,"20240404":1.98,"20240405":1.86,"20240406":1.35,"20240407":2.32,"20240408":2.59,"20240409":2.38,"20240410":2.46,"20240411":1.79,"20240412":1.98,"20240413":1.65,"20240414":1.88,"20240415":1.33,"20240416":1.93,"20240417":1.27,"20240418":1.44,"20240419":1.67,"20240420":1.45,"20240421":0.92,"20240422":0.92,"20240423":0.8,"20240424":1.56,"20240425":1.66,"20240426":1.47,"20240427":1.01,"20240428":1.11,"20240429":0.95,"20240430":1.24,"20240501":1.48,"20240502":1.1,"20240503":1.13,"20240504":1.35,"20240505":1.45,"20240506":0.89,"20240507":1.65,"20240508":0.95,"20240509":1.1,"20240510":1.8,"20240511":1.57,"20240512":1.24,"20240513":1.58,"20240514":2.13,"20240515":1.08,"20240516":1.02,"20240517":1.31,"20240518":2.1,"20240519":2.1,"20240520":2.26,"20240521":1.71,"20240522":2.04,"20240523":1.38,"20240524":1.02,"20240525":1.39,"20240526":1.42,"20240527":1.82,"20240528":1.94,"20240529":2.17,"20240530":1.49,"20240531":2.06,"20240601":2.36,"20240602":1.75,"20240603":2.17,"20240604":2.75,"20240605":1.44,"20240606":2.55,"20240607":1.82,"20240608":2.51,"20240609":1.56,"20240610":1.49,"20240611":2.91,"20240612":2.17,"20240613":1.47,"20240614":1.26,"20240615":1.25,"20240616":2.12,"20240617":1.7,"20240618":1.19,"20240619":1.05,"20240620":1.75,"20240621":2.08,"20240622":1.72,"20240623":1.65,"20240624":1.43,"20240625":1.91,"20240626":2.65,"20240627":1.55,"20240628":1.1,"20240629":1.19,"20240630":1.79,"20240701":1.53,"20240702":2.08,"20240703":1.67,"20240704":1.31,"20240705":1.53,"20240706":1.96,"20240707":3.13,"20240708":3.01,"20240709":2.62,"20240710":2.12,"20240711":1.66,"20240712":1.99,"20240713":3.08,"20240714":3.07,"20240715":2.61,"20240716":2.41,"20240717":3.26,"20240718":2.68,"20240719":1.89,"20240720":2.42,"20240721":1.95,"20240722":2.25,"20240723":2.36,"20240724":1.57,"20240725":1.45,"20240726":1.48,"20240727":1.91,"20240728":2.24,"20240729":2.93,"20240730":3.74,"20240731":3.63,"20240801":3.18,"20240802":1.92,"20240803":1.28,"20240804":1.77,"20240805":2.18,"20240806":1.31,"20240807":0.77,"20240808":1.29,"20240809":1.34,"20240810":2.39,"20240811":2.28,"20240812":2.02,"20240813":2.53,"20240814":2.21,"20240815":3.01,"20240816":2.67,"20240817":3.06,"20240818":2.99,"20240819":3.13,"20240820":3.33,"20240821":1.88,"20240822":1.63,"20240823":1.32,"20240824":1.91,"20240825":2.76,"20240826":3.07,"20240827":2.83,"20240828":3.4,"20240829":3.45,"20240830":3.18,"20240831":2.1,"20240901":2.04,"20240902":2.58,"20240903":1.95,"20240904":1.99,"20240905":3.1,"20240906":2.6,"20240907":2.32,"20240908":3.69,"20240909":3.64,"20240910":2.53,"20240911":1.82,"20240912":2.31,"20240913":2.41,"20240914":1.6,"20240915":2.69,"20240916":2.99,"20240917":3.48,"20240918":3.13,"20240919":2.79,"20240920":3.05,"20240921":1.86,"20240922":1.34,"20240923":1.5,"20240924":1.98,"20240925":1.98,"20240926":0.95,"20240927":1.32,"20240928":1.3,"20240929":1.22,"20240930":1.19,"20241001":1.27,"20241002":1.33,"20241003":1.02,"20241004":1.41,"20241005":1.4,"20241006":0.95,"20241007":1.28,"20241008":1.47,"20241009":0.92,"20241010":1.35,"20241011":1.77,"20241012":2.84,"20241013":4.54,"20241014":3.24,"20241015":2.25,"20241016":1.04,"20241017":1.86,"20241018":1.43,"20241019":1.33,"20241020":1.71,"20241021":1.74,"20241022":1.4,"20241023":1.14,"20241024":1.71,"20241025":2.38,"20241026":2.45,"20241027":2.12,"20241028":3.19,"20241029":2.59,"20241030":1.87,"20241031":1.36,"20241101":1.86,"20241102":2.28,"20241103":1.47,"20241104":1.71,"20241105":1.62,"20241106":1.83,"20241107":1.88,"20241108":1.65,"20241109":1.46,"20241110":0.76,"20241111":1.44,"20241112":1.65,"20241113":2.31,"20241114":1.54,"20241115":1.45,"20241116":1.63,"20241117":1.28,"20241118":1.56,"20241119":1.49,"20241120":1.21,"20241121":1.31,"20241122":1.0,"20241123":0.92,"20241124":1.78,"20241125":1.75,"20241126":1.35,"20241127":1.32,"20241128":1.34,"20241129":1.93,"20241130":2.21,"20241201":1.27,"20241202":0.98,"20241203":1.71,"20241204":1.62,"20241205":1.67,"20241206":1.79,"20241207":1.89,"20241208":1.66,"20241209":2.02,"20241210":1.85,"20241211":1.51,"20241212":1.44,"20241213":1.98,"20241214":1.64,"20241215":1.49,"20241216":1.36,"20241217":1.76,"20241218":1.78,"20241219":1.05,"20241220":1.33,"20241221":1.43,"20241222":1.57,"20241223":1.67,"20241224":1.22,"20241225":1.01,"20241226":1.49,"20241227":1.26,"20241228":1.12,"20241229":1.03,"20241230":1.2,"20241231":0.89},"RH2M":{"20240101":83.81,"20240102":79.01,"20240103":77.7,"20240104":76.85,"20240105":76.56,"20240106":71.01,"20240107":70.16,"20240108":72.09,"20240109":70.06,"20240110":70.2,"20240111":74.05,"20240112":85.68,"20240113":79.05,"20240114":72.37,"20240115":69.5,"20240116":71.16,"20240117":72.7,"20240118":73.06,"20240119":71.11,"20240120":72.33,"20240121":71.7,"20240122":71.22,"20240123":65.67,"20240124":67.55,"20240125":65.08,"20240126":63.33,"20240127":62.17,"20240128":67.29,"20240129":68.09,"20240130":67.84,"20240131":71.21,"20240201":74.48,"20240202":78.08,"20240203":84.93,"20240204":84.14,"20240205":79.35,"20240206":76.42,"20240207":77.69,"20240208":78.18,"20240209":76.5,"20240210":73.53,"20240211":70.34,"20240212":69.76,"20240213":67.22,"20240214":70.1,"20240215":70.93,"20240216":73.93,"20240217":76.26,"20240218":70.93,"20240219":67.94,"20240220":72.84,"20240221":74.21,"20240222":79.3,"20240223":71.86,"20240224":73.15,"20240225":71.41,"20240226":69.43,"20240227":76.71,"20240228":75.96,"20240229":72.37,"20240301":66.35,"20240302":69.98,"20240303":76.44,"20240304":73.43,"20240305":70.3,"20240306":68.55,"20240307":67.67,"20240308":73.88,"20240309":69.99,"20240310":70.65,"20240311":68.47,"20240312":69.93,"20240313":67.73,"20240314":65.82,"20240315":66.79,"20240316":67.11,"20240317":66.58,"20240318":65.17,"20240319":71.02,"20240320":68.94,"20240321":83.5,"20240322":74.71,"20240323":70.48,"20240324":74.27,"20240325":79.3,"20240326":79.96,"20240327":75.74,"20240328":76.05,"20240329":80.61,"20240330":75.0,"20240331":76.05,"20240401":74.61,"20240402":81.17,"20240403":82.52,"20240404":78.01,"20240405":73.29,"20240406":74.06,"20240407":72.92,"20240408":72.69,"20240409":70.97,"20240410":65.51,"20240411":61.46,"20240412":64.48,"20240413":64.83,"20240414":64.19,"20240415":65.25,"20240416":69.51,"20240417":70.72,"20240418":78.51,"20240419":83.16,"20240420":84.55,"20240421":86.94,"20240422":89.22,"20240423":81.06,"20240424":77.58,"20240425":75.77,"20240426":81.85,"20240427":85.18,"20240428":91.56,"20240429":86.35,"20240430":83.28,"20240501":81.94,"20240502":83.43,"20240503":87.83,"20240504":82.33,"20240505":84.41,"20240506":85.51,"20240507":78.36,"20240508":86.65,"20240509":83.66,"20240510":85.03,"20240511":81.29,"20240512":82.22,"20240513":82.28,"20240514":79.94,"20240515":80.63,"20240516":87.24,"20240517":81.04,"20240518":79.06,"20240519":82.14,"20240520":84.57,"20240521":82.1,"20240522":77.13,"20240523":80.2,"20240524":80.59,"20240525":82.98,"20240526":87.35,"20240527":81.37,"20240528":80.79,"20240529":83.51,"20240530":82.54,"20240531":81.69,"20240601":79.38,"20240602":80.26,"20240603":82.31,"20240604":84.31,"20240605":81.08,"20240606":79.38,"20240607":80.92,"20240608":79.94,"20240609":82.07,"20240610":82.66,"20240611":79.54,"20240612":80.73,"20240613":82.26,"20240614":81.7,"20240615":83.74,"20240616":82.99,"20240617":79.81,"20240618":83.36,"20240619":86.99,"20240620":81.98,"20240621":81.99,"20240622":79.0,"20240623":80.77,"20240624":81.82,"20240625":80.69,"20240626":79.61,"20240627":80.74,"20240628":85.54,"20240629":84.19,"20240630":77.65,"20240701":77.57,"20240702":82.97,"20240703":82.53,"20240704":81.11,"20240705":83.94,"20240706":82.62,"20240707":80.44,"20240708":78.77,"20240709":79.6,"20240710":78.18,"20240711":75.89,"20240712":81.26,"20240713":81.33,"20240714":80.27,"20240715":79.59,"20240716":81.07,"20240717":81.6,"20240718":82.7,"20240719":81.4,"20240720":77.96,"20240721":79.15,"20240722":80.94,"20240723":82.25,"20240724":82.17,"20240725":79.25,"20240726":78.12,"20240727":80.95,"20240728":78.89,"20240729":76.37,"20240730":78.03,"20240731":78.14,"20240801":77.7,"20240802":74.32,"20240803":79.67,"20240804":77.86,"20240805":78.43,"20240806":79.3,"20240807":78.58,"20240808":78.38,"20240809":76.11,"20240810":76.76,"20240811":78.06,"20240812":75.78,"20240813":76.41,"20240814":74.91,"20240815":74.54,"20240816":74.59,"20240817":72.93,"20240818":73.77,"20240819":75.28,"20240820":75.73,"20240821":74.61,"20240822":77.51,"20240823":78.04,"20240824":74.32,"20240825":77.25,"20240826":74.51,"20240827":73.28,"20240828":74.24,"20240829":75.84,"20240830":71.89,"20240831":72.0,"20240901":76.07,"20240902":72.64,"20240903":72.15,"20240904":71.94,"20240905":72.26,"20240906":73.87,"20240907":73.35,"20240908":70.66,"20240909":69.95,"20240910":72.33,"20240911":71.5,"20240912":73.14,"20240913":72.93,"20240914":71.36,"20240915":69.79,"20240916":72.22,"20240917":70.49,"20240918":65.68,"20240919":70.03,"20240920":70.48,"20240921":72.72,"20240922":74.82,"20240923":73.39,"20240924":70.49,"20240925":72.48,"20240926":78.42,"20240927":77.04,"20240928":81.17,"20240929":86.65,"20240930":80.94,"20241001":72.67,"20241002":77.81,"20241003":76.1,"20241004":82.34,"20241005":79.14,"20241006":84.06,"20241007":82.08,"20241008":86.09,"20241009":89.64,"20241010":78.11,"20241011":72.36,"20241012":74.53,"20241013":71.2,"20241014":71.12,"20241015":74.07,"20241016":75.25,"20241017":71.38,"20241018":71.67,"20241019":79.02,"20241020":85.61,"20241021":84.76,"20241022":87.58,"20241023":80.75,"20241024":75.87,"20241025":74.35,"20241026":76.37,"20241027":78.24,"20241028":73.52,"20241029":73.85,"20241030":76.8,"20241031":78.2,"20241101":87.87,"20241102":85.16,"20241103":86.57,"20241104":82.61,"20241105":82.57,"20241106":87.6,"20241107":84.79,"20241108":89.41,"20241109":87.94,"20241110":89.61,"20241111":84.34,"20241112":89.74,"20241113":88.54,"20241114":88.11,"20241115":85.74,"20241116":87.84,"20241117":88.67,"20241118":84.44,"20241119":85.16,"20241120":87.29,"20241121":84.59,"20241122":92.55,"20241123":86.22,"20241124":75.19,"20241125":75.78,"20241126":78.25,"20241127":80.86,"20241128":79.34,"20241129":78.36,"20241130":78.22,"20241201":78.63,"20241202":81.37,"20241203":80.17,"20241204":83.24,"20241205":80.44,"20241206":84.12,"20241207":84.07,"20241208":79.26,"20241209":74.13,"20241210":75.34,"20241211":74.48,"20241212":91.27,"20241213":86.51,"20241214":87.77,"20241215":87.85,"20241216":82.68,"20241217":76.07,"20241218":78.04,"20241219":79.23,"20241220":78.95,"20241221":77.97,"20241222":81.85,"20241223":80.1,"20241224":80.47,"20241225":82.08,"20241226":80.84,"20241227":89.82,"20241228":88.29,"20241229":87.92,"20241230":88.21,"20241231":83.23}}},"header":{"title":"NASA/POWER Source Native Resolution Daily Data","api":{"version":"v2.9.6","name":"POWER Daily API"},"sources":["MERRA2","POWER"],"fill_value":-999.0,"time_standard":"UTC","start":"20240101","end":"20241231"},"messages":[],"parameters":{"T2M":{"units":"C","longname":"Temperature at 2 Meters"},"T2M_MAX":{"units":"C","longname":"Temperature at 2 Meters Maximum"},"T2M_MIN":{"units":"C","longname":"Temperature at 2 Meters Minimum"},"PRECTOTCORR":{"units":"mm/day","longname":"Precipitation Corrected"},"WS10M":{"units":"m/s","longname":"Wind Speed at 10 Meters"},"RH2M":{"units":"%","longname":"Relative Humidity at 2 Meters"}},"times":{"data":1.229,"process":0.02}}