{"type":"Feature","geometry":{"type":"Point","coordinates":[139.692,35.69,38.67]},"properties":{"parameter":{"T2M":{"20240101":6.62,"20240102":6.19,"20240103":7.98,"20240104":6.3,"20240105":8.27,"20240106":9.88,"20240107":6.16,"20240108":3.19,"20240109":5.71,"20240110":6.92,"20240111":4.0,"20240112":6.81,"20240113":4.02,"20240114":7.6,"20240115":3.79,"20240116":2.51,"20240117":6.75,"20240118":9.67,"20240119":7.02,"20240120":8.4,"20240121":8.49,"20240122":10.17,"20240123":6.24,"20240124":3.03,"20240125":2.93,"20240126":4.22,"20240127":4.8,"20240128":5.06,"20240129":6.55,"20240130":7.49,"20240131":11.17,"20240201":6.29,"20240202":3.57,"20240203":5.6,"20240204":4.14,"20240205":3.0,"20240206":2.13,"20240207":4.39,"20240208":5.22,"20240209":5.09,"20240210":6.86,"20240211":6.43,"20240212":5.78,"20240213":9.01,"20240214":11.7,"20240215":14.14,"20240216":6.35,"20240217":9.84,"20240218":13.27,"20240219":16.58,"20240220":14.48,"20240221":7.45,"20240222":4.41,"20240223":2.54,"20240224":5.27,"20240225":6.41,"20240226":5.97,"20240227":5.35,"20240228":6.0,"20240229":8.58,"20240301":8.34,"20240302":3.96,"20240303":7.07,"20240304":7.9,"20240305":6.55,"20240306":5.73,"20240307":5.75,"20240308":5.44,"20240309":4.36,"20240310":5.0,"20240311":9.64,"20240312":9.34,"20240313":6.46,"20240314":8.55,"20240315":10.57,"20240316":12.99,"20240317":12.79,"20240318":5.5,"20240319":8.58,"20240320":7.13,"20240321":4.55,"20240322":6.86,"20240323":6.01,"20240324":11.15,"20240325":11.85,"20240326":8.61,"20240327":9.52,"20240328":13.34,"20240329":15.32,"20240330":17.41,"20240331":17.05,"20240401":11.99,"20240402":13.68,"20240403":14.12,"20240404":14.52,"20240405":10.68,"20240406":13.75,"20240407":17.18,"20240408":18.04,"20240409":11.25,"20240410":11.09,"20240411":14.32,"20240412":14.37,"20240413":15.12,"20240414":16.81,"20240415":17.21,"20240416":17.72,"20240417":17.84,"20240418":15.63,"20240419":15.62,"20240420":17.76,"20240421":17.96,"20240422":16.61,"20240423":16.27,"20240424":15.93,"20240425":18.53,"20240426":19.72,"20240427":17.82,"20240428":20.65,"20240429":19.66,"20240430":20.34,"20240501":13.98,"20240502":14.86,"20240503":17.63,"20240504":20.08,"20240505":20.21,"20240506":19.74,"20240507":19.28,"20240508":15.79,"20240509":12.61,"20240510":17.82,"20240511":19.06,"20240512":20.43,"20240513":17.51,"20240514":15.82,"20240515":18.36,"20240516":18.25,"20240517":19.54,"20240518":20.44,"20240519":19.2,"20240520":19.34,"20240521":20.98,"20240522":19.73,"20240523":20.57,"20240524":21.66,"20240525":19.35,"20240526":21.19,"20240527":22.75,"20240528":23.13,"20240529":20.82,"20240530":21.6,"20240531":19.2,"20240601":20.12,"20240602":19.99,"20240603":19.39,"20240604":19.21,"20240605":20.55,"20240606":20.74,"20240607":20.4,"20240608":21.71,"20240609":21.16,"20240610":21.44,"20240611":23.05,"20240612":22.82,"20240613":22.17,"20240614":23.92,"20240615":23.17,"20240616":24.66,"20240617":24.27,"20240618":20.15,"20240619":23.14,"20240620":23.26,"20240621":19.78,"20240622":23.83,"20240623":25.2,"20240624":27.2,"20240625":26.01,"20240626":25.6,"20240627":23.99,"20240628":23.47,"20240629":24.78,"20240630":25.76,"20240701":25.74,"20240702":26.22,"20240703":27.89,"20240704":29.09,"20240705":29.04,"20240706":28.63,"20240707":29.28,"20240708":30.14,"20240709":28.46,"20240710":28.32,"20240711":26.2,"20240712":24.94,"20240713":25.76,"20240714":26.97,"20240715":26.3,"20240716":26.0,"20240717":26.38,"20240718":28.8,"20240719":28.35,"20240720":29.04,"20240721":29.29,"20240722":30.25,"20240723":29.18,"20240724":29.2,"20240725":28.11,"20240726":28.95,"20240727":30.06,"20240728":30.8,"20240729":30.16,"20240730":29.69,"20240731":28.82,"20240801":27.47,"20240802":27.8,"20240803":28.23,"20240804":28.94,"20240805":29.06,"20240806":28.85,"20240807":28.61,"20240808":28.96,"20240809":28.93,"20240810":29.05,"20240811":30.35,"20240812":29.38,"20240813":29.74,"20240814":29.4,"20240815":28.98,"20240816":27.3,"20240817":29.59,"20240818":29.32,"20240819":29.04,"20240820":28.59,"20240821":28.27,"20240822":27.61,"20240823":28.02,"20240824":28.45,"20240825":28.07,"20240826":28.03,"20240827":27.53,"20240828":27.21,"20240829":27.19,"20240830":27.13,"20240831":27.69,"20240901":28.1,"20240902":27.77,"20240903":23.91,"20240904":24.81,"20240905":26.8,"20240906":27.91,"20240907":27.68,"20240908":27.97,"20240909":27.86,"20240910":28.31,"20240911":28.46,"20240912":28.18,"20240913":27.9,"20240914":28.08,"20240915":27.96,"20240916":26.34,"20240917":27.86,"20240918":28.91,"20240919":27.47,"20240920":29.02,"20240921":27.83,"20240922":25.14,"20240923":21.22,"20240924":20.84,"20240925":21.76,"20240926":24.74,"20240927":23.85,"20240928":22.34,"20240929":22.25,"20240930":21.7,"20241001":24.58,"20241002":25.15,"20241003":24.44,"20241004":24.92,"20241005":21.27,"20241006":23.02,"20241007":24.45,"20241008":18.15,"20241009":16.96,"20241010":17.47,"20241011":19.04,"20241012":20.18,"20241013":19.84,"20241014":20.09,"20241015":22.16,"20241016":23.04,"20241017":22.14,"20241018":23.17,"20241019":21.32,"20241020":14.17,"20241021":17.42,"20241022":20.87,"20241023":23.8,"20241024":21.9,"20241025":18.77,"20241026":18.95,"20241027":20.97,"20241028":17.55,"20241029":16.0,"20241030":15.84,"20241031":17.35,"20241101":19.73,"20241102":17.7,"20241103":15.28,"20241104":18.22,"20241105":15.11,"20241106":13.75,"20241107":11.03,"20241108":11.14,"20241109":13.64,"20241110":15.44,"20241111":15.15,"20241112":16.66,"20241113":14.6,"20241114":17.01,"20241115":15.75,"20241116":17.18,"20241117":17.7,"20241118":9.71,"20241119":8.66,"20241120":9.87,"20241121":10.0,"20241122":12.06,"20241123":9.55,"20241124":8.77,"20241125":9.21,"20241126":16.02,"20241127":13.86,"20241128":10.41,"20241129":9.95,"20241130":9.72,"20241201":10.87,"20241202":11.35,"20241203":13.15,"20241204":10.42,"20241205":9.64,"20241206":9.62,"20241207":7.81,"20241208":5.99,"20241209":6.61,"20241210":7.72,"20241211":6.75,"20241212":4.87,"20241213":6.64,"20241214":4.83,"20241215":6.83,"20241216":7.02,"20241217":7.57,"20241218":6.25,"20241219":3.52,"20241220":8.53,"20241221":9.15,"20241222":3.96,"20241223":5.23,"20241224":4.91,"20241225":7.86,"20241226":8.32,"20241227":5.41,"20241228":5.01,"20241229":4.93,"20241230":6.27,"20241231":6.87},"T2M_MAX":{"20240101":11.46,"20240102":12.68,"20240103":9.84,"20240104":12.7,"20240105":14.72,"20240106":15.82,"20240107":10.58,"20240108":8.25,"20240109":11.04,"20240110":12.61,"20240111":7.54,"20240112":13.62,"20240113":10.36,"20240114":10.05,"20240115":10.24,"20240116":5.35,"20240117":11.92,"20240118":14.68,"20240119":12.12,"20240120":11.69,"20240121":13.0,"20240122":14.03,"20240123":12.28,"20240124":7.18,"20240125":8.28,"20240126":9.92,"20240127":10.54,"20240128":9.92,"20240129":10.66,"20240130":12.68,"20240131":14.16,"20240201":14.53,"20240202":8.39,"20240203":9.79,"20240204":8.68,"20240205":5.34,"20240206":4.35,"20240207":8.83,"20240208":10.06,"20240209":10.38,"20240210":11.94,"20240211":10.93,"20240212":9.89,"20240213":14.49,"20240214":17.27,"20240215":18.37,"20240216":11.45,"20240217":13.26,"20240218":17.06,"20240219":18.66,"20240220":21.2,"20240221":11.48,"20240222":6.27,"20240223":4.86,"20240224":8.84,"20240225":8.76,"20240226":11.46,"20240227":9.66,"20240228":12.3,"20240229":12.53,"20240301":14.59,"20240302":8.69,"20240303":11.51,"20240304":13.82,"20240305":9.8,"20240306":8.63,"20240307":10.19,"20240308":8.74,"20240309":8.57,"20240310":10.73,"20240311":12.85,"20240312":13.75,"20240313":12.04,"20240314":13.88,"20240315":15.19,"20240316":17.25,"20240317":18.22,"20240318":10.89,"20240319":12.11,"20240320":14.02,"20240321":8.67,"20240322":10.96,"20240323":8.66,"20240324":13.44,"20240325":14.39,"20240326":12.83,"20240327":14.91,"20240328":15.63,"20240329":19.78,"20240330":22.33,"20240331":23.26,"20240401":18.75,"20240402":17.95,"20240403":16.93,"20240404":19.5,"20240405":12.11,"20240406":16.22,"20240407":21.37,"20240408":20.21,"20240409":20.83,"20240410":15.05,"20240411":17.72,"20240412":16.91,"20240413":20.0,"20240414":23.09,"20240415":23.51,"20240416":20.69,"20240417":23.51,"20240418":19.7,"20240419":20.61,"20240420":23.68,"20240421":22.69,"20240422":19.32,"20240423":20.01,"20240424":19.19,"20240425":24.86,"20240426":24.13,"20240427":21.05,"20240428":26.82,"20240429":23.87,"20240430":24.2,"20240501":18.6,"20240502":19.27,"20240503":22.83,"20240504":26.96,"20240505":25.12,"20240506":22.16,"20240507":21.63,"20240508":23.01,"20240509":17.8,"20240510":22.3,"20240511":22.78,"20240512":22.46,"20240513":23.14,"20240514":20.03,"20240515":22.43,"20240516":23.64,"20240517":24.24,"20240518":26.43,"20240519":24.84,"20240520":22.11,"20240521":26.59,"20240522":23.95,"20240523":24.03,"20240524":27.87,"20240525":23.93,"20240526":24.3,"20240527":24.49,"20240528":25.84,"20240529":25.1,"20240530":25.97,"20240531":21.22,"20240601":24.88,"20240602":23.58,"20240603":23.46,"20240604":23.99,"20240605":24.95,"20240606":24.61,"20240607":24.78,"20240608":26.53,"20240609":24.6,"20240610":24.75,"20240611":27.53,"20240612":27.93,"20240613":26.37,"20240614":30.88,"20240615":27.15,"20240616":28.27,"20240617":31.13,"20240618":24.14,"20240619":28.62,"20240620":27.65,"20240621":25.51,"20240622":27.95,"20240623":27.18,"20240624":32.49,"20240625":30.18,"20240626":30.88,"20240627":27.92,"20240628":25.04,"20240629":28.0,"20240630":27.15,"20240701":28.02,"20240702":31.13,"20240703":32.86,"20240704":34.48,"20240705":35.0,"20240706":33.97,"20240707":33.46,"20240708":35.14,"20240709":32.16,"20240710":32.17,"20240711":28.45,"20240712":27.08,"20240713":29.94,"20240714":30.02,"20240715":29.14,"20240716":29.91,"20240717":30.2,"20240718":33.86,"20240719":31.49,"20240720":33.7,"20240721":34.12,"20240722":36.27,"20240723":33.19,"20240724":32.87,"20240725":30.82,"20240726":31.77,"20240727":35.82,"20240728":35.66,"20240729":36.43,"20240730":35.49,"20240731":33.5,"20240801":31.48,"20240802":32.43,"20240803":33.38,"20240804":34.59,"20240805":33.96,"20240806":33.53,"20240807":32.38,"20240808":33.33,"20240809":33.42,"20240810":32.49,"20240811":34.71,"20240812":32.46,"20240813":34.2,"20240814":34.36,"20240815":33.18,"20240816":31.12,"20240817":34.9,"20240818":32.78,"20240819":32.56,"20240820":33.04,"20240821":32.29,"20240822":30.27,"20240823":31.57,"20240824":32.06,"20240825":32.36,"20240826":31.73,"20240827":30.6,"20240828":31.09,"20240829":29.83,"20240830":28.39,"20240831":30.25,"20240901":30.33,"20240902":30.66,"20240903":26.28,"20240904":27.94,"20240905":30.88,"20240906":32.27,"20240907":32.19,"20240908":32.05,"20240909":31.85,"20240910":32.33,"20240911":32.49,"20240912":32.39,"20240913":31.12,"20240914":31.58,"20240915":31.16,"20240916":31.38,"20240917":31.22,"20240918":33.72,"20240919":29.92,"20240920":32.91,"20240921":30.56,"20240922":29.2,"20240923":24.95,"20240924":24.18,"20240925":24.34,"20240926":28.79,"20240927":25.48,"20240928":24.53,"20240929":24.81,"20240930":24.74,"20241001":26.96,"20241002":29.43,"20241003":26.64,"20241004":28.47,"20241005":24.2,"20241006":26.27,"20241007":28.34,"20241008":21.11,"20241009":19.22,"20241010":20.99,"20241011":22.43,"20241012":24.51,"20241013":24.32,"20241014":24.27,"20241015":26.22,"20241016":25.91,"20241017":25.44,"20241018":25.37,"20241019":27.08,"20241020":17.06,"20241021":20.15,"20241022":23.37,"20241023":25.84,"20241024":25.94,"20241025":21.32,"20241026":21.69,"20241027":23.76,"20241028":20.05,"20241029":18.08,"20241030":21.27,"20241031":19.75,"20241101":23.79,"20241102":22.54,"20241103":19.82,"20241104":22.36,"20241105":17.18,"20241106":18.4,"20241107":16.14,"20241108":15.51,"20241109":16.86,"20241110":17.54,"20241111":20.67,"20241112":21.33,"20241113":18.44,"20241114":19.87,"20241115":18.1,"20241116":19.23,"20241117":23.66,"20241118":14.73,"20241119":11.55,"20241120":11.3,"20241121":12.09,"20241122":17.77,"20241123":14.49,"20241124":13.31,"20241125":13.46,"20241126":19.21,"20241127":19.43,"20241128":15.05,"20241129":15.81,"20241130":15.05,"20241201":16.28,"20241202":16.3,"20241203":17.66,"20241204":15.77,"20241205":14.29,"20241206":15.04,"20241207":11.66,"20241208":11.55,"20241209":11.87,"20241210":12.19,"20241211":13.06,"20241212":9.67,"20241213":9.45,"20241214":10.3,"20241215":11.4,"20241216":11.88,"20241217":13.07,"20241218":10.97,"20241219":6.82,"20241220":10.79,"20241221":13.66,"20241222":9.61,"20241223":9.62,"20241224":10.36,"20241225":10.72,"20241226":14.65,"20241227":10.48,"20241228":9.51,"20241229":11.15,"20241230":9.53,"20241231":14.15},"T2M_MIN":{"20240101":3.71,"20240102":2.26,"20240103":6.55,"20240104":1.19,"20240105":4.68,"20240106":6.02,"20240107":1.31,"20240108":-0.05,"20240109":1.54,"20240110":2.89,"20240111":1.68,"20240112":1.56,"20240113":-0.75,"20240114":5.08,"20240115":-0.29,"20240116":-0.39,"20240117":3.1,"20240118":7.19,"20240119":3.26,"20240120":6.38,"20240121":4.8,"20240122":5.44,"20240123":2.19,"20240124":0.21,"20240125":-0.58,"20240126":0.59,"20240127":0.81,"20240128":0.72,"20240129":2.52,"20240130":1.7,"20240131":8.94,"20240201":1.73,"20240202":0.4,"20240203":2.44,"20240204":1.07,"20240205":1.61,"20240206":-0.61,"20240207":0.38,"20240208":2.27,"20240209":0.57,"20240210":2.17,"20240211":2.79,"20240212":3.01,"20240213":3.67,"20240214":7.93,"20240215":6.84,"20240216":2.35,"20240217":7.69,"20240218":11.1,"20240219":15.72,"20240220":9.5,"20240221":3.01,"20240222":2.92,"20240223":0.98,"20240224":2.73,"20240225":4.64,"20240226":2.48,"20240227":2.33,"20240228":1.57,"20240229":4.73,"20240301":2.56,"20240302":-0.49,"20240303":2.24,"20240304":4.18,"20240305":5.25,"20240306":3.52,"20240307":1.8,"20240308":1.71,"20240309":0.54,"20240310":-0.21,"20240311":7.95,"20240312":5.9,"20240313":1.73,"20240314":3.17,"20240315":6.46,"20240316":9.32,"20240317":5.75,"20240318":1.94,"20240319":6.9,"20240320":2.32,"20240321":0.87,"20240322":4.42,"20240323":4.18,"20240324":9.65,"20240325":9.82,"20240326":4.4,"20240327":5.2,"20240328":11.7,"20240329":11.73,"20240330":14.68,"20240331":11.77,"20240401":6.18,"20240402":11.47,"20240403":12.29,"20240404":10.34,"20240405":9.37,"20240406":11.97,"20240407":14.4,"20240408":16.25,"20240409":5.55,"20240410":8.27,"20240411":12.02,"20240412":11.94,"20240413":11.35,"20240414":12.01,"20240415":12.65,"20240416":15.84,"20240417":13.46,"20240418":11.72,"20240419":12.05,"20240420":14.14,"20240421":15.29,"20240422":13.99,"20240423":14.1,"20240424":13.28,"20240425":12.59,"20240426":17.44,"20240427":13.8,"20240428":16.66,"20240429":17.43,"20240430":18.12,"20240501":11.4,"20240502":10.89,"20240503":13.62,"20240504":14.8,"20240505":17.2,"20240506":18.31,"20240507":16.61,"20240508":10.63,"20240509":7.3,"20240510":14.17,"20240511":16.35,"20240512":18.54,"20240513":13.54,"20240514":11.64,"20240515":15.54,"20240516":13.66,"20240517":15.27,"20240518":16.42,"20240519":15.59,"20240520":17.18,"20240521":15.74,"20240522":16.39,"20240523":17.37,"20240524":16.76,"20240525":16.27,"20240526":19.16,"20240527":21.97,"20240528":18.46,"20240529":17.17,"20240530":19.01,"20240531":17.73,"20240601":17.1,"20240602":16.83,"20240603":14.94,"20240604":14.5,"20240605":16.85,"20240606":17.96,"20240607":16.34,"20240608":17.34,"20240609":17.81,"20240610":19.31,"20240611":19.65,"20240612":19.37,"20240613":19.29,"20240614":18.63,"20240615":21.08,"20240616":22.51,"20240617":21.03,"20240618":17.78,"20240619":18.67,"20240620":21.01,"20240621":17.1,"20240622":20.41,"20240623":23.57,"20240624":23.08,"20240625":23.17,"20240626":22.44,"20240627":21.51,"20240628":21.93,"20240629":22.45,"20240630":24.23,"20240701":24.01,"20240702":23.11,"20240703":24.9,"20240704":25.49,"20240705":25.55,"20240706":25.07,"20240707":25.92,"20240708":25.5,"20240709":25.3,"20240710":26.55,"20240711":24.81,"20240712":21.68,"20240713":23.05,"20240714":24.89,"20240715":23.93,"20240716":23.89,"20240717":23.5,"20240718":25.71,"20240719":26.72,"20240720":25.93,"20240721":26.41,"20240722":25.78,"20240723":26.97,"20240724":26.56,"20240725":26.24,"20240726":26.5,"20240727":26.08,"20240728":26.77,"20240729":25.88,"20240730":25.78,"20240731":25.4,"20240801":24.2,"20240802":24.07,"20240803":24.5,"20240804":24.87,"20240805":25.64,"20240806":25.98,"20240807":25.37,"20240808":25.39,"20240809":25.75,"20240810":26.43,"20240811":27.58,"20240812":26.87,"20240813":26.69,"20240814":25.76,"20240815":26.96,"20240816":25.89,"20240817":26.4,"20240818":27.1,"20240819":26.26,"20240820":25.31,"20240821":25.81,"20240822":26.0,"20240823":25.9,"20240824":25.95,"20240825":25.33,"20240826":25.8,"20240827":25.53,"20240828":24.59,"20240829":25.89,"20240830":26.22,"20240831":25.86,"20240901":26.78,"20240902":25.42,"20240903":21.91,"20240904":22.63,"20240905":24.1,"20240906":24.5,"20240907":24.82,"20240908":24.92,"20240909":25.0,"20240910":25.6,"20240911":25.99,"20240912":25.49,"20240913":26.01,"20240914":25.84,"20240915":25.68,"20240916":22.57,"20240917":26.18,"20240918":26.23,"20240919":25.64,"20240920":27.12,"20240921":26.13,"20240922":21.39,"20240923":18.29,"20240924":18.49,"20240925":19.99,"20240926":22.55,"20240927":22.53,"20240928":20.86,"20240929":20.52,"20240930":19.2,"20241001":22.98,"20241002":21.03,"20241003":22.26,"20241004":21.27,"20241005":19.58,"20241006":21.08,"20241007":20.05,"20241008":17.06,"20241009":14.8,"20241010":14.48,"20241011":16.15,"20241012":17.26,"20241013":16.39,"20241014":17.22,"20241015":19.6,"20241016":20.81,"20241017":20.44,"20241018":21.85,"20241019":14.58,"20241020":12.12,"20241021":15.61,"20241022":19.17,"20241023":20.26,"20241024":19.4,"20241025":17.23,"20241026":16.39,"20241027":18.96,"20241028":15.35,"20241029":14.61,"20241030":12.01,"20241031":14.93,"20241101":17.46,"20241102":14.04,"20241103":11.56,"20241104":14.19,"20241105":11.91,"20241106":10.49,"20241107":7.62,"20241108":7.14,"20241109":11.59,"20241110":13.31,"20241111":10.93,"20241112":12.98,"20241113":12.26,"20241114":14.84,"20241115":13.9,"20241116":15.95,"20241117":12.09,"20241118":5.82,"20241119":7.2,"20241120":8.97,"20241121":7.84,"20241122":7.37,"20241123":5.82,"20241124":4.91,"20241125":5.88,"20241126":11.47,"20241127":9.79,"20241128":7.35,"20241129":6.07,"20241130":5.4,"20241201":6.61,"20241202":6.07,"20241203":8.89,"20241204":6.61,"20241205":4.97,"20241206":5.12,"20241207":5.05,"20241208":1.95,"20241209":3.75,"20241210":3.36,"20241211":1.7,"20241212":1.63,"20241213":3.14,"20241214":1.06,"20241215":3.06,"20241216":2.3,"20241217":2.64,"20241218":3.2,"20241219":0.67,"20241220":6.2,"20241221":4.53,"20241222":0.07,"20241223":1.32,"20241224":1.34,"20241225":5.83,"20241226":2.53,"20241227":1.83,"20241228":1.21,"20241229":0.95,"20241230":3.96,"20241231":1.47},"PRECTOTCORR":{"20240101":0.03,"20240102":0.71,"20240103":1.29,"20240104":0.0,"20240105":0.0,"20240106":0.0,"20240107":0.06,"20240108":0.0,"20240109":0.0,"20240110":0.21,"20240111":0.12,"20240112":0.0,"20240113":2.64,"20240114":0.05,"20240115":0.01,"20240116":0.0,"20240117":0.0,"20240118":0.04,"20240119":0.05,"20240120":24.69,"20240121":13.66,"20240122":1.38,"20240123":0.83,"20240124":0.01,"20240125":0.0,"20240126":0.0,"20240127":0.0,"20240128":0.01,"20240129":0.01,"20240130":0.0,"20240131":2.13,"20240201":0.0,"20240202":0.0,"20240203":5.36,"20240204":0.89,"20240205":27.49,"20240206":4.59,"20240207":0.07,"20240208":0.05,"20240209":0.05,"20240210":0.0,"20240211":0.85,"20240212":0.02,"20240213":0.0,"20240214":0.0,"20240215":2.73,"20240216":0.0,"20240217":0.04,"20240218":0.18,"20240219":4.23,"20240220":0.78,"20240221":16.3,"20240222":11.26,"20240223":5.15,"20240224":0.28,"20240225":13.29,"20240226":0.0,"20240227":0.0,"20240228":0.0,"20240229":22.84,"20240301":0.1,"20240302":0.02,"20240303":0.0,"20240304":0.0,"20240305":28.59,"20240306":3.18,"20240307":19.58,"20240308":1.19,"20240309":0.0,"20240310":0.0,"20240311":0.09,"20240312":42.16,"20240313":0.0,"20240314":0.0,"20240315":0.0,"20240316":0.06,"20240317":0.19,"20240318":0.0,"20240319":0.09,"20240320":1.04,"20240321":0.0,"20240322":0.1,"20240323":7.57,"20240324":7.05,"20240325":10.73,"20240326":30.15,"20240327":0.06,"20240328":14.09,"20240329":14.69,"20240330":0.01,"20240331":8.41,"20240401":0.28,"20240402":0.02,"20240403":22.43,"20240404":1.95,"20240405":5.23,"20240406":11.93,"20240407":1.47,"20240408":19.65,"20240409":22.34,"20240410":0.0,"20240411":0.41,"20240412":3.31,"20240413":0.03,"20240414":0.0,"20240415":0.0,"20240416":4.67,"20240417":0.61,"20240418":5.49,"20240419":0.0,"20240420":0.01,"20240421":10.35,"20240422":2.13,"20240423":5.42,"20240424":10.7,"20240425":0.0,"20240426":0.85,"20240427":0.82,"20240428":0.01,"20240429":2.24,"20240430":4.81,"20240501":29.04,"20240502":0.03,"20240503":0.0,"20240504":0.01,"20240505":0.0,"20240506":0.35,"20240507":12.49,"20240508":6.37,"20240509":0.75,"20240510":0.0,"20240511":0.04,"20240512":5.19,"20240513":49.56,"20240514":0.01,"20240515":26.7,"20240516":0.23,"20240517":0.02,"20240518":0.16,"20240519":20.05,"20240520":10.34,"20240521":0.1,"20240522":0.01,"20240523":0.02,"20240524":0.0,"20240525":0.01,"20240526":0.48,"20240527":4.67,"20240528":30.54,"20240529":0.1,"20240530":29.42,"20240531":13.24,"20240601":2.52,"20240602":22.27,"20240603":3.1,"20240604":1.83,"20240605":0.0,"20240606":0.0,"20240607":0.02,"20240608":0.0,"20240609":8.44,"20240610":0.47,"20240611":0.01,"20240612":0.28,"20240613":0.27,"20240614":0.05,"20240615":21.32,"20240616":0.32,"20240617":23.37,"20240618":87.3,"20240619":0.0,"20240620":4.51,"20240621":58.49,"20240622":13.85,"20240623":10.11,"20240624":0.18,"20240625":2.82,"20240626":0.35,"20240627":24.41,"20240628":44.44,"20240629":1.98,"20240630":0.73,"20240701":9.02,"20240702":0.56,"20240703":0.21,"20240704":0.28,"20240705":1.85,"20240706":1.61,"20240707":0.23,"20240708":0.31,"20240709":0.19,"20240710":0.78,"20240711":5.6,"20240712":17.65,"20240713":8.57,"20240714":2.47,"20240715":11.5,"20240716":12.24,"20240717":15.05,"20240718":0.8,"20240719":3.77,"20240720":12.26,"20240721":2.39,"20240722":0.28,"20240723":1.67,"20240724":1.03,"20240725":2.31,"20240726":2.43,"20240727":0.87,"20240728":0.01,"20240729":1.25,"20240730":10.8,"20240731":4.14,"20240801":0.43,"20240802":0.09,"20240803":0.07,"20240804":0.33,"20240805":0.51,"20240806":3.42,"20240807":5.26,"20240808":2.62,"20240809":1.39,"20240810":1.61,"20240811":3.94,"20240812":0.57,"20240813":0.94,"20240814":0.88,"20240815":14.68,"20240816":64.66,"20240817":5.63,"20240818":3.74,"20240819":10.33,"20240820":2.25,"20240821":8.6,"20240822":4.62,"20240823":0.75,"20240824":1.51,"20240825":2.0,"20240826":10.75,"20240827":9.14,"20240828":2.76,"20240829":129.06,"20240830":32.21,"20240831":25.55,"20240901":23.37,"20240902":26.61,"20240903":68.67,"20240904":0.85,"20240905":0.06,"20240906":0.02,"20240907":0.04,"20240908":1.2,"20240909":2.73,"20240910":0.78,"20240911":0.47,"20240912":0.5,"20240913":0.52,"20240914":2.78,"20240915":2.1,"20240916":8.62,"20240917":4.03,"20240918":5.77,"20240919":3.6,"20240920":0.99,"20240921":2.61,"20240922":29.62,"20240923":0.62,"20240924":0.03,"20240925":5.51,"20240926":6.06,"20240927":25.16,"20240928":1.18,"20240929":1.54,"20240930":2.14,"20241001":2.69,"20241002":9.19,"20241003":16.92,"20241004":11.66,"20241005":10.2,"20241006":3.36,"20241007":4.64,"20241008":65.56,"20241009":54.19,"20241010":1.77,"20241011":0.04,"20241012":0.26,"20241013":0.01,"20241014":0.07,"20241015":0.04,"20241016":2.4,"20241017":5.57,"20241018":15.14,"20241019":9.19,"20241020":0.01,"20241021":0.43,"20241022":0.58,"20241023":3.13,"20241024":0.67,"20241025":0.07,"20241026":0.06,"20241027":12.52,"20241028":1.43,"20241029":39.04,"20241030":2.6,"20241031":0.05,"20241101":14.18,"20241102":53.32,"20241103":0.0,"20241104":0.04,"20241105":2.82,"20241106":0.45,"20241107":0.0,"20241108":0.0,"20241109":1.66,"20241110":10.16,"20241111":0.03,"20241112":0.29,"20241113":0.01,"20241114":12.27,"20241115":3.84,"20241116":2.41,"20241117":1.57,"20241118":0.05,"20241119":0.5,"20241120":21.45,"20241121":0.92,"20241122":0.01,"20241123":0.08,"20241124":0.07,"20241125":0.01,"20241126":32.81,"20241127":0.41,"20241128":0.0,"20241129":0.16,"20241130":0.0,"20241201":0.02,"20241202":0.01,"20241203":0.0,"20241204":0.01,"20241205":0.0,"20241206":0.0,"20241207":0.01,"20241208":0.01,"20241209":0.02,"20241210":0.0,"20241211":0.0,"20241212":0.0,"20241213":0.85,"20241214":0.0,"20241215":0.0,"20241216":0.0,"20241217":0.0,"20241218":0.31,"20241219":0.09,"20241220":0.21,"20241221":1.31,"20241222":0.0,"20241223":0.0,"20241224":0.0,"20241225":0.57,"20241226":0.0,"20241227":0.06,"20241228":0.05,"20241229":0.0,"20241230":0.0,"20241231":0.0},"WS10M":{"20240101":4.5,"20240102":2.26,"20240103":2.23,"20240104":5.1,"20240105":3.17,"20240106":4.41,"20240107":4.73,"20240108":4.01,"20240109":3.42,"20240110":5.52,"20240111":3.97,"20240112":3.64,"20240113":4.24,"20240114":5.37,"20240115":6.18,"20240116":5.88,"20240117":2.24,"20240118":3.43,"20240119":4.87,"20240120":4.18,"20240121":5.17,"20240122":3.43,"20240123":4.13,"20240124":6.15,"20240125":5.58,"20240126":5.73,"20240127":4.14,"20240128":3.64,"20240129":2.54,"20240130":2.15,"20240131":4.36,"20240201":6.87,"20240202":4.02,"20240203":3.21,"20240204":3.78,"20240205":7.12,"20240206":5.03,"20240207":2.73,"20240208":4.05,"20240209":3.63,"20240210":3.16,"20240211":3.47,"20240212":3.52,"20240213":5.22,"20240214":2.59,"20240215":9.46,"20240216":5.47,"20240217":2.53,"20240218":3.93,"20240219":9.16,"20240220":4.84,"20240221":5.68,"20240222":6.49,"20240223":5.8,"20240224":3.87,"20240225":5.64,"20240226":8.23,"20240227":8.33,"20240228":4.89,"20240229":3.33,"20240301":5.36,"20240302":4.4,"20240303":3.93,"20240304":4.45,"20240305":5.48,"20240306":6.87,"20240307":4.26,"20240308":3.35,"20240309":6.32,"20240310":4.26,"20240311":3.54,"20240312":6.19,"20240313":5.25,"20240314":3.46,"20240315":4.34,"20240316":4.35,"20240317":8.12,"20240318":7.21,"20240319":4.41,"20240320":9.04,"20240321":5.84,"20240322":3.28,"20240323":2.1,"20240324":2.85,"20240325":3.21,"20240326":7.17,"20240327":2.94,"20240328":7.54,"20240329":6.56,"20240330":4.42,"20240331":4.66,"20240401":2.99,"20240402":2.49,"20240403":4.12,"20240404":3.26,"20240405":3.68,"20240406":2.21,"20240407":1.66,"20240408":4.85,"20240409":8.37,"20240410":3.13,"20240411":2.86,"20240412":4.55,"20240413":3.1,"20240414":2.43,"20240415":3.77,"20240416":6.3,"20240417":3.2,"20240418":5.44,"20240419":5.07,"20240420":3.2,"20240421":2.3,"20240422":3.89,"20240423":3.85,"20240424":3.94,"20240425":2.86,"20240426":2.71,"20240427":2.37,"20240428":3.12,"20240429":4.35,"20240430":2.77,"20240501":6.96,"20240502":3.67,"20240503":2.94,"20240504":3.24,"20240505":5.84,"20240506":7.31,"20240507":5.98,"20240508":5.44,"20240509":2.93,"20240510":5.02,"20240511":6.46,"20240512":7.25,"20240513":6.12,"20240514":3.81,"20240515":3.14,"20240516":7.16,"20240517":2.7,"20240518":2.5,"20240519":2.41,"20240520":1.77,"20240521":3.32,"20240522":3.08,"20240523":3.47,"20240524":3.67,"20240525":3.22,"20240526":5.1,"20240527":7.58,"20240528":8.78,"20240529":2.54,"20240530":3.15,"20240531":3.27,"20240601":3.28,"20240602":3.33,"20240603":2.89,"20240604":3.39,"20240605":2.51,"20240606":3.2,"20240607":2.76,"20240608":2.89,"20240609":3.69,"20240610":2.29,"20240611":3.67,"20240612":2.67,"20240613":1.86,"20240614":3.03,"20240615":3.32,"20240616":2.95,"20240617":2.33,"20240618":3.05,"20240619":2.9,"20240620":4.63,"20240621":4.88,"20240622":5.38,"20240623":6.28,"20240624":2.43,"20240625":3.43,"20240626":2.42,"20240627":2.73,"20240628":4.88,"20240629":3.13,"20240630":9.31,"20240701":5.08,"20240702":2.35,"20240703":2.48,"20240704":2.24,"20240705":2.05,"20240706":2.17,"20240707":2.43,"20240708":2.1,"20240709":4.25,"20240710":7.65,"20240711":4.68,"20240712":3.69,"20240713":2.73,"20240714":3.66,"20240715":1.95,"20240716":2.61,"20240717":0.99,"20240718":3.6,"20240719":4.75,"20240720":2.62,"20240721":3.14,"20240722":1.43,"20240723":3.61,"20240724":2.18,"20240725":2.94,"20240726":2.09,"20240727":1.45,"20240728":2.3,"20240729":2.84,"20240730":1.88,"20240731":2.79,"20240801":2.95,"20240802":2.15,"20240803":1.94,"20240804":1.99,"20240805":1.8,"20240806":2.07,"20240807":1.88,"20240808":2.08,"20240809":4.18,"20240810":3.23,"20240811":2.86,"20240812":5.01,"20240813":3.65,"20240814":2.68,"20240815":4.87,"20240816":9.12,"20240817":2.7,"20240818":2.42,"20240819":2.34,"20240820":2.93,"20240821":2.77,"20240822":4.72,"20240823":5.22,"20240824":4.71,"20240825":4.75,"20240826":4.52,"20240827":5.47,"20240828":3.55,"20240829":5.11,"20240830":5.29,"20240831":4.76,"20240901":4.98,"20240902":5.43,"20240903":5.29,"20240904":4.25,"20240905":2.21,"20240906":1.97,"20240907":3.49,"20240908":2.31,"20240909":2.57,"20240910":3.21,"20240911":3.68,"20240912":4.25,"20240913":5.9,"20240914":6.02,"20240915":5.4,"20240916":2.74,"20240917":3.72,"20240918":0.91,"20240919":1.91,"20240920":5.25,"20240921":6.85,"20240922":6.87,"20240923":6.49,"20240924":5.98,"20240925":6.26,"20240926":2.04,"20240927":2.4,"20240928":4.1,"20240929":4.15,"20240930":4.32,"20241001":4.04,"20241002":4.2,"20241003":5.18,"20241004":4.61,"20241005":4.33,"20241006":2.54,"20241007":5.37,"20241008":6.64,"20241009":7.02,"20241010":5.01,"20241011":2.54,"20241012":3.31,"20241013":4.24,"20241014":3.18,"20241015":2.64,"20241016":2.39,"20241017":3.65,"20241018":2.86,"20241019":6.86,"20241020":5.82,"20241021":3.75,"20241022":2.71,"20241023":5.52,"20241024":3.44,"20241025":4.27,"20241026":2.94,"20241027":2.66,"20241028":4.43,"20241029":5.46,"20241030":5.18,"20241031":1.56,"20241101":1.59,"20241102":4.78,"20241103":3.41,"20241104":4.26,"20241105":4.61,"20241106":3.99,"20241107":5.62,"20241108":3.37,"20241109":3.56,"20241110":2.18,"20241111":3.42,"20241112":3.26,"20241113":4.22,"20241114":2.01,"20241115":3.33,"20241116":3.51,"20241117":4.06,"20241118":6.34,"20241119":4.3,"20241120":4.94,"20241121":2.58,"20241122":4.04,"20241123":5.21,"20241124":4.22,"20241125":2.87,"20241126":5.29,"20241127":5.44,"20241128":5.82,"20241129":4.02,"20241130":3.42,"20241201":2.57,"20241202":2.01,"20241203":3.64,"20241204":3.95,"20241205":3.02,"20241206":4.1,"20241207":2.04,"20241208":4.52,"20241209":3.7,"20241210":2.33,"20241211":4.91,"20241212":3.9,"20241213":3.16,"20241214":4.39,"20241215":4.21,"20241216":2.21,"20241217":2.93,"20241218":5.04,"20241219":4.31,"20241220":3.75,"20241221":5.6,"20241222":5.73,"20241223":3.78,"20241224":4.13,"20241225":3.04,"20241226":3.52,"20241227":2.98,"20241228":2.65,"20241229":3.71,"20241230":2.48,"20241231":5.71},"RH2M":{"20240101":75.1,"20240102":90.76,"20240103":84.2,"20240104":76.92,"20240105":75.62,"20240106":73.73,"20240107":67.06,"20240108":69.16,"20240109":73.07,"20240110":71.6,"20240111":75.91,"20240112":74.08,"20240113":73.0,"20240114":68.04,"20240115":64.98,"20240116":61.1,"20240117":74.37,"20240118":76.0,"20240119":78.22,"20240120":88.02,"20240121":91.0,"20240122":84.12,"20240123":67.36,"20240124":57.45,"20240125":62.61,"20240126":66.7,"20240127":71.95,"20240128":75.21,"20240129":63.51,"20240130":70.62,"20240131":82.49,"20240201":64.25,"20240202":68.95,"20240203":70.09,"20240204":79.82,"20240205":92.44,"20240206":90.72,"20240207":71.82,"20240208":75.7,"20240209":80.04,"20240210":72.33,"20240211":71.29,"20240212":71.41,"20240213":74.02,"20240214":77.53,"20240215":76.15,"20240216":69.91,"20240217":77.5,"20240218":78.04,"20240219":81.75,"20240220":75.55,"20240221":86.42,"20240222":87.51,"20240223":86.22,"20240224":73.99,"20240225":88.94,"20240226":66.98,"20240227":66.61,"20240228":68.48,"20240229":81.13,"20240301":69.37,"20240302":62.54,"20240303":64.13,"20240304":66.02,"20240305":89.14,"20240306":85.39,"20240307":78.19,"20240308":81.94,"20240309":65.56,"20240310":68.66,"20240311":72.93,"20240312":85.88,"20240313":66.94,"20240314":69.09,"20240315":66.94,"20240316":73.5,"20240317":73.17,"20240318":61.87,"20240319":69.31,"20240320":62.15,"20240321":63.69,"20240322":60.92,"20240323":94.31,"20240324":90.11,"20240325":91.05,"20240326":87.67,"20240327":68.54,"20240328":78.4,"20240329":92.45,"20240330":75.86,"20240331":81.41,"20240401":72.08,"20240402":74.57,"20240403":90.71,"20240404":80.24,"20240405":86.68,"20240406":91.1,"20240407":87.09,"20240408":91.08,"20240409":78.35,"20240410":70.54,"20240411":76.79,"20240412":88.61,"20240413":84.8,"20240414":80.56,"20240415":78.26,"20240416":82.17,"20240417":81.79,"20240418":82.12,"20240419":65.69,"20240420":73.57,"20240421":85.15,"20240422":87.98,"20240423":81.82,"20240424":88.78,"20240425":76.36,"20240426":83.28,"20240427":86.89,"20240428":80.55,"20240429":84.87,"20240430":86.16,"20240501":86.37,"20240502":74.78,"20240503":76.83,"20240504":74.26,"20240505":76.71,"20240506":83.8,"20240507":91.7,"20240508":78.69,"20240509":73.16,"20240510":74.85,"20240511":77.16,"20240512":83.7,"20240513":89.31,"20240514":79.89,"20240515":80.74,"20240516":75.89,"20240517":73.97,"20240518":79.37,"20240519":83.02,"20240520":81.51,"20240521":73.92,"20240522":78.36,"20240523":85.92,"20240524":72.46,"20240525":72.03,"20240526":82.5,"20240527":89.96,"20240528":86.51,"20240529":76.36,"20240530":83.45,"20240531":87.05,"20240601":80.11,"20240602":83.38,"20240603":79.19,"20240604":77.69,"20240605":72.86,"20240606":79.28,"20240607":77.18,"20240608":76.86,"20240609":81.74,"20240610":78.58,"20240611":81.79,"20240612":81.71,"20240613":85.27,"20240614":79.25,"20240615":81.36,"20240616":83.33,"20240617":82.37,"20240618":88.23,"20240619":75.42,"20240620":83.06,"20240621":86.2,"20240622":83.06,"20240623":92.79,"20240624":81.3,"20240625":83.47,"20240626":78.71,"20240627":83.73,"20240628":92.8,"20240629":85.17,"20240630":86.98,"20240701":91.22,"20240702":82.67,"20240703":81.74,"20240704":82.62,"20240705":79.52,"20240706":83.21,"20240707":83.69,"20240708":78.4,"20240709":82.81,"20240710":83.1,"20240711":91.33,"20240712":88.72,"20240713":80.18,"20240714":87.38,"20240715":90.12,"20240716":88.31,"20240717":86.84,"20240718":80.47,"20240719":86.07,"20240720":85.01,"20240721":81.38,"20240722":77.69,"20240723":84.62,"20240724":80.7,"20240725":85.99,"20240726":83.55,"20240727":76.45,"20240728":72.95,"20240729":74.32,"20240730":75.88,"20240731":80.91,"20240801":80.13,"20240802":76.75,"20240803":75.88,"20240804":76.32,"20240805":76.2,"20240806":81.82,"20240807":82.72,"20240808":79.31,"20240809":80.13,"20240810":78.94,"20240811":78.04,"20240812":83.15,"20240813":80.94,"20240814":78.84,"20240815":82.49,"20240816":86.76,"20240817":82.28,"20240818":84.31,"20240819":86.4,"20240820":82.7,"20240821":82.9,"20240822":85.39,"20240823":82.45,"20240824":84.09,"20240825":82.17,"20240826":84.16,"20240827":85.27,"20240828":84.58,"20240829":88.23,"20240830":93.0,"20240831":91.11,"20240901":90.01,"20240902":90.13,"20240903":88.7,"20240904":85.48,"20240905":82.46,"20240906":82.44,"20240907":83.28,"20240908":83.39,"20240909":84.33,"20240910":84.0,"20240911":84.84,"20240912":83.31,"20240913":84.44,"20240914":84.3,"20240915":84.04,"20240916":86.6,"20240917":84.49,"20240918":83.75,"20240919":90.84,"20240920":83.22,"20240921":85.96,"20240922":88.83,"20240923":80.57,"20240924":79.13,"20240925":87.27,"20240926":85.43,"20240927":94.62,"20240928":88.21,"20240929":87.32,"20240930":83.3,"20241001":90.08,"20241002":87.14,"20241003":89.92,"20241004":89.24,"20241005":91.19,"20241006":89.74,"20241007":87.38,"20241008":90.19,"20241009":90.03,"20241010":85.97,"20241011":83.03,"20241012":83.99,"20241013":83.94,"20241014":80.35,"20241015":81.02,"20241016":86.62,"20241017":89.06,"20241018":93.24,"20241019":82.72,"20241020":74.88,"20241021":79.03,"20241022":84.5,"20241023":90.15,"20241024":85.24,"20241025":85.38,"20241026":88.76,"20241027":88.07,"20241028":82.27,"20241029":88.35,"20241030":83.62,"20241031":75.78,"20241101":87.97,"20241102":92.4,"20241103":77.66,"20241104":82.49,"20241105":86.63,"20241106":82.35,"20241107":73.39,"20241108":76.21,"20241109":79.51,"20241110":92.23,"20241111":88.12,"20241112":85.3,"20241113":78.18,"20241114":83.18,"20241115":93.26,"20241116":89.29,"20241117":85.59,"20241118":72.81,"20241119":75.81,"20241120":92.42,"20241121":90.45,"20241122":75.57,"20241123":76.2,"20241124":78.7,"20241125":75.72,"20241126":86.56,"20241127":75.51,"20241128":71.04,"20241129":73.42,"20241130":73.53,"20241201":76.4,"20241202":77.3,"20241203":80.16,"20241204":78.83,"20241205":73.38,"20241206":73.14,"20241207":75.78,"20241208":75.75,"20241209":75.26,"20241210":70.98,"20241211":75.32,"20241212":70.19,"20241213":81.67,"20241214":72.22,"20241215":72.64,"20241216":74.58,"20241217":73.36,"20241218":76.38,"20241219":77.13,"20241220":75.08,"20241221":77.08,"20241222":69.99,"20241223":71.1,"20241224":72.12,"20241225":76.79,"20241226":75.97,"20241227":73.87,"20241228":74.12,"20241229":73.61,"20241230":74.09,"20241231":73.63}}},"header":{"title":"NASA/POWER Source Native Resolution Daily Data","api":{"version":"v2.9.6","name":"POWER Daily API"},"sources":["MERRA2","POWER"],"fill_value":-999.0,"time_standard":"UTC","start":"20240101","end":"20241231"},"messages":[],"parameters":{"T2M":{"units":"C","longname":"Temperature at 2 Meters"},"T2M_MAX":{"units":"C","longname":"Temperature at 2 Meters Maximum"},"T2M_MIN":{"units":"C","longname":"Temperature at 2 Meters Minimum"},"PRECTOTCORR":{"units":"mm/day","longname":"Precipitation Corrected"},"WS10M":{"units":"m/s","longname":"Wind Speed at 10 Meters"},"RH2M":{"units":"%","longname":"Relative Humidity at 2 Meters"}},"times":{"data":0.867,"process":0.01}}