{"type":"Feature","geometry":{"type":"Point","coordinates":[90.407,23.71,6.64]},"properties":{"parameter":{"T2M":{"20240101":17.7,"20240102":16.5,"20240103":16.99,"20240104":17.03,"20240105":16.99,"20240106":17.96,"20240107":17.74,"20240108":17.55,"20240109":16.16,"20240110":16.8,"20240111":15.89,"20240112":15.15,"20240113":14.9,"20240114":15.95,"20240115":15.84,"20240116":15.65,"20240117":15.85,"20240118":17.02,"20240119":17.02,"20240120":15.58,"20240121":14.9,"20240122":13.78,"20240123":15.78,"20240124":15.61,"20240125":16.33,"20240126":15.05,"20240127":14.68,"20240128":15.13,"20240129":16.74,"20240130":18.48,"20240131":19.93,"20240201":19.72,"20240202":19.74,"20240203":19.38,"20240204":19.02,"20240205":20.68,"20240206":21.52,"20240207":19.33,"20240208":17.46,"20240209":16.39,"20240210":17.65,"20240211":19.0,"20240212":20.26,"20240213":21.12,"20240214":21.97,"20240215":21.82,"20240216":21.14,"20240217":21.34,"20240218":20.61,"20240219":21.34,"20240220":23.1,"20240221":24.74,"20240222":24.35,"20240223":22.02,"20240224":22.15,"20240225":20.4,"20240226":20.77,"20240227":21.95,"20240228":22.96,"20240229":22.56,"20240301":21.92,"20240302":23.2,"20240303":24.21,"20240304":23.44,"20240305":24.14,"20240306":23.36,"20240307":23.56,"20240308":24.07,"20240309":23.22,"20240310":22.02,"20240311":24.2,"20240312":24.98,"20240313":26.28,"20240314":26.69,"20240315":26.64,"20240316":27.35,"20240317":28.19,"20240318":28.2,"20240319":27.36,"20240320":23.84,"20240321":23.91,"20240322":23.83,"20240323":25.4,"20240324":26.73,"20240325":26.47,"20240326":26.72,"20240327":27.69,"20240328":27.01,"20240329":27.16,"20240330":28.24,"20240331":28.34,"20240401":28.71,"20240402":29.21,"20240403":29.3,"20240404":29.6,"20240405":29.31,"20240406":30.35,"20240407":29.7,"20240408":29.57,"20240409":29.98,"20240410":29.6,"20240411":28.99,"20240412":30.16,"20240413":30.26,"20240414":31.58,"20240415":31.46,"20240416":31.54,"20240417":31.09,"20240418":30.58,"20240419":31.47,"20240420":32.13,"20240421":32.22,"20240422":31.69,"20240423":31.86,"20240424":32.36,"20240425":32.81,"20240426":32.8,"20240427":32.81,"20240428":33.26,"20240429":33.22,"20240430":33.56,"20240501":33.18,"20240502":31.55,"20240503":32.02,"20240504":31.08,"20240505":30.12,"20240506":28.5,"20240507":27.58,"20240508":26.33,"20240509":28.68,"20240510":28.25,"20240511":27.43,"20240512":28.36,"20240513":28.92,"20240514":29.8,"20240515":29.42,"20240516":30.11,"20240517":30.57,"20240518":29.48,"20240519":29.63,"20240520":29.97,"20240521":30.5,"20240522":31.02,"20240523":31.64,"20240524":32.41,"20240525":31.53,"20240526":29.65,"20240527":28.36,"20240528":28.79,"20240529":29.93,"20240530":29.62,"20240531":29.57,"20240601":29.77,"20240602":29.45,"20240603":28.76,"20240604":28.68,"20240605":29.69,"20240606":29.7,"20240607":29.71,"20240608":29.58,"20240609":29.13,"20240610":29.1,"20240611":28.87,"20240612":29.52,"20240613":29.07,"20240614":29.36,"20240615":29.57,"20240616":29.9,"20240617":29.33,"20240618":29.45,"20240619":28.71,"20240620":28.56,"20240621":29.28,"20240622":28.61,"20240623":29.57,"20240624":29.17,"20240625":29.28,"20240626":30.05,"20240627":28.54,"20240628":29.1,"20240629":29.1,"20240630":28.51,"20240701":28.01,"20240702":28.46,"20240703":28.14,"20240704":28.33,"20240705":28.35,"20240706":28.49,"20240707":28.97,"20240708":28.68,"20240709":29.18,"20240710":29.17,"20240711":29.24,"20240712":28.66,"20240713":29.03,"20240714":29.25,"20240715":29.2,"20240716":28.96,"20240717":29.21,"20240718":29.82,"20240719":29.3,"20240720":29.02,"20240721":28.69,"20240722":28.54,"20240723":28.65,"20240724":29.26,"20240725":29.5,"20240726":29.55,"20240727":29.3,"20240728":29.38,"20240729":29.16,"20240730":29.04,"20240731":28.69,"20240801":27.72,"20240802":27.57,"20240803":28.0,"20240804":28.65,"20240805":28.2,"20240806":28.19,"20240807":28.06,"20240808":27.57,"20240809":28.17,"20240810":28.93,"20240811":28.65,"20240812":28.59,"20240813":29.11,"20240814":28.81,"20240815":28.32,"20240816":27.98,"20240817":27.69,"20240818":27.41,"20240819":27.51,"20240820":28.46,"20240821":27.95,"20240822":27.68,"20240823":27.17,"20240824":27.3,"20240825":26.79,"20240826":26.94,"20240827":27.89,"20240828":28.39,"20240829":28.72,"20240830":28.31,"20240831":27.94,"20240901":28.48,"20240902":28.55,"20240903":27.48,"20240904":28.46,"20240905":27.7,"20240906":29.22,"20240907":28.77,"20240908":28.98,"20240909":28.68,"20240910":28.54,"20240911":28.9,"20240912":29.71,"20240913":28.79,"20240914":26.86,"20240915":26.42,"20240916":27.73,"20240917":29.04,"20240918":29.16,"20240919":29.32,"20240920":30.2,"20240921":28.75,"20240922":29.96,"20240923":29.08,"20240924":28.02,"20240925":26.68,"20240926":26.71,"20240927":27.48,"20240928":28.32,"20240929":28.94,"20240930":28.86,"20241001":29.6,"20241002":28.75,"20241003":27.71,"20241004":27.55,"20241005":27.56,"20241006":27.74,"20241007":27.77,"20241008":28.04,"20241009":27.73,"20241010":27.35,"20241011":27.69,"20241012":28.23,"20241013":27.4,"20241014":26.93,"20241015":27.08,"20241016":27.86,"20241017":27.38,"20241018":27.52,"20241019":27.69,"20241020":26.13,"20241021":26.34,"20241022":27.66,"20241023":26.48,"20241024":25.9,"20241025":26.84,"20241026":26.93,"20241027":27.52,"20241028":26.55,"20241029":27.76,"20241030":27.7,"20241031":27.81,"20241101":26.6,"20241102":25.1,"20241103":25.04,"20241104":25.37,"20241105":26.4,"20241106":24.51,"20241107":24.02,"20241108":23.63,"20241109":24.04,"20241110":24.08,"20241111":24.24,"20241112":23.82,"20241113":22.09,"20241114":22.27,"20241115":22.03,"20241116":21.82,"20241117":21.3,"20241118":21.29,"20241119":21.6,"20241120":21.25,"20241121":21.46,"20241122":21.67,"20241123":21.98,"20241124":20.04,"20241125":20.0,"20241126":20.47,"20241127":20.36,"20241128":21.65,"20241129":22.31,"20241130":22.09,"20241201":20.23,"20241202":20.19,"20241203":19.6,"20241204":19.26,"20241205":19.45,"20241206":17.78,"20241207":17.92,"20241208":17.96,"20241209":17.69,"20241210":17.56,"20241211":16.11,"20241212":15.89,"20241213":16.57,"20241214":16.4,"20241215":16.07,"20241216":18.02,"20241217":18.86,"20241218":18.1,"20241219":17.9,"20241220":17.95,"20241221":17.09,"20241222":16.8,"20241223":17.63,"20241224":17.95,"20241225":17.67,"20241226":18.18,"20241227":18.63,"20241228":19.25,"20241229":19.32,"20241230":18.92,"20241231":16.76},"T2M_MAX":{"20240101":23.65,"20240102":22.66,"20240103":23.36,"20240104":22.71,"20240105":22.89,"20240106":23.96,"20240107":23.92,"20240108":23.92,"20240109":22.95,"20240110":22.71,"20240111":22.5,"20240112":21.44,"20240113":21.17,"20240114":21.7,"20240115":21.42,"20240116":20.47,"20240117":20.65,"20240118":21.39,"20240119":23.2,"20240120":22.16,"20240121":21.24,"20240122":20.52,"20240123":21.19,"20240124":21.66,"20240125":22.65,"20240126":21.71,"20240127":21.51,"20240128":22.31,"20240129":23.07,"20240130":23.81,"20240131":24.93,"20240201":24.28,"20240202":25.01,"20240203":25.71,"20240204":24.77,"20240205":26.14,"20240206":26.48,"20240207":25.32,"20240208":23.64,"20240209":23.34,"20240210":25.19,"20240211":26.13,"20240212":26.38,"20240213":27.92,"20240214":27.92,"20240215":27.86,"20240216":27.92,"20240217":27.57,"20240218":27.22,"20240219":27.58,"20240220":29.39,"20240221":31.52,"20240222":31.04,"20240223":26.8,"20240224":28.02,"20240225":26.7,"20240226":28.16,"20240227":28.79,"20240228":28.45,"20240229":29.12,"20240301":29.08,"20240302":29.49,"20240303":30.19,"20240304":28.63,"20240305":30.83,"20240306":30.36,"20240307":30.41,"20240308":30.57,"20240309":30.35,"20240310":30.05,"20240311":30.5,"20240312":32.68,"20240313":33.4,"20240314":32.69,"20240315":33.03,"20240316":33.49,"20240317":34.12,"20240318":33.61,"20240319":34.53,"20240320":28.9,"20240321":29.58,"20240322":29.24,"20240323":31.02,"20240324":32.99,"20240325":32.38,"20240326":32.17,"20240327":33.26,"20240328":33.11,"20240329":32.56,"20240330":33.3,"20240331":34.61,"20240401":35.1,"20240402":35.5,"20240403":35.75,"20240404":35.97,"20240405":34.96,"20240406":37.57,"20240407":36.35,"20240408":36.5,"20240409":36.0,"20240410":35.8,"20240411":36.06,"20240412":36.7,"20240413":36.79,"20240414":37.29,"20240415":38.13,"20240416":38.71,"20240417":38.07,"20240418":36.64,"20240419":39.39,"20240420":40.82,"20240421":40.3,"20240422":39.82,"20240423":39.26,"20240424":39.77,"20240425":40.84,"20240426":40.43,"20240427":40.77,"20240428":41.04,"20240429":41.53,"20240430":42.7,"20240501":41.73,"20240502":39.83,"20240503":38.74,"20240504":36.27,"20240505":35.25,"20240506":33.34,"20240507":32.25,"20240508":29.15,"20240509":31.95,"20240510":31.47,"20240511":30.88,"20240512":32.53,"20240513":32.51,"20240514":34.02,"20240515":33.44,"20240516":34.19,"20240517":34.37,"20240518":34.04,"20240519":34.11,"20240520":33.87,"20240521":34.46,"20240522":34.2,"20240523":35.55,"20240524":37.2,"20240525":36.14,"20240526":32.98,"20240527":30.44,"20240528":31.34,"20240529":33.08,"20240530":32.23,"20240531":32.67,"20240601":33.31,"20240602":32.82,"20240603":31.78,"20240604":31.86,"20240605":33.14,"20240606":32.36,"20240607":32.87,"20240608":32.67,"20240609":31.04,"20240610":30.69,"20240611":32.8,"20240612":32.81,"20240613":31.74,"20240614":31.32,"20240615":32.38,"20240616":32.97,"20240617":31.33,"20240618":32.32,"20240619":31.33,"20240620":31.86,"20240621":32.58,"20240622":30.84,"20240623":32.85,"20240624":31.82,"20240625":31.36,"20240626":33.4,"20240627":31.23,"20240628":32.03,"20240629":31.59,"20240630":30.08,"20240701":29.63,"20240702":31.04,"20240703":30.71,"20240704":30.54,"20240705":30.77,"20240706":31.32,"20240707":32.38,"20240708":31.54,"20240709":32.25,"20240710":32.62,"20240711":32.59,"20240712":32.06,"20240713":32.37,"20240714":32.46,"20240715":32.78,"20240716":32.46,"20240717":31.43,"20240718":32.96,"20240719":32.69,"20240720":32.2,"20240721":31.95,"20240722":30.75,"20240723":32.0,"20240724":32.62,"20240725":32.62,"20240726":32.93,"20240727":32.72,"20240728":33.2,"20240729":32.85,"20240730":31.57,"20240731":31.38,"20240801":29.84,"20240802":28.76,"20240803":30.22,"20240804":31.86,"20240805":30.69,"20240806":30.84,"20240807":30.65,"20240808":29.58,"20240809":30.6,"20240810":31.83,"20240811":30.99,"20240812":31.29,"20240813":32.15,"20240814":31.7,"20240815":31.25,"20240816":30.67,"20240817":30.19,"20240818":28.81,"20240819":28.53,"20240820":30.88,"20240821":29.22,"20240822":29.34,"20240823":28.56,"20240824":29.31,"20240825":28.72,"20240826":28.77,"20240827":30.99,"20240828":31.5,"20240829":31.95,"20240830":31.93,"20240831":29.98,"20240901":30.86,"20240902":31.12,"20240903":29.12,"20240904":31.1,"20240905":30.02,"20240906":31.52,"20240907":31.63,"20240908":32.07,"20240909":31.22,"20240910":30.82,"20240911":31.09,"20240912":32.62,"20240913":31.49,"20240914":28.77,"20240915":28.02,"20240916":30.7,"20240917":32.23,"20240918":31.78,"20240919":31.8,"20240920":33.92,"20240921":31.63,"20240922":32.91,"20240923":32.05,"20240924":30.24,"20240925":28.79,"20240926":29.11,"20240927":30.69,"20240928":31.49,"20240929":31.86,"20240930":31.57,"20241001":32.36,"20241002":31.11,"20241003":29.53,"20241004":29.45,"20241005":30.09,"20241006":30.14,"20241007":30.76,"20241008":30.63,"20241009":30.66,"20241010":29.72,"20241011":30.62,"20241012":31.04,"20241013":31.24,"20241014":30.12,"20241015":30.34,"20241016":31.07,"20241017":31.1,"20241018":30.6,"20241019":30.49,"20241020":29.76,"20241021":30.25,"20241022":30.88,"20241023":29.76,"20241024":29.09,"20241025":30.0,"20241026":30.34,"20241027":31.09,"20241028":30.28,"20241029":31.28,"20241030":30.91,"20241031":30.71,"20241101":30.13,"20241102":29.34,"20241103":29.13,"20241104":29.14,"20241105":29.26,"20241106":28.73,"20241107":28.17,"20241108":28.26,"20241109":28.62,"20241110":28.99,"20241111":28.74,"20241112":28.68,"20241113":27.11,"20241114":27.27,"20241115":27.07,"20241116":27.14,"20241117":26.41,"20241118":26.19,"20241119":27.04,"20241120":26.5,"20241121":26.06,"20241122":25.56,"20241123":26.71,"20241124":24.68,"20241125":25.29,"20241126":25.2,"20241127":25.49,"20241128":25.49,"20241129":26.88,"20241130":27.47,"20241201":24.16,"20241202":24.3,"20241203":25.56,"20241204":24.33,"20241205":25.08,"20241206":24.07,"20241207":24.18,"20241208":23.2,"20241209":21.63,"20241210":23.22,"20241211":22.22,"20241212":22.13,"20241213":22.72,"20241214":23.13,"20241215":22.6,"20241216":24.2,"20241217":24.87,"20241218":24.16,"20241219":24.31,"20241220":23.46,"20241221":23.42,"20241222":23.32,"20241223":23.91,"20241224":23.67,"20241225":23.2,"20241226":24.53,"20241227":24.34,"20241228":25.18,"20241229":25.2,"20241230":24.71,"20241231":22.85},"T2M_MIN":{"20240101":12.61,"20240102":11.29,"20240103":11.08,"20240104":11.33,"20240105":11.57,"20240106":12.16,"20240107":13.01,"20240108":12.08,"20240109":10.43,"20240110":10.31,"20240111":9.8,"20240112":9.5,"20240113":9.67,"20240114":9.53,"20240115":11.1,"20240116":10.76,"20240117":10.6,"20240118":10.14,"20240119":11.48,"20240120":10.21,"20240121":8.76,"20240122":8.31,"20240123":8.84,"20240124":9.74,"20240125":10.48,"20240126":9.72,"20240127":9.16,"20240128":9.03,"20240129":10.65,"20240130":11.64,"20240131":13.85,"20240201":15.9,"20240202":14.95,"20240203":14.19,"20240204":13.59,"20240205":13.66,"20240206":15.76,"20240207":13.11,"20240208":10.47,"20240209":10.3,"20240210":10.75,"20240211":11.86,"20240212":13.95,"20240213":13.88,"20240214":15.81,"20240215":16.59,"20240216":14.89,"20240217":14.73,"20240218":14.98,"20240219":15.31,"20240220":15.89,"20240221":19.89,"20240222":19.05,"20240223":16.3,"20240224":16.24,"20240225":14.45,"20240226":14.67,"20240227":16.65,"20240228":17.49,"20240229":16.45,"20240301":15.44,"20240302":15.71,"20240303":17.79,"20240304":17.87,"20240305":16.16,"20240306":16.34,"20240307":16.47,"20240308":17.95,"20240309":18.52,"20240310":14.76,"20240311":15.4,"20240312":18.19,"20240313":20.49,"20240314":21.75,"20240315":20.71,"20240316":21.16,"20240317":21.83,"20240318":22.83,"20240319":22.12,"20240320":19.47,"20240321":19.1,"20240322":19.41,"20240323":20.49,"20240324":22.05,"20240325":21.71,"20240326":22.28,"20240327":22.58,"20240328":21.72,"20240329":22.62,"20240330":24.49,"20240331":24.59,"20240401":24.34,"20240402":24.59,"20240403":24.73,"20240404":24.5,"20240405":24.64,"20240406":24.7,"20240407":23.45,"20240408":23.54,"20240409":24.2,"20240410":22.24,"20240411":23.21,"20240412":23.18,"20240413":24.34,"20240414":25.25,"20240415":25.43,"20240416":25.44,"20240417":26.46,"20240418":26.09,"20240419":26.34,"20240420":26.22,"20240421":27.14,"20240422":25.97,"20240423":26.59,"20240424":26.25,"20240425":26.12,"20240426":26.42,"20240427":26.81,"20240428":27.26,"20240429":26.91,"20240430":27.2,"20240501":27.5,"20240502":25.76,"20240503":26.83,"20240504":26.84,"20240505":26.59,"20240506":25.35,"20240507":23.7,"20240508":22.69,"20240509":23.97,"20240510":24.91,"20240511":23.93,"20240512":24.89,"20240513":25.67,"20240514":26.24,"20240515":25.45,"20240516":25.69,"20240517":27.17,"20240518":26.64,"20240519":26.01,"20240520":26.29,"20240521":26.83,"20240522":27.66,"20240523":27.63,"20240524":27.67,"20240525":27.79,"20240526":27.35,"20240527":25.46,"20240528":25.41,"20240529":28.23,"20240530":27.75,"20240531":26.87,"20240601":26.94,"20240602":26.96,"20240603":26.72,"20240604":26.51,"20240605":26.97,"20240606":27.43,"20240607":27.24,"20240608":27.72,"20240609":27.71,"20240610":27.79,"20240611":25.25,"20240612":26.5,"20240613":27.44,"20240614":28.07,"20240615":27.85,"20240616":27.97,"20240617":28.08,"20240618":27.9,"20240619":26.82,"20240620":26.18,"20240621":26.61,"20240622":26.28,"20240623":27.14,"20240624":27.11,"20240625":26.89,"20240626":27.1,"20240627":26.68,"20240628":27.35,"20240629":27.63,"20240630":27.48,"20240701":26.62,"20240702":26.58,"20240703":26.26,"20240704":26.79,"20240705":26.07,"20240706":26.59,"20240707":26.18,"20240708":26.6,"20240709":26.96,"20240710":26.74,"20240711":26.92,"20240712":26.06,"20240713":26.58,"20240714":26.63,"20240715":26.98,"20240716":26.79,"20240717":27.24,"20240718":27.35,"20240719":27.06,"20240720":26.87,"20240721":27.16,"20240722":27.02,"20240723":26.55,"20240724":26.99,"20240725":27.3,"20240726":27.11,"20240727":26.93,"20240728":26.85,"20240729":26.93,"20240730":27.22,"20240731":26.67,"20240801":26.46,"20240802":26.68,"20240803":26.2,"20240804":25.93,"20240805":26.47,"20240806":26.18,"20240807":26.19,"20240808":26.07,"20240809":26.28,"20240810":26.98,"20240811":26.65,"20240812":26.69,"20240813":26.97,"20240814":26.56,"20240815":25.95,"20240816":25.87,"20240817":25.93,"20240818":26.1,"20240819":26.38,"20240820":26.91,"20240821":27.09,"20240822":26.16,"20240823":25.91,"20240824":25.45,"20240825":25.05,"20240826":25.23,"20240827":25.85,"20240828":25.91,"20240829":26.01,"20240830":26.15,"20240831":26.24,"20240901":26.55,"20240902":26.14,"20240903":25.97,"20240904":26.46,"20240905":26.03,"20240906":26.3,"20240907":26.71,"20240908":26.28,"20240909":26.9,"20240910":26.63,"20240911":26.87,"20240912":27.18,"20240913":26.98,"20240914":24.33,"20240915":24.56,"20240916":25.6,"20240917":26.12,"20240918":26.54,"20240919":26.96,"20240920":27.38,"20240921":25.61,"20240922":26.11,"20240923":27.03,"20240924":26.44,"20240925":25.48,"20240926":24.31,"20240927":24.69,"20240928":25.9,"20240929":26.58,"20240930":26.64,"20241001":27.15,"20241002":26.48,"20241003":26.22,"20241004":26.13,"20241005":25.89,"20241006":26.08,"20241007":25.09,"20241008":25.52,"20241009":25.28,"20241010":25.45,"20241011":25.35,"20241012":25.42,"20241013":23.41,"20241014":23.76,"20241015":23.78,"20241016":24.23,"20241017":24.03,"20241018":24.28,"20241019":24.03,"20241020":22.31,"20241021":22.53,"20241022":23.42,"20241023":23.76,"20241024":23.72,"20241025":23.9,"20241026":23.96,"20241027":23.29,"20241028":22.95,"20241029":23.2,"20241030":23.56,"20241031":24.94,"20241101":22.5,"20241102":20.65,"20241103":20.6,"20241104":20.87,"20241105":22.13,"20241106":21.07,"20241107":19.62,"20241108":19.64,"20241109":19.56,"20241110":19.56,"20241111":19.78,"20241112":18.42,"20241113":17.89,"20241114":17.82,"20241115":17.42,"20241116":16.68,"20241117":15.95,"20241118":15.73,"20241119":15.81,"20241120":16.08,"20241121":16.3,"20241122":17.3,"20241123":16.52,"20241124":15.69,"20241125":15.41,"20241126":15.17,"20241127":15.08,"20241128":14.97,"20241129":18.15,"20241130":17.98,"20241201":16.74,"20241202":16.43,"20241203":14.15,"20241204":13.95,"20241205":14.03,"20241206":12.5,"20241207":12.37,"20241208":11.87,"20241209":11.52,"20241210":12.22,"20241211":10.89,"20241212":10.63,"20241213":10.93,"20241214":10.7,"20241215":10.44,"20241216":10.11,"20241217":14.03,"20241218":12.78,"20241219":12.05,"20241220":11.9,"20241221":12.2,"20241222":12.02,"20241223":11.83,"20241224":11.57,"20241225":12.5,"20241226":12.7,"20241227":12.31,"20241228":13.62,"20241229":14.34,"20241230":13.68,"20241231":11.44},"PRECTOTCORR":{"20240101":0.12,"20240102":0.42,"20240103":0.0,"20240104":0.0,"20240105":0.0,"20240106":0.0,"20240107":0.0,"20240108":0.0,"20240109":0.0,"20240110":0.0,"20240111":0.0,"20240112":0.0,"20240113":0.0,"20240114":0.0,"20240115":0.0,"20240116":0.0,"20240117":0.01,"20240118":1.36,"20240119":1.05,"20240120":7.41,"20240121":0.0,"20240122":0.0,"20240123":2.11,"20240124":1.36,"20240125":1.35,"20240126":0.0,"20240127":0.0,"20240128":0.0,"20240129":0.0,"20240130":0.07,"20240131":0.8,"20240201":2.16,"20240202":2.41,"20240203":0.09,"20240204":0.0,"20240205":0.0,"20240206":0.0,"20240207":0.0,"20240208":0.0,"20240209":0.0,"20240210":0.0,"20240211":0.0,"20240212":0.0,"20240213":0.0,"20240214":0.0,"20240215":0.51,"20240216":0.51,"20240217":0.0,"20240218":0.0,"20240219":0.0,"20240220":0.04,"20240221":2.52,"20240222":17.07,"20240223":14.66,"20240224":1.34,"20240225":0.73,"20240226":0.0,"20240227":0.0,"20240228":0.0,"20240229":0.0,"20240301":0.0,"20240302":0.0,"20240303":0.16,"20240304":0.42,"20240305":0.25,"20240306":0.0,"20240307":0.0,"20240308":0.0,"20240309":0.0,"20240310":0.0,"20240311":0.0,"20240312":0.0,"20240313":0.0,"20240314":8.45,"20240315":5.36,"20240316":6.82,"20240317":0.1,"20240318":1.0,"20240319":2.21,"20240320":2.43,"20240321":7.47,"20240322":7.74,"20240323":10.36,"20240324":13.48,"20240325":13.37,"20240326":5.36,"20240327":0.28,"20240328":7.07,"20240329":9.87,"20240330":11.84,"20240331":16.89,"20240401":3.81,"20240402":0.17,"20240403":0.18,"20240404":0.08,"20240405":0.03,"20240406":0.43,"20240407":0.58,"20240408":0.0,"20240409":0.0,"20240410":0.0,"20240411":0.0,"20240412":0.0,"20240413":0.0,"20240414":0.0,"20240415":0.0,"20240416":3.29,"20240417":10.73,"20240418":7.5,"20240419":1.39,"20240420":0.19,"20240421":0.23,"20240422":0.09,"20240423":0.02,"20240424":0.01,"20240425":0.01,"20240426":0.35,"20240427":0.25,"20240428":0.5,"20240429":0.14,"20240430":0.12,"20240501":0.73,"20240502":6.54,"20240503":8.49,"20240504":5.11,"20240505":15.03,"20240506":46.58,"20240507":7.81,"20240508":38.65,"20240509":1.4,"20240510":11.34,"20240511":22.5,"20240512":3.69,"20240513":1.15,"20240514":1.18,"20240515":0.12,"20240516":0.0,"20240517":2.98,"20240518":7.94,"20240519":5.34,"20240520":7.58,"20240521":8.21,"20240522":4.85,"20240523":2.15,"20240524":2.79,"20240525":4.01,"20240526":54.88,"20240527":123.97,"20240528":51.51,"20240529":4.63,"20240530":4.14,"20240531":1.73,"20240601":0.54,"20240602":4.3,"20240603":35.02,"20240604":13.55,"20240605":9.6,"20240606":14.03,"20240607":12.35,"20240608":11.69,"20240609":14.33,"20240610":2.73,"20240611":1.56,"20240612":3.06,"20240613":23.75,"20240614":17.4,"20240615":9.06,"20240616":4.89,"20240617":2.83,"20240618":9.86,"20240619":23.63,"20240620":11.91,"20240621":7.89,"20240622":6.69,"20240623":3.27,"20240624":1.77,"20240625":2.29,"20240626":7.24,"20240627":7.22,"20240628":22.9,"20240629":13.67,"20240630":53.28,"20240701":48.98,"20240702":25.77,"20240703":16.1,"20240704":25.1,"20240705":15.76,"20240706":6.74,"20240707":4.57,"20240708":2.76,"20240709":3.33,"20240710":8.71,"20240711":40.72,"20240712":31.43,"20240713":4.64,"20240714":2.6,"20240715":3.25,"20240716":3.1,"20240717":0.13,"20240718":2.98,"20240719":5.21,"20240720":3.44,"20240721":6.73,"20240722":3.87,"20240723":4.22,"20240724":7.23,"20240725":7.21,"20240726":2.45,"20240727":3.03,"20240728":4.77,"20240729":9.11,"20240730":8.04,"20240731":14.49,"20240801":114.04,"20240802":60.0,"20240803":27.69,"20240804":15.02,"20240805":7.21,"20240806":5.27,"20240807":5.84,"20240808":18.66,"20240809":14.52,"20240810":12.26,"20240811":13.2,"20240812":21.73,"20240813":7.86,"20240814":4.25,"20240815":2.4,"20240816":19.78,"20240817":28.47,"20240818":35.23,"20240819":70.87,"20240820":36.78,"20240821":112.95,"20240822":21.59,"20240823":10.45,"20240824":6.54,"20240825":47.04,"20240826":12.69,"20240827":6.61,"20240828":2.04,"20240829":2.54,"20240830":4.34,"20240831":12.87,"20240901":20.33,"20240902":35.3,"20240903":10.63,"20240904":5.21,"20240905":10.13,"20240906":21.64,"20240907":8.2,"20240908":3.98,"20240909":4.43,"20240910":4.71,"20240911":27.95,"20240912":6.73,"20240913":37.79,"20240914":52.75,"20240915":61.05,"20240916":9.75,"20240917":5.29,"20240918":2.09,"20240919":7.16,"20240920":7.94,"20240921":17.42,"20240922":1.25,"20240923":3.2,"20240924":15.22,"20240925":46.48,"20240926":28.95,"20240927":6.3,"20240928":2.32,"20240929":7.46,"20240930":6.33,"20241001":12.48,"20241002":38.94,"20241003":28.55,"20241004":83.4,"20241005":34.1,"20241006":16.37,"20241007":7.02,"20241008":4.31,"20241009":7.16,"20241010":8.9,"20241011":7.83,"20241012":18.86,"20241013":0.86,"20241014":0.1,"20241015":0.05,"20241016":0.33,"20241017":4.26,"20241018":5.46,"20241019":5.01,"20241020":0.23,"20241021":0.0,"20241022":36.35,"20241023":82.01,"20241024":20.07,"20241025":8.2,"20241026":2.84,"20241027":0.09,"20241028":0.0,"20241029":0.0,"20241030":0.45,"20241031":1.87,"20241101":2.54,"20241102":0.0,"20241103":0.0,"20241104":0.08,"20241105":7.1,"20241106":8.77,"20241107":1.48,"20241108":0.0,"20241109":0.0,"20241110":0.0,"20241111":0.0,"20241112":0.0,"20241113":0.0,"20241114":0.0,"20241115":0.0,"20241116":0.0,"20241117":0.0,"20241118":0.0,"20241119":0.0,"20241120":0.0,"20241121":0.0,"20241122":0.0,"20241123":0.0,"20241124":0.0,"20241125":0.0,"20241126":0.0,"20241127":0.0,"20241128":0.0,"20241129":0.0,"20241130":1.29,"20241201":1.7,"20241202":0.0,"20241203":0.0,"20241204":0.0,"20241205":0.0,"20241206":0.0,"20241207":0.0,"20241208":0.0,"20241209":0.0,"20241210":0.0,"20241211":0.0,"20241212":0.0,"20241213":0.0,"20241214":0.0,"20241215":0.0,"20241216":0.0,"20241217":0.01,"20241218":0.0,"20241219":0.0,"20241220":0.03,"20241221":0.9,"20241222":0.09,"20241223":0.0,"20241224":0.0,"20241225":0.0,"20241226":0.0,"20241227":0.0,"20241228":0.0,"20241229":0.0,"20241230":0.0,"20241231":0.0},"WS10M":{"20240101":2.56,"20240102":2.81,"20240103":2.35,"20240104":2.45,"20240105":2.62,"20240106":2.59,"20240107":3.0,"20240108":3.21,"20240109":2.9,"20240110":2.38,"20240111":3.0,"20240112":3.08,"20240113":3.08,"20240114":1.53,"20240115":1.77,"20240116":0.95,"20240117":1.4,"20240118":1.56,"20240119":2.7,"20240120":2.77,"20240121":2.75,"20240122":2.72,"20240123":1.75,"20240124":2.17,"20240125":2.2,"20240126":3.12,"20240127":2.72,"20240128":2.7,"20240129":1.9,"20240130":1.25,"20240131":1.78,"20240201":2.11,"20240202":2.79,"20240203":2.3,"20240204":1.87,"20240205":1.46,"20240206":1.58,"20240207":2.26,"20240208":2.3,"20240209":3.13,"20240210":3.1,"20240211":2.6,"20240212":1.99,"20240213":2.28,"20240214":1.88,"20240215":2.51,"20240216":2.97,"20240217":1.86,"20240218":1.86,"20240219":1.77,"20240220":3.77,"20240221":3.3,"20240222":3.67,"20240223":1.9,"20240224":2.37,"20240225":3.5,"20240226":3.18,"20240227":2.38,"20240228":1.89,"20240229":2.28,"20240301":2.38,"20240302":2.02,"20240303":1.58,"20240304":2.51,"20240305":2.39,"20240306":2.08,"20240307":2.02,"20240308":1.84,"20240309":2.3,"20240310":2.73,"20240311":1.95,"20240312":3.12,"20240313":2.76,"20240314":2.97,"20240315":2.09,"20240316":1.75,"20240317":1.63,"20240318":1.37,"20240319":2.19,"20240320":2.86,"20240321":2.93,"20240322":2.39,"20240323":3.42,"20240324":3.03,"20240325":2.66,"20240326":2.05,"20240327":1.74,"20240328":2.0,"20240329":2.75,"20240330":3.7,"20240331":4.7,"20240401":4.15,"20240402":3.67,"20240403":3.82,"20240404":4.33,"20240405":4.2,"20240406":3.58,"20240407":2.77,"20240408":2.46,"20240409":1.11,"20240410":1.39,"20240411":2.18,"20240412":2.27,"20240413":1.48,"20240414":1.15,"20240415":1.9,"20240416":3.28,"20240417":4.12,"20240418":3.88,"20240419":5.19,"20240420":5.12,"20240421":4.93,"20240422":3.91,"20240423":3.85,"20240424":3.55,"20240425":3.49,"20240426":4.42,"20240427":3.98,"20240428":4.46,"20240429":4.04,"20240430":5.44,"20240501":4.21,"20240502":3.96,"20240503":2.93,"20240504":3.97,"20240505":5.63,"20240506":4.72,"20240507":1.91,"20240508":1.67,"20240509":1.11,"20240510":1.83,"20240511":2.29,"20240512":1.68,"20240513":1.74,"20240514":1.8,"20240515":1.99,"20240516":1.92,"20240517":3.12,"20240518":2.8,"20240519":2.62,"20240520":1.17,"20240521":1.35,"20240522":1.18,"20240523":1.38,"20240524":1.65,"20240525":3.31,"20240526":7.99,"20240527":16.18,"20240528":5.34,"20240529":6.23,"20240530":5.32,"20240531":3.29,"20240601":3.66,"20240602":4.54,"20240603":4.05,"20240604":3.99,"20240605":2.38,"20240606":2.55,"20240607":3.08,"20240608":4.1,"20240609":4.18,"20240610":3.93,"20240611":3.49,"20240612":3.73,"20240613":4.95,"20240614":5.47,"20240615":6.03,"20240616":5.18,"20240617":5.49,"20240618":6.69,"20240619":5.31,"20240620":3.47,"20240621":1.43,"20240622":2.04,"20240623":2.8,"20240624":3.25,"20240625":2.27,"20240626":2.09,"20240627":4.41,"20240628":5.91,"20240629":5.93,"20240630":6.4,"20240701":4.93,"20240702":4.23,"20240703":5.15,"20240704":6.02,"20240705":4.71,"20240706":3.58,"20240707":3.25,"20240708":3.42,"20240709":4.34,"20240710":4.87,"20240711":4.71,"20240712":4.14,"20240713":3.23,"20240714":2.98,"20240715":3.92,"20240716":3.88,"20240717":1.98,"20240718":2.75,"20240719":5.39,"20240720":5.51,"20240721":5.6,"20240722":5.87,"20240723":5.68,"20240724":4.19,"20240725":3.83,"20240726":5.4,"20240727":5.08,"20240728":4.5,"20240729":5.7,"20240730":4.26,"20240731":3.67,"20240801":8.74,"20240802":6.13,"20240803":4.64,"20240804":3.51,"20240805":4.01,"20240806":4.06,"20240807":4.97,"20240808":4.3,"20240809":4.6,"20240810":4.72,"20240811":3.48,"20240812":3.15,"20240813":2.46,"20240814":2.86,"20240815":3.35,"20240816":3.02,"20240817":3.99,"20240818":5.36,"20240819":5.56,"20240820":5.35,"20240821":5.58,"20240822":4.77,"20240823":4.54,"20240824":3.03,"20240825":4.27,"20240826":4.46,"20240827":3.08,"20240828":1.45,"20240829":2.07,"20240830":2.29,"20240831":3.11,"20240901":2.33,"20240902":1.42,"20240903":2.03,"20240904":2.54,"20240905":1.78,"20240906":1.63,"20240907":1.77,"20240908":2.64,"20240909":3.8,"20240910":3.73,"20240911":2.19,"20240912":2.81,"20240913":3.49,"20240914":7.49,"20240915":7.79,"20240916":4.06,"20240917":1.54,"20240918":1.97,"20240919":2.35,"20240920":2.36,"20240921":2.29,"20240922":2.19,"20240923":2.14,"20240924":3.4,"20240925":4.92,"20240926":3.15,"20240927":2.56,"20240928":2.86,"20240929":2.9,"20240930":2.59,"20241001":1.29,"20241002":1.53,"20241003":3.45,"20241004":4.31,"20241005":3.76,"20241006":1.83,"20241007":1.41,"20241008":1.25,"20241009":1.38,"20241010":2.23,"20241011":2.54,"20241012":1.41,"20241013":1.74,"20241014":1.86,"20241015":1.49,"20241016":1.29,"20241017":1.46,"20241018":1.35,"20241019":1.03,"20241020":2.35,"20241021":1.85,"20241022":2.18,"20241023":3.25,"20241024":4.69,"20241025":3.87,"20241026":2.14,"20241027":0.84,"20241028":1.95,"20241029":0.84,"20241030":1.26,"20241031":1.42,"20241101":2.12,"20241102":2.65,"20241103":2.02,"20241104":2.19,"20241105":1.55,"20241106":2.4,"20241107":2.59,"20241108":2.72,"20241109":2.46,"20241110":1.98,"20241111":2.29,"20241112":2.58,"20241113":2.96,"20241114":2.94,"20241115":2.66,"20241116":2.57,"20241117":1.85,"20241118":1.64,"20241119":1.86,"20241120":1.63,"20241121":1.62,"20241122":1.1,"20241123":1.55,"20241124":2.5,"20241125":2.54,"20241126":1.88,"20241127":1.89,"20241128":1.92,"20241129":2.24,"20241130":2.25,"20241201":2.31,"20241202":2.26,"20241203":2.9,"20241204":2.57,"20241205":2.01,"20241206":2.83,"20241207":2.44,"20241208":1.72,"20241209":1.87,"20241210":2.78,"20241211":3.5,"20241212":2.9,"20241213":2.67,"20241214":2.94,"20241215":2.31,"20241216":1.4,"20241217":1.91,"20241218":2.07,"20241219":2.02,"20241220":1.98,"20241221":2.38,"20241222":2.99,"20241223":2.09,"20241224":2.07,"20241225":2.2,"20241226":2.99,"20241227":2.18,"20241228":1.7,"20241229":1.94,"20241230":2.65,"20241231":2.99},"RH2M":{"20240101":84.2,"20240102":86.13,"20240103":81.38,"20240104":83.13,"20240105":82.1,"20240106":81.14,"20240107":83.19,"20240108":84.75,"20240109":82.55,"20240110":75.43,"20240111":85.61,"20240112":82.67,"20240113":84.74,"20240114":77.59,"20240115":81.59,"20240116":77.85,"20240117":74.95,"20240118":75.95,"20240119":82.15,"20240120":79.96,"20240121":77.27,"20240122":75.43,"20240123":72.07,"20240124":81.07,"20240125":73.47,"20240126":74.34,"20240127":73.46,"20240128":71.1,"20240129":64.18,"20240130":58.68,"20240131":75.49,"20240201":83.91,"20240202":82.48,"20240203":66.15,"20240204":61.26,"20240205":64.27,"20240206":74.84,"20240207":73.15,"20240208":56.31,"20240209":65.96,"20240210":70.28,"20240211":65.55,"20240212":57.45,"20240213":59.52,"20240214":64.97,"20240215":74.95,"20240216":72.74,"20240217":56.35,"20240218":53.26,"20240219":57.12,"20240220":79.4,"20240221":77.47,"20240222":81.16,"20240223":72.13,"20240224":68.03,"20240225":65.9,"20240226":62.65,"20240227":54.67,"20240228":59.57,"20240229":58.04,"20240301":55.53,"20240302":49.26,"20240303":51.77,"20240304":62.81,"20240305":62.74,"20240306":41.85,"20240307":45.5,"20240308":42.39,"20240309":39.92,"20240310":45.68,"20240311":41.8,"20240312":62.6,"20240313":68.87,"20240314":74.74,"20240315":69.53,"20240316":61.79,"20240317":52.55,"20240318":53.74,"20240319":59.69,"20240320":71.09,"20240321":70.75,"20240322":71.0,"20240323":74.2,"20240324":76.89,"20240325":76.55,"20240326":72.87,"20240327":70.59,"20240328":72.21,"20240329":75.67,"20240330":80.06,"20240331":78.59,"20240401":77.16,"20240402":73.73,"20240403":69.57,"20240404":73.44,"20240405":76.92,"20240406":68.85,"20240407":67.17,"20240408":50.23,"20240409":48.42,"20240410":45.85,"20240411":51.46,"20240412":48.47,"20240413":48.77,"20240414":45.51,"20240415":50.82,"20240416":60.3,"20240417":70.45,"20240418":73.77,"20240419":66.47,"20240420":63.48,"20240421":66.56,"20240422":65.66,"20240423":54.41,"20240424":58.85,"20240425":58.07,"20240426":58.19,"20240427":60.86,"20240428":59.97,"20240429":59.85,"20240430":61.27,"20240501":60.66,"20240502":69.92,"20240503":63.46,"20240504":65.61,"20240505":77.12,"20240506":84.36,"20240507":75.69,"20240508":75.74,"20240509":66.76,"20240510":75.05,"20240511":82.85,"20240512":77.58,"20240513":76.36,"20240514":75.92,"20240515":76.96,"20240516":73.09,"20240517":74.8,"20240518":81.97,"20240519":80.87,"20240520":73.33,"20240521":73.28,"20240522":70.93,"20240523":70.02,"20240524":70.37,"20240525":75.36,"20240526":86.18,"20240527":89.67,"20240528":91.17,"20240529":89.83,"20240530":89.99,"20240531":87.53,"20240601":84.27,"20240602":86.85,"20240603":88.36,"20240604":89.84,"20240605":85.33,"20240606":87.44,"20240607":87.0,"20240608":88.98,"20240609":92.28,"20240610":92.76,"20240611":86.77,"20240612":86.11,"20240613":89.98,"20240614":91.94,"20240615":89.87,"20240616":88.93,"20240617":91.58,"20240618":89.52,"20240619":92.64,"20240620":88.97,"20240621":83.18,"20240622":86.85,"20240623":85.36,"20240624":87.97,"20240625":86.61,"20240626":83.84,"20240627":89.59,"20240628":89.12,"20240629":90.07,"20240630":94.08,"20240701":94.18,"20240702":91.39,"20240703":90.67,"20240704":91.04,"20240705":91.42,"20240706":90.34,"20240707":89.05,"20240708":88.52,"20240709":88.97,"20240710":89.31,"20240711":89.49,"20240712":89.48,"20240713":89.96,"20240714":87.3,"20240715":89.02,"20240716":90.23,"20240717":85.69,"20240718":85.54,"20240719":88.45,"20240720":88.11,"20240721":89.94,"20240722":90.73,"20240723":88.87,"20240724":89.89,"20240725":88.02,"20240726":87.95,"20240727":87.77,"20240728":87.4,"20240729":87.56,"20240730":90.16,"20240731":90.17,"20240801":92.97,"20240802":93.59,"20240803":92.65,"20240804":87.84,"20240805":90.48,"20240806":90.32,"20240807":91.16,"20240808":92.58,"20240809":91.06,"20240810":89.87,"20240811":90.64,"20240812":91.01,"20240813":88.71,"20240814":90.06,"20240815":90.63,"20240816":90.79,"20240817":89.91,"20240818":95.07,"20240819":94.75,"20240820":92.33,"20240821":94.81,"20240822":95.05,"20240823":94.34,"20240824":92.06,"20240825":92.23,"20240826":94.21,"20240827":90.48,"20240828":85.72,"20240829":87.21,"20240830":89.07,"20240831":92.7,"20240901":88.7,"20240902":86.2,"20240903":91.82,"20240904":89.04,"20240905":90.03,"20240906":82.21,"20240907":85.62,"20240908":89.23,"20240909":91.34,"20240910":92.28,"20240911":89.78,"20240912":86.96,"20240913":91.97,"20240914":95.18,"20240915":94.03,"20240916":91.72,"20240917":84.87,"20240918":86.71,"20240919":89.42,"20240920":86.78,"20240921":89.67,"20240922":86.15,"20240923":90.61,"20240924":91.11,"20240925":94.54,"20240926":93.67,"20240927":89.72,"20240928":88.86,"20240929":89.16,"20240930":89.9,"20241001":86.74,"20241002":87.39,"20241003":92.05,"20241004":92.21,"20241005":92.63,"20241006":85.83,"20241007":86.37,"20241008":84.7,"20241009":86.43,"20241010":88.97,"20241011":89.08,"20241012":84.24,"20241013":85.56,"20241014":83.07,"20241015":82.28,"20241016":80.33,"20241017":83.55,"20241018":83.72,"20241019":81.48,"20241020":85.6,"20241021":82.89,"20241022":85.54,"20241023":91.49,"20241024":91.23,"20241025":91.94,"20241026":87.53,"20241027":78.03,"20241028":86.11,"20241029":77.78,"20241030":82.22,"20241031":83.92,"20241101":87.28,"20241102":83.77,"20241103":80.26,"20241104":85.76,"20241105":81.45,"20241106":87.53,"20241107":85.86,"20241108":84.58,"20241109":83.69,"20241110":81.06,"20241111":83.82,"20241112":82.17,"20241113":82.77,"20241114":86.93,"20241115":84.95,"20241116":82.7,"20241117":73.87,"20241118":74.91,"20241119":72.84,"20241120":71.25,"20241121":69.22,"20241122":67.31,"20241123":73.68,"20241124":84.67,"20241125":82.9,"20241126":76.57,"20241127":79.31,"20241128":80.42,"20241129":82.34,"20241130":81.65,"20241201":82.72,"20241202":81.76,"20241203":82.56,"20241204":82.46,"20241205":76.92,"20241206":77.22,"20241207":71.88,"20241208":72.77,"20241209":81.14,"20241210":87.01,"20241211":84.69,"20241212":86.09,"20241213":84.56,"20241214":81.83,"20241215":77.85,"20241216":70.16,"20241217":76.21,"20241218":76.87,"20241219":76.88,"20241220":75.75,"20241221":83.56,"20241222":83.01,"20241223":73.72,"20241224":72.56,"20241225":74.15,"20241226":81.16,"20241227":75.21,"20241228":71.18,"20241229":74.36,"20241230":81.85,"20241231":82.63}}},"header":{"title":"NASA/POWER Source Native Resolution Daily Data","api":{"version":"v2.9.6","name":"POWER Daily API"},"sources":["MERRA2","POWER"],"fill_value":-999.0,"time_standard":"UTC","start":"20240101","end":"20241231"},"messages":[],"parameters":{"T2M":{"units":"C","longname":"Temperature at 2 Meters"},"T2M_MAX":{"units":"C","longname":"Temperature at 2 Meters Maximum"},"T2M_MIN":{"units":"C","longname":"Temperature at 2 Meters Minimum"},"PRECTOTCORR":{"units":"mm/day","longname":"Precipitation Corrected"},"WS10M":{"units":"m/s","longname":"Wind Speed at 10 Meters"},"RH2M":{"units":"%","longname":"Relative Humidity at 2 Meters"}},"times":{"data":0.94,"process":0.01}}