{"type":"Feature","geometry":{"type":"Point","coordinates":[103.85,1.29,25.8]},"properties":{"parameter":{"T2M":{"20240101":26.94,"20240102":26.78,"20240103":26.99,"20240104":26.64,"20240105":26.78,"20240106":26.88,"20240107":25.96,"20240108":26.7,"20240109":26.56,"20240110":26.74,"20240111":26.88,"20240112":25.71,"20240113":26.06,"20240114":26.59,"20240115":26.86,"20240116":26.59,"20240117":26.69,"20240118":26.62,"20240119":26.42,"20240120":24.89,"20240121":26.33,"20240122":27.33,"20240123":26.84,"20240124":26.67,"20240125":26.92,"20240126":26.79,"20240127":26.78,"20240128":26.66,"20240129":26.7,"20240130":26.56,"20240131":26.95,"20240201":26.76,"20240202":27.27,"20240203":26.53,"20240204":27.17,"20240205":26.99,"20240206":27.2,"20240207":27.17,"20240208":27.99,"20240209":26.73,"20240210":26.87,"20240211":26.91,"20240212":26.92,"20240213":26.95,"20240214":27.44,"20240215":27.09,"20240216":27.13,"20240217":26.87,"20240218":27.78,"20240219":27.63,"20240220":27.5,"20240221":27.48,"20240222":27.86,"20240223":27.32,"20240224":27.13,"20240225":27.43,"20240226":27.25,"20240227":27.31,"20240228":27.14,"20240229":27.59,"20240301":27.47,"20240302":27.26,"20240303":27.06,"20240304":27.28,"20240305":27.2,"20240306":28.42,"20240307":28.56,"20240308":26.96,"20240309":27.9,"20240310":27.52,"20240311":27.78,"20240312":27.06,"20240313":27.8,"20240314":27.39,"20240315":27.18,"20240316":27.41,"20240317":27.33,"20240318":27.99,"20240319":27.72,"20240320":27.58,"20240321":27.64,"20240322":27.59,"20240323":28.14,"20240324":28.12,"20240325":28.35,"20240326":27.9,"20240327":28.53,"20240328":27.84,"20240329":28.19,"20240330":28.16,"20240331":28.97,"20240401":29.52,"20240402":29.48,"20240403":28.8,"20240404":29.2,"20240405":29.02,"20240406":28.83,"20240407":29.13,"20240408":29.2,"20240409":29.01,"20240410":28.31,"20240411":28.63,"20240412":27.61,"20240413":28.27,"20240414":28.17,"20240415":28.38,"20240416":28.47,"20240417":28.9,"20240418":28.87,"20240419":29.2,"20240420":28.88,"20240421":29.61,"20240422":29.35,"20240423":29.81,"20240424":28.92,"20240425":29.52,"20240426":29.23,"20240427":29.82,"20240428":29.18,"20240429":29.41,"20240430":29.6,"20240501":28.86,"20240502":28.8,"20240503":29.2,"20240504":27.75,"20240505":29.04,"20240506":29.15,"20240507":29.33,"20240508":29.06,"20240509":29.27,"20240510":28.87,"20240511":28.69,"20240512":28.98,"20240513":29.77,"20240514":28.25,"20240515":29.22,"20240516":28.6,"20240517":29.21,"20240518":28.88,"20240519":28.52,"20240520":28.49,"20240521":28.79,"20240522":29.3,"20240523":29.48,"20240524":29.28,"20240525":28.32,"20240526":29.49,"20240527":29.1,"20240528":28.94,"20240529":29.04,"20240530":28.25,"20240531":28.83,"20240601":27.9,"20240602":27.22,"20240603":28.73,"20240604":28.64,"20240605":28.99,"20240606":28.79,"20240607":29.54,"20240608":28.81,"20240609":28.94,"20240610":29.18,"20240611":29.07,"20240612":28.81,"20240613":28.86,"20240614":29.03,"20240615":29.03,"20240616":28.19,"20240617":27.67,"20240618":28.17,"20240619":28.18,"20240620":28.5,"20240621":26.84,"20240622":26.71,"20240623":28.1,"20240624":28.49,"20240625":28.28,"20240626":28.41,"20240627":28.38,"20240628":28.63,"20240629":27.99,"20240630":27.44,"20240701":27.89,"20240702":27.97,"20240703":28.11,"20240704":28.29,"20240705":28.55,"20240706":27.96,"20240707":27.87,"20240708":27.3,"20240709":27.46,"20240710":27.43,"20240711":27.86,"20240712":27.68,"20240713":28.18,"20240714":27.49,"20240715":28.09,"20240716":27.72,"20240717":28.0,"20240718":27.96,"20240719":28.14,"20240720":28.49,"20240721":28.09,"20240722":28.04,"20240723":28.01,"20240724":28.33,"20240725":28.46,"20240726":28.45,"20240727":28.5,"20240728":28.1,"20240729":28.08,"20240730":28.31,"20240731":28.0,"20240801":27.89,"20240802":27.69,"20240803":27.89,"20240804":27.25,"20240805":27.83,"20240806":27.72,"20240807":27.59,"20240808":28.04,"20240809":27.82,"20240810":27.84,"20240811":27.48,"20240812":27.88,"20240813":27.79,"20240814":27.56,"20240815":27.8,"20240816":27.33,"20240817":27.78,"20240818":27.96,"20240819":28.03,"20240820":27.59,"20240821":27.3,"20240822":27.72,"20240823":27.95,"20240824":27.04,"20240825":26.91,"20240826":27.85,"20240827":27.43,"20240828":27.09,"20240829":27.52,"20240830":27.7,"20240831":27.94,"20240901":28.18,"20240902":28.22,"20240903":28.02,"20240904":27.31,"20240905":28.27,"20240906":28.32,"20240907":28.29,"20240908":28.01,"20240909":27.47,"20240910":27.46,"20240911":28.32,"20240912":27.81,"20240913":27.92,"20240914":27.23,"20240915":27.36,"20240916":27.66,"20240917":27.89,"20240918":28.29,"20240919":27.89,"20240920":27.67,"20240921":27.65,"20240922":28.62,"20240923":27.73,"20240924":28.98,"20240925":27.75,"20240926":28.32,"20240927":28.03,"20240928":28.16,"20240929":27.97,"20240930":27.53,"20241001":27.96,"20241002":27.91,"20241003":28.47,"20241004":27.44,"20241005":27.71,"20241006":27.5,"20241007":28.14,"20241008":27.44,"20241009":28.04,"20241010":28.14,"20241011":28.52,"20241012":28.32,"20241013":27.31,"20241014":26.8,"20241015":27.71,"20241016":27.78,"20241017":27.47,"20241018":28.29,"20241019":28.09,"20241020":27.51,"20241021":28.99,"20241022":28.72,"20241023":28.8,"20241024":28.43,"20241025":27.71,"20241026":28.19,"20241027":28.1,"20241028":28.39,"20241029":28.3,"20241030":28.39,"20241031":28.27,"20241101":28.23,"20241102":27.48,"20241103":27.89,"20241104":27.89,"20241105":28.58,"20241106":27.17,"20241107":27.96,"20241108":27.67,"20241109":28.19,"20241110":28.29,"20241111":28.23,"20241112":28.62,"20241113":28.73,"20241114":27.97,"20241115":28.64,"20241116":27.89,"20241117":27.76,"20241118":26.97,"20241119":26.62,"20241120":26.55,"20241121":27.28,"20241122":26.33,"20241123":27.72,"20241124":27.5,"20241125":27.58,"20241126":26.89,"20241127":26.87,"20241128":27.37,"20241129":26.44,"20241130":27.34,"20241201":27.52,"20241202":27.41,"20241203":26.08,"20241204":26.72,"20241205":27.35,"20241206":27.97,"20241207":27.77,"20241208":27.16,"20241209":26.68,"20241210":26.36,"20241211":27.31,"20241212":27.36,"20241213":26.65,"20241214":27.74,"20241215":27.9,"20241216":27.4,"20241217":26.78,"20241218":26.84,"20241219":26.39,"20241220":26.33,"20241221":26.78,"20241222":26.84,"20241223":26.81,"20241224":26.97,"20241225":26.68,"20241226":26.23,"20241227":26.67,"20241228":26.78,"20241229":26.91,"20241230":26.53,"20241231":26.18},"T2M_MAX":{"20240101":28.84,"20240102":28.5,"20240103":28.92,"20240104":28.06,"20240105":28.18,"20240106":28.94,"20240107":27.41,"20240108":28.63,"20240109":28.4,"20240110":28.77,"20240111":28.71,"20240112":27.29,"20240113":27.65,"20240114":28.34,"20240115":29.04,"20240116":28.82,"20240117":28.85,"20240118":28.68,"20240119":27.98,"20240120":26.6,"20240121":28.86,"20240122":30.0,"20240123":28.79,"20240124":28.14,"20240125":28.51,"20240126":28.23,"20240127":28.79,"20240128":29.18,"20240129":29.48,"20240130":29.51,"20240131":29.68,"20240201":28.8,"20240202":29.68,"20240203":29.09,"20240204":30.53,"20240205":30.22,"20240206":29.96,"20240207":29.61,"20240208":30.91,"20240209":29.64,"20240210":29.55,"20240211":29.54,"20240212":29.32,"20240213":28.74,"20240214":29.82,"20240215":29.55,"20240216":29.88,"20240217":29.9,"20240218":30.76,"20240219":30.51,"20240220":31.0,"20240221":31.05,"20240222":31.38,"20240223":30.54,"20240224":30.67,"20240225":30.37,"20240226":29.36,"20240227":30.0,"20240228":30.29,"20240229":30.65,"20240301":30.23,"20240302":29.45,"20240303":28.96,"20240304":29.17,"20240305":29.06,"20240306":31.24,"20240307":31.22,"20240308":28.61,"20240309":30.39,"20240310":30.44,"20240311":30.62,"20240312":29.73,"20240313":30.8,"20240314":30.97,"20240315":30.5,"20240316":29.95,"20240317":30.39,"20240318":31.06,"20240319":30.55,"20240320":30.46,"20240321":30.77,"20240322":31.01,"20240323":31.83,"20240324":31.81,"20240325":31.81,"20240326":30.92,"20240327":31.51,"20240328":29.44,"20240329":31.0,"20240330":30.94,"20240331":32.45,"20240401":34.05,"20240402":32.94,"20240403":31.34,"20240404":32.29,"20240405":32.17,"20240406":31.52,"20240407":31.71,"20240408":32.11,"20240409":31.44,"20240410":29.89,"20240411":30.71,"20240412":29.22,"20240413":30.66,"20240414":30.26,"20240415":30.46,"20240416":30.56,"20240417":31.7,"20240418":31.48,"20240419":31.73,"20240420":31.36,"20240421":32.2,"20240422":31.71,"20240423":32.39,"20240424":30.64,"20240425":32.14,"20240426":32.35,"20240427":32.91,"20240428":31.78,"20240429":31.65,"20240430":31.46,"20240501":30.77,"20240502":30.68,"20240503":31.51,"20240504":29.54,"20240505":31.36,"20240506":31.61,"20240507":31.32,"20240508":31.89,"20240509":31.96,"20240510":30.89,"20240511":30.86,"20240512":31.25,"20240513":32.21,"20240514":29.97,"20240515":31.33,"20240516":30.07,"20240517":31.09,"20240518":30.61,"20240519":29.77,"20240520":29.98,"20240521":30.47,"20240522":31.94,"20240523":32.28,"20240524":31.72,"20240525":29.94,"20240526":32.43,"20240527":30.54,"20240528":30.58,"20240529":31.14,"20240530":29.37,"20240531":30.58,"20240601":29.41,"20240602":29.28,"20240603":31.51,"20240604":31.02,"20240605":31.4,"20240606":30.34,"20240607":32.5,"20240608":31.3,"20240609":31.32,"20240610":31.89,"20240611":31.16,"20240612":30.89,"20240613":30.77,"20240614":31.35,"20240615":31.42,"20240616":29.75,"20240617":29.18,"20240618":30.07,"20240619":29.94,"20240620":30.6,"20240621":28.29,"20240622":28.31,"20240623":30.03,"20240624":30.65,"20240625":30.37,"20240626":30.63,"20240627":30.37,"20240628":30.98,"20240629":29.49,"20240630":29.53,"20240701":30.08,"20240702":29.54,"20240703":29.82,"20240704":30.16,"20240705":30.58,"20240706":30.02,"20240707":29.8,"20240708":28.72,"20240709":29.52,"20240710":29.21,"20240711":29.65,"20240712":29.91,"20240713":30.19,"20240714":29.3,"20240715":30.48,"20240716":29.73,"20240717":29.77,"20240718":29.52,"20240719":29.59,"20240720":30.31,"20240721":29.34,"20240722":30.08,"20240723":29.59,"20240724":30.29,"20240725":30.7,"20240726":30.65,"20240727":30.85,"20240728":30.4,"20240729":30.43,"20240730":30.28,"20240731":30.19,"20240801":29.78,"20240802":29.81,"20240803":30.12,"20240804":29.05,"20240805":29.98,"20240806":30.15,"20240807":29.67,"20240808":30.13,"20240809":29.81,"20240810":29.53,"20240811":29.42,"20240812":30.04,"20240813":29.92,"20240814":29.53,"20240815":30.25,"20240816":29.48,"20240817":29.5,"20240818":30.06,"20240819":30.73,"20240820":29.33,"20240821":29.11,"20240822":29.53,"20240823":30.14,"20240824":28.6,"20240825":28.51,"20240826":29.97,"20240827":28.93,"20240828":28.9,"20240829":29.85,"20240830":29.74,"20240831":30.08,"20240901":30.05,"20240902":30.4,"20240903":29.87,"20240904":28.94,"20240905":30.74,"20240906":30.35,"20240907":30.46,"20240908":30.05,"20240909":29.7,"20240910":29.16,"20240911":30.85,"20240912":29.9,"20240913":29.81,"20240914":28.27,"20240915":29.34,"20240916":29.32,"20240917":30.0,"20240918":30.35,"20240919":29.42,"20240920":29.01,"20240921":29.1,"20240922":31.31,"20240923":29.82,"20240924":31.34,"20240925":30.22,"20240926":30.78,"20240927":30.12,"20240928":30.37,"20240929":30.38,"20240930":29.4,"20241001":29.72,"20241002":30.34,"20241003":31.14,"20241004":28.99,"20241005":29.76,"20241006":28.5,"20241007":30.74,"20241008":29.21,"20241009":30.2,"20241010":30.47,"20241011":31.05,"20241012":30.76,"20241013":28.66,"20241014":28.06,"20241015":29.58,"20241016":29.44,"20241017":28.8,"20241018":30.43,"20241019":30.76,"20241020":29.93,"20241021":31.25,"20241022":31.38,"20241023":31.14,"20241024":30.73,"20241025":29.36,"20241026":30.4,"20241027":30.33,"20241028":30.29,"20241029":29.77,"20241030":30.09,"20241031":30.13,"20241101":30.32,"20241102":29.29,"20241103":29.76,"20241104":29.45,"20241105":30.94,"20241106":29.11,"20241107":29.55,"20241108":29.84,"20241109":30.53,"20241110":30.6,"20241111":29.81,"20241112":30.93,"20241113":31.23,"20241114":30.0,"20241115":31.45,"20241116":30.52,"20241117":30.19,"20241118":28.95,"20241119":28.61,"20241120":28.38,"20241121":29.72,"20241122":27.75,"20241123":30.27,"20241124":29.48,"20241125":30.13,"20241126":28.52,"20241127":28.75,"20241128":29.38,"20241129":27.36,"20241130":29.14,"20241201":29.55,"20241202":29.55,"20241203":27.65,"20241204":28.68,"20241205":29.68,"20241206":31.06,"20241207":30.9,"20241208":29.49,"20241209":28.5,"20241210":27.97,"20241211":29.3,"20241212":29.14,"20241213":28.58,"20241214":29.83,"20241215":29.94,"20241216":29.38,"20241217":28.77,"20241218":28.78,"20241219":28.11,"20241220":28.18,"20241221":28.98,"20241222":29.53,"20241223":29.5,"20241224":30.02,"20241225":29.14,"20241226":27.69,"20241227":29.24,"20241228":28.89,"20241229":29.26,"20241230":28.59,"20241231":27.69},"T2M_MIN":{"20240101":25.42,"20240102":25.68,"20240103":25.47,"20240104":25.66,"20240105":25.42,"20240106":25.49,"20240107":24.95,"20240108":25.43,"20240109":25.35,"20240110":25.42,"20240111":25.77,"20240112":24.6,"20240113":24.97,"20240114":25.39,"20240115":25.43,"20240116":25.15,"20240117":25.22,"20240118":25.31,"20240119":25.53,"20240120":22.92,"20240121":23.94,"20240122":25.37,"20240123":25.61,"20240124":25.43,"20240125":25.67,"20240126":25.88,"20240127":25.25,"20240128":24.9,"20240129":24.8,"20240130":24.41,"20240131":25.25,"20240201":25.37,"20240202":25.53,"20240203":24.24,"20240204":24.93,"20240205":24.64,"20240206":25.15,"20240207":25.31,"20240208":26.0,"20240209":24.55,"20240210":24.92,"20240211":25.24,"20240212":25.56,"20240213":25.67,"20240214":25.92,"20240215":25.45,"20240216":24.93,"20240217":24.72,"20240218":25.7,"20240219":25.46,"20240220":24.56,"20240221":24.75,"20240222":25.48,"20240223":24.85,"20240224":25.02,"20240225":25.43,"20240226":25.75,"20240227":25.72,"20240228":24.7,"20240229":25.4,"20240301":25.83,"20240302":25.82,"20240303":25.79,"20240304":25.96,"20240305":25.7,"20240306":25.99,"20240307":26.73,"20240308":25.24,"20240309":25.79,"20240310":24.98,"20240311":25.9,"20240312":24.85,"20240313":25.5,"20240314":24.63,"20240315":24.92,"20240316":25.4,"20240317":25.15,"20240318":26.08,"20240319":25.65,"20240320":25.86,"20240321":25.35,"20240322":25.14,"20240323":25.41,"20240324":25.3,"20240325":26.09,"20240326":25.41,"20240327":26.42,"20240328":26.31,"20240329":26.21,"20240330":25.59,"20240331":26.03,"20240401":26.34,"20240402":26.72,"20240403":26.08,"20240404":26.93,"20240405":26.68,"20240406":27.23,"20240407":27.14,"20240408":27.02,"20240409":27.48,"20240410":27.19,"20240411":27.08,"20240412":26.32,"20240413":26.57,"20240414":26.7,"20240415":27.01,"20240416":27.0,"20240417":27.11,"20240418":26.69,"20240419":27.06,"20240420":27.09,"20240421":27.81,"20240422":27.32,"20240423":27.71,"20240424":26.99,"20240425":26.98,"20240426":26.95,"20240427":27.32,"20240428":27.49,"20240429":27.7,"20240430":27.97,"20240501":27.15,"20240502":27.16,"20240503":27.31,"20240504":26.55,"20240505":27.22,"20240506":27.17,"20240507":27.45,"20240508":26.7,"20240509":27.13,"20240510":27.05,"20240511":26.87,"20240512":27.04,"20240513":27.48,"20240514":27.28,"20240515":27.71,"20240516":27.58,"20240517":27.59,"20240518":27.75,"20240519":27.42,"20240520":27.42,"20240521":27.36,"20240522":27.39,"20240523":27.38,"20240524":27.62,"20240525":27.23,"20240526":27.61,"20240527":28.0,"20240528":27.5,"20240529":27.61,"20240530":27.03,"20240531":27.47,"20240601":26.66,"20240602":25.79,"20240603":26.48,"20240604":26.98,"20240605":27.0,"20240606":27.04,"20240607":27.46,"20240608":26.53,"20240609":27.16,"20240610":27.2,"20240611":27.24,"20240612":27.1,"20240613":27.36,"20240614":27.13,"20240615":27.21,"20240616":26.86,"20240617":26.56,"20240618":26.5,"20240619":26.93,"20240620":26.45,"20240621":25.81,"20240622":25.63,"20240623":26.45,"20240624":26.98,"20240625":26.48,"20240626":26.66,"20240627":26.75,"20240628":26.69,"20240629":26.67,"20240630":25.96,"20240701":26.15,"20240702":26.55,"20240703":26.66,"20240704":26.74,"20240705":26.54,"20240706":26.44,"20240707":26.25,"20240708":26.09,"20240709":25.87,"20240710":26.09,"20240711":26.51,"20240712":26.04,"20240713":26.52,"20240714":25.99,"20240715":26.19,"20240716":26.18,"20240717":26.7,"20240718":26.73,"20240719":27.15,"20240720":27.3,"20240721":27.02,"20240722":26.27,"20240723":26.57,"20240724":27.07,"20240725":26.81,"20240726":26.69,"20240727":26.68,"20240728":26.32,"20240729":26.26,"20240730":27.1,"20240731":26.34,"20240801":26.37,"20240802":26.02,"20240803":26.18,"20240804":25.99,"20240805":26.04,"20240806":25.78,"20240807":25.96,"20240808":26.7,"20240809":26.26,"20240810":26.41,"20240811":25.87,"20240812":26.09,"20240813":26.21,"20240814":26.19,"20240815":26.01,"20240816":25.35,"20240817":26.68,"20240818":26.22,"20240819":26.08,"20240820":26.08,"20240821":25.85,"20240822":26.11,"20240823":25.77,"20240824":25.53,"20240825":25.31,"20240826":25.99,"20240827":25.86,"20240828":25.67,"20240829":25.68,"20240830":26.04,"20240831":26.02,"20240901":26.96,"20240902":26.53,"20240903":26.18,"20240904":26.04,"20240905":26.48,"20240906":26.88,"20240907":26.61,"20240908":26.15,"20240909":25.84,"20240910":26.01,"20240911":26.34,"20240912":25.95,"20240913":26.31,"20240914":26.11,"20240915":25.93,"20240916":26.34,"20240917":26.2,"20240918":26.88,"20240919":26.58,"20240920":26.18,"20240921":26.02,"20240922":26.65,"20240923":25.96,"20240924":26.86,"20240925":25.58,"20240926":26.16,"20240927":26.48,"20240928":26.34,"20240929":25.91,"20240930":25.82,"20241001":26.62,"20241002":25.86,"20241003":26.15,"20241004":26.27,"20241005":25.82,"20241006":26.25,"20241007":26.36,"20241008":26.05,"20241009":26.43,"20241010":26.37,"20241011":26.72,"20241012":26.69,"20241013":25.72,"20241014":25.82,"20241015":25.95,"20241016":26.49,"20241017":26.36,"20241018":26.8,"20241019":25.84,"20241020":25.17,"20241021":26.75,"20241022":26.52,"20241023":26.82,"20241024":26.39,"20241025":26.38,"20241026":26.36,"20241027":26.33,"20241028":26.91,"20241029":26.77,"20241030":26.42,"20241031":26.66,"20241101":26.49,"20241102":26.29,"20241103":26.3,"20241104":26.93,"20241105":26.19,"20241106":26.18,"20241107":26.29,"20241108":25.83,"20241109":26.45,"20241110":26.28,"20241111":26.94,"20241112":26.56,"20241113":26.33,"20241114":25.95,"20241115":26.37,"20241116":25.66,"20241117":26.19,"20241118":25.52,"20241119":25.18,"20241120":25.16,"20241121":25.48,"20241122":25.02,"20241123":25.95,"20241124":26.12,"20241125":25.71,"20241126":25.52,"20241127":25.35,"20241128":25.75,"20241129":25.55,"20241130":25.98,"20241201":26.12,"20241202":25.5,"20241203":24.81,"20241204":25.13,"20241205":25.24,"20241206":25.37,"20241207":25.9,"20241208":25.41,"20241209":25.02,"20241210":25.37,"20241211":26.14,"20241212":25.96,"20241213":25.34,"20241214":25.79,"20241215":25.83,"20241216":25.85,"20241217":25.34,"20241218":25.32,"20241219":24.99,"20241220":25.14,"20241221":25.34,"20241222":25.13,"20241223":24.85,"20241224":24.78,"20241225":25.09,"20241226":24.49,"20241227":24.76,"20241228":25.34,"20241229":25.48,"20241230":25.38,"20241231":24.85},"PRECTOTCORR":{"20240101":25.85,"20240102":9.32,"20240103":29.51,"20240104":39.31,"20240105":17.36,"20240106":38.72,"20240107":37.72,"20240108":25.97,"20240109":30.16,"20240110":17.17,"20240111":3.5,"20240112":17.3,"20240113":7.86,"20240114":1.71,"20240115":4.25,"20240116":10.7,"20240117":4.13,"20240118":4.65,"20240119":28.42,"20240120":7.03,"20240121":4.19,"20240122":83.13,"20240123":19.99,"20240124":48.95,"20240125":52.04,"20240126":23.19,"20240127":4.59,"20240128":3.58,"20240129":2.12,"20240130":0.57,"20240131":11.69,"20240201":154.74,"20240202":21.14,"20240203":6.28,"20240204":8.76,"20240205":0.85,"20240206":6.93,"20240207":5.66,"20240208":4.63,"20240209":22.01,"20240210":8.08,"20240211":8.87,"20240212":14.41,"20240213":11.24,"20240214":8.76,"20240215":22.21,"20240216":3.73,"20240217":0.91,"20240218":1.8,"20240219":0.6,"20240220":0.37,"20240221":0.31,"20240222":1.59,"20240223":0.65,"20240224":0.07,"20240225":13.34,"20240226":114.2,"20240227":20.42,"20240228":0.55,"20240229":6.64,"20240301":15.69,"20240302":12.39,"20240303":15.73,"20240304":29.16,"20240305":16.89,"20240306":11.77,"20240307":10.52,"20240308":20.24,"20240309":1.53,"20240310":0.63,"20240311":1.95,"20240312":236.74,"20240313":109.25,"20240314":3.41,"20240315":4.05,"20240316":10.88,"20240317":1.5,"20240318":0.56,"20240319":0.54,"20240320":0.49,"20240321":0.31,"20240322":8.16,"20240323":4.19,"20240324":4.57,"20240325":154.59,"20240326":111.61,"20240327":0.67,"20240328":1.58,"20240329":2.17,"20240330":3.88,"20240331":4.18,"20240401":2.69,"20240402":1.59,"20240403":8.62,"20240404":5.55,"20240405":0.98,"20240406":0.44,"20240407":1.0,"20240408":5.4,"20240409":31.14,"20240410":13.83,"20240411":5.79,"20240412":22.87,"20240413":3.24,"20240414":5.04,"20240415":2.27,"20240416":16.02,"20240417":13.31,"20240418":7.22,"20240419":6.15,"20240420":23.31,"20240421":6.53,"20240422":9.6,"20240423":15.53,"20240424":10.32,"20240425":4.91,"20240426":7.97,"20240427":3.25,"20240428":5.01,"20240429":2.15,"20240430":5.42,"20240501":10.94,"20240502":33.19,"20240503":14.82,"20240504":25.2,"20240505":2.29,"20240506":4.58,"20240507":20.62,"20240508":21.51,"20240509":110.08,"20240510":16.31,"20240511":4.77,"20240512":7.56,"20240513":23.31,"20240514":12.91,"20240515":5.6,"20240516":10.43,"20240517":6.28,"20240518":8.96,"20240519":37.12,"20240520":7.51,"20240521":146.5,"20240522":17.47,"20240523":70.46,"20240524":7.15,"20240525":15.59,"20240526":3.65,"20240527":14.09,"20240528":10.96,"20240529":11.11,"20240530":8.4,"20240531":10.96,"20240601":11.02,"20240602":15.59,"20240603":4.67,"20240604":4.03,"20240605":8.97,"20240606":9.51,"20240607":10.23,"20240608":4.04,"20240609":6.2,"20240610":16.35,"20240611":7.03,"20240612":8.98,"20240613":10.03,"20240614":24.24,"20240615":9.42,"20240616":3.23,"20240617":2.74,"20240618":14.17,"20240619":5.47,"20240620":14.71,"20240621":25.29,"20240622":6.27,"20240623":0.71,"20240624":2.39,"20240625":4.69,"20240626":8.79,"20240627":1.22,"20240628":2.8,"20240629":6.05,"20240630":8.0,"20240701":7.17,"20240702":3.94,"20240703":4.72,"20240704":1.42,"20240705":2.14,"20240706":3.81,"20240707":5.8,"20240708":7.5,"20240709":7.25,"20240710":4.48,"20240711":3.52,"20240712":5.93,"20240713":2.05,"20240714":7.2,"20240715":2.58,"20240716":3.89,"20240717":101.91,"20240718":15.14,"20240719":9.74,"20240720":0.28,"20240721":0.2,"20240722":0.51,"20240723":2.2,"20240724":1.2,"20240725":0.52,"20240726":1.02,"20240727":0.91,"20240728":1.97,"20240729":23.92,"20240730":35.77,"20240731":18.91,"20240801":9.41,"20240802":6.44,"20240803":15.53,"20240804":10.51,"20240805":1.78,"20240806":0.39,"20240807":1.56,"20240808":3.12,"20240809":17.29,"20240810":18.53,"20240811":5.95,"20240812":7.06,"20240813":51.14,"20240814":7.91,"20240815":4.67,"20240816":6.88,"20240817":2.46,"20240818":1.82,"20240819":17.18,"20240820":21.69,"20240821":3.79,"20240822":15.78,"20240823":16.27,"20240824":4.82,"20240825":17.85,"20240826":14.08,"20240827":15.83,"20240828":1.68,"20240829":0.22,"20240830":0.29,"20240831":2.78,"20240901":0.57,"20240902":0.52,"20240903":14.88,"20240904":12.17,"20240905":2.85,"20240906":1.45,"20240907":1.37,"20240908":12.63,"20240909":34.11,"20240910":10.82,"20240911":21.59,"20240912":126.06,"20240913":10.42,"20240914":3.39,"20240915":5.82,"20240916":1.62,"20240917":9.4,"20240918":0.97,"20240919":0.73,"20240920":14.79,"20240921":2.13,"20240922":5.02,"20240923":13.21,"20240924":10.86,"20240925":14.73,"20240926":2.85,"20240927":4.73,"20240928":11.5,"20240929":4.82,"20240930":13.97,"20241001":8.7,"20241002":2.12,"20241003":8.3,"20241004":8.84,"20241005":21.21,"20241006":7.31,"20241007":4.38,"20241008":4.75,"20241009":11.91,"20241010":7.75,"20241011":8.74,"20241012":23.14,"20241013":8.32,"20241014":20.75,"20241015":3.15,"20241016":5.5,"20241017":15.12,"20241018":4.59,"20241019":13.76,"20241020":0.66,"20241021":1.04,"20241022":2.13,"20241023":5.66,"20241024":7.57,"20241025":7.21,"20241026":39.43,"20241027":1.84,"20241028":9.57,"20241029":14.74,"20241030":109.56,"20241031":20.2,"20241101":17.39,"20241102":0.93,"20241103":7.51,"20241104":5.28,"20241105":7.55,"20241106":8.01,"20241107":12.57,"20241108":25.4,"20241109":13.45,"20241110":13.4,"20241111":5.98,"20241112":3.82,"20241113":9.32,"20241114":4.05,"20241115":9.53,"20241116":14.06,"20241117":14.06,"20241118":11.73,"20241119":10.25,"20241120":3.11,"20241121":13.02,"20241122":42.15,"20241123":9.25,"20241124":5.76,"20241125":10.22,"20241126":23.2,"20241127":18.31,"20241128":34.17,"20241129":26.95,"20241130":2.05,"20241201":3.42,"20241202":23.24,"20241203":24.7,"20241204":9.02,"20241205":6.88,"20241206":123.53,"20241207":1.15,"20241208":4.17,"20241209":5.74,"20241210":3.78,"20241211":16.13,"20241212":3.37,"20241213":1.62,"20241214":0.52,"20241215":1.65,"20241216":5.02,"20241217":2.32,"20241218":3.92,"20241219":1.43,"20241220":0.37,"20241221":2.94,"20241222":1.42,"20241223":20.04,"20241224":4.33,"20241225":1.89,"20241226":0.83,"20241227":0.27,"20241228":4.58,"20241229":24.96,"20241230":9.8,"20241231":7.87},"WS10M":{"20240101":2.65,"20240102":3.83,"20240103":3.16,"20240104":3.22,"20240105":4.11,"20240106":3.3,"20240107":3.5,"20240108":2.81,"20240109":3.02,"20240110":3.42,"20240111":3.12,"20240112":3.77,"20240113":3.9,"20240114":3.43,"20240115":4.22,"20240116":4.01,"20240117":4.17,"20240118":3.68,"20240119":3.46,"20240120":4.72,"20240121":2.95,"20240122":2.09,"20240123":2.81,"20240124":3.08,"20240125":3.27,"20240126":4.64,"20240127":4.53,"20240128":4.56,"20240129":4.65,"20240130":4.22,"20240131":3.7,"20240201":3.55,"20240202":3.43,"20240203":3.23,"20240204":3.21,"20240205":3.48,"20240206":2.91,"20240207":3.0,"20240208":2.71,"20240209":4.36,"20240210":4.37,"20240211":5.2,"20240212":5.2,"20240213":4.84,"20240214":4.33,"20240215":4.54,"20240216":4.71,"20240217":4.08,"20240218":3.01,"20240219":3.39,"20240220":3.57,"20240221":3.14,"20240222":2.71,"20240223":4.21,"20240224":4.03,"20240225":4.15,"20240226":4.4,"20240227":4.19,"20240228":4.36,"20240229":3.74,"20240301":3.81,"20240302":3.66,"20240303":3.39,"20240304":2.49,"20240305":1.68,"20240306":1.41,"20240307":1.98,"20240308":1.72,"20240309":1.79,"20240310":3.63,"20240311":3.08,"20240312":3.56,"20240313":3.83,"20240314":3.92,"20240315":3.87,"20240316":3.29,"20240317":3.98,"20240318":3.56,"20240319":4.08,"20240320":4.78,"20240321":4.19,"20240322":3.79,"20240323":3.02,"20240324":3.33,"20240325":2.98,"20240326":3.14,"20240327":2.65,"20240328":2.72,"20240329":3.09,"20240330":2.55,"20240331":1.68,"20240401":1.78,"20240402":2.01,"20240403":2.27,"20240404":1.98,"20240405":2.59,"20240406":3.33,"20240407":2.65,"20240408":2.18,"20240409":2.77,"20240410":2.77,"20240411":3.42,"20240412":2.65,"20240413":2.98,"20240414":2.86,"20240415":2.91,"20240416":2.27,"20240417":1.46,"20240418":1.74,"20240419":1.94,"20240420":1.57,"20240421":1.45,"20240422":1.75,"20240423":2.17,"20240424":2.11,"20240425":1.92,"20240426":1.96,"20240427":2.1,"20240428":2.81,"20240429":2.33,"20240430":2.09,"20240501":2.69,"20240502":2.89,"20240503":3.0,"20240504":2.39,"20240505":2.62,"20240506":2.72,"20240507":1.96,"20240508":1.29,"20240509":2.58,"20240510":2.87,"20240511":2.52,"20240512":2.18,"20240513":1.02,"20240514":1.92,"20240515":2.39,"20240516":3.18,"20240517":2.58,"20240518":2.92,"20240519":3.4,"20240520":3.26,"20240521":2.68,"20240522":1.7,"20240523":1.57,"20240524":1.67,"20240525":2.24,"20240526":1.94,"20240527":2.62,"20240528":2.65,"20240529":2.91,"20240530":2.71,"20240531":2.75,"20240601":2.74,"20240602":2.19,"20240603":1.5,"20240604":2.15,"20240605":2.69,"20240606":1.91,"20240607":0.93,"20240608":2.25,"20240609":1.93,"20240610":2.17,"20240611":1.68,"20240612":1.97,"20240613":1.85,"20240614":1.43,"20240615":1.8,"20240616":2.64,"20240617":2.92,"20240618":2.77,"20240619":2.24,"20240620":2.39,"20240621":3.34,"20240622":3.65,"20240623":3.72,"20240624":3.31,"20240625":3.29,"20240626":2.83,"20240627":1.97,"20240628":1.84,"20240629":2.81,"20240630":2.9,"20240701":1.94,"20240702":2.59,"20240703":3.65,"20240704":2.52,"20240705":1.27,"20240706":1.75,"20240707":2.32,"20240708":2.05,"20240709":2.84,"20240710":3.01,"20240711":3.47,"20240712":2.57,"20240713":3.32,"20240714":3.54,"20240715":3.88,"20240716":3.84,"20240717":3.72,"20240718":4.25,"20240719":4.2,"20240720":4.22,"20240721":3.99,"20240722":3.73,"20240723":3.76,"20240724":4.17,"20240725":4.56,"20240726":4.72,"20240727":4.46,"20240728":4.44,"20240729":3.84,"20240730":3.78,"20240731":3.24,"20240801":3.49,"20240802":3.42,"20240803":3.64,"20240804":2.69,"20240805":3.31,"20240806":3.35,"20240807":3.86,"20240808":3.46,"20240809":3.33,"20240810":3.18,"20240811":3.31,"20240812":3.8,"20240813":3.97,"20240814":3.39,"20240815":3.34,"20240816":3.82,"20240817":3.65,"20240818":3.34,"20240819":2.92,"20240820":1.87,"20240821":2.54,"20240822":2.32,"20240823":2.18,"20240824":2.59,"20240825":3.18,"20240826":2.88,"20240827":3.15,"20240828":2.84,"20240829":3.85,"20240830":3.54,"20240831":3.01,"20240901":2.79,"20240902":3.72,"20240903":3.1,"20240904":2.47,"20240905":2.81,"20240906":4.19,"20240907":4.53,"20240908":2.66,"20240909":2.48,"20240910":2.3,"20240911":2.06,"20240912":3.22,"20240913":2.72,"20240914":2.7,"20240915":2.67,"20240916":3.59,"20240917":4.53,"20240918":3.97,"20240919":3.28,"20240920":2.9,"20240921":1.9,"20240922":2.52,"20240923":3.06,"20240924":1.08,"20240925":1.81,"20240926":1.88,"20240927":2.59,"20240928":2.6,"20240929":2.62,"20240930":2.7,"20241001":1.79,"20241002":2.36,"20241003":1.76,"20241004":1.54,"20241005":1.7,"20241006":1.41,"20241007":2.85,"20241008":2.69,"20241009":2.35,"20241010":2.22,"20241011":1.83,"20241012":1.89,"20241013":2.53,"20241014":2.16,"20241015":2.57,"20241016":2.17,"20241017":3.15,"20241018":2.1,"20241019":1.73,"20241020":2.21,"20241021":1.22,"20241022":1.77,"20241023":1.94,"20241024":2.1,"20241025":3.18,"20241026":3.0,"20241027":2.95,"20241028":2.65,"20241029":2.38,"20241030":2.2,"20241031":2.52,"20241101":2.98,"20241102":3.04,"20241103":2.21,"20241104":1.65,"20241105":2.26,"20241106":2.92,"20241107":1.34,"20241108":2.37,"20241109":1.58,"20241110":1.57,"20241111":1.19,"20241112":1.15,"20241113":1.07,"20241114":1.59,"20241115":1.31,"20241116":2.08,"20241117":2.97,"20241118":2.87,"20241119":2.27,"20241120":2.62,"20241121":2.15,"20241122":2.66,"20241123":1.65,"20241124":1.81,"20241125":2.67,"20241126":2.83,"20241127":2.1,"20241128":2.02,"20241129":1.98,"20241130":2.89,"20241201":3.19,"20241202":2.06,"20241203":2.46,"20241204":3.41,"20241205":2.73,"20241206":2.21,"20241207":2.94,"20241208":3.67,"20241209":4.48,"20241210":4.13,"20241211":3.41,"20241212":3.62,"20241213":3.16,"20241214":2.35,"20241215":1.76,"20241216":2.59,"20241217":3.36,"20241218":3.43,"20241219":3.83,"20241220":3.52,"20241221":3.5,"20241222":3.65,"20241223":2.41,"20241224":2.14,"20241225":3.08,"20241226":2.01,"20241227":2.67,"20241228":3.61,"20241229":3.63,"20241230":3.42,"20241231":3.0},"RH2M":{"20240101":91.7,"20240102":92.67,"20240103":92.07,"20240104":93.38,"20240105":93.69,"20240106":91.66,"20240107":92.34,"20240108":91.16,"20240109":92.14,"20240110":91.53,"20240111":92.6,"20240112":93.15,"20240113":92.19,"20240114":92.86,"20240115":91.48,"20240116":91.27,"20240117":90.41,"20240118":91.24,"20240119":91.52,"20240120":90.82,"20240121":88.51,"20240122":87.38,"20240123":91.64,"20240124":92.97,"20240125":93.68,"20240126":92.88,"20240127":91.6,"20240128":90.36,"20240129":88.78,"20240130":87.64,"20240131":89.19,"20240201":91.65,"20240202":89.9,"20240203":89.23,"20240204":87.7,"20240205":88.4,"20240206":88.57,"20240207":89.81,"20240208":88.32,"20240209":89.11,"20240210":88.9,"20240211":88.32,"20240212":89.31,"20240213":92.43,"20240214":90.02,"20240215":90.51,"20240216":89.09,"20240217":86.57,"20240218":88.07,"20240219":87.81,"20240220":86.35,"20240221":84.73,"20240222":83.84,"20240223":85.59,"20240224":84.2,"20240225":86.94,"20240226":89.55,"20240227":88.48,"20240228":86.28,"20240229":88.04,"20240301":88.95,"20240302":90.5,"20240303":91.03,"20240304":90.49,"20240305":89.52,"20240306":83.92,"20240307":88.44,"20240308":85.46,"20240309":83.34,"20240310":86.66,"20240311":85.05,"20240312":88.65,"20240313":87.63,"20240314":87.51,"20240315":85.5,"20240316":86.01,"20240317":86.75,"20240318":86.5,"20240319":86.62,"20240320":86.11,"20240321":85.45,"20240322":83.75,"20240323":82.43,"20240324":83.88,"20240325":84.75,"20240326":86.92,"20240327":84.65,"20240328":87.96,"20240329":85.38,"20240330":83.03,"20240331":76.24,"20240401":78.57,"20240402":78.25,"20240403":83.4,"20240404":83.42,"20240405":84.3,"20240406":84.7,"20240407":84.74,"20240408":83.19,"20240409":85.93,"20240410":89.02,"20240411":87.27,"20240412":90.09,"20240413":87.38,"20240414":87.33,"20240415":87.52,"20240416":87.96,"20240417":82.83,"20240418":81.91,"20240419":81.12,"20240420":84.46,"20240421":80.86,"20240422":83.22,"20240423":81.65,"20240424":82.68,"20240425":78.66,"20240426":76.97,"20240427":76.98,"20240428":85.43,"20240429":83.86,"20240430":84.02,"20240501":86.14,"20240502":87.4,"20240503":85.62,"20240504":88.04,"20240505":84.23,"20240506":84.39,"20240507":81.16,"20240508":80.68,"20240509":80.09,"20240510":85.59,"20240511":84.89,"20240512":82.69,"20240513":82.31,"20240514":89.49,"20240515":85.48,"20240516":88.64,"20240517":85.76,"20240518":87.23,"20240519":90.81,"20240520":88.58,"20240521":87.99,"20240522":84.54,"20240523":83.83,"20240524":83.63,"20240525":88.71,"20240526":84.6,"20240527":88.64,"20240528":87.71,"20240529":86.61,"20240530":89.17,"20240531":88.59,"20240601":87.49,"20240602":88.17,"20240603":79.74,"20240604":82.44,"20240605":83.48,"20240606":83.07,"20240607":76.21,"20240608":85.48,"20240609":82.45,"20240610":81.95,"20240611":80.57,"20240612":82.21,"20240613":81.9,"20240614":83.46,"20240615":82.32,"20240616":86.74,"20240617":85.8,"20240618":86.18,"20240619":84.32,"20240620":83.82,"20240621":89.13,"20240622":86.08,"20240623":85.13,"20240624":85.08,"20240625":85.96,"20240626":84.38,"20240627":83.09,"20240628":81.12,"20240629":85.55,"20240630":86.38,"20240701":81.43,"20240702":83.6,"20240703":87.88,"20240704":80.2,"20240705":78.28,"20240706":84.77,"20240707":85.98,"20240708":86.39,"20240709":86.32,"20240710":84.77,"20240711":86.15,"20240712":85.47,"20240713":85.43,"20240714":84.71,"20240715":84.3,"20240716":85.76,"20240717":88.04,"20240718":90.0,"20240719":89.01,"20240720":87.37,"20240721":89.17,"20240722":89.31,"20240723":89.17,"20240724":87.0,"20240725":85.06,"20240726":84.97,"20240727":85.05,"20240728":84.71,"20240729":84.93,"20240730":86.19,"20240731":87.87,"20240801":87.21,"20240802":87.38,"20240803":85.52,"20240804":87.3,"20240805":84.5,"20240806":84.63,"20240807":85.33,"20240808":85.46,"20240809":86.92,"20240810":88.18,"20240811":86.08,"20240812":85.58,"20240813":87.39,"20240814":87.61,"20240815":86.08,"20240816":87.46,"20240817":87.65,"20240818":88.45,"20240819":84.42,"20240820":85.81,"20240821":85.38,"20240822":84.69,"20240823":83.41,"20240824":84.57,"20240825":86.49,"20240826":84.26,"20240827":87.29,"20240828":86.27,"20240829":84.65,"20240830":85.17,"20240831":86.69,"20240901":87.17,"20240902":87.08,"20240903":87.19,"20240904":88.12,"20240905":83.7,"20240906":87.73,"20240907":85.49,"20240908":87.15,"20240909":87.38,"20240910":80.97,"20240911":82.63,"20240912":85.76,"20240913":84.86,"20240914":87.84,"20240915":85.47,"20240916":86.58,"20240917":84.9,"20240918":84.24,"20240919":87.73,"20240920":87.64,"20240921":83.35,"20240922":84.03,"20240923":87.29,"20240924":76.17,"20240925":83.39,"20240926":78.51,"20240927":85.76,"20240928":85.21,"20240929":85.1,"20240930":86.4,"20241001":79.57,"20241002":81.99,"20241003":79.36,"20241004":82.75,"20241005":81.76,"20241006":79.83,"20241007":83.47,"20241008":85.21,"20241009":84.74,"20241010":83.9,"20241011":81.92,"20241012":84.79,"20241013":88.53,"20241014":85.77,"20241015":84.19,"20241016":86.05,"20241017":86.8,"20241018":83.38,"20241019":84.24,"20241020":81.52,"20241021":71.67,"20241022":80.0,"20241023":84.81,"20241024":84.86,"20241025":86.12,"20241026":84.73,"20241027":84.86,"20241028":84.38,"20241029":86.37,"20241030":84.28,"20241031":83.27,"20241101":85.59,"20241102":84.74,"20241103":82.16,"20241104":81.12,"20241105":82.71,"20241106":86.82,"20241107":83.01,"20241108":83.26,"20241109":83.53,"20241110":83.56,"20241111":81.79,"20241112":79.38,"20241113":80.46,"20241114":83.09,"20241115":80.21,"20241116":85.52,"20241117":87.6,"20241118":89.55,"20241119":87.62,"20241120":87.96,"20241121":84.85,"20241122":91.27,"20241123":83.73,"20241124":84.58,"20241125":86.0,"20241126":89.18,"20241127":88.04,"20241128":87.16,"20241129":87.9,"20241130":89.14,"20241201":85.61,"20241202":85.01,"20241203":84.64,"20241204":86.23,"20241205":81.65,"20241206":80.82,"20241207":84.32,"20241208":91.05,"20241209":90.7,"20241210":90.91,"20241211":87.98,"20241212":89.7,"20241213":85.53,"20241214":84.71,"20241215":83.61,"20241216":89.23,"20241217":92.42,"20241218":91.35,"20241219":91.57,"20241220":90.88,"20241221":90.05,"20241222":88.66,"20241223":86.53,"20241224":81.98,"20241225":85.87,"20241226":81.38,"20241227":86.48,"20241228":90.08,"20241229":90.33,"20241230":90.98,"20241231":92.71}}},"header":{"title":"NASA/POWER Source Native Resolution Daily Data","api":{"version":"v2.9.6","name":"POWER Daily API"},"sources":["MERRA2","POWER"],"fill_value":-999.0,"time_standard":"UTC","start":"20240101","end":"20241231"},"messages":[],"parameters":{"T2M":{"units":"C","longname":"Temperature at 2 Meters"},"T2M_MAX":{"units":"C","longname":"Temperature at 2 Meters Maximum"},"T2M_MIN":{"units":"C","longname":"Temperature at 2 Meters Minimum"},"PRECTOTCORR":{"units":"mm/day","longname":"Precipitation Corrected"},"WS10M":{"units":"m/s","longname":"Wind Speed at 10 Meters"},"RH2M":{"units":"%","longname":"Relative Humidity at 2 Meters"}},"times":{"data":0.77,"process":0.02}}