{"type":"Feature","geometry":{"type":"Point","coordinates":[15.314,-4.328,489.73]},"properties":{"parameter":{"T2M":{"20240101":26.06,"20240102":25.32,"20240103":23.85,"20240104":25.27,"20240105":25.93,"20240106":26.09,"20240107":25.5,"20240108":25.64,"20240109":25.9,"20240110":25.88,"20240111":23.61,"20240112":25.1,"20240113":25.63,"20240114":25.59,"20240115":25.31,"20240116":23.9,"20240117":24.53,"20240118":25.58,"20240119":25.85,"20240120":25.56,"20240121":25.69,"20240122":25.65,"20240123":25.7,"20240124":26.28,"20240125":26.25,"20240126":26.98,"20240127":27.03,"20240128":25.63,"20240129":26.87,"20240130":26.95,"20240131":26.1,"20240201":25.8,"20240202":25.85,"20240203":27.24,"20240204":26.43,"20240205":24.08,"20240206":25.34,"20240207":26.44,"20240208":27.15,"20240209":25.84,"20240210":26.22,"20240211":26.22,"20240212":28.03,"20240213":27.24,"20240214":26.15,"20240215":26.17,"20240216":26.18,"20240217":26.09,"20240218":26.5,"20240219":27.09,"20240220":27.39,"20240221":27.5,"20240222":26.63,"20240223":24.96,"20240224":25.18,"20240225":24.33,"20240226":26.55,"20240227":25.94,"20240228":27.23,"20240229":27.17,"20240301":26.18,"20240302":27.18,"20240303":27.04,"20240304":26.04,"20240305":26.17,"20240306":26.37,"20240307":26.35,"20240308":26.59,"20240309":26.28,"20240310":25.54,"20240311":27.72,"20240312":28.34,"20240313":27.92,"20240314":26.87,"20240315":25.35,"20240316":27.21,"20240317":28.67,"20240318":26.93,"20240319":25.82,"20240320":26.73,"20240321":27.61,"20240322":25.43,"20240323":26.11,"20240324":26.85,"20240325":26.34,"20240326":26.75,"20240327":27.6,"20240328":28.01,"20240329":27.02,"20240330":25.89,"20240331":25.81,"20240401":26.41,"20240402":27.29,"20240403":26.91,"20240404":25.41,"20240405":25.01,"20240406":25.61,"20240407":25.55,"20240408":24.32,"20240409":25.35,"20240410":26.82,"20240411":27.07,"20240412":24.31,"20240413":25.22,"20240414":24.95,"20240415":26.62,"20240416":27.34,"20240417":27.9,"20240418":26.64,"20240419":26.1,"20240420":26.23,"20240421":26.37,"20240422":26.76,"20240423":25.56,"20240424":24.93,"20240425":25.85,"20240426":25.62,"20240427":25.77,"20240428":26.52,"20240429":26.28,"20240430":26.83,"20240501":27.53,"20240502":26.44,"20240503":25.95,"20240504":26.45,"20240505":27.51,"20240506":27.38,"20240507":27.77,"20240508":27.4,"20240509":27.19,"20240510":27.19,"20240511":28.1,"20240512":27.59,"20240513":26.79,"20240514":25.85,"20240515":25.78,"20240516":27.23,"20240517":27.66,"20240518":26.22,"20240519":25.79,"20240520":26.65,"20240521":26.16,"20240522":25.62,"20240523":25.8,"20240524":25.27,"20240525":25.02,"20240526":25.66,"20240527":25.56,"20240528":26.29,"20240529":26.18,"20240530":25.59,"20240531":25.35,"20240601":25.34,"20240602":24.75,"20240603":24.8,"20240604":24.52,"20240605":24.6,"20240606":24.43,"20240607":25.05,"20240608":25.49,"20240609":24.84,"20240610":25.2,"20240611":25.36,"20240612":24.28,"20240613":25.32,"20240614":25.38,"20240615":25.05,"20240616":24.71,"20240617":23.8,"20240618":24.21,"20240619":24.56,"20240620":25.68,"20240621":25.9,"20240622":25.41,"20240623":26.08,"20240624":25.72,"20240625":25.23,"20240626":24.81,"20240627":25.01,"20240628":24.45,"20240629":23.8,"20240630":24.45,"20240701":25.09,"20240702":25.36,"20240703":25.07,"20240704":24.81,"20240705":23.92,"20240706":23.95,"20240707":23.72,"20240708":23.89,"20240709":24.44,"20240710":24.26,"20240711":23.52,"20240712":23.43,"20240713":24.08,"20240714":24.46,"20240715":24.85,"20240716":24.73,"20240717":24.74,"20240718":24.78,"20240719":25.34,"20240720":24.33,"20240721":23.89,"20240722":24.79,"20240723":25.63,"20240724":25.89,"20240725":25.65,"20240726":24.92,"20240727":24.55,"20240728":23.41,"20240729":23.9,"20240730":24.3,"20240731":25.25,"20240801":24.27,"20240802":24.85,"20240803":25.31,"20240804":24.77,"20240805":24.98,"20240806":25.52,"20240807":25.74,"20240808":25.89,"20240809":25.71,"20240810":26.02,"20240811":25.39,"20240812":25.76,"20240813":25.69,"20240814":25.92,"20240815":26.29,"20240816":26.9,"20240817":24.89,"20240818":25.37,"20240819":26.25,"20240820":25.96,"20240821":26.82,"20240822":27.22,"20240823":26.77,"20240824":26.24,"20240825":26.76,"20240826":27.14,"20240827":26.75,"20240828":27.22,"20240829":27.62,"20240830":27.34,"20240831":27.59,"20240901":27.39,"20240902":26.79,"20240903":27.78,"20240904":27.46,"20240905":25.95,"20240906":27.52,"20240907":28.53,"20240908":24.18,"20240909":26.33,"20240910":27.6,"20240911":27.56,"20240912":27.27,"20240913":28.2,"20240914":28.6,"20240915":29.29,"20240916":28.14,"20240917":28.56,"20240918":28.6,"20240919":27.53,"20240920":27.18,"20240921":28.38,"20240922":28.16,"20240923":27.46,"20240924":27.31,"20240925":28.27,"20240926":29.0,"20240927":26.71,"20240928":27.07,"20240929":26.35,"20240930":26.99,"20241001":27.9,"20241002":27.76,"20241003":25.83,"20241004":26.6,"20241005":26.31,"20241006":26.92,"20241007":26.93,"20241008":26.73,"20241009":25.82,"20241010":25.94,"20241011":26.61,"20241012":26.94,"20241013":24.81,"20241014":25.03,"20241015":26.26,"20241016":25.43,"20241017":25.42,"20241018":24.71,"20241019":25.39,"20241020":26.02,"20241021":25.53,"20241022":25.43,"20241023":25.81,"20241024":26.05,"20241025":25.96,"20241026":24.49,"20241027":26.06,"20241028":25.97,"20241029":25.79,"20241030":25.25,"20241031":25.06,"20241101":25.16,"20241102":26.45,"20241103":26.44,"20241104":26.1,"20241105":24.25,"20241106":25.15,"20241107":26.04,"20241108":25.36,"20241109":24.13,"20241110":24.82,"20241111":25.16,"20241112":25.83,"20241113":25.47,"20241114":25.89,"20241115":24.7,"20241116":25.72,"20241117":26.01,"20241118":25.95,"20241119":25.22,"20241120":25.41,"20241121":24.62,"20241122":24.54,"20241123":24.04,"20241124":25.62,"20241125":25.55,"20241126":23.06,"20241127":22.78,"20241128":23.44,"20241129":25.46,"20241130":25.73,"20241201":25.64,"20241202":25.51,"20241203":25.61,"20241204":24.67,"20241205":24.63,"20241206":25.65,"20241207":25.73,"20241208":25.36,"20241209":26.19,"20241210":25.71,"20241211":24.82,"20241212":25.24,"20241213":26.65,"20241214":26.6,"20241215":26.42,"20241216":25.55,"20241217":26.37,"20241218":25.34,"20241219":24.45,"20241220":25.73,"20241221":25.75,"20241222":26.12,"20241223":25.47,"20241224":24.12,"20241225":24.7,"20241226":25.1,"20241227":24.71,"20241228":25.44,"20241229":25.8,"20241230":25.35,"20241231":25.65},"T2M_MAX":{"20240101":29.69,"20240102":28.72,"20240103":27.11,"20240104":29.35,"20240105":30.11,"20240106":30.33,"20240107":29.35,"20240108":29.34,"20240109":29.92,"20240110":29.98,"20240111":26.79,"20240112":30.03,"20240113":30.7,"20240114":29.37,"20240115":28.61,"20240116":25.83,"20240117":28.92,"20240118":30.72,"20240119":30.09,"20240120":29.9,"20240121":29.88,"20240122":30.66,"20240123":30.21,"20240124":31.49,"20240125":31.13,"20240126":30.35,"20240127":31.21,"20240128":28.6,"20240129":31.38,"20240130":31.12,"20240131":29.39,"20240201":29.78,"20240202":29.6,"20240203":31.8,"20240204":29.87,"20240205":25.62,"20240206":29.67,"20240207":30.85,"20240208":31.62,"20240209":28.75,"20240210":29.53,"20240211":30.09,"20240212":32.68,"20240213":31.54,"20240214":29.95,"20240215":30.15,"20240216":30.37,"20240217":29.78,"20240218":30.47,"20240219":30.57,"20240220":31.46,"20240221":32.1,"20240222":29.29,"20240223":26.69,"20240224":28.62,"20240225":27.0,"20240226":31.25,"20240227":29.43,"20240228":32.23,"20240229":31.97,"20240301":30.11,"20240302":32.06,"20240303":30.37,"20240304":30.27,"20240305":30.69,"20240306":31.13,"20240307":30.69,"20240308":30.97,"20240309":29.78,"20240310":28.28,"20240311":33.07,"20240312":32.77,"20240313":32.43,"20240314":31.32,"20240315":28.32,"20240316":31.34,"20240317":33.59,"20240318":31.14,"20240319":28.44,"20240320":30.07,"20240321":32.18,"20240322":28.19,"20240323":30.36,"20240324":30.79,"20240325":30.15,"20240326":30.83,"20240327":30.89,"20240328":32.2,"20240329":30.86,"20240330":29.09,"20240331":29.13,"20240401":30.45,"20240402":32.57,"20240403":30.73,"20240404":28.89,"20240405":27.82,"20240406":28.82,"20240407":28.74,"20240408":26.75,"20240409":29.32,"20240410":32.06,"20240411":31.35,"20240412":26.38,"20240413":28.73,"20240414":27.68,"20240415":30.9,"20240416":31.11,"20240417":31.51,"20240418":30.45,"20240419":29.73,"20240420":30.08,"20240421":30.08,"20240422":30.57,"20240423":29.34,"20240424":27.09,"20240425":28.82,"20240426":28.7,"20240427":29.45,"20240428":32.09,"20240429":32.57,"20240430":32.61,"20240501":32.65,"20240502":31.76,"20240503":31.13,"20240504":30.7,"20240505":32.23,"20240506":32.11,"20240507":32.92,"20240508":32.62,"20240509":32.12,"20240510":30.85,"20240511":31.67,"20240512":30.7,"20240513":30.67,"20240514":28.96,"20240515":28.76,"20240516":30.89,"20240517":32.24,"20240518":32.25,"20240519":31.92,"20240520":32.27,"20240521":31.38,"20240522":29.89,"20240523":30.38,"20240524":29.8,"20240525":29.3,"20240526":30.2,"20240527":28.52,"20240528":30.6,"20240529":30.94,"20240530":30.23,"20240531":29.67,"20240601":30.25,"20240602":28.96,"20240603":29.96,"20240604":29.39,"20240605":29.86,"20240606":29.29,"20240607":30.01,"20240608":30.69,"20240609":30.14,"20240610":32.37,"20240611":32.37,"20240612":31.03,"20240613":31.89,"20240614":32.0,"20240615":30.97,"20240616":31.57,"20240617":30.2,"20240618":30.44,"20240619":30.95,"20240620":32.43,"20240621":32.28,"20240622":31.0,"20240623":32.1,"20240624":31.92,"20240625":31.82,"20240626":30.6,"20240627":32.0,"20240628":32.28,"20240629":31.25,"20240630":31.33,"20240701":31.9,"20240702":31.74,"20240703":31.92,"20240704":32.24,"20240705":30.52,"20240706":31.16,"20240707":30.48,"20240708":30.58,"20240709":31.78,"20240710":31.64,"20240711":31.71,"20240712":29.81,"20240713":30.31,"20240714":31.51,"20240715":30.83,"20240716":30.95,"20240717":31.48,"20240718":31.01,"20240719":32.9,"20240720":30.96,"20240721":30.2,"20240722":30.94,"20240723":32.21,"20240724":32.39,"20240725":32.73,"20240726":32.11,"20240727":31.7,"20240728":29.9,"20240729":30.93,"20240730":31.31,"20240731":32.72,"20240801":30.84,"20240802":32.12,"20240803":32.62,"20240804":31.28,"20240805":31.2,"20240806":32.51,"20240807":32.58,"20240808":32.58,"20240809":33.09,"20240810":33.01,"20240811":31.44,"20240812":32.13,"20240813":32.2,"20240814":32.28,"20240815":31.61,"20240816":33.45,"20240817":29.9,"20240818":31.45,"20240819":32.79,"20240820":32.54,"20240821":33.68,"20240822":34.02,"20240823":33.5,"20240824":33.22,"20240825":33.63,"20240826":34.87,"20240827":33.26,"20240828":33.6,"20240829":33.37,"20240830":33.45,"20240831":33.78,"20240901":33.28,"20240902":31.49,"20240903":33.49,"20240904":33.55,"20240905":30.15,"20240906":33.15,"20240907":34.42,"20240908":26.38,"20240909":31.2,"20240910":33.02,"20240911":32.97,"20240912":32.09,"20240913":33.86,"20240914":34.39,"20240915":35.34,"20240916":32.97,"20240917":34.24,"20240918":34.15,"20240919":31.99,"20240920":31.44,"20240921":33.83,"20240922":32.97,"20240923":31.88,"20240924":32.64,"20240925":34.61,"20240926":34.85,"20240927":30.71,"20240928":32.03,"20240929":30.5,"20240930":31.78,"20241001":33.2,"20241002":32.45,"20241003":29.32,"20241004":32.51,"20241005":30.73,"20241006":31.68,"20241007":31.62,"20241008":30.87,"20241009":29.37,"20241010":29.56,"20241011":31.2,"20241012":31.73,"20241013":27.94,"20241014":28.69,"20241015":30.12,"20241016":29.0,"20241017":29.01,"20241018":27.49,"20241019":30.38,"20241020":30.26,"20241021":28.76,"20241022":28.76,"20241023":29.79,"20241024":29.57,"20241025":29.67,"20241026":26.46,"20241027":30.33,"20241028":30.26,"20241029":30.04,"20241030":28.61,"20241031":28.63,"20241101":29.05,"20241102":31.63,"20241103":30.03,"20241104":29.98,"20241105":26.25,"20241106":29.13,"20241107":30.26,"20241108":28.79,"20241109":26.83,"20241110":28.91,"20241111":28.66,"20241112":30.32,"20241113":28.76,"20241114":30.08,"20241115":27.8,"20241116":29.48,"20241117":29.26,"20241118":29.1,"20241119":28.4,"20241120":28.68,"20241121":27.17,"20241122":28.17,"20241123":26.52,"20241124":29.5,"20241125":29.63,"20241126":24.5,"20241127":24.96,"20241128":26.8,"20241129":29.83,"20241130":29.23,"20241201":28.45,"20241202":29.72,"20241203":29.15,"20241204":27.32,"20241205":27.87,"20241206":30.26,"20241207":29.42,"20241208":29.1,"20241209":30.22,"20241210":29.76,"20241211":28.62,"20241212":29.04,"20241213":30.47,"20241214":30.97,"20241215":30.35,"20241216":28.94,"20241217":30.98,"20241218":28.74,"20241219":27.04,"20241220":29.57,"20241221":29.27,"20241222":29.92,"20241223":28.74,"20241224":25.3,"20241225":28.65,"20241226":29.09,"20241227":28.6,"20241228":29.53,"20241229":29.65,"20241230":29.14,"20241231":30.69},"T2M_MIN":{"20240101":21.94,"20240102":22.47,"20240103":21.24,"20240104":21.05,"20240105":21.22,"20240106":21.75,"20240107":21.94,"20240108":22.28,"20240109":21.7,"20240110":21.93,"20240111":21.63,"20240112":21.2,"20240113":20.23,"20240114":21.75,"20240115":21.82,"20240116":21.79,"20240117":20.56,"20240118":20.61,"20240119":21.07,"20240120":21.75,"20240121":21.76,"20240122":21.65,"20240123":21.17,"20240124":21.09,"20240125":21.4,"20240126":22.93,"20240127":22.82,"20240128":23.42,"20240129":22.36,"20240130":22.99,"20240131":22.79,"20240201":22.2,"20240202":21.95,"20240203":22.82,"20240204":22.4,"20240205":22.54,"20240206":22.0,"20240207":21.72,"20240208":22.81,"20240209":22.36,"20240210":23.2,"20240211":22.11,"20240212":21.74,"20240213":23.43,"20240214":23.37,"20240215":22.63,"20240216":22.62,"20240217":23.01,"20240218":22.7,"20240219":22.79,"20240220":23.73,"20240221":23.03,"20240222":24.05,"20240223":23.24,"20240224":22.55,"20240225":22.02,"20240226":21.23,"20240227":22.91,"20240228":22.62,"20240229":22.87,"20240301":22.99,"20240302":22.19,"20240303":23.81,"20240304":22.74,"20240305":21.88,"20240306":22.6,"20240307":22.05,"20240308":22.79,"20240309":23.44,"20240310":22.89,"20240311":22.62,"20240312":23.13,"20240313":23.54,"20240314":23.26,"20240315":22.42,"20240316":22.31,"20240317":23.22,"20240318":23.82,"20240319":23.72,"20240320":23.01,"20240321":23.47,"20240322":23.37,"20240323":22.63,"20240324":22.63,"20240325":23.76,"20240326":23.0,"20240327":23.87,"20240328":23.33,"20240329":23.87,"20240330":23.39,"20240331":23.27,"20240401":23.4,"20240402":22.1,"20240403":23.21,"20240404":22.94,"20240405":22.22,"20240406":22.49,"20240407":22.89,"20240408":22.35,"20240409":21.55,"20240410":21.74,"20240411":22.38,"20240412":22.64,"20240413":22.18,"20240414":22.46,"20240415":21.73,"20240416":22.52,"20240417":23.19,"20240418":23.23,"20240419":22.64,"20240420":23.23,"20240421":23.1,"20240422":22.7,"20240423":22.91,"20240424":22.59,"20240425":22.92,"20240426":23.04,"20240427":22.07,"20240428":21.3,"20240429":21.22,"20240430":20.82,"20240501":22.67,"20240502":21.02,"20240503":21.56,"20240504":22.57,"20240505":23.21,"20240506":22.71,"20240507":22.4,"20240508":23.88,"20240509":22.89,"20240510":23.76,"20240511":23.91,"20240512":24.83,"20240513":23.76,"20240514":23.67,"20240515":23.03,"20240516":22.94,"20240517":23.39,"20240518":21.69,"20240519":20.18,"20240520":21.59,"20240521":21.31,"20240522":22.34,"20240523":22.12,"20240524":22.13,"20240525":22.21,"20240526":21.95,"20240527":22.11,"20240528":22.33,"20240529":22.27,"20240530":22.3,"20240531":22.15,"20240601":21.4,"20240602":21.55,"20240603":20.88,"20240604":20.65,"20240605":20.12,"20240606":20.32,"20240607":20.34,"20240608":21.31,"20240609":21.07,"20240610":19.32,"20240611":18.06,"20240612":18.27,"20240613":19.16,"20240614":19.82,"20240615":21.25,"20240616":19.37,"20240617":18.37,"20240618":18.75,"20240619":19.48,"20240620":19.43,"20240621":20.53,"20240622":21.02,"20240623":21.88,"20240624":20.97,"20240625":20.95,"20240626":20.12,"20240627":19.33,"20240628":18.15,"20240629":17.86,"20240630":18.5,"20240701":18.88,"20240702":21.24,"20240703":19.67,"20240704":18.91,"20240705":19.21,"20240706":18.22,"20240707":18.44,"20240708":18.27,"20240709":18.46,"20240710":18.91,"20240711":17.66,"20240712":17.91,"20240713":18.51,"20240714":18.64,"20240715":19.5,"20240716":19.67,"20240717":19.07,"20240718":19.06,"20240719":19.18,"20240720":19.05,"20240721":18.25,"20240722":18.73,"20240723":19.72,"20240724":20.96,"20240725":19.63,"20240726":19.13,"20240727":18.79,"20240728":17.91,"20240729":17.73,"20240730":18.19,"20240731":18.24,"20240801":18.68,"20240802":18.37,"20240803":18.78,"20240804":19.07,"20240805":19.32,"20240806":19.54,"20240807":20.09,"20240808":20.76,"20240809":19.43,"20240810":20.0,"20240811":20.18,"20240812":20.35,"20240813":19.69,"20240814":19.92,"20240815":21.93,"20240816":20.95,"20240817":21.72,"20240818":20.03,"20240819":20.7,"20240820":20.27,"20240821":20.1,"20240822":20.88,"20240823":20.84,"20240824":20.23,"20240825":20.15,"20240826":20.57,"20240827":20.99,"20240828":20.64,"20240829":22.59,"20240830":22.0,"20240831":21.6,"20240901":23.21,"20240902":22.73,"20240903":22.48,"20240904":21.95,"20240905":21.77,"20240906":21.87,"20240907":22.45,"20240908":22.04,"20240909":21.59,"20240910":22.56,"20240911":22.26,"20240912":23.34,"20240913":22.63,"20240914":22.69,"20240915":23.52,"20240916":24.01,"20240917":23.44,"20240918":23.75,"20240919":23.41,"20240920":23.18,"20240921":22.92,"20240922":23.72,"20240923":24.25,"20240924":22.91,"20240925":22.54,"20240926":22.73,"20240927":23.21,"20240928":22.33,"20240929":22.82,"20240930":22.25,"20241001":23.02,"20241002":23.04,"20241003":23.25,"20241004":23.22,"20241005":21.86,"20241006":22.31,"20241007":22.54,"20241008":22.58,"20241009":22.68,"20241010":22.43,"20241011":22.26,"20241012":23.27,"20241013":21.75,"20241014":21.41,"20241015":22.22,"20241016":21.95,"20241017":22.09,"20241018":21.84,"20241019":21.5,"20241020":21.97,"20241021":22.75,"20241022":22.26,"20241023":21.68,"20241024":22.59,"20241025":22.42,"20241026":23.07,"20241027":21.9,"20241028":21.45,"20241029":22.14,"20241030":22.65,"20241031":22.04,"20241101":22.35,"20241102":20.89,"20241103":23.07,"20241104":22.5,"20241105":22.69,"20241106":21.15,"20241107":21.82,"20241108":22.23,"20241109":21.77,"20241110":21.24,"20241111":22.01,"20241112":21.2,"20241113":22.43,"20241114":22.47,"20241115":22.15,"20241116":21.15,"20241117":21.79,"20241118":22.58,"20241119":22.07,"20241120":22.56,"20241121":22.37,"20241122":21.86,"20241123":21.63,"20241124":21.26,"20241125":21.2,"20241126":21.27,"20241127":21.16,"20241128":20.71,"20241129":20.67,"20241130":22.05,"20241201":23.1,"20241202":21.81,"20241203":21.89,"20241204":21.83,"20241205":21.19,"20241206":19.94,"20241207":21.51,"20241208":21.4,"20241209":21.36,"20241210":22.21,"20241211":21.65,"20241212":20.87,"20241213":22.52,"20241214":22.37,"20241215":21.77,"20241216":22.31,"20241217":21.94,"20241218":22.87,"20241219":22.18,"20241220":21.71,"20241221":22.01,"20241222":21.59,"20241223":21.6,"20241224":21.85,"20241225":20.73,"20241226":21.74,"20241227":21.08,"20241228":21.69,"20241229":21.81,"20241230":21.84,"20241231":21.22},"PRECTOTCORR":{"20240101":0.88,"20240102":2.3,"20240103":0.52,"20240104":0.21,"20240105":0.18,"20240106":0.32,"20240107":1.81,"20240108":1.78,"20240109":2.79,"20240110":2.14,"20240111":4.89,"20240112":0.08,"20240113":0.78,"20240114":0.38,"20240115":2.01,"20240116":13.91,"20240117":1.32,"20240118":1.48,"20240119":9.26,"20240120":11.83,"20240121":1.93,"20240122":1.66,"20240123":0.82,"20240124":0.13,"20240125":12.83,"20240126":25.42,"20240127":0.88,"20240128":2.63,"20240129":0.74,"20240130":1.08,"20240131":2.28,"20240201":0.2,"20240202":1.11,"20240203":2.4,"20240204":2.17,"20240205":10.85,"20240206":2.55,"20240207":1.5,"20240208":1.66,"20240209":3.66,"20240210":23.21,"20240211":7.69,"20240212":1.52,"20240213":32.52,"20240214":27.1,"20240215":3.71,"20240216":3.96,"20240217":2.64,"20240218":3.01,"20240219":2.44,"20240220":1.27,"20240221":1.26,"20240222":7.06,"20240223":8.88,"20240224":7.11,"20240225":2.22,"20240226":0.47,"20240227":2.12,"20240228":0.86,"20240229":1.31,"20240301":2.55,"20240302":0.7,"20240303":1.74,"20240304":4.52,"20240305":3.86,"20240306":1.82,"20240307":2.54,"20240308":2.45,"20240309":2.23,"20240310":2.24,"20240311":1.86,"20240312":1.61,"20240313":3.39,"20240314":2.86,"20240315":1.07,"20240316":0.93,"20240317":1.97,"20240318":6.42,"20240319":25.09,"20240320":5.45,"20240321":2.6,"20240322":4.05,"20240323":3.75,"20240324":4.99,"20240325":6.13,"20240326":4.89,"20240327":8.2,"20240328":0.52,"20240329":11.36,"20240330":2.16,"20240331":0.36,"20240401":0.01,"20240402":0.35,"20240403":2.85,"20240404":25.18,"20240405":8.98,"20240406":3.24,"20240407":20.39,"20240408":6.61,"20240409":3.38,"20240410":1.65,"20240411":4.3,"20240412":104.51,"20240413":9.42,"20240414":6.5,"20240415":0.61,"20240416":3.15,"20240417":1.28,"20240418":11.43,"20240419":4.93,"20240420":5.54,"20240421":1.8,"20240422":6.68,"20240423":26.89,"20240424":3.78,"20240425":2.95,"20240426":0.76,"20240427":0.78,"20240428":0.06,"20240429":0.01,"20240430":0.01,"20240501":0.47,"20240502":1.17,"20240503":0.12,"20240504":1.04,"20240505":0.44,"20240506":0.03,"20240507":0.01,"20240508":0.02,"20240509":9.25,"20240510":2.71,"20240511":1.36,"20240512":3.32,"20240513":1.31,"20240514":4.06,"20240515":14.26,"20240516":1.94,"20240517":0.47,"20240518":0.36,"20240519":1.31,"20240520":0.55,"20240521":0.08,"20240522":0.18,"20240523":1.35,"20240524":2.49,"20240525":0.83,"20240526":4.19,"20240527":23.18,"20240528":1.76,"20240529":0.03,"20240530":0.68,"20240531":0.01,"20240601":0.0,"20240602":0.0,"20240603":0.0,"20240604":0.0,"20240605":0.0,"20240606":0.0,"20240607":0.0,"20240608":0.01,"20240609":0.0,"20240610":0.0,"20240611":0.0,"20240612":0.0,"20240613":0.0,"20240614":0.0,"20240615":0.1,"20240616":0.0,"20240617":0.0,"20240618":0.0,"20240619":0.02,"20240620":0.01,"20240621":0.02,"20240622":1.26,"20240623":1.52,"20240624":0.7,"20240625":1.95,"20240626":0.6,"20240627":0.25,"20240628":0.38,"20240629":0.28,"20240630":0.0,"20240701":0.01,"20240702":0.03,"20240703":0.02,"20240704":0.01,"20240705":0.0,"20240706":0.0,"20240707":0.0,"20240708":0.02,"20240709":0.01,"20240710":0.0,"20240711":0.0,"20240712":0.0,"20240713":0.0,"20240714":0.0,"20240715":0.01,"20240716":0.02,"20240717":0.02,"20240718":0.01,"20240719":0.01,"20240720":0.02,"20240721":0.01,"20240722":0.0,"20240723":0.01,"20240724":0.01,"20240725":0.01,"20240726":0.01,"20240727":0.0,"20240728":0.01,"20240729":0.01,"20240730":0.0,"20240731":0.0,"20240801":0.0,"20240802":0.0,"20240803":0.0,"20240804":0.01,"20240805":0.04,"20240806":0.0,"20240807":0.01,"20240808":0.0,"20240809":0.0,"20240810":0.0,"20240811":0.0,"20240812":0.0,"20240813":0.0,"20240814":0.04,"20240815":0.07,"20240816":0.02,"20240817":0.04,"20240818":0.11,"20240819":0.03,"20240820":0.04,"20240821":0.03,"20240822":0.01,"20240823":0.0,"20240824":0.02,"20240825":0.08,"20240826":0.01,"20240827":0.03,"20240828":0.04,"20240829":0.54,"20240830":0.4,"20240831":0.5,"20240901":0.6,"20240902":2.11,"20240903":3.33,"20240904":1.22,"20240905":2.16,"20240906":0.53,"20240907":2.08,"20240908":33.57,"20240909":0.85,"20240910":0.6,"20240911":0.74,"20240912":0.73,"20240913":0.15,"20240914":0.24,"20240915":0.19,"20240916":0.49,"20240917":0.16,"20240918":0.6,"20240919":0.78,"20240920":0.54,"20240921":0.81,"20240922":1.15,"20240923":2.8,"20240924":1.21,"20240925":2.22,"20240926":3.33,"20240927":19.6,"20240928":2.4,"20240929":3.06,"20240930":1.35,"20241001":1.92,"20241002":7.47,"20241003":3.81,"20241004":4.98,"20241005":0.87,"20241006":3.2,"20241007":2.65,"20241008":6.13,"20241009":4.95,"20241010":3.77,"20241011":4.47,"20241012":4.98,"20241013":47.55,"20241014":6.26,"20241015":2.57,"20241016":8.08,"20241017":2.41,"20241018":4.17,"20241019":5.34,"20241020":0.68,"20241021":1.26,"20241022":1.11,"20241023":4.65,"20241024":4.51,"20241025":4.07,"20241026":9.02,"20241027":2.2,"20241028":2.84,"20241029":6.38,"20241030":2.42,"20241031":2.11,"20241101":3.32,"20241102":1.42,"20241103":1.41,"20241104":5.72,"20241105":9.82,"20241106":1.65,"20241107":5.23,"20241108":4.15,"20241109":20.54,"20241110":25.23,"20241111":4.5,"20241112":1.44,"20241113":3.46,"20241114":22.25,"20241115":6.79,"20241116":2.39,"20241117":2.55,"20241118":15.22,"20241119":14.54,"20241120":31.12,"20241121":5.92,"20241122":3.26,"20241123":4.37,"20241124":0.99,"20241125":1.16,"20241126":8.45,"20241127":9.85,"20241128":6.38,"20241129":2.76,"20241130":3.77,"20241201":8.62,"20241202":1.96,"20241203":2.88,"20241204":3.71,"20241205":2.99,"20241206":0.23,"20241207":3.2,"20241208":3.34,"20241209":2.22,"20241210":61.73,"20241211":21.18,"20241212":4.33,"20241213":5.91,"20241214":9.48,"20241215":3.67,"20241216":5.0,"20241217":1.24,"20241218":2.81,"20241219":0.28,"20241220":1.44,"20241221":3.88,"20241222":2.96,"20241223":3.42,"20241224":14.06,"20241225":5.07,"20241226":1.09,"20241227":4.57,"20241228":3.32,"20241229":1.42,"20241230":1.17,"20241231":0.01},"WS10M":{"20240101":1.17,"20240102":1.6,"20240103":2.44,"20240104":1.71,"20240105":1.47,"20240106":1.7,"20240107":2.52,"20240108":1.84,"20240109":1.48,"20240110":2.38,"20240111":2.58,"20240112":2.23,"20240113":2.63,"20240114":2.85,"20240115":2.49,"20240116":2.57,"20240117":2.36,"20240118":2.08,"20240119":1.82,"20240120":2.76,"20240121":2.95,"20240122":3.05,"20240123":2.45,"20240124":2.26,"20240125":2.13,"20240126":1.07,"20240127":1.89,"20240128":1.74,"20240129":1.99,"20240130":1.81,"20240131":1.77,"20240201":1.76,"20240202":1.61,"20240203":1.22,"20240204":1.99,"20240205":1.59,"20240206":1.29,"20240207":1.49,"20240208":1.54,"20240209":1.96,"20240210":1.37,"20240211":1.59,"20240212":1.09,"20240213":2.15,"20240214":2.2,"20240215":2.27,"20240216":1.83,"20240217":2.65,"20240218":1.61,"20240219":0.8,"20240220":1.33,"20240221":1.74,"20240222":1.71,"20240223":2.19,"20240224":2.51,"20240225":3.1,"20240226":1.36,"20240227":1.25,"20240228":1.36,"20240229":1.92,"20240301":2.12,"20240302":2.11,"20240303":1.19,"20240304":2.41,"20240305":2.4,"20240306":1.8,"20240307":2.65,"20240308":2.06,"20240309":1.57,"20240310":2.62,"20240311":2.1,"20240312":1.6,"20240313":1.83,"20240314":3.01,"20240315":2.01,"20240316":1.38,"20240317":1.73,"20240318":1.74,"20240319":2.46,"20240320":1.74,"20240321":1.93,"20240322":1.85,"20240323":1.69,"20240324":1.82,"20240325":1.85,"20240326":1.34,"20240327":0.97,"20240328":1.62,"20240329":1.55,"20240330":2.06,"20240331":2.14,"20240401":1.18,"20240402":1.83,"20240403":1.56,"20240404":2.35,"20240405":2.03,"20240406":1.44,"20240407":1.81,"20240408":2.28,"20240409":2.02,"20240410":1.74,"20240411":1.34,"20240412":2.25,"20240413":2.05,"20240414":1.92,"20240415":1.36,"20240416":1.14,"20240417":1.16,"20240418":1.83,"20240419":1.83,"20240420":2.35,"20240421":1.62,"20240422":1.75,"20240423":2.16,"20240424":1.19,"20240425":1.46,"20240426":1.54,"20240427":2.61,"20240428":2.54,"20240429":3.14,"20240430":1.91,"20240501":1.9,"20240502":1.78,"20240503":1.73,"20240504":1.38,"20240505":1.4,"20240506":1.22,"20240507":1.33,"20240508":1.7,"20240509":2.16,"20240510":1.11,"20240511":0.94,"20240512":1.32,"20240513":1.41,"20240514":2.59,"20240515":1.48,"20240516":1.18,"20240517":1.26,"20240518":1.83,"20240519":1.73,"20240520":1.28,"20240521":1.4,"20240522":2.25,"20240523":2.2,"20240524":2.34,"20240525":2.13,"20240526":1.77,"20240527":1.4,"20240528":1.74,"20240529":2.07,"20240530":2.68,"20240531":2.87,"20240601":2.28,"20240602":2.37,"20240603":2.77,"20240604":2.93,"20240605":2.41,"20240606":3.14,"20240607":2.09,"20240608":2.03,"20240609":2.71,"20240610":2.38,"20240611":1.78,"20240612":1.45,"20240613":1.34,"20240614":2.19,"20240615":2.76,"20240616":2.17,"20240617":2.1,"20240618":2.13,"20240619":2.08,"20240620":1.58,"20240621":1.84,"20240622":2.76,"20240623":1.7,"20240624":1.99,"20240625":2.01,"20240626":1.75,"20240627":1.58,"20240628":1.78,"20240629":2.09,"20240630":2.83,"20240701":2.44,"20240702":2.93,"20240703":2.68,"20240704":2.78,"20240705":3.23,"20240706":2.83,"20240707":3.44,"20240708":2.92,"20240709":3.09,"20240710":2.99,"20240711":2.78,"20240712":3.11,"20240713":2.66,"20240714":3.3,"20240715":3.8,"20240716":3.36,"20240717":3.39,"20240718":3.81,"20240719":4.08,"20240720":4.27,"20240721":3.32,"20240722":2.77,"20240723":3.55,"20240724":3.91,"20240725":3.8,"20240726":3.96,"20240727":3.46,"20240728":3.7,"20240729":3.36,"20240730":3.8,"20240731":3.41,"20240801":4.31,"20240802":2.99,"20240803":3.65,"20240804":3.89,"20240805":3.47,"20240806":3.69,"20240807":4.27,"20240808":4.33,"20240809":3.03,"20240810":3.47,"20240811":3.72,"20240812":4.06,"20240813":3.94,"20240814":3.17,"20240815":2.74,"20240816":4.14,"20240817":4.4,"20240818":3.03,"20240819":3.62,"20240820":3.89,"20240821":3.38,"20240822":3.87,"20240823":4.79,"20240824":3.65,"20240825":3.91,"20240826":3.77,"20240827":3.42,"20240828":3.05,"20240829":3.77,"20240830":4.02,"20240831":3.52,"20240901":1.98,"20240902":2.08,"20240903":2.63,"20240904":3.08,"20240905":2.74,"20240906":1.89,"20240907":2.65,"20240908":2.41,"20240909":1.81,"20240910":2.64,"20240911":3.44,"20240912":2.54,"20240913":2.16,"20240914":2.74,"20240915":3.34,"20240916":3.28,"20240917":2.89,"20240918":3.1,"20240919":2.67,"20240920":2.59,"20240921":2.12,"20240922":2.35,"20240923":1.63,"20240924":2.2,"20240925":2.43,"20240926":1.76,"20240927":2.48,"20240928":3.31,"20240929":3.36,"20240930":2.36,"20241001":2.6,"20241002":2.51,"20241003":2.44,"20241004":1.47,"20241005":1.96,"20241006":2.41,"20241007":2.57,"20241008":2.17,"20241009":2.73,"20241010":1.71,"20241011":1.65,"20241012":2.05,"20241013":1.42,"20241014":1.92,"20241015":0.81,"20241016":2.16,"20241017":2.81,"20241018":1.61,"20241019":2.02,"20241020":2.27,"20241021":2.58,"20241022":1.74,"20241023":2.11,"20241024":1.7,"20241025":2.33,"20241026":2.6,"20241027":1.48,"20241028":2.11,"20241029":2.23,"20241030":2.09,"20241031":2.14,"20241101":1.83,"20241102":1.63,"20241103":1.19,"20241104":2.03,"20241105":1.78,"20241106":1.97,"20241107":1.62,"20241108":1.9,"20241109":2.28,"20241110":1.91,"20241111":1.88,"20241112":2.72,"20241113":2.2,"20241114":1.48,"20241115":1.62,"20241116":1.29,"20241117":1.44,"20241118":1.07,"20241119":1.4,"20241120":1.6,"20241121":1.85,"20241122":2.42,"20241123":1.5,"20241124":1.19,"20241125":1.85,"20241126":2.59,"20241127":1.55,"20241128":1.84,"20241129":0.92,"20241130":1.08,"20241201":1.13,"20241202":1.3,"20241203":1.66,"20241204":1.5,"20241205":1.81,"20241206":1.31,"20241207":1.8,"20241208":2.36,"20241209":1.27,"20241210":1.41,"20241211":1.7,"20241212":1.25,"20241213":0.83,"20241214":1.43,"20241215":1.43,"20241216":1.97,"20241217":1.11,"20241218":1.92,"20241219":1.43,"20241220":1.44,"20241221":1.75,"20241222":1.06,"20241223":1.53,"20241224":1.3,"20241225":1.73,"20241226":1.52,"20241227":2.18,"20241228":1.65,"20241229":1.86,"20241230":2.03,"20241231":2.21},"RH2M":{"20240101":77.89,"20240102":83.46,"20240103":86.24,"20240104":79.15,"20240105":76.17,"20240106":76.26,"20240107":81.3,"20240108":78.45,"20240109":76.19,"20240110":80.98,"20240111":90.12,"20240112":77.17,"20240113":80.12,"20240114":81.89,"20240115":82.72,"20240116":89.08,"20240117":82.83,"20240118":78.65,"20240119":79.36,"20240120":83.73,"20240121":81.16,"20240122":79.58,"20240123":79.0,"20240124":74.93,"20240125":78.21,"20240126":77.44,"20240127":77.49,"20240128":84.41,"20240129":77.38,"20240130":77.46,"20240131":81.14,"20240201":79.86,"20240202":77.52,"20240203":71.98,"20240204":81.01,"20240205":90.82,"20240206":80.57,"20240207":76.28,"20240208":74.83,"20240209":82.66,"20240210":81.88,"20240211":78.74,"20240212":70.45,"20240213":80.97,"20240214":86.62,"20240215":84.11,"20240216":83.45,"20240217":83.07,"20240218":80.72,"20240219":76.05,"20240220":76.74,"20240221":80.03,"20240222":87.05,"20240223":93.02,"20240224":89.34,"20240225":88.54,"20240226":75.94,"20240227":80.66,"20240228":76.08,"20240229":77.02,"20240301":82.55,"20240302":75.55,"20240303":75.09,"20240304":84.0,"20240305":80.6,"20240306":80.8,"20240307":81.26,"20240308":81.49,"20240309":82.8,"20240310":87.09,"20240311":74.57,"20240312":71.22,"20240313":76.04,"20240314":80.93,"20240315":81.58,"20240316":69.13,"20240317":66.94,"20240318":82.16,"20240319":90.31,"20240320":82.53,"20240321":75.62,"20240322":88.5,"20240323":80.91,"20240324":79.94,"20240325":83.25,"20240326":80.9,"20240327":75.67,"20240328":73.19,"20240329":82.43,"20240330":88.04,"20240331":85.39,"20240401":73.44,"20240402":69.95,"20240403":79.23,"20240404":87.77,"20240405":87.1,"20240406":84.01,"20240407":88.39,"20240408":90.42,"20240409":84.45,"20240410":77.98,"20240411":79.13,"20240412":93.9,"20240413":88.28,"20240414":88.24,"20240415":78.7,"20240416":77.58,"20240417":74.87,"20240418":84.94,"20240419":85.11,"20240420":86.81,"20240421":83.44,"20240422":83.47,"20240423":89.13,"20240424":90.97,"20240425":85.98,"20240426":86.66,"20240427":81.97,"20240428":75.35,"20240429":73.79,"20240430":71.68,"20240501":71.18,"20240502":74.69,"20240503":76.49,"20240504":76.74,"20240505":74.13,"20240506":73.7,"20240507":72.87,"20240508":74.86,"20240509":79.75,"20240510":79.76,"20240511":74.28,"20240512":77.8,"20240513":83.05,"20240514":88.86,"20240515":85.9,"20240516":74.83,"20240517":68.94,"20240518":72.58,"20240519":75.75,"20240520":70.92,"20240521":68.51,"20240522":79.59,"20240523":81.27,"20240524":83.74,"20240525":85.2,"20240526":83.76,"20240527":86.13,"20240528":81.7,"20240529":81.64,"20240530":82.15,"20240531":82.74,"20240601":81.04,"20240602":82.87,"20240603":81.12,"20240604":80.45,"20240605":79.97,"20240606":79.56,"20240607":78.43,"20240608":77.54,"20240609":78.65,"20240610":58.94,"20240611":48.14,"20240612":59.22,"20240613":64.55,"20240614":72.85,"20240615":71.72,"20240616":67.62,"20240617":72.83,"20240618":72.33,"20240619":74.08,"20240620":70.92,"20240621":71.29,"20240622":73.0,"20240623":73.03,"20240624":72.09,"20240625":71.56,"20240626":74.0,"20240627":59.57,"20240628":53.67,"20240629":67.52,"20240630":69.36,"20240701":69.74,"20240702":70.49,"20240703":68.28,"20240704":66.14,"20240705":69.5,"20240706":72.43,"20240707":71.13,"20240708":71.09,"20240709":66.38,"20240710":68.6,"20240711":67.97,"20240712":68.99,"20240713":65.77,"20240714":68.49,"20240715":69.33,"20240716":71.38,"20240717":68.4,"20240718":66.39,"20240719":62.32,"20240720":66.19,"20240721":67.19,"20240722":65.22,"20240723":62.79,"20240724":62.86,"20240725":62.49,"20240726":62.6,"20240727":60.99,"20240728":64.85,"20240729":64.36,"20240730":63.16,"20240731":59.46,"20240801":59.14,"20240802":55.93,"20240803":54.92,"20240804":60.47,"20240805":63.05,"20240806":61.04,"20240807":58.96,"20240808":58.48,"20240809":62.08,"20240810":60.84,"20240811":63.07,"20240812":62.9,"20240813":62.26,"20240814":61.27,"20240815":60.97,"20240816":59.32,"20240817":63.57,"20240818":60.54,"20240819":59.75,"20240820":60.71,"20240821":57.78,"20240822":57.26,"20240823":55.93,"20240824":57.81,"20240825":56.8,"20240826":55.27,"20240827":56.41,"20240828":57.29,"20240829":55.87,"20240830":57.42,"20240831":57.69,"20240901":59.67,"20240902":66.46,"20240903":62.43,"20240904":60.73,"20240905":66.88,"20240906":59.38,"20240907":57.33,"20240908":82.65,"20240909":70.91,"20240910":63.24,"20240911":63.48,"20240912":65.08,"20240913":60.07,"20240914":58.24,"20240915":56.49,"20240916":61.58,"20240917":59.32,"20240918":58.29,"20240919":62.91,"20240920":64.59,"20240921":61.31,"20240922":61.98,"20240923":64.82,"20240924":65.69,"20240925":61.52,"20240926":61.13,"20240927":74.19,"20240928":67.58,"20240929":72.28,"20240930":68.64,"20241001":63.97,"20241002":67.35,"20241003":77.53,"20241004":73.79,"20241005":72.96,"20241006":69.92,"20241007":70.47,"20241008":72.9,"20241009":74.94,"20241010":74.6,"20241011":72.19,"20241012":68.14,"20241013":79.78,"20241014":80.2,"20241015":72.42,"20241016":81.33,"20241017":78.37,"20241018":80.37,"20241019":80.89,"20241020":78.46,"20241021":80.02,"20241022":80.01,"20241023":80.19,"20241024":80.72,"20241025":80.81,"20241026":88.25,"20241027":76.3,"20241028":76.82,"20241029":81.37,"20241030":83.0,"20241031":82.88,"20241101":80.7,"20241102":73.92,"20241103":75.23,"20241104":79.13,"20241105":87.7,"20241106":81.13,"20241107":76.97,"20241108":81.1,"20241109":89.01,"20241110":86.02,"20241111":83.57,"20241112":79.97,"20241113":85.18,"20241114":83.82,"20241115":84.74,"20241116":76.59,"20241117":75.97,"20241118":78.26,"20241119":82.28,"20241120":83.74,"20241121":87.09,"20241122":86.97,"20241123":88.08,"20241124":76.78,"20241125":80.21,"20241126":92.06,"20241127":90.97,"20241128":86.42,"20241129":78.8,"20241130":81.75,"20241201":81.74,"20241202":79.88,"20241203":78.88,"20241204":82.14,"20241205":79.52,"20241206":73.57,"20241207":76.9,"20241208":80.51,"20241209":74.55,"20241210":83.64,"20241211":85.01,"20241212":80.64,"20241213":73.39,"20241214":77.94,"20241215":78.74,"20241216":85.26,"20241217":77.34,"20241218":86.54,"20241219":87.41,"20241220":80.98,"20241221":79.26,"20241222":74.7,"20241223":81.99,"20241224":87.22,"20241225":78.17,"20241226":78.86,"20241227":84.61,"20241228":81.75,"20241229":78.51,"20241230":80.6,"20241231":74.48}}},"header":{"title":"NASA/POWER Source Native Resolution Daily Data","api":{"version":"v2.9.6","name":"POWER Daily API"},"sources":["MERRA2","POWER"],"fill_value":-999.0,"time_standard":"UTC","start":"20240101","end":"20241231"},"messages":[],"parameters":{"T2M":{"units":"C","longname":"Temperature at 2 Meters"},"T2M_MAX":{"units":"C","longname":"Temperature at 2 Meters Maximum"},"T2M_MIN":{"units":"C","longname":"Temperature at 2 Meters Minimum"},"PRECTOTCORR":{"units":"mm/day","longname":"Precipitation Corrected"},"WS10M":{"units":"m/s","longname":"Wind Speed at 10 Meters"},"RH2M":{"units":"%","longname":"Relative Humidity at 2 Meters"}},"times":{"data":0.882,"process":0.02}}