{"type":"Feature","geometry":{"type":"Point","coordinates":[100.501,13.754,4.48]},"properties":{"parameter":{"T2M":{"20240101":28.59,"20240102":27.73,"20240103":26.87,"20240104":26.78,"20240105":26.62,"20240106":26.45,"20240107":27.4,"20240108":28.07,"20240109":28.18,"20240110":28.55,"20240111":28.95,"20240112":29.02,"20240113":28.82,"20240114":28.16,"20240115":27.53,"20240116":27.52,"20240117":27.66,"20240118":28.47,"20240119":29.62,"20240120":29.42,"20240121":28.93,"20240122":29.53,"20240123":25.61,"20240124":25.82,"20240125":25.4,"20240126":26.72,"20240127":27.92,"20240128":28.01,"20240129":28.87,"20240130":29.58,"20240131":29.88,"20240201":29.82,"20240202":30.46,"20240203":30.48,"20240204":31.3,"20240205":31.35,"20240206":30.88,"20240207":30.69,"20240208":30.19,"20240209":31.14,"20240210":28.73,"20240211":27.85,"20240212":27.47,"20240213":28.73,"20240214":29.93,"20240215":31.36,"20240216":31.42,"20240217":30.04,"20240218":29.64,"20240219":30.13,"20240220":31.0,"20240221":31.06,"20240222":31.46,"20240223":31.69,"20240224":31.9,"20240225":31.96,"20240226":32.11,"20240227":32.15,"20240228":31.76,"20240229":31.57,"20240301":32.2,"20240302":31.58,"20240303":32.2,"20240304":32.67,"20240305":32.42,"20240306":32.46,"20240307":33.18,"20240308":32.05,"20240309":30.93,"20240310":32.15,"20240311":32.26,"20240312":31.1,"20240313":31.6,"20240314":32.47,"20240315":32.72,"20240316":31.81,"20240317":31.87,"20240318":32.41,"20240319":31.41,"20240320":28.38,"20240321":29.34,"20240322":30.81,"20240323":30.68,"20240324":31.65,"20240325":32.33,"20240326":31.38,"20240327":31.75,"20240328":31.13,"20240329":31.71,"20240330":32.85,"20240331":33.66,"20240401":33.91,"20240402":33.5,"20240403":33.24,"20240404":33.36,"20240405":33.41,"20240406":33.31,"20240407":33.24,"20240408":34.32,"20240409":34.29,"20240410":33.0,"20240411":33.91,"20240412":34.09,"20240413":33.8,"20240414":33.56,"20240415":33.77,"20240416":33.83,"20240417":33.97,"20240418":34.89,"20240419":34.97,"20240420":35.47,"20240421":35.34,"20240422":35.08,"20240423":34.1,"20240424":34.33,"20240425":34.7,"20240426":35.12,"20240427":35.42,"20240428":34.83,"20240429":35.48,"20240430":35.99,"20240501":36.18,"20240502":34.86,"20240503":35.45,"20240504":35.37,"20240505":35.68,"20240506":34.86,"20240507":29.93,"20240508":31.99,"20240509":31.62,"20240510":31.32,"20240511":30.93,"20240512":32.74,"20240513":29.74,"20240514":31.13,"20240515":31.52,"20240516":31.38,"20240517":30.71,"20240518":31.23,"20240519":30.17,"20240520":30.74,"20240521":29.58,"20240522":29.31,"20240523":28.42,"20240524":28.35,"20240525":29.13,"20240526":29.82,"20240527":30.63,"20240528":30.86,"20240529":30.12,"20240530":29.17,"20240531":29.26,"20240601":28.73,"20240602":29.38,"20240603":29.76,"20240604":29.42,"20240605":29.43,"20240606":29.65,"20240607":29.41,"20240608":28.91,"20240609":28.75,"20240610":28.1,"20240611":28.7,"20240612":29.39,"20240613":30.4,"20240614":30.44,"20240615":31.22,"20240616":31.21,"20240617":30.04,"20240618":30.1,"20240619":30.42,"20240620":30.47,"20240621":29.25,"20240622":28.93,"20240623":28.29,"20240624":27.95,"20240625":27.99,"20240626":28.22,"20240627":30.04,"20240628":29.18,"20240629":28.88,"20240630":28.73,"20240701":28.04,"20240702":30.0,"20240703":28.92,"20240704":28.17,"20240705":28.05,"20240706":28.91,"20240707":28.82,"20240708":28.51,"20240709":29.32,"20240710":28.54,"20240711":28.39,"20240712":27.06,"20240713":27.74,"20240714":28.32,"20240715":27.55,"20240716":27.0,"20240717":27.49,"20240718":27.89,"20240719":28.43,"20240720":28.61,"20240721":28.22,"20240722":28.2,"20240723":28.12,"20240724":27.79,"20240725":27.66,"20240726":27.8,"20240727":28.96,"20240728":27.5,"20240729":27.58,"20240730":28.49,"20240731":28.41,"20240801":28.45,"20240802":28.69,"20240803":28.05,"20240804":27.89,"20240805":28.37,"20240806":28.39,"20240807":28.27,"20240808":28.58,"20240809":29.26,"20240810":29.08,"20240811":28.58,"20240812":28.81,"20240813":29.18,"20240814":29.49,"20240815":29.39,"20240816":29.53,"20240817":29.5,"20240818":29.66,"20240819":29.08,"20240820":28.78,"20240821":28.68,"20240822":29.24,"20240823":28.9,"20240824":28.81,"20240825":27.88,"20240826":28.65,"20240827":28.43,"20240828":27.92,"20240829":27.87,"20240830":28.15,"20240831":28.36,"20240901":28.31,"20240902":27.12,"20240903":27.45,"20240904":27.47,"20240905":27.91,"20240906":27.75,"20240907":28.01,"20240908":28.34,"20240909":28.12,"20240910":28.65,"20240911":28.61,"20240912":28.54,"20240913":28.27,"20240914":27.21,"20240915":27.22,"20240916":28.76,"20240917":28.29,"20240918":26.75,"20240919":28.58,"20240920":28.14,"20240921":27.99,"20240922":27.98,"20240923":28.62,"20240924":27.23,"20240925":27.39,"20240926":29.06,"20240927":28.73,"20240928":28.52,"20240929":28.84,"20240930":28.43,"20241001":28.69,"20241002":27.95,"20241003":27.52,"20241004":28.14,"20241005":27.73,"20241006":28.01,"20241007":28.08,"20241008":27.98,"20241009":27.31,"20241010":27.86,"20241011":27.69,"20241012":28.67,"20241013":27.34,"20241014":28.74,"20241015":29.81,"20241016":28.54,"20241017":28.38,"20241018":28.01,"20241019":27.73,"20241020":26.78,"20241021":29.02,"20241022":28.83,"20241023":27.23,"20241024":27.94,"20241025":28.62,"20241026":28.45,"20241027":26.48,"20241028":27.14,"20241029":28.13,"20241030":28.48,"20241031":28.66,"20241101":28.89,"20241102":26.67,"20241103":26.73,"20241104":27.18,"20241105":26.83,"20241106":26.01,"20241107":26.64,"20241108":26.25,"20241109":25.58,"20241110":25.89,"20241111":26.68,"20241112":27.53,"20241113":28.17,"20241114":28.82,"20241115":26.47,"20241116":28.58,"20241117":27.42,"20241118":26.42,"20241119":27.13,"20241120":26.06,"20241121":25.69,"20241122":26.12,"20241123":26.93,"20241124":26.83,"20241125":27.25,"20241126":27.36,"20241127":26.34,"20241128":24.59,"20241129":22.8,"20241130":22.6,"20241201":24.22,"20241202":26.06,"20241203":26.85,"20241204":26.64,"20241205":25.82,"20241206":26.52,"20241207":27.2,"20241208":25.74,"20241209":24.97,"20241210":26.06,"20241211":27.03,"20241212":27.08,"20241213":24.87,"20241214":24.09,"20241215":22.89,"20241216":21.92,"20241217":23.68,"20241218":24.24,"20241219":22.99,"20241220":22.27,"20241221":22.92,"20241222":22.06,"20241223":22.69,"20241224":23.83,"20241225":24.29,"20241226":26.23,"20241227":27.24,"20241228":24.62,"20241229":24.21,"20241230":24.2,"20241231":24.0},"T2M_MAX":{"20240101":34.66,"20240102":34.68,"20240103":35.07,"20240104":33.41,"20240105":34.19,"20240106":34.49,"20240107":34.58,"20240108":35.19,"20240109":35.54,"20240110":35.9,"20240111":35.26,"20240112":34.95,"20240113":34.44,"20240114":34.48,"20240115":34.4,"20240116":34.92,"20240117":35.02,"20240118":35.74,"20240119":36.14,"20240120":36.25,"20240121":36.61,"20240122":36.07,"20240123":31.62,"20240124":32.33,"20240125":31.73,"20240126":33.0,"20240127":34.64,"20240128":34.72,"20240129":35.02,"20240130":36.0,"20240131":36.33,"20240201":35.85,"20240202":37.03,"20240203":37.2,"20240204":38.01,"20240205":38.91,"20240206":38.8,"20240207":39.18,"20240208":38.54,"20240209":38.41,"20240210":35.01,"20240211":35.43,"20240212":35.44,"20240213":37.16,"20240214":37.9,"20240215":39.31,"20240216":38.49,"20240217":36.48,"20240218":35.98,"20240219":37.11,"20240220":38.35,"20240221":38.33,"20240222":38.94,"20240223":38.48,"20240224":38.57,"20240225":38.82,"20240226":39.27,"20240227":38.91,"20240228":38.66,"20240229":37.84,"20240301":38.29,"20240302":38.15,"20240303":38.49,"20240304":39.62,"20240305":41.04,"20240306":41.01,"20240307":41.53,"20240308":38.32,"20240309":35.93,"20240310":38.71,"20240311":38.08,"20240312":36.92,"20240313":38.0,"20240314":39.82,"20240315":39.55,"20240316":37.99,"20240317":39.92,"20240318":39.33,"20240319":38.25,"20240320":34.79,"20240321":35.13,"20240322":36.87,"20240323":36.74,"20240324":38.47,"20240325":39.11,"20240326":37.64,"20240327":38.23,"20240328":37.01,"20240329":38.4,"20240330":40.6,"20240331":41.62,"20240401":42.71,"20240402":42.05,"20240403":41.6,"20240404":42.08,"20240405":41.73,"20240406":40.61,"20240407":40.3,"20240408":41.98,"20240409":41.24,"20240410":37.62,"20240411":40.61,"20240412":41.17,"20240413":40.55,"20240414":39.98,"20240415":40.96,"20240416":41.22,"20240417":40.85,"20240418":42.62,"20240419":42.27,"20240420":43.06,"20240421":43.12,"20240422":42.53,"20240423":41.62,"20240424":42.2,"20240425":42.83,"20240426":43.2,"20240427":44.11,"20240428":42.87,"20240429":43.93,"20240430":44.43,"20240501":43.56,"20240502":42.74,"20240503":43.12,"20240504":42.79,"20240505":42.74,"20240506":41.78,"20240507":34.36,"20240508":38.65,"20240509":37.06,"20240510":36.77,"20240511":34.84,"20240512":38.79,"20240513":34.43,"20240514":35.2,"20240515":36.64,"20240516":36.35,"20240517":35.62,"20240518":36.16,"20240519":33.91,"20240520":34.72,"20240521":33.28,"20240522":32.84,"20240523":31.06,"20240524":30.88,"20240525":32.02,"20240526":34.37,"20240527":35.74,"20240528":35.69,"20240529":35.39,"20240530":32.31,"20240531":32.34,"20240601":31.59,"20240602":33.25,"20240603":34.66,"20240604":34.74,"20240605":35.18,"20240606":34.26,"20240607":34.49,"20240608":33.28,"20240609":33.21,"20240610":31.49,"20240611":32.68,"20240612":34.59,"20240613":36.02,"20240614":35.5,"20240615":37.09,"20240616":37.43,"20240617":34.66,"20240618":36.16,"20240619":36.52,"20240620":36.29,"20240621":33.18,"20240622":32.55,"20240623":31.67,"20240624":31.17,"20240625":31.65,"20240626":32.07,"20240627":34.48,"20240628":33.43,"20240629":32.46,"20240630":32.76,"20240701":32.29,"20240702":35.57,"20240703":33.16,"20240704":32.04,"20240705":32.0,"20240706":33.29,"20240707":32.75,"20240708":31.76,"20240709":33.07,"20240710":31.84,"20240711":33.39,"20240712":29.88,"20240713":31.91,"20240714":32.73,"20240715":30.84,"20240716":29.8,"20240717":30.8,"20240718":31.19,"20240719":32.53,"20240720":33.01,"20240721":33.34,"20240722":33.27,"20240723":33.42,"20240724":31.4,"20240725":31.03,"20240726":31.45,"20240727":32.81,"20240728":30.24,"20240729":30.9,"20240730":32.71,"20240731":32.42,"20240801":32.47,"20240802":32.31,"20240803":30.53,"20240804":32.13,"20240805":32.46,"20240806":32.05,"20240807":31.84,"20240808":32.02,"20240809":33.63,"20240810":32.93,"20240811":32.07,"20240812":33.13,"20240813":33.36,"20240814":33.91,"20240815":33.58,"20240816":33.92,"20240817":33.73,"20240818":33.56,"20240819":32.51,"20240820":31.54,"20240821":31.72,"20240822":33.47,"20240823":32.52,"20240824":32.16,"20240825":31.09,"20240826":31.86,"20240827":31.77,"20240828":31.6,"20240829":31.66,"20240830":32.89,"20240831":32.96,"20240901":32.13,"20240902":29.17,"20240903":30.29,"20240904":30.93,"20240905":32.27,"20240906":31.61,"20240907":33.15,"20240908":32.42,"20240909":32.01,"20240910":32.94,"20240911":32.83,"20240912":32.55,"20240913":31.91,"20240914":31.47,"20240915":31.43,"20240916":33.23,"20240917":31.89,"20240918":29.37,"20240919":32.19,"20240920":31.39,"20240921":31.59,"20240922":31.41,"20240923":32.38,"20240924":30.25,"20240925":30.03,"20240926":32.56,"20240927":31.75,"20240928":32.12,"20240929":32.38,"20240930":32.3,"20241001":32.3,"20241002":30.73,"20241003":30.03,"20241004":31.79,"20241005":31.76,"20241006":31.64,"20241007":32.01,"20241008":31.52,"20241009":29.86,"20241010":30.97,"20241011":30.8,"20241012":32.22,"20241013":30.29,"20241014":31.81,"20241015":33.71,"20241016":32.09,"20241017":31.52,"20241018":31.65,"20241019":31.26,"20241020":29.03,"20241021":32.39,"20241022":32.38,"20241023":30.76,"20241024":32.12,"20241025":32.7,"20241026":32.07,"20241027":30.13,"20241028":31.7,"20241029":31.56,"20241030":31.79,"20241031":32.34,"20241101":32.85,"20241102":31.2,"20241103":31.25,"20241104":31.44,"20241105":30.27,"20241106":29.75,"20241107":30.58,"20241108":30.57,"20241109":30.7,"20241110":31.47,"20241111":31.76,"20241112":32.04,"20241113":32.55,"20241114":32.91,"20241115":28.46,"20241116":32.92,"20241117":31.15,"20241118":30.89,"20241119":31.83,"20241120":30.56,"20241121":29.58,"20241122":29.92,"20241123":31.12,"20241124":31.36,"20241125":32.14,"20241126":31.88,"20241127":31.25,"20241128":29.95,"20241129":28.14,"20241130":28.45,"20241201":29.97,"20241202":31.62,"20241203":32.12,"20241204":31.77,"20241205":30.57,"20241206":31.88,"20241207":32.68,"20241208":30.62,"20241209":30.92,"20241210":31.58,"20241211":31.64,"20241212":31.34,"20241213":29.62,"20241214":29.76,"20241215":28.74,"20241216":28.01,"20241217":29.99,"20241218":30.79,"20241219":30.13,"20241220":29.42,"20241221":30.27,"20241222":28.62,"20241223":29.35,"20241224":30.79,"20241225":31.42,"20241226":32.46,"20241227":33.64,"20241228":30.46,"20241229":31.42,"20241230":32.37,"20241231":31.82},"T2M_MIN":{"20240101":23.39,"20240102":20.85,"20240103":20.58,"20240104":20.63,"20240105":19.18,"20240106":19.82,"20240107":20.89,"20240108":22.58,"20240109":21.58,"20240110":23.34,"20240111":24.15,"20240112":24.57,"20240113":23.76,"20240114":22.21,"20240115":21.41,"20240116":21.04,"20240117":21.73,"20240118":22.21,"20240119":24.26,"20240120":23.18,"20240121":21.42,"20240122":23.18,"20240123":20.49,"20240124":20.95,"20240125":20.75,"20240126":21.45,"20240127":22.23,"20240128":21.73,"20240129":23.08,"20240130":24.32,"20240131":24.98,"20240201":25.2,"20240202":25.42,"20240203":25.18,"20240204":25.8,"20240205":24.1,"20240206":24.41,"20240207":23.41,"20240208":23.84,"20240209":26.2,"20240210":21.83,"20240211":21.14,"20240212":20.34,"20240213":20.97,"20240214":23.47,"20240215":25.5,"20240216":25.84,"20240217":25.82,"20240218":24.32,"20240219":24.91,"20240220":25.42,"20240221":25.92,"20240222":25.71,"20240223":26.34,"20240224":26.92,"20240225":26.45,"20240226":26.34,"20240227":26.52,"20240228":26.84,"20240229":26.93,"20240301":27.61,"20240302":26.98,"20240303":27.59,"20240304":27.15,"20240305":25.46,"20240306":26.32,"20240307":27.0,"20240308":27.72,"20240309":27.62,"20240310":27.92,"20240311":27.79,"20240312":26.79,"20240313":27.15,"20240314":26.66,"20240315":28.11,"20240316":27.76,"20240317":25.24,"20240318":28.08,"20240319":26.26,"20240320":23.46,"20240321":24.87,"20240322":26.79,"20240323":26.48,"20240324":26.5,"20240325":27.61,"20240326":26.81,"20240327":27.45,"20240328":27.13,"20240329":26.86,"20240330":27.29,"20240331":27.54,"20240401":27.01,"20240402":27.36,"20240403":27.36,"20240404":27.26,"20240405":27.34,"20240406":28.35,"20240407":28.07,"20240408":28.57,"20240409":29.28,"20240410":28.82,"20240411":28.42,"20240412":28.94,"20240413":28.6,"20240414":28.71,"20240415":28.39,"20240416":28.81,"20240417":28.72,"20240418":29.48,"20240419":29.42,"20240420":29.58,"20240421":29.57,"20240422":30.01,"20240423":28.3,"20240424":28.19,"20240425":28.51,"20240426":29.06,"20240427":29.26,"20240428":28.92,"20240429":29.05,"20240430":30.12,"20240501":30.6,"20240502":29.16,"20240503":29.63,"20240504":30.08,"20240505":30.48,"20240506":29.55,"20240507":26.12,"20240508":27.33,"20240509":27.95,"20240510":28.06,"20240511":27.12,"20240512":28.29,"20240513":27.06,"20240514":27.65,"20240515":27.65,"20240516":27.55,"20240517":27.2,"20240518":27.81,"20240519":27.55,"20240520":28.06,"20240521":27.06,"20240522":26.93,"20240523":26.61,"20240524":26.95,"20240525":26.62,"20240526":26.71,"20240527":26.42,"20240528":26.45,"20240529":27.03,"20240530":27.11,"20240531":27.0,"20240601":26.32,"20240602":25.6,"20240603":25.86,"20240604":24.76,"20240605":24.95,"20240606":25.66,"20240607":25.43,"20240608":25.67,"20240609":25.44,"20240610":25.22,"20240611":25.11,"20240612":24.73,"20240613":25.53,"20240614":26.38,"20240615":26.23,"20240616":26.18,"20240617":26.42,"20240618":25.31,"20240619":25.58,"20240620":25.98,"20240621":26.33,"20240622":25.93,"20240623":25.56,"20240624":25.83,"20240625":24.91,"20240626":25.21,"20240627":27.0,"20240628":26.53,"20240629":26.19,"20240630":24.91,"20240701":24.59,"20240702":25.24,"20240703":25.77,"20240704":25.19,"20240705":24.96,"20240706":25.11,"20240707":25.91,"20240708":25.94,"20240709":26.29,"20240710":25.57,"20240711":24.64,"20240712":24.66,"20240713":24.63,"20240714":24.71,"20240715":24.93,"20240716":24.84,"20240717":25.54,"20240718":25.2,"20240719":25.37,"20240720":24.96,"20240721":24.06,"20240722":24.63,"20240723":24.69,"20240724":24.96,"20240725":25.13,"20240726":25.17,"20240727":26.05,"20240728":25.05,"20240729":24.67,"20240730":25.38,"20240731":25.4,"20240801":25.11,"20240802":25.83,"20240803":24.85,"20240804":24.15,"20240805":24.83,"20240806":25.11,"20240807":25.55,"20240808":25.6,"20240809":25.94,"20240810":25.87,"20240811":25.58,"20240812":25.24,"20240813":25.83,"20240814":25.7,"20240815":26.08,"20240816":26.04,"20240817":26.32,"20240818":26.51,"20240819":26.21,"20240820":26.17,"20240821":25.27,"20240822":25.41,"20240823":25.99,"20240824":25.3,"20240825":24.88,"20240826":25.37,"20240827":25.77,"20240828":24.81,"20240829":24.71,"20240830":24.17,"20240831":24.57,"20240901":25.3,"20240902":25.61,"20240903":24.81,"20240904":24.86,"20240905":24.85,"20240906":24.4,"20240907":24.39,"20240908":24.9,"20240909":25.24,"20240910":25.43,"20240911":24.79,"20240912":25.14,"20240913":25.05,"20240914":23.81,"20240915":23.76,"20240916":25.17,"20240917":24.9,"20240918":24.82,"20240919":25.41,"20240920":25.16,"20240921":25.3,"20240922":24.99,"20240923":25.98,"20240924":23.81,"20240925":24.11,"20240926":26.0,"20240927":25.84,"20240928":26.0,"20240929":25.85,"20240930":25.24,"20241001":26.09,"20241002":25.84,"20241003":25.21,"20241004":24.88,"20241005":24.51,"20241006":25.11,"20241007":25.12,"20241008":24.97,"20241009":24.83,"20241010":25.31,"20241011":24.41,"20241012":25.79,"20241013":25.31,"20241014":25.43,"20241015":26.17,"20241016":25.26,"20241017":25.98,"20241018":24.9,"20241019":25.36,"20241020":25.36,"20241021":25.64,"20241022":25.27,"20241023":24.53,"20241024":24.46,"20241025":25.1,"20241026":23.71,"20241027":23.42,"20241028":23.28,"20241029":24.66,"20241030":25.51,"20241031":25.05,"20241101":25.34,"20241102":22.85,"20241103":23.26,"20241104":24.02,"20241105":24.05,"20241106":23.01,"20241107":23.12,"20241108":22.46,"20241109":21.18,"20241110":21.35,"20241111":22.39,"20241112":23.32,"20241113":23.82,"20241114":25.23,"20241115":24.96,"20241116":24.78,"20241117":22.92,"20241118":22.75,"20241119":23.12,"20241120":22.28,"20241121":22.32,"20241122":22.66,"20241123":23.66,"20241124":22.87,"20241125":23.39,"20241126":23.22,"20241127":21.58,"20241128":19.32,"20241129":17.57,"20241130":17.51,"20241201":19.28,"20241202":20.77,"20241203":21.88,"20241204":21.76,"20241205":21.17,"20241206":21.65,"20241207":22.71,"20241208":20.6,"20241209":19.76,"20241210":21.52,"20241211":23.1,"20241212":23.47,"20241213":20.75,"20241214":19.09,"20241215":18.31,"20241216":17.39,"20241217":18.97,"20241218":18.3,"20241219":16.75,"20241220":16.01,"20241221":17.34,"20241222":16.73,"20241223":17.83,"20241224":17.89,"20241225":19.26,"20241226":21.05,"20241227":22.25,"20241228":18.41,"20241229":18.39,"20241230":17.73,"20241231":17.69},"PRECTOTCORR":{"20240101":0.0,"20240102":0.0,"20240103":0.0,"20240104":0.0,"20240105":0.0,"20240106":0.0,"20240107":0.0,"20240108":0.0,"20240109":0.0,"20240110":0.0,"20240111":0.0,"20240112":0.0,"20240113":0.03,"20240114":0.0,"20240115":0.0,"20240116":0.0,"20240117":0.0,"20240118":0.0,"20240119":0.0,"20240120":0.0,"20240121":0.0,"20240122":0.0,"20240123":0.18,"20240124":0.21,"20240125":0.25,"20240126":0.03,"20240127":0.0,"20240128":0.0,"20240129":0.0,"20240130":0.32,"20240131":0.0,"20240201":0.13,"20240202":0.0,"20240203":0.0,"20240204":0.0,"20240205":0.18,"20240206":0.06,"20240207":0.0,"20240208":0.0,"20240209":0.0,"20240210":0.77,"20240211":0.0,"20240212":0.0,"20240213":0.0,"20240214":0.0,"20240215":0.0,"20240216":0.01,"20240217":2.71,"20240218":0.0,"20240219":0.0,"20240220":0.0,"20240221":0.0,"20240222":0.0,"20240223":0.0,"20240224":0.0,"20240225":0.0,"20240226":0.0,"20240227":0.01,"20240228":0.22,"20240229":0.17,"20240301":0.01,"20240302":0.79,"20240303":0.03,"20240304":0.0,"20240305":0.0,"20240306":0.0,"20240307":0.0,"20240308":0.0,"20240309":0.01,"20240310":0.0,"20240311":0.02,"20240312":5.68,"20240313":0.52,"20240314":0.0,"20240315":0.32,"20240316":0.5,"20240317":0.0,"20240318":0.0,"20240319":7.67,"20240320":11.37,"20240321":0.0,"20240322":0.2,"20240323":0.12,"20240324":0.14,"20240325":0.0,"20240326":5.5,"20240327":0.07,"20240328":0.49,"20240329":0.08,"20240330":0.0,"20240331":0.0,"20240401":0.0,"20240402":0.0,"20240403":0.0,"20240404":0.0,"20240405":0.0,"20240406":0.0,"20240407":0.0,"20240408":2.1,"20240409":0.35,"20240410":0.71,"20240411":0.07,"20240412":0.0,"20240413":0.94,"20240414":0.04,"20240415":0.01,"20240416":0.0,"20240417":0.02,"20240418":0.09,"20240419":0.03,"20240420":0.0,"20240421":0.0,"20240422":0.0,"20240423":0.0,"20240424":0.0,"20240425":0.0,"20240426":0.02,"20240427":0.0,"20240428":0.0,"20240429":0.0,"20240430":0.0,"20240501":0.0,"20240502":0.0,"20240503":0.0,"20240504":0.93,"20240505":0.0,"20240506":5.24,"20240507":18.55,"20240508":1.67,"20240509":2.51,"20240510":6.51,"20240511":2.99,"20240512":1.82,"20240513":22.7,"20240514":0.0,"20240515":2.59,"20240516":6.75,"20240517":0.85,"20240518":1.03,"20240519":30.15,"20240520":10.86,"20240521":22.64,"20240522":16.5,"20240523":18.02,"20240524":1.41,"20240525":2.9,"20240526":3.38,"20240527":0.44,"20240528":0.36,"20240529":9.9,"20240530":26.38,"20240531":14.8,"20240601":2.59,"20240602":0.19,"20240603":7.58,"20240604":6.14,"20240605":0.32,"20240606":0.79,"20240607":5.82,"20240608":1.87,"20240609":0.39,"20240610":2.53,"20240611":0.27,"20240612":1.92,"20240613":0.03,"20240614":0.92,"20240615":0.05,"20240616":3.07,"20240617":0.49,"20240618":0.26,"20240619":7.14,"20240620":4.42,"20240621":0.18,"20240622":3.97,"20240623":4.22,"20240624":2.42,"20240625":18.59,"20240626":9.08,"20240627":4.15,"20240628":3.08,"20240629":6.67,"20240630":13.97,"20240701":2.33,"20240702":1.52,"20240703":8.25,"20240704":21.49,"20240705":9.12,"20240706":2.32,"20240707":2.53,"20240708":4.15,"20240709":0.66,"20240710":9.2,"20240711":11.69,"20240712":10.09,"20240713":1.33,"20240714":6.37,"20240715":11.45,"20240716":1.46,"20240717":7.02,"20240718":6.28,"20240719":10.42,"20240720":1.58,"20240721":12.32,"20240722":1.52,"20240723":11.32,"20240724":3.18,"20240725":4.56,"20240726":3.2,"20240727":27.31,"20240728":9.1,"20240729":18.58,"20240730":0.9,"20240731":0.56,"20240801":9.29,"20240802":0.52,"20240803":32.52,"20240804":24.21,"20240805":0.93,"20240806":15.84,"20240807":15.28,"20240808":0.09,"20240809":0.2,"20240810":1.58,"20240811":0.49,"20240812":10.62,"20240813":3.32,"20240814":6.83,"20240815":7.46,"20240816":1.46,"20240817":3.51,"20240818":4.21,"20240819":9.89,"20240820":20.83,"20240821":2.21,"20240822":1.38,"20240823":0.64,"20240824":14.67,"20240825":1.22,"20240826":11.99,"20240827":14.07,"20240828":12.84,"20240829":7.22,"20240830":2.29,"20240831":0.98,"20240901":32.45,"20240902":19.93,"20240903":16.11,"20240904":4.4,"20240905":2.94,"20240906":0.18,"20240907":1.41,"20240908":2.46,"20240909":0.71,"20240910":6.59,"20240911":10.43,"20240912":8.02,"20240913":15.79,"20240914":20.42,"20240915":11.32,"20240916":3.15,"20240917":15.66,"20240918":18.02,"20240919":2.99,"20240920":25.68,"20240921":14.79,"20240922":11.25,"20240923":10.16,"20240924":7.55,"20240925":4.83,"20240926":13.73,"20240927":2.91,"20240928":1.11,"20240929":0.1,"20240930":10.21,"20241001":23.18,"20241002":16.36,"20241003":22.93,"20241004":3.78,"20241005":0.43,"20241006":3.97,"20241007":0.3,"20241008":6.85,"20241009":4.75,"20241010":5.39,"20241011":2.7,"20241012":4.74,"20241013":7.0,"20241014":1.87,"20241015":2.4,"20241016":1.46,"20241017":2.16,"20241018":27.14,"20241019":19.28,"20241020":10.84,"20241021":8.33,"20241022":23.96,"20241023":2.06,"20241024":7.96,"20241025":0.02,"20241026":0.07,"20241027":9.67,"20241028":1.69,"20241029":9.29,"20241030":3.54,"20241031":0.28,"20241101":4.03,"20241102":0.12,"20241103":0.0,"20241104":1.57,"20241105":1.4,"20241106":1.78,"20241107":0.14,"20241108":0.1,"20241109":0.0,"20241110":0.0,"20241111":0.0,"20241112":0.0,"20241113":0.0,"20241114":4.41,"20241115":1.59,"20241116":2.08,"20241117":16.13,"20241118":0.01,"20241119":0.74,"20241120":0.0,"20241121":0.0,"20241122":0.01,"20241123":0.0,"20241124":0.0,"20241125":0.0,"20241126":0.01,"20241127":0.0,"20241128":0.0,"20241129":0.0,"20241130":0.0,"20241201":0.0,"20241202":0.0,"20241203":0.0,"20241204":0.0,"20241205":0.0,"20241206":0.0,"20241207":0.0,"20241208":0.0,"20241209":0.0,"20241210":0.0,"20241211":0.0,"20241212":0.16,"20241213":1.18,"20241214":0.0,"20241215":0.0,"20241216":0.0,"20241217":0.0,"20241218":0.0,"20241219":0.0,"20241220":0.0,"20241221":0.0,"20241222":0.0,"20241223":0.0,"20241224":0.0,"20241225":0.0,"20241226":0.0,"20241227":0.0,"20241228":0.0,"20241229":0.0,"20241230":0.0,"20241231":0.0},"WS10M":{"20240101":2.29,"20240102":2.49,"20240103":3.25,"20240104":2.94,"20240105":2.79,"20240106":2.83,"20240107":2.68,"20240108":1.77,"20240109":1.71,"20240110":2.07,"20240111":1.8,"20240112":1.81,"20240113":1.61,"20240114":3.13,"20240115":3.34,"20240116":3.09,"20240117":2.36,"20240118":1.77,"20240119":1.42,"20240120":1.57,"20240121":1.73,"20240122":1.15,"20240123":4.22,"20240124":4.02,"20240125":4.3,"20240126":3.04,"20240127":3.09,"20240128":3.29,"20240129":1.97,"20240130":2.04,"20240131":1.54,"20240201":1.83,"20240202":1.98,"20240203":2.52,"20240204":1.55,"20240205":1.46,"20240206":1.73,"20240207":1.89,"20240208":2.54,"20240209":3.0,"20240210":4.34,"20240211":4.37,"20240212":3.31,"20240213":2.4,"20240214":2.31,"20240215":2.01,"20240216":2.51,"20240217":3.09,"20240218":3.47,"20240219":3.78,"20240220":4.18,"20240221":3.9,"20240222":3.75,"20240223":3.19,"20240224":3.28,"20240225":2.74,"20240226":2.65,"20240227":2.92,"20240228":3.24,"20240229":3.37,"20240301":2.51,"20240302":2.7,"20240303":3.2,"20240304":3.61,"20240305":3.11,"20240306":3.55,"20240307":3.4,"20240308":4.21,"20240309":4.09,"20240310":3.67,"20240311":3.58,"20240312":3.88,"20240313":3.54,"20240314":3.2,"20240315":3.85,"20240316":4.07,"20240317":3.62,"20240318":3.86,"20240319":3.7,"20240320":3.27,"20240321":2.25,"20240322":3.28,"20240323":4.55,"20240324":3.23,"20240325":3.24,"20240326":3.3,"20240327":3.15,"20240328":3.15,"20240329":3.7,"20240330":4.27,"20240331":3.9,"20240401":3.13,"20240402":4.05,"20240403":4.01,"20240404":3.8,"20240405":4.17,"20240406":4.65,"20240407":4.42,"20240408":3.82,"20240409":3.18,"20240410":1.84,"20240411":2.81,"20240412":3.36,"20240413":3.8,"20240414":4.1,"20240415":4.34,"20240416":4.34,"20240417":4.13,"20240418":4.41,"20240419":3.87,"20240420":3.76,"20240421":3.86,"20240422":4.83,"20240423":4.32,"20240424":4.27,"20240425":4.02,"20240426":4.53,"20240427":4.23,"20240428":4.34,"20240429":4.19,"20240430":4.51,"20240501":3.98,"20240502":4.38,"20240503":3.96,"20240504":3.98,"20240505":3.42,"20240506":4.01,"20240507":2.62,"20240508":2.15,"20240509":3.02,"20240510":2.32,"20240511":0.98,"20240512":1.71,"20240513":2.17,"20240514":1.68,"20240515":1.36,"20240516":2.09,"20240517":2.46,"20240518":2.84,"20240519":2.56,"20240520":2.0,"20240521":1.53,"20240522":1.69,"20240523":2.57,"20240524":2.91,"20240525":3.1,"20240526":2.86,"20240527":2.98,"20240528":2.81,"20240529":2.76,"20240530":2.3,"20240531":3.28,"20240601":2.85,"20240602":2.64,"20240603":3.13,"20240604":3.11,"20240605":3.6,"20240606":2.92,"20240607":3.37,"20240608":3.62,"20240609":3.74,"20240610":3.67,"20240611":3.49,"20240612":3.32,"20240613":3.26,"20240614":2.63,"20240615":2.77,"20240616":2.79,"20240617":2.56,"20240618":2.74,"20240619":3.0,"20240620":3.13,"20240621":3.13,"20240622":3.97,"20240623":3.18,"20240624":3.15,"20240625":3.75,"20240626":3.48,"20240627":2.52,"20240628":2.6,"20240629":2.76,"20240630":2.27,"20240701":3.01,"20240702":2.67,"20240703":1.9,"20240704":2.17,"20240705":2.46,"20240706":2.45,"20240707":1.92,"20240708":1.85,"20240709":2.1,"20240710":2.26,"20240711":3.26,"20240712":3.48,"20240713":3.69,"20240714":3.44,"20240715":3.0,"20240716":3.39,"20240717":3.07,"20240718":3.19,"20240719":3.48,"20240720":3.19,"20240721":3.23,"20240722":3.76,"20240723":4.31,"20240724":4.62,"20240725":5.01,"20240726":3.89,"20240727":3.6,"20240728":3.34,"20240729":3.13,"20240730":3.06,"20240731":2.78,"20240801":2.35,"20240802":1.54,"20240803":1.52,"20240804":2.5,"20240805":2.86,"20240806":2.69,"20240807":2.11,"20240808":2.12,"20240809":2.45,"20240810":2.55,"20240811":2.84,"20240812":2.9,"20240813":2.22,"20240814":2.34,"20240815":2.3,"20240816":2.32,"20240817":1.67,"20240818":1.97,"20240819":2.06,"20240820":1.72,"20240821":1.9,"20240822":2.23,"20240823":1.76,"20240824":1.92,"20240825":2.18,"20240826":2.04,"20240827":2.51,"20240828":2.14,"20240829":2.93,"20240830":3.12,"20240831":3.54,"20240901":2.7,"20240902":2.21,"20240903":2.33,"20240904":3.17,"20240905":3.55,"20240906":3.36,"20240907":4.14,"20240908":3.78,"20240909":3.21,"20240910":3.11,"20240911":2.41,"20240912":2.3,"20240913":2.69,"20240914":3.19,"20240915":3.97,"20240916":3.38,"20240917":2.76,"20240918":1.95,"20240919":1.49,"20240920":2.99,"20240921":3.0,"20240922":2.67,"20240923":1.85,"20240924":1.58,"20240925":1.24,"20240926":0.91,"20240927":1.35,"20240928":1.78,"20240929":2.05,"20240930":1.9,"20241001":2.07,"20241002":2.14,"20241003":1.56,"20241004":1.97,"20241005":2.58,"20241006":2.33,"20241007":2.36,"20241008":2.39,"20241009":1.46,"20241010":1.97,"20241011":1.67,"20241012":1.85,"20241013":1.47,"20241014":1.21,"20241015":0.8,"20241016":1.57,"20241017":1.28,"20241018":1.36,"20241019":2.34,"20241020":2.55,"20241021":0.83,"20241022":1.18,"20241023":1.83,"20241024":2.02,"20241025":2.18,"20241026":2.33,"20241027":1.3,"20241028":2.0,"20241029":1.07,"20241030":0.97,"20241031":1.49,"20241101":1.68,"20241102":3.22,"20241103":2.78,"20241104":2.77,"20241105":2.9,"20241106":2.84,"20241107":3.46,"20241108":3.03,"20241109":2.77,"20241110":2.48,"20241111":2.4,"20241112":1.97,"20241113":1.97,"20241114":1.3,"20241115":1.91,"20241116":1.65,"20241117":2.07,"20241118":3.23,"20241119":3.18,"20241120":3.19,"20241121":2.71,"20241122":3.1,"20241123":3.17,"20241124":3.09,"20241125":3.05,"20241126":3.18,"20241127":3.86,"20241128":4.26,"20241129":3.78,"20241130":2.79,"20241201":2.49,"20241202":2.08,"20241203":2.4,"20241204":2.78,"20241205":2.74,"20241206":2.37,"20241207":2.67,"20241208":3.6,"20241209":2.72,"20241210":2.47,"20241211":2.91,"20241212":3.35,"20241213":3.86,"20241214":5.11,"20241215":4.68,"20241216":3.39,"20241217":3.12,"20241218":3.67,"20241219":3.87,"20241220":3.26,"20241221":3.46,"20241222":3.77,"20241223":3.39,"20241224":3.43,"20241225":3.43,"20241226":3.29,"20241227":3.4,"20241228":4.14,"20241229":3.25,"20241230":3.14,"20241231":3.48},"RH2M":{"20240101":71.53,"20240102":68.37,"20240103":61.49,"20240104":68.18,"20240105":64.25,"20240106":63.57,"20240107":66.5,"20240108":62.29,"20240109":63.42,"20240110":68.79,"20240111":71.78,"20240112":71.89,"20240113":71.95,"20240114":66.48,"20240115":63.24,"20240116":62.61,"20240117":63.18,"20240118":57.96,"20240119":60.24,"20240120":64.23,"20240121":62.14,"20240122":55.51,"20240123":55.12,"20240124":56.17,"20240125":59.08,"20240126":60.92,"20240127":58.89,"20240128":58.92,"20240129":59.27,"20240130":59.45,"20240131":63.48,"20240201":65.66,"20240202":64.38,"20240203":65.06,"20240204":61.22,"20240205":54.56,"20240206":57.75,"20240207":57.2,"20240208":62.69,"20240209":62.23,"20240210":53.53,"20240211":49.1,"20240212":50.63,"20240213":41.14,"20240214":51.21,"20240215":56.55,"20240216":60.25,"20240217":69.5,"20240218":67.7,"20240219":67.42,"20240220":59.99,"20240221":60.41,"20240222":60.87,"20240223":62.09,"20240224":59.33,"20240225":58.99,"20240226":58.05,"20240227":54.47,"20240228":61.21,"20240229":62.78,"20240301":56.67,"20240302":60.87,"20240303":59.03,"20240304":58.34,"20240305":57.78,"20240306":56.4,"20240307":56.4,"20240308":60.67,"20240309":60.81,"20240310":59.55,"20240311":59.51,"20240312":63.58,"20240313":61.51,"20240314":55.73,"20240315":58.72,"20240316":60.19,"20240317":55.34,"20240318":56.77,"20240319":64.53,"20240320":72.68,"20240321":66.54,"20240322":65.32,"20240323":69.57,"20240324":64.37,"20240325":62.43,"20240326":68.23,"20240327":65.25,"20240328":65.82,"20240329":65.52,"20240330":59.06,"20240331":53.73,"20240401":50.43,"20240402":54.39,"20240403":56.97,"20240404":59.31,"20240405":60.2,"20240406":60.25,"20240407":60.94,"20240408":52.32,"20240409":56.32,"20240410":60.68,"20240411":56.4,"20240412":55.22,"20240413":57.11,"20240414":58.81,"20240415":56.48,"20240416":54.16,"20240417":54.99,"20240418":51.05,"20240419":50.6,"20240420":46.9,"20240421":45.86,"20240422":51.98,"20240423":56.0,"20240424":53.75,"20240425":50.37,"20240426":50.23,"20240427":52.6,"20240428":55.08,"20240429":49.85,"20240430":47.28,"20240501":47.17,"20240502":54.83,"20240503":50.14,"20240504":52.31,"20240505":51.01,"20240506":54.84,"20240507":76.83,"20240508":62.27,"20240509":70.76,"20240510":70.79,"20240511":72.01,"20240512":65.62,"20240513":80.68,"20240514":70.75,"20240515":70.88,"20240516":74.78,"20240517":74.37,"20240518":72.32,"20240519":81.41,"20240520":79.0,"20240521":82.68,"20240522":83.52,"20240523":87.75,"20240524":87.92,"20240525":85.6,"20240526":80.37,"20240527":74.44,"20240528":74.13,"20240529":77.99,"20240530":85.75,"20240531":84.62,"20240601":84.49,"20240602":79.18,"20240603":77.64,"20240604":78.29,"20240605":72.32,"20240606":75.67,"20240607":74.82,"20240608":78.6,"20240609":76.84,"20240610":78.42,"20240611":77.0,"20240612":72.63,"20240613":71.17,"20240614":75.3,"20240615":69.84,"20240616":70.33,"20240617":74.74,"20240618":69.67,"20240619":71.06,"20240620":73.23,"20240621":75.97,"20240622":78.54,"20240623":79.64,"20240624":82.7,"20240625":81.81,"20240626":80.35,"20240627":77.31,"20240628":79.08,"20240629":83.17,"20240630":81.11,"20240701":79.84,"20240702":73.87,"20240703":77.57,"20240704":80.74,"20240705":82.77,"20240706":79.0,"20240707":80.46,"20240708":82.44,"20240709":79.14,"20240710":83.99,"20240711":80.31,"20240712":85.94,"20240713":82.35,"20240714":79.57,"20240715":84.36,"20240716":85.71,"20240717":85.61,"20240718":84.22,"20240719":82.75,"20240720":79.94,"20240721":79.58,"20240722":77.78,"20240723":79.71,"20240724":82.63,"20240725":81.4,"20240726":81.05,"20240727":84.56,"20240728":87.61,"20240729":87.24,"20240730":82.38,"20240731":82.06,"20240801":82.43,"20240802":80.17,"20240803":83.5,"20240804":83.44,"20240805":81.77,"20240806":83.23,"20240807":84.92,"20240808":82.62,"20240809":79.05,"20240810":81.96,"20240811":84.83,"20240812":83.39,"20240813":81.59,"20240814":79.62,"20240815":81.14,"20240816":80.5,"20240817":79.52,"20240818":81.53,"20240819":83.64,"20240820":83.99,"20240821":81.04,"20240822":80.88,"20240823":80.8,"20240824":82.38,"20240825":85.03,"20240826":81.36,"20240827":84.13,"20240828":85.08,"20240829":84.8,"20240830":80.9,"20240831":79.58,"20240901":84.31,"20240902":90.81,"20240903":88.79,"20240904":87.54,"20240905":85.12,"20240906":85.32,"20240907":80.33,"20240908":82.73,"20240909":83.1,"20240910":83.78,"20240911":83.64,"20240912":83.27,"20240913":84.14,"20240914":84.19,"20240915":86.04,"20240916":81.98,"20240917":86.12,"20240918":91.56,"20240919":82.25,"20240920":87.32,"20240921":85.9,"20240922":86.25,"20240923":82.57,"20240924":85.16,"20240925":71.43,"20240926":78.23,"20240927":83.33,"20240928":84.93,"20240929":85.21,"20240930":84.31,"20241001":84.83,"20241002":89.66,"20241003":89.42,"20241004":85.52,"20241005":83.69,"20241006":84.83,"20241007":82.58,"20241008":85.81,"20241009":87.76,"20241010":86.26,"20241011":85.65,"20241012":84.78,"20241013":88.12,"20241014":80.83,"20241015":77.81,"20241016":84.51,"20241017":84.42,"20241018":86.71,"20241019":88.11,"20241020":91.21,"20241021":76.58,"20241022":81.2,"20241023":85.81,"20241024":78.75,"20241025":81.45,"20241026":85.21,"20241027":83.03,"20241028":82.58,"20241029":75.62,"20241030":80.41,"20241031":80.6,"20241101":82.28,"20241102":82.63,"20241103":82.51,"20241104":83.51,"20241105":86.9,"20241106":88.14,"20241107":84.44,"20241108":84.97,"20241109":79.22,"20241110":76.96,"20241111":80.38,"20241112":78.59,"20241113":78.81,"20241114":79.3,"20241115":94.6,"20241116":80.57,"20241117":88.13,"20241118":81.64,"20241119":82.49,"20241120":83.12,"20241121":81.88,"20241122":81.97,"20241123":82.5,"20241124":83.12,"20241125":82.37,"20241126":81.83,"20241127":80.79,"20241128":76.6,"20241129":76.8,"20241130":77.38,"20241201":74.57,"20241202":73.75,"20241203":76.9,"20241204":75.88,"20241205":75.17,"20241206":72.05,"20241207":75.66,"20241208":76.78,"20241209":77.15,"20241210":73.23,"20241211":74.49,"20241212":78.46,"20241213":80.18,"20241214":69.67,"20241215":66.85,"20241216":71.85,"20241217":73.04,"20241218":71.82,"20241219":70.08,"20241220":71.45,"20241221":66.88,"20241222":66.73,"20241223":67.92,"20241224":69.94,"20241225":70.05,"20241226":70.21,"20241227":68.34,"20241228":65.37,"20241229":65.78,"20241230":63.91,"20241231":64.89}}},"header":{"title":"NASA/POWER Source Native Resolution Daily Data","api":{"version":"v2.9.6","name":"POWER Daily API"},"sources":["MERRA2","POWER"],"fill_value":-999.0,"time_standard":"UTC","start":"20240101","end":"20241231"},"messages":[],"parameters":{"T2M":{"units":"C","longname":"Temperature at 2 Meters"},"T2M_MAX":{"units":"C","longname":"Temperature at 2 Meters Maximum"},"T2M_MIN":{"units":"C","longname":"Temperature at 2 Meters Minimum"},"PRECTOTCORR":{"units":"mm/day","longname":"Precipitation Corrected"},"WS10M":{"units":"m/s","longname":"Wind Speed at 10 Meters"},"RH2M":{"units":"%","longname":"Relative Humidity at 2 Meters"}},"times":{"data":0.871,"process":0.01}}