{"type":"Feature","geometry":{"type":"Point","coordinates":[151.207,-33.868,31.72]},"properties":{"parameter":{"T2M":{"20240101":22.88,"20240102":23.53,"20240103":23.54,"20240104":21.95,"20240105":21.23,"20240106":22.45,"20240107":23.52,"20240108":23.65,"20240109":22.61,"20240110":24.5,"20240111":24.6,"20240112":24.14,"20240113":24.38,"20240114":22.76,"20240115":22.04,"20240116":23.02,"20240117":24.04,"20240118":22.9,"20240119":22.85,"20240120":23.77,"20240121":26.05,"20240122":21.9,"20240123":22.31,"20240124":26.15,"20240125":27.0,"20240126":24.24,"20240127":22.23,"20240128":23.35,"20240129":24.81,"20240130":23.73,"20240131":22.81,"20240201":24.62,"20240202":23.19,"20240203":23.77,"20240204":27.03,"20240205":25.31,"20240206":21.34,"20240207":21.92,"20240208":21.74,"20240209":22.54,"20240210":22.09,"20240211":22.6,"20240212":24.38,"20240213":25.13,"20240214":22.13,"20240215":22.39,"20240216":24.38,"20240217":24.43,"20240218":24.17,"20240219":21.79,"20240220":22.25,"20240221":23.49,"20240222":25.02,"20240223":25.46,"20240224":21.2,"20240225":23.13,"20240226":23.17,"20240227":23.21,"20240228":25.21,"20240229":27.56,"20240301":25.8,"20240302":22.35,"20240303":24.05,"20240304":20.77,"20240305":22.47,"20240306":24.62,"20240307":24.4,"20240308":24.92,"20240309":24.69,"20240310":24.78,"20240311":23.89,"20240312":25.1,"20240313":23.67,"20240314":23.64,"20240315":21.61,"20240316":21.7,"20240317":20.97,"20240318":22.25,"20240319":23.29,"20240320":20.33,"20240321":19.77,"20240322":21.08,"20240323":21.44,"20240324":21.46,"20240325":22.8,"20240326":22.26,"20240327":22.12,"20240328":21.67,"20240329":21.4,"20240330":22.34,"20240331":22.13,"20240401":22.66,"20240402":21.52,"20240403":21.07,"20240404":20.57,"20240405":21.16,"20240406":20.85,"20240407":21.04,"20240408":19.56,"20240409":16.57,"20240410":18.0,"20240411":18.7,"20240412":19.61,"20240413":20.28,"20240414":20.37,"20240415":19.91,"20240416":20.51,"20240417":20.14,"20240418":18.44,"20240419":18.67,"20240420":19.49,"20240421":18.72,"20240422":18.86,"20240423":19.7,"20240424":19.34,"20240425":18.06,"20240426":18.18,"20240427":19.01,"20240428":20.14,"20240429":21.08,"20240430":18.43,"20240501":18.35,"20240502":18.33,"20240503":18.03,"20240504":18.38,"20240505":18.71,"20240506":19.42,"20240507":19.03,"20240508":19.1,"20240509":19.08,"20240510":19.04,"20240511":17.59,"20240512":17.84,"20240513":17.93,"20240514":18.76,"20240515":18.36,"20240516":18.1,"20240517":17.74,"20240518":14.86,"20240519":14.8,"20240520":17.26,"20240521":16.62,"20240522":15.85,"20240523":17.31,"20240524":17.54,"20240525":17.13,"20240526":17.19,"20240527":16.32,"20240528":16.23,"20240529":16.43,"20240530":18.66,"20240531":17.84,"20240601":16.04,"20240602":14.84,"20240603":13.98,"20240604":15.27,"20240605":16.29,"20240606":16.79,"20240607":15.34,"20240608":16.28,"20240609":15.0,"20240610":14.45,"20240611":15.81,"20240612":14.03,"20240613":14.58,"20240614":14.83,"20240615":13.49,"20240616":13.67,"20240617":14.21,"20240618":12.95,"20240619":12.56,"20240620":14.13,"20240621":13.51,"20240622":14.5,"20240623":13.75,"20240624":13.31,"20240625":13.83,"20240626":15.03,"20240627":14.0,"20240628":13.01,"20240629":15.79,"20240630":12.81,"20240701":14.02,"20240702":14.87,"20240703":15.33,"20240704":15.53,"20240705":16.21,"20240706":15.46,"20240707":15.57,"20240708":15.33,"20240709":14.24,"20240710":14.5,"20240711":13.83,"20240712":14.45,"20240713":12.95,"20240714":11.88,"20240715":11.87,"20240716":12.67,"20240717":13.83,"20240718":12.1,"20240719":13.03,"20240720":13.13,"20240721":13.04,"20240722":13.56,"20240723":13.38,"20240724":14.48,"20240725":16.28,"20240726":14.85,"20240727":13.05,"20240728":11.39,"20240729":12.43,"20240730":13.6,"20240731":14.21,"20240801":14.0,"20240802":14.12,"20240803":13.22,"20240804":14.27,"20240805":13.31,"20240806":13.26,"20240807":14.27,"20240808":14.86,"20240809":15.87,"20240810":15.4,"20240811":16.03,"20240812":16.73,"20240813":17.31,"20240814":16.0,"20240815":16.47,"20240816":16.86,"20240817":15.95,"20240818":15.25,"20240819":15.14,"20240820":17.84,"20240821":18.48,"20240822":16.52,"20240823":17.01,"20240824":19.98,"20240825":18.67,"20240826":17.14,"20240827":18.49,"20240828":19.66,"20240829":17.69,"20240830":21.36,"20240831":18.07,"20240901":19.31,"20240902":16.01,"20240903":14.62,"20240904":16.36,"20240905":19.68,"20240906":21.26,"20240907":17.68,"20240908":17.49,"20240909":18.29,"20240910":17.73,"20240911":19.69,"20240912":16.23,"20240913":15.85,"20240914":15.66,"20240915":13.93,"20240916":15.92,"20240917":15.88,"20240918":18.49,"20240919":18.83,"20240920":17.9,"20240921":18.16,"20240922":18.6,"20240923":20.3,"20240924":20.14,"20240925":19.53,"20240926":15.1,"20240927":16.14,"20240928":17.55,"20240929":18.38,"20240930":16.74,"20241001":17.77,"20241002":17.32,"20241003":16.86,"20241004":19.43,"20241005":20.68,"20241006":20.49,"20241007":21.03,"20241008":15.83,"20241009":16.46,"20241010":19.07,"20241011":19.11,"20241012":16.72,"20241013":17.76,"20241014":17.95,"20241015":16.82,"20241016":17.1,"20241017":19.87,"20241018":21.7,"20241019":19.19,"20241020":18.33,"20241021":17.11,"20241022":18.62,"20241023":21.18,"20241024":16.84,"20241025":16.63,"20241026":16.73,"20241027":20.09,"20241028":18.62,"20241029":18.8,"20241030":20.53,"20241031":19.67,"20241101":18.44,"20241102":19.49,"20241103":23.25,"20241104":19.29,"20241105":20.55,"20241106":23.51,"20241107":22.9,"20241108":22.53,"20241109":21.18,"20241110":19.87,"20241111":19.95,"20241112":20.35,"20241113":20.59,"20241114":19.24,"20241115":20.19,"20241116":21.59,"20241117":22.91,"20241118":20.51,"20241119":19.65,"20241120":20.58,"20241121":20.66,"20241122":21.67,"20241123":22.58,"20241124":22.6,"20241125":22.45,"20241126":24.49,"20241127":26.18,"20241128":23.42,"20241129":21.83,"20241130":22.21,"20241201":23.36,"20241202":25.08,"20241203":23.65,"20241204":21.3,"20241205":22.79,"20241206":23.87,"20241207":26.05,"20241208":20.97,"20241209":21.62,"20241210":20.75,"20241211":21.39,"20241212":23.04,"20241213":24.11,"20241214":23.3,"20241215":23.52,"20241216":24.31,"20241217":23.32,"20241218":20.42,"20241219":20.36,"20241220":20.59,"20241221":22.26,"20241222":22.5,"20241223":20.95,"20241224":20.42,"20241225":22.3,"20241226":24.4,"20241227":24.25,"20241228":22.0,"20241229":22.5,"20241230":22.8,"20241231":23.3},"T2M_MAX":{"20240101":24.77,"20240102":25.4,"20240103":26.05,"20240104":25.52,"20240105":23.14,"20240106":24.46,"20240107":25.24,"20240108":25.1,"20240109":24.95,"20240110":26.42,"20240111":26.64,"20240112":26.37,"20240113":27.77,"20240114":25.04,"20240115":23.57,"20240116":25.15,"20240117":25.61,"20240118":27.15,"20240119":25.16,"20240120":26.82,"20240121":31.86,"20240122":22.98,"20240123":24.81,"20240124":29.82,"20240125":31.32,"20240126":34.09,"20240127":24.37,"20240128":26.1,"20240129":27.28,"20240130":25.85,"20240131":25.18,"20240201":27.49,"20240202":26.35,"20240203":26.43,"20240204":30.15,"20240205":28.79,"20240206":23.9,"20240207":22.91,"20240208":23.4,"20240209":23.42,"20240210":23.14,"20240211":25.17,"20240212":26.5,"20240213":28.15,"20240214":29.4,"20240215":24.45,"20240216":26.58,"20240217":27.18,"20240218":26.91,"20240219":23.03,"20240220":23.94,"20240221":25.56,"20240222":28.15,"20240223":32.45,"20240224":23.22,"20240225":26.04,"20240226":27.12,"20240227":25.84,"20240228":28.13,"20240229":34.54,"20240301":29.1,"20240302":24.41,"20240303":30.08,"20240304":22.66,"20240305":24.81,"20240306":27.56,"20240307":26.26,"20240308":27.58,"20240309":27.48,"20240310":27.54,"20240311":27.24,"20240312":28.78,"20240313":26.31,"20240314":30.91,"20240315":23.43,"20240316":23.87,"20240317":21.63,"20240318":23.54,"20240319":26.12,"20240320":25.31,"20240321":21.63,"20240322":23.67,"20240323":23.91,"20240324":24.59,"20240325":27.64,"20240326":25.15,"20240327":23.89,"20240328":23.37,"20240329":24.28,"20240330":25.39,"20240331":24.87,"20240401":26.2,"20240402":25.88,"20240403":23.07,"20240404":21.5,"20240405":22.32,"20240406":23.93,"20240407":23.81,"20240408":21.49,"20240409":20.26,"20240410":19.41,"20240411":20.26,"20240412":21.59,"20240413":21.45,"20240414":23.09,"20240415":21.82,"20240416":21.83,"20240417":21.54,"20240418":21.39,"20240419":19.87,"20240420":20.18,"20240421":20.49,"20240422":21.76,"20240423":22.64,"20240424":23.74,"20240425":19.63,"20240426":19.71,"20240427":20.76,"20240428":22.8,"20240429":24.36,"20240430":19.13,"20240501":19.89,"20240502":20.05,"20240503":19.03,"20240504":19.45,"20240505":20.21,"20240506":20.69,"20240507":20.65,"20240508":20.2,"20240509":20.45,"20240510":20.06,"20240511":18.35,"20240512":19.13,"20240513":20.83,"20240514":20.73,"20240515":20.58,"20240516":20.77,"20240517":20.97,"20240518":16.16,"20240519":16.74,"20240520":18.18,"20240521":18.5,"20240522":17.72,"20240523":19.01,"20240524":19.34,"20240525":18.6,"20240526":19.92,"20240527":19.07,"20240528":19.42,"20240529":20.18,"20240530":21.21,"20240531":20.0,"20240601":17.64,"20240602":16.29,"20240603":16.84,"20240604":17.16,"20240605":17.2,"20240606":17.3,"20240607":16.3,"20240608":18.72,"20240609":17.76,"20240610":16.69,"20240611":17.46,"20240612":16.83,"20240613":15.55,"20240614":16.44,"20240615":15.86,"20240616":15.23,"20240617":16.16,"20240618":15.5,"20240619":14.6,"20240620":15.4,"20240621":15.47,"20240622":15.15,"20240623":15.52,"20240624":16.14,"20240625":16.7,"20240626":18.87,"20240627":17.69,"20240628":17.18,"20240629":17.39,"20240630":14.92,"20240701":15.48,"20240702":15.98,"20240703":16.35,"20240704":16.66,"20240705":16.85,"20240706":17.02,"20240707":16.71,"20240708":16.26,"20240709":17.18,"20240710":18.02,"20240711":16.57,"20240712":16.81,"20240713":15.7,"20240714":15.42,"20240715":14.57,"20240716":14.31,"20240717":16.13,"20240718":15.72,"20240719":15.56,"20240720":15.28,"20240721":16.04,"20240722":16.89,"20240723":17.57,"20240724":17.47,"20240725":18.88,"20240726":17.39,"20240727":16.32,"20240728":13.6,"20240729":13.45,"20240730":14.28,"20240731":15.34,"20240801":15.17,"20240802":15.98,"20240803":17.08,"20240804":16.41,"20240805":14.62,"20240806":16.17,"20240807":16.29,"20240808":17.79,"20240809":19.22,"20240810":17.59,"20240811":17.81,"20240812":18.63,"20240813":18.38,"20240814":17.64,"20240815":18.2,"20240816":19.89,"20240817":19.08,"20240818":16.97,"20240819":16.94,"20240820":20.05,"20240821":22.07,"20240822":20.35,"20240823":20.12,"20240824":23.59,"20240825":20.84,"20240826":21.35,"20240827":21.52,"20240828":24.28,"20240829":21.23,"20240830":25.5,"20240831":21.68,"20240901":23.29,"20240902":21.57,"20240903":17.02,"20240904":20.22,"20240905":24.35,"20240906":25.24,"20240907":20.67,"20240908":20.82,"20240909":22.48,"20240910":20.67,"20240911":23.31,"20240912":19.02,"20240913":17.71,"20240914":22.07,"20240915":15.39,"20240916":18.67,"20240917":20.17,"20240918":23.35,"20240919":23.52,"20240920":22.34,"20240921":22.22,"20240922":23.34,"20240923":26.48,"20240924":23.43,"20240925":25.74,"20240926":16.21,"20240927":17.46,"20240928":18.64,"20240929":20.35,"20240930":19.08,"20241001":20.64,"20241002":19.22,"20241003":19.84,"20241004":22.06,"20241005":23.83,"20241006":24.52,"20241007":26.49,"20241008":17.52,"20241009":18.64,"20241010":22.24,"20241011":22.62,"20241012":18.76,"20241013":20.26,"20241014":21.02,"20241015":18.25,"20241016":19.58,"20241017":21.99,"20241018":25.66,"20241019":21.73,"20241020":20.09,"20241021":19.41,"20241022":22.44,"20241023":26.37,"20241024":19.34,"20241025":20.29,"20241026":19.75,"20241027":23.76,"20241028":24.91,"20241029":22.0,"20241030":24.55,"20241031":25.69,"20241101":20.94,"20241102":23.35,"20241103":27.43,"20241104":21.49,"20241105":23.02,"20241106":28.85,"20241107":30.28,"20241108":27.3,"20241109":23.01,"20241110":23.19,"20241111":21.96,"20241112":22.66,"20241113":23.52,"20241114":20.61,"20241115":22.22,"20241116":24.12,"20241117":27.31,"20241118":25.25,"20241119":21.91,"20241120":22.93,"20241121":23.23,"20241122":24.45,"20241123":26.13,"20241124":26.5,"20241125":25.68,"20241126":29.03,"20241127":31.21,"20241128":28.83,"20241129":22.9,"20241130":23.58,"20241201":27.61,"20241202":30.57,"20241203":28.0,"20241204":23.23,"20241205":25.33,"20241206":26.47,"20241207":29.95,"20241208":25.1,"20241209":22.98,"20241210":22.76,"20241211":24.92,"20241212":26.38,"20241213":29.22,"20241214":25.17,"20241215":25.81,"20241216":27.46,"20241217":31.21,"20241218":21.62,"20241219":22.16,"20241220":24.72,"20241221":27.09,"20241222":25.14,"20241223":25.79,"20241224":23.78,"20241225":25.84,"20241226":28.28,"20241227":31.84,"20241228":25.49,"20241229":26.16,"20241230":24.65,"20241231":25.55},"T2M_MIN":{"20240101":21.57,"20240102":22.21,"20240103":21.68,"20240104":20.57,"20240105":19.86,"20240106":20.55,"20240107":22.09,"20240108":22.25,"20240109":21.43,"20240110":22.97,"20240111":23.12,"20240112":22.15,"20240113":21.71,"20240114":21.47,"20240115":21.12,"20240116":22.03,"20240117":23.07,"20240118":18.63,"20240119":21.49,"20240120":22.01,"20240121":21.5,"20240122":20.91,"20240123":20.23,"20240124":23.67,"20240125":24.61,"20240126":20.97,"20240127":20.77,"20240128":22.07,"20240129":23.18,"20240130":22.62,"20240131":21.28,"20240201":22.2,"20240202":21.28,"20240203":21.97,"20240204":25.57,"20240205":23.41,"20240206":19.99,"20240207":20.91,"20240208":20.62,"20240209":21.81,"20240210":20.77,"20240211":20.85,"20240212":22.52,"20240213":23.03,"20240214":20.1,"20240215":21.69,"20240216":22.7,"20240217":22.6,"20240218":22.66,"20240219":21.06,"20240220":20.96,"20240221":22.19,"20240222":22.56,"20240223":21.17,"20240224":19.92,"20240225":20.55,"20240226":21.7,"20240227":22.04,"20240228":23.72,"20240229":23.66,"20240301":24.47,"20240302":21.26,"20240303":20.64,"20240304":19.52,"20240305":20.49,"20240306":22.6,"20240307":23.29,"20240308":22.44,"20240309":22.04,"20240310":22.37,"20240311":20.69,"20240312":22.81,"20240313":21.12,"20240314":21.17,"20240315":20.28,"20240316":19.25,"20240317":20.37,"20240318":21.08,"20240319":21.64,"20240320":17.95,"20240321":18.41,"20240322":18.66,"20240323":19.84,"20240324":18.46,"20240325":19.48,"20240326":20.69,"20240327":21.0,"20240328":20.62,"20240329":18.76,"20240330":20.64,"20240331":19.65,"20240401":20.0,"20240402":17.96,"20240403":19.99,"20240404":20.09,"20240405":20.12,"20240406":17.9,"20240407":18.11,"20240408":17.51,"20240409":14.43,"20240410":16.36,"20240411":16.67,"20240412":17.91,"20240413":19.61,"20240414":17.62,"20240415":17.28,"20240416":19.65,"20240417":18.84,"20240418":15.98,"20240419":18.19,"20240420":18.92,"20240421":17.05,"20240422":15.32,"20240423":17.24,"20240424":16.82,"20240425":16.69,"20240426":16.35,"20240427":17.07,"20240428":17.33,"20240429":18.87,"20240430":16.9,"20240501":17.04,"20240502":16.68,"20240503":17.13,"20240504":17.37,"20240505":17.83,"20240506":18.71,"20240507":17.53,"20240508":18.45,"20240509":18.05,"20240510":18.15,"20240511":16.58,"20240512":17.53,"20240513":14.3,"20240514":17.3,"20240515":16.61,"20240516":15.7,"20240517":13.92,"20240518":13.27,"20240519":13.34,"20240520":16.5,"20240521":14.85,"20240522":14.23,"20240523":15.6,"20240524":16.29,"20240525":14.41,"20240526":14.49,"20240527":13.68,"20240528":12.75,"20240529":12.89,"20240530":17.46,"20240531":16.13,"20240601":14.71,"20240602":13.13,"20240603":11.66,"20240604":13.7,"20240605":15.43,"20240606":16.15,"20240607":14.33,"20240608":14.16,"20240609":12.45,"20240610":11.42,"20240611":13.83,"20240612":11.94,"20240613":13.73,"20240614":13.77,"20240615":11.52,"20240616":12.34,"20240617":11.85,"20240618":10.22,"20240619":9.91,"20240620":12.97,"20240621":11.42,"20240622":13.78,"20240623":11.71,"20240624":10.74,"20240625":10.36,"20240626":11.34,"20240627":10.93,"20240628":8.84,"20240629":13.25,"20240630":11.04,"20240701":13.2,"20240702":13.87,"20240703":14.62,"20240704":14.54,"20240705":15.73,"20240706":14.01,"20240707":15.01,"20240708":14.54,"20240709":11.01,"20240710":11.49,"20240711":11.43,"20240712":13.15,"20240713":10.45,"20240714":9.23,"20240715":10.71,"20240716":11.69,"20240717":11.72,"20240718":8.89,"20240719":11.67,"20240720":11.4,"20240721":11.1,"20240722":10.34,"20240723":9.31,"20240724":12.07,"20240725":14.08,"20240726":13.33,"20240727":10.28,"20240728":9.95,"20240729":10.74,"20240730":12.86,"20240731":13.46,"20240801":13.13,"20240802":11.88,"20240803":9.73,"20240804":12.79,"20240805":11.68,"20240806":9.63,"20240807":12.74,"20240808":12.69,"20240809":13.53,"20240810":13.29,"20240811":14.94,"20240812":15.64,"20240813":16.79,"20240814":15.08,"20240815":15.47,"20240816":14.54,"20240817":14.12,"20240818":14.04,"20240819":13.33,"20240820":16.35,"20240821":15.78,"20240822":12.65,"20240823":14.78,"20240824":17.08,"20240825":16.12,"20240826":13.6,"20240827":16.16,"20240828":15.25,"20240829":14.9,"20240830":17.2,"20240831":15.03,"20240901":15.94,"20240902":12.18,"20240903":11.39,"20240904":12.81,"20240905":15.53,"20240906":18.51,"20240907":15.94,"20240908":14.92,"20240909":14.72,"20240910":14.48,"20240911":17.42,"20240912":14.26,"20240913":13.25,"20240914":10.74,"20240915":11.27,"20240916":13.87,"20240917":11.07,"20240918":14.25,"20240919":14.14,"20240920":14.6,"20240921":14.82,"20240922":13.69,"20240923":15.26,"20240924":18.36,"20240925":14.35,"20240926":14.28,"20240927":15.61,"20240928":16.07,"20240929":16.75,"20240930":14.71,"20241001":16.49,"20241002":15.65,"20241003":13.89,"20241004":18.05,"20241005":17.74,"20241006":16.48,"20241007":15.77,"20241008":15.3,"20241009":14.56,"20241010":17.09,"20241011":16.69,"20241012":15.2,"20241013":15.39,"20241014":16.65,"20241015":15.76,"20241016":14.81,"20241017":18.27,"20241018":18.49,"20241019":17.41,"20241020":17.2,"20241021":15.29,"20241022":15.55,"20241023":18.63,"20241024":14.83,"20241025":14.43,"20241026":15.62,"20241027":16.42,"20241028":16.38,"20241029":16.99,"20241030":16.62,"20241031":17.06,"20241101":16.77,"20241102":17.81,"20241103":19.58,"20241104":17.89,"20241105":19.11,"20241106":20.49,"20241107":17.92,"20241108":18.56,"20241109":19.94,"20241110":18.69,"20241111":18.94,"20241112":18.43,"20241113":18.58,"20241114":18.18,"20241115":19.14,"20241116":20.39,"20241117":20.58,"20241118":17.87,"20241119":18.32,"20241120":18.59,"20241121":18.07,"20241122":18.93,"20241123":19.53,"20241124":19.86,"20241125":19.73,"20241126":20.94,"20241127":23.04,"20241128":21.21,"20241129":21.37,"20241130":21.36,"20241201":20.3,"20241202":22.22,"20241203":20.98,"20241204":19.76,"20241205":21.13,"20241206":22.2,"20241207":22.79,"20241208":19.06,"20241209":20.08,"20241210":19.11,"20241211":19.09,"20241212":20.85,"20241213":20.74,"20241214":21.72,"20241215":21.96,"20241216":21.25,"20241217":19.37,"20241218":19.37,"20241219":18.76,"20241220":18.19,"20241221":20.07,"20241222":19.82,"20241223":17.48,"20241224":19.07,"20241225":20.01,"20241226":22.11,"20241227":19.42,"20241228":19.35,"20241229":20.64,"20241230":21.03,"20241231":21.29},"PRECTOTCORR":{"20240101":0.62,"20240102":1.27,"20240103":4.46,"20240104":7.68,"20240105":0.18,"20240106":0.01,"20240107":0.58,"20240108":5.56,"20240109":0.51,"20240110":0.81,"20240111":4.34,"20240112":1.32,"20240113":3.17,"20240114":31.78,"20240115":10.17,"20240116":7.52,"20240117":20.65,"20240118":0.05,"20240119":0.04,"20240120":0.02,"20240121":0.0,"20240122":0.74,"20240123":0.09,"20240124":0.31,"20240125":0.04,"20240126":1.47,"20240127":0.29,"20240128":0.19,"20240129":0.55,"20240130":2.91,"20240131":3.12,"20240201":0.13,"20240202":0.11,"20240203":0.01,"20240204":1.73,"20240205":37.74,"20240206":2.11,"20240207":0.37,"20240208":0.29,"20240209":1.17,"20240210":0.86,"20240211":0.02,"20240212":0.51,"20240213":5.96,"20240214":4.74,"20240215":3.37,"20240216":1.73,"20240217":4.14,"20240218":3.28,"20240219":11.16,"20240220":9.44,"20240221":0.77,"20240222":0.0,"20240223":8.14,"20240224":0.83,"20240225":0.0,"20240226":0.47,"20240227":0.58,"20240228":0.51,"20240229":0.39,"20240301":2.29,"20240302":1.47,"20240303":0.15,"20240304":0.29,"20240305":0.0,"20240306":0.07,"20240307":0.61,"20240308":0.02,"20240309":0.01,"20240310":0.0,"20240311":0.0,"20240312":0.01,"20240313":0.0,"20240314":5.33,"20240315":0.8,"20240316":10.56,"20240317":4.95,"20240318":2.33,"20240319":1.72,"20240320":1.62,"20240321":0.0,"20240322":0.04,"20240323":1.1,"20240324":0.04,"20240325":0.02,"20240326":0.17,"20240327":0.02,"20240328":0.02,"20240329":0.01,"20240330":0.0,"20240331":0.0,"20240401":0.03,"20240402":5.63,"20240403":0.67,"20240404":38.18,"20240405":116.06,"20240406":0.07,"20240407":0.15,"20240408":0.21,"20240409":5.59,"20240410":0.04,"20240411":0.01,"20240412":0.49,"20240413":1.42,"20240414":0.23,"20240415":0.03,"20240416":0.19,"20240417":3.07,"20240418":0.72,"20240419":1.46,"20240420":1.51,"20240421":0.01,"20240422":0.01,"20240423":0.0,"20240424":0.0,"20240425":0.0,"20240426":0.05,"20240427":0.09,"20240428":0.05,"20240429":2.2,"20240430":1.4,"20240501":0.91,"20240502":0.83,"20240503":2.79,"20240504":7.57,"20240505":10.74,"20240506":1.85,"20240507":1.83,"20240508":9.38,"20240509":2.01,"20240510":6.37,"20240511":18.71,"20240512":7.88,"20240513":0.23,"20240514":0.06,"20240515":0.01,"20240516":0.05,"20240517":2.3,"20240518":0.85,"20240519":0.03,"20240520":0.1,"20240521":0.05,"20240522":0.02,"20240523":0.01,"20240524":0.02,"20240525":0.05,"20240526":0.01,"20240527":0.02,"20240528":0.02,"20240529":0.0,"20240530":0.07,"20240531":1.45,"20240601":23.12,"20240602":0.17,"20240603":0.0,"20240604":0.1,"20240605":6.21,"20240606":34.69,"20240607":1.85,"20240608":0.2,"20240609":0.01,"20240610":0.0,"20240611":0.45,"20240612":0.12,"20240613":0.28,"20240614":8.78,"20240615":0.48,"20240616":0.27,"20240617":0.3,"20240618":0.01,"20240619":0.02,"20240620":2.58,"20240621":3.94,"20240622":3.47,"20240623":0.26,"20240624":0.03,"20240625":0.0,"20240626":0.01,"20240627":0.0,"20240628":0.0,"20240629":0.91,"20240630":1.61,"20240701":3.05,"20240702":1.4,"20240703":4.38,"20240704":5.17,"20240705":0.77,"20240706":0.24,"20240707":1.25,"20240708":3.09,"20240709":0.11,"20240710":0.01,"20240711":0.0,"20240712":0.02,"20240713":0.0,"20240714":0.0,"20240715":0.09,"20240716":0.06,"20240717":0.17,"20240718":0.0,"20240719":0.02,"20240720":0.08,"20240721":0.0,"20240722":0.0,"20240723":0.01,"20240724":0.0,"20240725":2.85,"20240726":0.02,"20240727":0.97,"20240728":0.04,"20240729":0.18,"20240730":0.12,"20240731":0.05,"20240801":0.33,"20240802":0.05,"20240803":0.0,"20240804":0.0,"20240805":0.72,"20240806":0.0,"20240807":0.0,"20240808":0.01,"20240809":0.65,"20240810":0.12,"20240811":0.19,"20240812":2.2,"20240813":1.75,"20240814":4.78,"20240815":0.4,"20240816":2.39,"20240817":0.19,"20240818":0.11,"20240819":0.0,"20240820":0.02,"20240821":0.0,"20240822":0.0,"20240823":0.02,"20240824":1.3,"20240825":1.36,"20240826":0.01,"20240827":0.0,"20240828":0.0,"20240829":0.0,"20240830":0.0,"20240831":0.0,"20240901":0.0,"20240902":0.0,"20240903":0.0,"20240904":0.0,"20240905":0.0,"20240906":0.0,"20240907":0.11,"20240908":0.02,"20240909":0.0,"20240910":0.0,"20240911":0.13,"20240912":1.14,"20240913":0.01,"20240914":0.31,"20240915":0.06,"20240916":0.0,"20240917":0.0,"20240918":0.0,"20240919":0.0,"20240920":0.0,"20240921":0.0,"20240922":0.0,"20240923":0.0,"20240924":0.09,"20240925":6.12,"20240926":10.68,"20240927":1.56,"20240928":0.44,"20240929":6.23,"20240930":0.06,"20241001":0.13,"20241002":0.89,"20241003":0.04,"20241004":0.69,"20241005":0.02,"20241006":0.0,"20241007":0.24,"20241008":0.93,"20241009":0.54,"20241010":0.08,"20241011":0.65,"20241012":0.21,"20241013":0.03,"20241014":9.71,"20241015":0.7,"20241016":0.04,"20241017":0.58,"20241018":5.89,"20241019":0.84,"20241020":0.17,"20241021":0.01,"20241022":0.0,"20241023":0.05,"20241024":2.7,"20241025":0.02,"20241026":0.0,"20241027":0.0,"20241028":0.17,"20241029":0.04,"20241030":0.0,"20241031":2.44,"20241101":2.52,"20241102":0.35,"20241103":0.26,"20241104":0.89,"20241105":0.03,"20241106":0.12,"20241107":4.67,"20241108":0.07,"20241109":1.04,"20241110":0.57,"20241111":0.62,"20241112":2.36,"20241113":2.31,"20241114":0.38,"20241115":1.8,"20241116":0.29,"20241117":22.11,"20241118":2.57,"20241119":0.23,"20241120":0.08,"20241121":0.01,"20241122":0.0,"20241123":0.0,"20241124":0.0,"20241125":0.0,"20241126":0.0,"20241127":4.12,"20241128":10.69,"20241129":29.13,"20241130":6.69,"20241201":3.07,"20241202":0.03,"20241203":3.39,"20241204":0.39,"20241205":0.3,"20241206":5.6,"20241207":8.77,"20241208":1.73,"20241209":0.52,"20241210":0.67,"20241211":0.05,"20241212":0.0,"20241213":0.01,"20241214":0.0,"20241215":0.0,"20241216":0.0,"20241217":2.84,"20241218":0.56,"20241219":0.02,"20241220":0.0,"20241221":0.15,"20241222":0.67,"20241223":0.08,"20241224":0.02,"20241225":0.0,"20241226":1.16,"20241227":2.7,"20241228":0.02,"20241229":0.0,"20241230":0.01,"20241231":0.37},"WS10M":{"20240101":5.14,"20240102":4.74,"20240103":3.33,"20240104":5.22,"20240105":4.16,"20240106":4.54,"20240107":5.92,"20240108":4.41,"20240109":3.31,"20240110":2.66,"20240111":3.29,"20240112":3.49,"20240113":3.85,"20240114":6.81,"20240115":5.31,"20240116":4.47,"20240117":5.16,"20240118":2.91,"20240119":3.85,"20240120":4.06,"20240121":5.08,"20240122":4.85,"20240123":4.58,"20240124":3.23,"20240125":3.21,"20240126":4.86,"20240127":3.45,"20240128":3.62,"20240129":3.37,"20240130":2.62,"20240131":4.52,"20240201":2.76,"20240202":4.46,"20240203":4.72,"20240204":3.51,"20240205":3.11,"20240206":8.31,"20240207":6.5,"20240208":4.91,"20240209":6.84,"20240210":5.42,"20240211":3.56,"20240212":4.09,"20240213":4.4,"20240214":5.24,"20240215":3.26,"20240216":3.2,"20240217":2.21,"20240218":2.47,"20240219":3.97,"20240220":2.87,"20240221":1.63,"20240222":3.07,"20240223":5.11,"20240224":4.52,"20240225":3.03,"20240226":5.34,"20240227":3.81,"20240228":4.86,"20240229":2.23,"20240301":2.92,"20240302":4.33,"20240303":5.36,"20240304":4.33,"20240305":4.17,"20240306":3.36,"20240307":3.35,"20240308":3.55,"20240309":4.0,"20240310":4.26,"20240311":4.57,"20240312":2.17,"20240313":3.47,"20240314":6.61,"20240315":4.9,"20240316":3.68,"20240317":3.28,"20240318":3.71,"20240319":4.45,"20240320":7.36,"20240321":3.61,"20240322":2.87,"20240323":1.98,"20240324":2.64,"20240325":2.07,"20240326":3.04,"20240327":3.53,"20240328":3.45,"20240329":2.86,"20240330":1.84,"20240331":2.59,"20240401":4.77,"20240402":3.85,"20240403":4.0,"20240404":4.97,"20240405":7.63,"20240406":3.08,"20240407":2.43,"20240408":3.11,"20240409":8.64,"20240410":5.65,"20240411":3.62,"20240412":2.07,"20240413":1.72,"20240414":2.29,"20240415":2.61,"20240416":3.14,"20240417":2.46,"20240418":3.12,"20240419":5.87,"20240420":6.94,"20240421":3.41,"20240422":2.56,"20240423":4.21,"20240424":5.01,"20240425":4.36,"20240426":3.85,"20240427":2.58,"20240428":3.57,"20240429":4.01,"20240430":6.86,"20240501":5.4,"20240502":3.53,"20240503":3.18,"20240504":2.74,"20240505":6.05,"20240506":5.81,"20240507":3.19,"20240508":2.3,"20240509":2.8,"20240510":3.61,"20240511":3.41,"20240512":3.75,"20240513":4.36,"20240514":3.63,"20240515":1.86,"20240516":2.19,"20240517":4.64,"20240518":7.95,"20240519":4.58,"20240520":6.31,"20240521":5.14,"20240522":3.61,"20240523":1.96,"20240524":3.33,"20240525":1.78,"20240526":2.38,"20240527":2.87,"20240528":2.14,"20240529":3.32,"20240530":5.01,"20240531":4.04,"20240601":8.26,"20240602":5.3,"20240603":4.1,"20240604":2.85,"20240605":2.15,"20240606":3.66,"20240607":2.64,"20240608":4.67,"20240609":3.87,"20240610":4.12,"20240611":4.62,"20240612":6.87,"20240613":4.35,"20240614":3.91,"20240615":5.76,"20240616":6.41,"20240617":6.57,"20240618":4.62,"20240619":2.56,"20240620":1.92,"20240621":5.0,"20240622":5.29,"20240623":3.72,"20240624":2.77,"20240625":3.26,"20240626":3.56,"20240627":3.48,"20240628":2.9,"20240629":4.26,"20240630":5.8,"20240701":4.73,"20240702":5.08,"20240703":5.85,"20240704":5.19,"20240705":4.93,"20240706":3.46,"20240707":2.52,"20240708":4.01,"20240709":2.89,"20240710":2.7,"20240711":2.5,"20240712":4.83,"20240713":5.02,"20240714":5.05,"20240715":6.35,"20240716":5.96,"20240717":5.23,"20240718":4.64,"20240719":4.55,"20240720":9.03,"20240721":4.66,"20240722":3.09,"20240723":2.51,"20240724":3.53,"20240725":4.1,"20240726":2.32,"20240727":4.36,"20240728":8.08,"20240729":7.56,"20240730":7.0,"20240731":6.37,"20240801":5.26,"20240802":2.41,"20240803":2.58,"20240804":1.71,"20240805":2.63,"20240806":3.02,"20240807":1.88,"20240808":3.56,"20240809":2.07,"20240810":2.78,"20240811":2.04,"20240812":3.27,"20240813":3.45,"20240814":2.69,"20240815":2.83,"20240816":2.36,"20240817":5.76,"20240818":5.17,"20240819":2.75,"20240820":4.79,"20240821":2.97,"20240822":2.81,"20240823":3.53,"20240824":3.52,"20240825":4.34,"20240826":2.65,"20240827":4.07,"20240828":5.78,"20240829":3.32,"20240830":4.76,"20240831":4.09,"20240901":4.17,"20240902":7.93,"20240903":3.14,"20240904":4.59,"20240905":3.58,"20240906":4.0,"20240907":3.75,"20240908":3.57,"20240909":3.37,"20240910":2.71,"20240911":3.48,"20240912":8.12,"20240913":2.88,"20240914":6.27,"20240915":7.25,"20240916":4.63,"20240917":2.77,"20240918":4.1,"20240919":4.83,"20240920":3.64,"20240921":3.55,"20240922":3.22,"20240923":2.46,"20240924":3.76,"20240925":3.83,"20240926":8.0,"20240927":5.12,"20240928":3.51,"20240929":3.89,"20240930":4.11,"20241001":3.81,"20241002":3.71,"20241003":3.4,"20241004":4.25,"20241005":3.53,"20241006":3.36,"20241007":4.19,"20241008":5.73,"20241009":3.59,"20241010":3.07,"20241011":5.21,"20241012":4.92,"20241013":4.52,"20241014":4.57,"20241015":4.1,"20241016":2.84,"20241017":4.06,"20241018":4.33,"20241019":4.73,"20241020":7.67,"20241021":5.54,"20241022":3.17,"20241023":3.31,"20241024":4.35,"20241025":6.2,"20241026":3.74,"20241027":3.56,"20241028":4.64,"20241029":3.19,"20241030":3.38,"20241031":3.88,"20241101":4.89,"20241102":5.18,"20241103":2.98,"20241104":3.9,"20241105":4.18,"20241106":3.54,"20241107":2.77,"20241108":3.34,"20241109":3.28,"20241110":5.79,"20241111":2.63,"20241112":2.59,"20241113":3.37,"20241114":4.57,"20241115":4.42,"20241116":6.04,"20241117":4.48,"20241118":4.26,"20241119":3.1,"20241120":3.82,"20241121":4.39,"20241122":3.98,"20241123":4.33,"20241124":4.48,"20241125":4.73,"20241126":3.65,"20241127":2.58,"20241128":1.93,"20241129":3.77,"20241130":4.36,"20241201":2.74,"20241202":3.84,"20241203":4.18,"20241204":3.05,"20241205":2.46,"20241206":2.82,"20241207":2.93,"20241208":4.33,"20241209":3.69,"20241210":4.42,"20241211":3.56,"20241212":2.29,"20241213":3.71,"20241214":2.11,"20241215":2.87,"20241216":4.97,"20241217":7.05,"20241218":6.87,"20241219":5.13,"20241220":3.3,"20241221":3.63,"20241222":4.43,"20241223":4.0,"20241224":4.02,"20241225":2.95,"20241226":6.04,"20241227":4.92,"20241228":3.63,"20241229":3.86,"20241230":3.63,"20241231":3.33},"RH2M":{"20240101":77.88,"20240102":79.61,"20240103":81.93,"20240104":85.21,"20240105":69.2,"20240106":66.18,"20240107":76.4,"20240108":84.72,"20240109":78.98,"20240110":85.21,"20240111":86.41,"20240112":79.66,"20240113":82.44,"20240114":82.46,"20240115":72.94,"20240116":85.88,"20240117":88.77,"20240118":70.2,"20240119":68.49,"20240120":80.65,"20240121":63.87,"20240122":70.67,"20240123":70.95,"20240124":67.89,"20240125":72.18,"20240126":76.67,"20240127":79.85,"20240128":75.28,"20240129":82.96,"20240130":88.58,"20240131":80.47,"20240201":78.15,"20240202":70.39,"20240203":76.51,"20240204":75.3,"20240205":86.55,"20240206":77.47,"20240207":70.72,"20240208":70.05,"20240209":81.02,"20240210":70.51,"20240211":72.67,"20240212":79.65,"20240213":73.35,"20240214":77.62,"20240215":80.8,"20240216":86.2,"20240217":83.91,"20240218":85.71,"20240219":89.81,"20240220":83.92,"20240221":81.97,"20240222":75.81,"20240223":73.88,"20240224":75.97,"20240225":74.46,"20240226":74.78,"20240227":79.2,"20240228":81.99,"20240229":77.38,"20240301":83.03,"20240302":79.47,"20240303":65.77,"20240304":65.67,"20240305":67.95,"20240306":72.75,"20240307":81.43,"20240308":73.17,"20240309":74.92,"20240310":67.73,"20240311":70.58,"20240312":65.82,"20240313":74.46,"20240314":72.13,"20240315":64.3,"20240316":74.18,"20240317":86.04,"20240318":86.84,"20240319":83.44,"20240320":69.75,"20240321":63.87,"20240322":70.32,"20240323":72.49,"20240324":75.91,"20240325":71.17,"20240326":79.28,"20240327":75.43,"20240328":75.1,"20240329":77.04,"20240330":74.64,"20240331":78.19,"20240401":74.42,"20240402":64.72,"20240403":72.98,"20240404":83.72,"20240405":88.51,"20240406":82.46,"20240407":79.29,"20240408":82.81,"20240409":81.19,"20240410":75.83,"20240411":76.12,"20240412":77.39,"20240413":78.33,"20240414":81.1,"20240415":73.41,"20240416":75.57,"20240417":80.69,"20240418":77.95,"20240419":77.7,"20240420":73.23,"20240421":75.75,"20240422":78.24,"20240423":78.17,"20240424":66.63,"20240425":64.48,"20240426":73.24,"20240427":76.14,"20240428":80.18,"20240429":76.58,"20240430":74.51,"20240501":72.81,"20240502":73.86,"20240503":75.79,"20240504":76.8,"20240505":80.28,"20240506":66.35,"20240507":71.36,"20240508":76.36,"20240509":72.81,"20240510":80.46,"20240511":86.57,"20240512":86.86,"20240513":84.92,"20240514":73.58,"20240515":76.22,"20240516":80.74,"20240517":73.83,"20240518":77.35,"20240519":66.45,"20240520":76.6,"20240521":77.18,"20240522":70.72,"20240523":72.65,"20240524":77.66,"20240525":78.95,"20240526":71.53,"20240527":72.86,"20240528":67.12,"20240529":81.76,"20240530":76.47,"20240531":83.84,"20240601":88.26,"20240602":74.66,"20240603":65.99,"20240604":67.98,"20240605":86.35,"20240606":91.38,"20240607":85.52,"20240608":79.46,"20240609":72.89,"20240610":70.06,"20240611":70.39,"20240612":70.25,"20240613":78.99,"20240614":82.85,"20240615":80.03,"20240616":70.36,"20240617":81.39,"20240618":72.63,"20240619":60.79,"20240620":68.44,"20240621":84.85,"20240622":83.71,"20240623":79.87,"20240624":73.82,"20240625":79.02,"20240626":74.11,"20240627":71.3,"20240628":77.87,"20240629":77.19,"20240630":82.97,"20240701":77.32,"20240702":71.95,"20240703":75.58,"20240704":75.9,"20240705":67.55,"20240706":70.51,"20240707":81.16,"20240708":92.66,"20240709":80.02,"20240710":74.73,"20240711":80.31,"20240712":73.66,"20240713":74.0,"20240714":69.72,"20240715":67.07,"20240716":73.61,"20240717":77.11,"20240718":69.85,"20240719":63.85,"20240720":63.3,"20240721":70.59,"20240722":73.53,"20240723":74.65,"20240724":71.96,"20240725":78.89,"20240726":71.08,"20240727":82.86,"20240728":65.41,"20240729":73.71,"20240730":74.76,"20240731":74.23,"20240801":77.86,"20240802":69.23,"20240803":72.45,"20240804":65.45,"20240805":80.66,"20240806":70.85,"20240807":64.99,"20240808":78.63,"20240809":76.62,"20240810":85.78,"20240811":81.36,"20240812":82.94,"20240813":88.24,"20240814":92.35,"20240815":91.2,"20240816":81.16,"20240817":67.62,"20240818":72.32,"20240819":78.67,"20240820":77.49,"20240821":65.87,"20240822":69.36,"20240823":68.07,"20240824":68.44,"20240825":75.94,"20240826":61.94,"20240827":58.22,"20240828":50.31,"20240829":52.3,"20240830":54.44,"20240831":50.75,"20240901":50.63,"20240902":47.8,"20240903":57.41,"20240904":61.89,"20240905":55.35,"20240906":57.8,"20240907":80.72,"20240908":49.9,"20240909":60.93,"20240910":75.18,"20240911":72.26,"20240912":70.99,"20240913":62.45,"20240914":66.29,"20240915":62.51,"20240916":60.16,"20240917":60.94,"20240918":44.29,"20240919":47.06,"20240920":50.17,"20240921":49.93,"20240922":57.29,"20240923":54.87,"20240924":57.4,"20240925":71.82,"20240926":74.93,"20240927":65.8,"20240928":68.56,"20240929":82.03,"20240930":71.23,"20241001":69.23,"20241002":69.58,"20241003":70.11,"20241004":68.16,"20241005":54.98,"20241006":55.59,"20241007":61.69,"20241008":65.33,"20241009":66.87,"20241010":74.87,"20241011":77.43,"20241012":61.22,"20241013":66.21,"20241014":82.11,"20241015":63.23,"20241016":66.66,"20241017":79.51,"20241018":74.6,"20241019":77.71,"20241020":72.24,"20241021":70.42,"20241022":64.47,"20241023":65.98,"20241024":69.79,"20241025":57.37,"20241026":59.17,"20241027":58.75,"20241028":68.2,"20241029":67.85,"20241030":70.77,"20241031":74.02,"20241101":70.16,"20241102":77.55,"20241103":67.41,"20241104":83.44,"20241105":78.56,"20241106":70.67,"20241107":65.18,"20241108":56.18,"20241109":73.29,"20241110":78.14,"20241111":85.52,"20241112":82.49,"20241113":79.75,"20241114":74.78,"20241115":80.24,"20241116":81.19,"20241117":78.57,"20241118":64.41,"20241119":71.01,"20241120":72.07,"20241121":73.2,"20241122":72.89,"20241123":69.88,"20241124":77.67,"20241125":78.84,"20241126":72.8,"20241127":63.76,"20241128":82.69,"20241129":94.37,"20241130":92.71,"20241201":80.58,"20241202":70.5,"20241203":80.23,"20241204":74.79,"20241205":84.12,"20241206":86.28,"20241207":82.32,"20241208":80.73,"20241209":81.07,"20241210":73.76,"20241211":72.21,"20241212":75.28,"20241213":75.98,"20241214":84.86,"20241215":84.9,"20241216":80.43,"20241217":73.3,"20241218":65.23,"20241219":63.4,"20241220":68.13,"20241221":72.0,"20241222":78.58,"20241223":52.59,"20241224":62.73,"20241225":70.43,"20241226":69.63,"20241227":72.96,"20241228":66.76,"20241229":68.11,"20241230":74.2,"20241231":75.77}}},"header":{"title":"NASA/POWER Source Native Resolution Daily Data","api":{"version":"v2.9.6","name":"POWER Daily API"},"sources":["MERRA2","POWER"],"fill_value":-999.0,"time_standard":"UTC","start":"20240101","end":"20241231"},"messages":[],"parameters":{"T2M":{"units":"C","longname":"Temperature at 2 Meters"},"T2M_MAX":{"units":"C","longname":"Temperature at 2 Meters Maximum"},"T2M_MIN":{"units":"C","longname":"Temperature at 2 Meters Minimum"},"PRECTOTCORR":{"units":"mm/day","longname":"Precipitation Corrected"},"WS10M":{"units":"m/s","longname":"Wind Speed at 10 Meters"},"RH2M":{"units":"%","longname":"Relative Humidity at 2 Meters"}},"times":{"data":0.864,"process":0.01}}