{"type":"Feature","geometry":{"type":"Point","coordinates":[-74.006,40.714,10.17]},"properties":{"parameter":{"T2M":{"20240101":5.27,"20240102":2.33,"20240103":3.28,"20240104":4.15,"20240105":0.17,"20240106":2.54,"20240107":3.74,"20240108":2.84,"20240109":5.54,"20240110":9.78,"20240111":5.2,"20240112":5.21,"20240113":9.3,"20240114":2.51,"20240115":-1.24,"20240116":0.19,"20240117":-3.66,"20240118":-1.66,"20240119":0.13,"20240120":-3.85,"20240121":-3.47,"20240122":-1.4,"20240123":1.72,"20240124":4.14,"20240125":5.72,"20240126":6.03,"20240127":4.44,"20240128":3.63,"20240129":2.83,"20240130":1.52,"20240131":2.62,"20240201":3.72,"20240202":4.89,"20240203":2.11,"20240204":2.07,"20240205":2.2,"20240206":1.23,"20240207":2.78,"20240208":4.86,"20240209":5.7,"20240210":6.25,"20240211":6.66,"20240212":4.13,"20240213":2.63,"20240214":0.74,"20240215":-0.44,"20240216":2.71,"20240217":1.39,"20240218":-0.01,"20240219":1.69,"20240220":-0.31,"20240221":1.57,"20240222":2.72,"20240223":4.8,"20240224":3.52,"20240225":-1.05,"20240226":4.15,"20240227":5.57,"20240228":8.97,"20240229":3.07,"20240301":1.86,"20240302":6.37,"20240303":9.33,"20240304":7.94,"20240305":6.56,"20240306":7.3,"20240307":8.01,"20240308":6.06,"20240309":5.27,"20240310":7.12,"20240311":4.05,"20240312":7.21,"20240313":8.5,"20240314":8.9,"20240315":10.56,"20240316":8.67,"20240317":9.58,"20240318":6.88,"20240319":3.92,"20240320":7.2,"20240321":2.34,"20240322":1.39,"20240323":6.89,"20240324":2.75,"20240325":4.4,"20240326":4.56,"20240327":6.42,"20240328":7.67,"20240329":6.78,"20240330":6.24,"20240331":8.56,"20240401":8.36,"20240402":7.38,"20240403":6.15,"20240404":5.79,"20240405":5.65,"20240406":6.24,"20240407":6.84,"20240408":8.46,"20240409":11.75,"20240410":9.14,"20240411":9.29,"20240412":12.14,"20240413":10.05,"20240414":10.09,"20240415":14.86,"20240416":12.82,"20240417":10.38,"20240418":8.42,"20240419":8.11,"20240420":10.34,"20240421":7.95,"20240422":8.56,"20240423":9.08,"20240424":11.52,"20240425":8.36,"20240426":8.23,"20240427":8.76,"20240428":11.51,"20240429":15.88,"20240430":11.97,"20240501":13.09,"20240502":14.13,"20240503":12.71,"20240504":10.97,"20240505":10.33,"20240506":14.08,"20240507":16.64,"20240508":16.57,"20240509":16.0,"20240510":11.17,"20240511":11.05,"20240512":10.07,"20240513":12.06,"20240514":13.92,"20240515":14.16,"20240516":14.96,"20240517":15.05,"20240518":15.09,"20240519":15.45,"20240520":14.45,"20240521":15.59,"20240522":17.54,"20240523":18.49,"20240524":19.97,"20240525":18.48,"20240526":18.27,"20240527":18.15,"20240528":19.92,"20240529":18.85,"20240530":17.76,"20240531":18.24,"20240601":18.83,"20240602":19.09,"20240603":21.08,"20240604":19.77,"20240605":19.55,"20240606":21.39,"20240607":22.13,"20240608":20.14,"20240609":20.49,"20240610":19.13,"20240611":18.68,"20240612":19.59,"20240613":20.26,"20240614":21.52,"20240615":20.78,"20240616":19.42,"20240617":20.95,"20240618":22.03,"20240619":22.2,"20240620":23.07,"20240621":24.11,"20240622":24.05,"20240623":24.3,"20240624":23.18,"20240625":22.69,"20240626":22.85,"20240627":22.35,"20240628":20.22,"20240629":21.03,"20240630":22.41,"20240701":21.34,"20240702":21.65,"20240703":21.32,"20240704":22.34,"20240705":23.41,"20240706":24.19,"20240707":24.57,"20240708":24.96,"20240709":24.66,"20240710":25.08,"20240711":25.02,"20240712":24.1,"20240713":24.56,"20240714":25.39,"20240715":25.7,"20240716":26.47,"20240717":25.44,"20240718":25.07,"20240719":23.98,"20240720":23.84,"20240721":24.87,"20240722":24.22,"20240723":24.58,"20240724":24.49,"20240725":24.93,"20240726":23.99,"20240727":24.65,"20240728":24.23,"20240729":24.31,"20240730":24.62,"20240731":24.98,"20240801":26.31,"20240802":26.05,"20240803":25.76,"20240804":24.95,"20240805":25.46,"20240806":25.6,"20240807":22.55,"20240808":21.68,"20240809":24.16,"20240810":24.59,"20240811":23.23,"20240812":22.7,"20240813":22.2,"20240814":23.81,"20240815":24.18,"20240816":24.08,"20240817":23.37,"20240818":23.72,"20240819":24.44,"20240820":20.68,"20240821":19.11,"20240822":20.28,"20240823":21.41,"20240824":22.37,"20240825":22.31,"20240826":22.97,"20240827":23.15,"20240828":24.9,"20240829":23.68,"20240830":20.19,"20240831":22.14,"20240901":23.17,"20240902":22.83,"20240903":19.38,"20240904":20.25,"20240905":20.49,"20240906":20.95,"20240907":20.97,"20240908":17.93,"20240909":19.1,"20240910":20.68,"20240911":20.22,"20240912":20.56,"20240913":20.87,"20240914":21.51,"20240915":21.31,"20240916":19.72,"20240917":20.76,"20240918":21.12,"20240919":22.1,"20240920":22.24,"20240921":20.73,"20240922":19.45,"20240923":18.26,"20240924":18.16,"20240925":18.92,"20240926":20.39,"20240927":20.39,"20240928":19.78,"20240929":18.39,"20240930":18.74,"20241001":18.28,"20241002":17.64,"20241003":18.5,"20241004":18.67,"20241005":19.91,"20241006":17.99,"20241007":19.66,"20241008":16.98,"20241009":16.49,"20241010":14.24,"20241011":14.49,"20241012":17.72,"20241013":17.4,"20241014":17.53,"20241015":11.83,"20241016":11.83,"20241017":11.77,"20241018":13.74,"20241019":14.89,"20241020":15.42,"20241021":16.6,"20241022":18.69,"20241023":17.66,"20241024":17.44,"20241025":13.14,"20241026":14.92,"20241027":11.62,"20241028":12.32,"20241029":14.93,"20241030":16.55,"20241031":17.42,"20241101":19.1,"20241102":14.11,"20241103":10.16,"20241104":11.74,"20241105":15.88,"20241106":18.27,"20241107":18.67,"20241108":14.52,"20241109":11.58,"20241110":11.99,"20241111":16.2,"20241112":12.56,"20241113":7.44,"20241114":7.33,"20241115":9.41,"20241116":10.96,"20241117":11.2,"20241118":12.66,"20241119":11.15,"20241120":12.28,"20241121":10.72,"20241122":6.09,"20241123":6.88,"20241124":9.41,"20241125":8.36,"20241126":12.18,"20241127":8.4,"20241128":10.19,"20241129":6.46,"20241130":3.2,"20241201":2.13,"20241202":2.49,"20241203":3.26,"20241204":3.42,"20241205":4.9,"20241206":1.66,"20241207":2.81,"20241208":6.97,"20241209":8.61,"20241210":8.67,"20241211":12.68,"20241212":4.84,"20241213":0.64,"20241214":0.44,"20241215":3.09,"20241216":7.31,"20241217":10.4,"20241218":7.68,"20241219":6.59,"20241220":3.85,"20241221":0.73,"20241222":-3.72,"20241223":-4.84,"20241224":2.06,"20241225":1.39,"20241226":0.66,"20241227":1.67,"20241228":6.65,"20241229":8.38,"20241230":10.6,"20241231":6.99},"T2M_MAX":{"20240101":6.78,"20240102":5.15,"20240103":5.41,"20240104":6.22,"20240105":2.45,"20240106":4.44,"20240107":4.69,"20240108":5.41,"20240109":11.11,"20240110":13.44,"20240111":6.89,"20240112":7.55,"20240113":11.83,"20240114":6.53,"20240115":0.02,"20240116":2.61,"20240117":-0.34,"20240118":1.2,"20240119":1.21,"20240120":-1.33,"20240121":-0.36,"20240122":1.95,"20240123":3.29,"20240124":5.34,"20240125":6.68,"20240126":7.17,"20240127":6.63,"20240128":4.15,"20240129":4.19,"20240130":3.31,"20240131":3.77,"20240201":6.18,"20240202":5.94,"20240203":4.34,"20240204":5.56,"20240205":4.85,"20240206":3.53,"20240207":5.76,"20240208":7.57,"20240209":8.44,"20240210":9.04,"20240211":7.71,"20240212":6.46,"20240213":4.91,"20240214":2.03,"20240215":2.38,"20240216":3.85,"20240217":2.75,"20240218":4.12,"20240219":3.36,"20240220":1.45,"20240221":3.87,"20240222":4.84,"20240223":5.83,"20240224":4.85,"20240225":1.35,"20240226":8.01,"20240227":8.56,"20240228":10.54,"20240229":10.47,"20240301":4.48,"20240302":9.1,"20240303":14.82,"20240304":11.29,"20240305":8.09,"20240306":8.02,"20240307":9.31,"20240308":8.45,"20240309":6.12,"20240310":8.8,"20240311":7.79,"20240312":12.59,"20240313":10.27,"20240314":13.12,"20240315":14.57,"20240316":10.67,"20240317":12.05,"20240318":8.9,"20240319":6.31,"20240320":10.51,"20240321":5.63,"20240322":4.27,"20240323":9.6,"20240324":6.64,"20240325":8.37,"20240326":6.63,"20240327":8.53,"20240328":8.39,"20240329":9.73,"20240330":10.48,"20240331":11.46,"20240401":10.5,"20240402":9.79,"20240403":6.76,"20240404":7.76,"20240405":8.12,"20240406":9.12,"20240407":10.34,"20240408":13.04,"20240409":17.49,"20240410":10.9,"20240411":11.64,"20240412":13.27,"20240413":11.79,"20240414":14.0,"20240415":19.68,"20240416":15.78,"20240417":13.29,"20240418":9.02,"20240419":10.2,"20240420":14.04,"20240421":11.96,"20240422":12.59,"20240423":11.78,"20240424":16.29,"20240425":13.33,"20240426":10.75,"20240427":10.89,"20240428":15.12,"20240429":20.74,"20240430":13.14,"20240501":17.43,"20240502":20.25,"20240503":16.84,"20240504":13.33,"20240505":11.35,"20240506":17.24,"20240507":21.17,"20240508":20.45,"20240509":18.53,"20240510":13.63,"20240511":12.91,"20240512":11.47,"20240513":15.63,"20240514":17.06,"20240515":15.37,"20240516":16.02,"20240517":18.34,"20240518":17.03,"20240519":18.78,"20240520":17.07,"20240521":19.63,"20240522":20.31,"20240523":22.15,"20240524":23.2,"20240525":20.96,"20240526":20.57,"20240527":20.06,"20240528":22.64,"20240529":21.03,"20240530":19.93,"20240531":20.85,"20240601":23.31,"20240602":21.41,"20240603":25.03,"20240604":21.2,"20240605":21.99,"20240606":23.11,"20240607":24.51,"20240608":22.7,"20240609":22.55,"20240610":21.4,"20240611":20.84,"20240612":21.76,"20240613":23.21,"20240614":24.18,"20240615":23.49,"20240616":21.5,"20240617":23.86,"20240618":24.11,"20240619":24.64,"20240620":26.26,"20240621":27.27,"20240622":27.29,"20240623":26.94,"20240624":24.79,"20240625":26.48,"20240626":25.86,"20240627":25.13,"20240628":22.95,"20240629":23.59,"20240630":23.75,"20240701":23.89,"20240702":25.12,"20240703":23.59,"20240704":25.19,"20240705":25.98,"20240706":26.8,"20240707":26.88,"20240708":27.42,"20240709":26.66,"20240710":26.78,"20240711":26.85,"20240712":25.91,"20240713":26.52,"20240714":29.36,"20240715":28.53,"20240716":28.91,"20240717":27.33,"20240718":27.76,"20240719":26.85,"20240720":26.13,"20240721":27.45,"20240722":25.46,"20240723":26.29,"20240724":25.75,"20240725":26.95,"20240726":27.22,"20240727":27.43,"20240728":27.34,"20240729":26.69,"20240730":26.52,"20240731":26.97,"20240801":29.12,"20240802":27.33,"20240803":28.0,"20240804":27.1,"20240805":28.27,"20240806":28.11,"20240807":24.19,"20240808":23.5,"20240809":25.99,"20240810":26.86,"20240811":25.14,"20240812":25.06,"20240813":25.26,"20240814":27.72,"20240815":27.62,"20240816":27.25,"20240817":25.03,"20240818":25.19,"20240819":26.23,"20240820":24.41,"20240821":22.49,"20240822":23.9,"20240823":24.98,"20240824":25.56,"20240825":25.62,"20240826":26.25,"20240827":26.5,"20240828":29.42,"20240829":26.47,"20240830":21.59,"20240831":24.51,"20240901":25.07,"20240902":24.79,"20240903":21.98,"20240904":23.07,"20240905":23.0,"20240906":24.17,"20240907":23.27,"20240908":21.36,"20240909":23.22,"20240910":24.24,"20240911":23.34,"20240912":23.17,"20240913":23.86,"20240914":24.82,"20240915":23.95,"20240916":22.45,"20240917":23.34,"20240918":23.29,"20240919":26.23,"20240920":24.91,"20240921":24.1,"20240922":22.51,"20240923":19.9,"20240924":19.95,"20240925":20.39,"20240926":22.25,"20240927":21.13,"20240928":21.13,"20240929":19.2,"20240930":21.08,"20241001":20.05,"20241002":19.83,"20241003":20.9,"20241004":20.93,"20241005":22.77,"20241006":20.44,"20241007":22.65,"20241008":19.88,"20241009":19.86,"20241010":17.29,"20241011":20.39,"20241012":21.91,"20241013":21.53,"20241014":19.59,"20241015":14.92,"20241016":15.23,"20241017":15.61,"20241018":19.14,"20241019":18.7,"20241020":20.85,"20241021":22.7,"20241022":22.74,"20241023":20.76,"20241024":19.83,"20241025":16.67,"20241026":17.79,"20241027":13.93,"20241028":15.42,"20241029":17.51,"20241030":20.91,"20241031":22.04,"20241101":22.75,"20241102":17.36,"20241103":13.16,"20241104":14.4,"20241105":19.91,"20241106":21.95,"20241107":20.95,"20241108":19.14,"20241109":16.09,"20241110":14.81,"20241111":19.2,"20241112":15.27,"20241113":10.6,"20241114":8.53,"20241115":14.47,"20241116":16.3,"20241117":16.56,"20241118":17.51,"20241119":14.44,"20241120":15.05,"20241121":12.81,"20241122":7.77,"20241123":10.01,"20241124":11.97,"20241125":11.98,"20241126":14.24,"20241127":11.01,"20241128":13.43,"20241129":8.88,"20241130":5.15,"20241201":4.57,"20241202":4.79,"20241203":5.69,"20241204":6.54,"20241205":6.81,"20241206":2.99,"20241207":5.55,"20241208":11.25,"20241209":11.62,"20241210":10.47,"20241211":14.91,"20241212":9.64,"20241213":2.5,"20241214":2.1,"20241215":5.76,"20241216":10.21,"20241217":12.52,"20241218":10.8,"20241219":9.65,"20241220":4.98,"20241221":2.45,"20241222":-1.93,"20241223":-0.91,"20241224":4.49,"20241225":2.79,"20241226":2.79,"20241227":4.81,"20241228":8.23,"20241229":10.94,"20241230":11.34,"20241231":9.41},"T2M_MIN":{"20240101":4.28,"20240102":-0.27,"20240103":1.6,"20240104":2.09,"20240105":-1.42,"20240106":1.34,"20240107":2.85,"20240108":1.26,"20240109":3.35,"20240110":6.48,"20240111":3.1,"20240112":2.66,"20240113":4.27,"20240114":-0.68,"20240115":-2.2,"20240116":-1.3,"20240117":-5.59,"20240118":-3.73,"20240119":-1.14,"20240120":-6.3,"20240121":-4.86,"20240122":-3.58,"20240123":-0.06,"20240124":2.73,"20240125":5.0,"20240126":5.18,"20240127":1.9,"20240128":2.76,"20240129":2.21,"20240130":0.0,"20240131":1.76,"20240201":2.24,"20240202":4.05,"20240203":0.06,"20240204":-0.16,"20240205":0.21,"20240206":-0.27,"20240207":0.59,"20240208":2.67,"20240209":3.94,"20240210":4.41,"20240211":5.52,"20240212":1.78,"20240213":1.53,"20240214":-0.8,"20240215":-2.64,"20240216":1.24,"20240217":-0.11,"20240218":-2.7,"20240219":0.49,"20240220":-2.55,"20240221":-0.15,"20240222":1.26,"20240223":3.46,"20240224":1.76,"20240225":-3.19,"20240226":1.19,"20240227":3.78,"20240228":7.94,"20240229":-0.55,"20240301":-0.18,"20240302":3.77,"20240303":5.8,"20240304":6.48,"20240305":5.66,"20240306":6.53,"20240307":7.03,"20240308":3.01,"20240309":4.11,"20240310":4.61,"20240311":1.59,"20240312":3.51,"20240313":6.96,"20240314":6.6,"20240315":7.79,"20240316":6.81,"20240317":7.65,"20240318":5.11,"20240319":1.67,"20240320":4.82,"20240321":-0.12,"20240322":-1.1,"20240323":3.17,"20240324":-0.3,"20240325":1.5,"20240326":2.49,"20240327":5.08,"20240328":7.05,"20240329":4.59,"20240330":2.81,"20240331":5.71,"20240401":6.62,"20240402":6.13,"20240403":5.75,"20240404":3.75,"20240405":3.67,"20240406":3.93,"20240407":3.84,"20240408":3.61,"20240409":7.84,"20240410":7.43,"20240411":7.85,"20240412":10.61,"20240413":8.26,"20240414":6.39,"20240415":11.84,"20240416":8.85,"20240417":9.04,"20240418":7.67,"20240419":6.07,"20240420":8.03,"20240421":5.32,"20240422":4.79,"20240423":6.58,"20240424":8.16,"20240425":5.43,"20240426":6.08,"20240427":6.83,"20240428":9.19,"20240429":13.52,"20240430":10.71,"20240501":10.76,"20240502":10.46,"20240503":10.73,"20240504":9.39,"20240505":9.64,"20240506":11.26,"20240507":13.0,"20240508":14.34,"20240509":14.1,"20240510":9.99,"20240511":9.19,"20240512":9.13,"20240513":9.11,"20240514":11.65,"20240515":12.97,"20240516":14.15,"20240517":12.81,"20240518":13.24,"20240519":13.2,"20240520":12.31,"20240521":12.6,"20240522":15.16,"20240523":16.81,"20240524":17.15,"20240525":15.9,"20240526":16.63,"20240527":16.95,"20240528":17.86,"20240529":15.97,"20240530":14.64,"20240531":14.86,"20240601":14.22,"20240602":15.9,"20240603":18.59,"20240604":17.96,"20240605":17.61,"20240606":19.66,"20240607":20.05,"20240608":17.14,"20240609":18.5,"20240610":16.2,"20240611":15.26,"20240612":16.97,"20240613":16.98,"20240614":19.51,"20240615":16.94,"20240616":16.6,"20240617":18.29,"20240618":20.29,"20240619":20.24,"20240620":20.4,"20240621":21.37,"20240622":21.63,"20240623":22.6,"20240624":21.89,"20240625":19.43,"20240626":20.63,"20240627":20.17,"20240628":17.31,"20240629":18.76,"20240630":21.49,"20240701":17.55,"20240702":18.34,"20240703":18.88,"20240704":20.22,"20240705":21.9,"20240706":22.45,"20240707":23.08,"20240708":22.7,"20240709":22.58,"20240710":23.63,"20240711":23.7,"20240712":22.57,"20240713":23.14,"20240714":22.89,"20240715":23.52,"20240716":24.45,"20240717":23.75,"20240718":23.3,"20240719":20.57,"20240720":21.62,"20240721":22.81,"20240722":22.91,"20240723":23.03,"20240724":23.39,"20240725":23.36,"20240726":20.23,"20240727":21.78,"20240728":21.53,"20240729":22.48,"20240730":23.4,"20240731":23.91,"20240801":23.58,"20240802":24.62,"20240803":24.13,"20240804":23.84,"20240805":22.75,"20240806":23.7,"20240807":21.13,"20240808":20.33,"20240809":22.57,"20240810":22.83,"20240811":20.26,"20240812":19.42,"20240813":18.68,"20240814":19.92,"20240815":20.63,"20240816":21.15,"20240817":22.19,"20240818":22.54,"20240819":23.04,"20240820":18.5,"20240821":15.83,"20240822":16.92,"20240823":17.46,"20240824":19.2,"20240825":19.13,"20240826":20.37,"20240827":20.23,"20240828":22.07,"20240829":21.45,"20240830":18.85,"20240831":20.24,"20240901":21.98,"20240902":20.57,"20240903":15.94,"20240904":17.63,"20240905":18.12,"20240906":18.29,"20240907":19.47,"20240908":14.8,"20240909":14.83,"20240910":17.07,"20240911":16.53,"20240912":18.76,"20240913":18.53,"20240914":18.79,"20240915":19.4,"20240916":17.36,"20240917":19.15,"20240918":19.75,"20240919":18.75,"20240920":19.35,"20240921":17.57,"20240922":16.69,"20240923":16.41,"20240924":16.31,"20240925":17.85,"20240926":19.12,"20240927":19.48,"20240928":18.66,"20240929":17.72,"20240930":17.33,"20241001":17.25,"20241002":15.71,"20241003":16.99,"20241004":16.69,"20241005":18.12,"20241006":14.97,"20241007":18.07,"20241008":13.82,"20241009":12.52,"20241010":10.62,"20241011":10.33,"20241012":14.44,"20241013":14.07,"20241014":12.78,"20241015":9.56,"20241016":8.67,"20241017":8.95,"20241018":9.86,"20241019":11.21,"20241020":11.38,"20241021":11.75,"20241022":15.97,"20241023":15.1,"20241024":16.01,"20241025":9.43,"20241026":12.71,"20241027":8.59,"20241028":9.53,"20241029":12.91,"20241030":13.12,"20241031":14.14,"20241101":17.6,"20241102":10.86,"20241103":7.37,"20241104":9.52,"20241105":13.22,"20241106":16.22,"20241107":16.6,"20241108":10.54,"20241109":7.81,"20241110":9.29,"20241111":14.56,"20241112":9.93,"20241113":4.71,"20241114":5.76,"20241115":6.77,"20241116":7.52,"20241117":7.2,"20241118":9.43,"20241119":7.88,"20241120":9.58,"20241121":8.58,"20241122":5.47,"20241123":4.52,"20241124":7.58,"20241125":5.43,"20241126":10.78,"20241127":5.79,"20241128":6.47,"20241129":4.7,"20241130":0.97,"20241201":0.08,"20241202":0.9,"20241203":1.58,"20241204":1.01,"20241205":3.02,"20241206":0.69,"20241207":1.25,"20241208":4.01,"20241209":6.12,"20241210":7.02,"20241211":10.76,"20241212":2.54,"20241213":-0.52,"20241214":-0.6,"20241215":0.82,"20241216":5.12,"20241217":9.56,"20241218":4.46,"20241219":4.36,"20241220":2.82,"20241221":-1.51,"20241222":-4.87,"20241223":-7.02,"20241224":-0.57,"20241225":-0.42,"20241226":-1.76,"20241227":-0.7,"20241228":5.17,"20241229":6.71,"20241230":8.36,"20241231":4.36},"PRECTOTCORR":{"20240101":0.05,"20240102":0.0,"20240103":0.0,"20240104":0.01,"20240105":0.0,"20240106":2.92,"20240107":34.99,"20240108":0.01,"20240109":10.08,"20240110":58.96,"20240111":0.0,"20240112":0.01,"20240113":27.66,"20240114":0.04,"20240115":1.03,"20240116":6.04,"20240117":0.0,"20240118":0.01,"20240119":3.34,"20240120":0.08,"20240121":0.06,"20240122":0.0,"20240123":0.2,"20240124":4.29,"20240125":11.67,"20240126":9.3,"20240127":0.35,"20240128":27.73,"20240129":3.08,"20240130":0.17,"20240131":0.17,"20240201":0.05,"20240202":7.21,"20240203":0.01,"20240204":0.0,"20240205":0.0,"20240206":0.0,"20240207":0.0,"20240208":0.02,"20240209":0.04,"20240210":0.07,"20240211":0.01,"20240212":0.01,"20240213":22.89,"20240214":0.02,"20240215":0.0,"20240216":0.14,"20240217":5.88,"20240218":0.0,"20240219":0.0,"20240220":0.0,"20240221":0.02,"20240222":0.64,"20240223":6.37,"20240224":0.54,"20240225":0.0,"20240226":0.03,"20240227":2.99,"20240228":15.0,"20240229":8.42,"20240301":0.0,"20240302":54.33,"20240303":1.3,"20240304":0.19,"20240305":14.88,"20240306":40.18,"20240307":22.64,"20240308":0.07,"20240309":10.49,"20240310":24.0,"20240311":0.1,"20240312":0.0,"20240313":0.0,"20240314":0.03,"20240315":1.18,"20240316":0.02,"20240317":0.15,"20240318":0.16,"20240319":0.01,"20240320":0.46,"20240321":0.0,"20240322":0.0,"20240323":84.86,"20240324":0.0,"20240325":0.0,"20240326":1.27,"20240327":0.87,"20240328":27.45,"20240329":5.89,"20240330":0.04,"20240331":1.54,"20240401":8.98,"20240402":34.31,"20240403":23.92,"20240404":14.08,"20240405":1.85,"20240406":0.07,"20240407":0.01,"20240408":0.0,"20240409":0.08,"20240410":0.17,"20240411":1.45,"20240412":23.87,"20240413":1.01,"20240414":0.0,"20240415":5.14,"20240416":0.5,"20240417":1.67,"20240418":4.45,"20240419":0.0,"20240420":5.32,"20240421":0.01,"20240422":0.0,"20240423":0.0,"20240424":0.24,"20240425":0.07,"20240426":0.02,"20240427":0.29,"20240428":2.21,"20240429":0.87,"20240430":0.44,"20240501":0.95,"20240502":0.68,"20240503":0.07,"20240504":1.41,"20240505":5.38,"20240506":4.06,"20240507":0.06,"20240508":2.51,"20240509":0.12,"20240510":8.68,"20240511":1.23,"20240512":5.21,"20240513":0.04,"20240514":0.68,"20240515":5.93,"20240516":4.07,"20240517":0.13,"20240518":0.45,"20240519":0.31,"20240520":0.07,"20240521":0.04,"20240522":0.19,"20240523":16.04,"20240524":0.12,"20240525":0.09,"20240526":0.89,"20240527":8.74,"20240528":0.55,"20240529":0.88,"20240530":5.68,"20240531":0.12,"20240601":0.0,"20240602":0.01,"20240603":0.64,"20240604":0.02,"20240605":2.83,"20240606":19.99,"20240607":0.49,"20240608":0.03,"20240609":0.69,"20240610":0.09,"20240611":0.18,"20240612":0.3,"20240613":0.11,"20240614":3.72,"20240615":0.63,"20240616":0.0,"20240617":0.1,"20240618":0.09,"20240619":0.01,"20240620":0.05,"20240621":0.38,"20240622":1.82,"20240623":1.68,"20240624":4.42,"20240625":0.0,"20240626":0.77,"20240627":12.53,"20240628":0.01,"20240629":0.77,"20240630":14.55,"20240701":6.87,"20240702":0.0,"20240703":0.03,"20240704":0.37,"20240705":4.67,"20240706":6.18,"20240707":2.43,"20240708":0.34,"20240709":0.7,"20240710":1.03,"20240711":2.89,"20240712":4.67,"20240713":5.36,"20240714":2.53,"20240715":2.41,"20240716":1.64,"20240717":11.77,"20240718":6.57,"20240719":0.07,"20240720":0.19,"20240721":0.41,"20240722":2.83,"20240723":4.81,"20240724":3.15,"20240725":2.25,"20240726":0.05,"20240727":0.06,"20240728":0.04,"20240729":3.38,"20240730":1.71,"20240731":7.04,"20240801":2.29,"20240802":6.67,"20240803":8.29,"20240804":9.21,"20240805":1.4,"20240806":9.18,"20240807":22.49,"20240808":10.05,"20240809":6.6,"20240810":17.25,"20240811":0.08,"20240812":0.62,"20240813":0.17,"20240814":0.52,"20240815":1.25,"20240816":0.57,"20240817":2.64,"20240818":16.57,"20240819":9.45,"20240820":1.48,"20240821":0.04,"20240822":0.01,"20240823":0.0,"20240824":0.02,"20240825":0.1,"20240826":2.76,"20240827":0.62,"20240828":0.52,"20240829":1.21,"20240830":10.49,"20240831":0.08,"20240901":0.85,"20240902":0.1,"20240903":0.0,"20240904":0.0,"20240905":0.0,"20240906":0.09,"20240907":2.92,"20240908":0.03,"20240909":0.01,"20240910":0.0,"20240911":0.0,"20240912":0.01,"20240913":0.01,"20240914":0.0,"20240915":0.01,"20240916":0.02,"20240917":0.23,"20240918":0.07,"20240919":0.02,"20240920":0.06,"20240921":0.01,"20240922":0.05,"20240923":0.88,"20240924":0.17,"20240925":0.72,"20240926":1.47,"20240927":2.08,"20240928":5.38,"20240929":4.54,"20240930":0.19,"20241001":0.03,"20241002":0.04,"20241003":0.0,"20241004":0.02,"20241005":0.74,"20241006":0.03,"20241007":0.63,"20241008":0.0,"20241009":0.05,"20241010":0.0,"20241011":0.0,"20241012":0.0,"20241013":0.07,"20241014":0.33,"20241015":0.03,"20241016":0.01,"20241017":0.0,"20241018":0.0,"20241019":0.0,"20241020":0.0,"20241021":0.0,"20241022":0.0,"20241023":0.04,"20241024":0.01,"20241025":0.0,"20241026":0.01,"20241027":0.0,"20241028":0.0,"20241029":0.1,"20241030":0.11,"20241031":0.05,"20241101":0.01,"20241102":0.0,"20241103":0.0,"20241104":0.0,"20241105":0.01,"20241106":0.0,"20241107":0.05,"20241108":0.0,"20241109":0.0,"20241110":0.01,"20241111":7.83,"20241112":0.0,"20241113":0.0,"20241114":0.02,"20241115":0.0,"20241116":0.0,"20241117":0.0,"20241118":0.07,"20241119":0.07,"20241120":0.16,"20241121":41.23,"20241122":8.1,"20241123":2.92,"20241124":0.08,"20241125":0.04,"20241126":3.46,"20241127":0.0,"20241128":18.73,"20241129":0.04,"20241130":0.02,"20241201":0.0,"20241202":0.02,"20241203":0.17,"20241204":0.01,"20241205":5.95,"20241206":0.05,"20241207":0.02,"20241208":0.09,"20241209":5.56,"20241210":0.87,"20241211":43.56,"20241212":7.35,"20241213":0.0,"20241214":0.0,"20241215":0.0,"20241216":23.04,"20241217":3.56,"20241218":0.25,"20241219":5.48,"20241220":5.6,"20241221":1.6,"20241222":0.0,"20241223":0.0,"20241224":0.71,"20241225":0.02,"20241226":0.0,"20241227":0.01,"20241228":10.57,"20241229":3.47,"20241230":26.53,"20241231":0.01},"WS10M":{"20240101":2.72,"20240102":5.16,"20240103":4.05,"20240104":4.96,"20240105":6.32,"20240106":4.8,"20240107":8.98,"20240108":6.16,"20240109":6.28,"20240110":13.0,"20240111":6.83,"20240112":5.42,"20240113":10.03,"20240114":10.88,"20240115":4.66,"20240116":4.96,"20240117":8.72,"20240118":7.19,"20240119":5.08,"20240120":8.31,"20240121":9.08,"20240122":5.46,"20240123":4.74,"20240124":3.55,"20240125":4.01,"20240126":4.33,"20240127":2.94,"20240128":6.91,"20240129":8.12,"20240130":4.3,"20240131":3.77,"20240201":3.35,"20240202":3.51,"20240203":7.03,"20240204":5.23,"20240205":5.63,"20240206":6.32,"20240207":4.44,"20240208":1.63,"20240209":4.7,"20240210":3.75,"20240211":3.62,"20240212":2.81,"20240213":7.9,"20240214":9.12,"20240215":5.81,"20240216":8.94,"20240217":4.71,"20240218":7.88,"20240219":5.87,"20240220":4.73,"20240221":4.03,"20240222":3.3,"20240223":3.81,"20240224":5.94,"20240225":4.67,"20240226":5.32,"20240227":5.08,"20240228":10.0,"20240229":9.85,"20240301":4.07,"20240302":6.2,"20240303":4.05,"20240304":3.5,"20240305":6.18,"20240306":2.63,"20240307":5.57,"20240308":5.38,"20240309":6.85,"20240310":8.95,"20240311":11.93,"20240312":6.67,"20240313":3.34,"20240314":3.22,"20240315":5.69,"20240316":3.77,"20240317":6.56,"20240318":5.36,"20240319":7.49,"20240320":6.52,"20240321":9.25,"20240322":4.34,"20240323":6.83,"20240324":9.96,"20240325":7.21,"20240326":5.76,"20240327":2.35,"20240328":3.27,"20240329":8.78,"20240330":7.52,"20240331":3.9,"20240401":2.62,"20240402":4.39,"20240403":12.29,"20240404":7.76,"20240405":5.7,"20240406":7.25,"20240407":5.17,"20240408":2.66,"20240409":2.63,"20240410":4.68,"20240411":4.29,"20240412":10.23,"20240413":9.45,"20240414":6.91,"20240415":4.27,"20240416":3.95,"20240417":3.41,"20240418":7.88,"20240419":5.02,"20240420":2.98,"20240421":5.14,"20240422":3.93,"20240423":4.65,"20240424":4.97,"20240425":5.43,"20240426":3.03,"20240427":4.97,"20240428":3.97,"20240429":3.62,"20240430":4.22,"20240501":2.91,"20240502":4.29,"20240503":5.81,"20240504":4.53,"20240505":6.3,"20240506":2.85,"20240507":2.72,"20240508":5.72,"20240509":3.74,"20240510":7.22,"20240511":4.35,"20240512":3.6,"20240513":4.2,"20240514":4.9,"20240515":4.77,"20240516":9.4,"20240517":4.16,"20240518":2.4,"20240519":3.42,"20240520":2.8,"20240521":4.12,"20240522":5.18,"20240523":3.72,"20240524":3.34,"20240525":3.37,"20240526":3.69,"20240527":6.41,"20240528":5.47,"20240529":3.0,"20240530":4.57,"20240531":3.58,"20240601":3.85,"20240602":4.92,"20240603":2.81,"20240604":2.91,"20240605":3.8,"20240606":5.76,"20240607":3.36,"20240608":4.98,"20240609":4.98,"20240610":3.67,"20240611":2.63,"20240612":2.08,"20240613":4.54,"20240614":5.38,"20240615":4.36,"20240616":4.16,"20240617":5.45,"20240618":5.46,"20240619":4.6,"20240620":4.66,"20240621":4.96,"20240622":4.32,"20240623":6.26,"20240624":7.37,"20240625":5.65,"20240626":6.46,"20240627":3.85,"20240628":4.75,"20240629":6.1,"20240630":6.09,"20240701":6.0,"20240702":3.17,"20240703":3.57,"20240704":4.79,"20240705":4.63,"20240706":5.04,"20240707":2.76,"20240708":1.89,"20240709":3.45,"20240710":6.14,"20240711":6.8,"20240712":4.6,"20240713":4.45,"20240714":3.12,"20240715":4.5,"20240716":5.25,"20240717":4.19,"20240718":2.72,"20240719":3.74,"20240720":4.47,"20240721":2.75,"20240722":4.02,"20240723":1.9,"20240724":2.44,"20240725":3.03,"20240726":3.99,"20240727":1.93,"20240728":3.36,"20240729":4.42,"20240730":5.79,"20240731":5.99,"20240801":3.33,"20240802":4.33,"20240803":4.15,"20240804":5.3,"20240805":4.05,"20240806":5.32,"20240807":4.64,"20240808":6.5,"20240809":8.88,"20240810":5.23,"20240811":2.97,"20240812":3.48,"20240813":3.37,"20240814":2.5,"20240815":1.95,"20240816":2.87,"20240817":4.25,"20240818":6.05,"20240819":3.23,"20240820":6.36,"20240821":4.86,"20240822":4.49,"20240823":2.71,"20240824":3.34,"20240825":3.89,"20240826":3.78,"20240827":2.33,"20240828":4.74,"20240829":5.53,"20240830":5.56,"20240831":3.63,"20240901":4.35,"20240902":4.71,"20240903":5.2,"20240904":2.58,"20240905":4.64,"20240906":4.24,"20240907":4.7,"20240908":5.91,"20240909":4.89,"20240910":3.68,"20240911":2.7,"20240912":2.69,"20240913":2.5,"20240914":2.68,"20240915":4.13,"20240916":4.58,"20240917":4.08,"20240918":5.04,"20240919":4.97,"20240920":4.78,"20240921":5.5,"20240922":5.13,"20240923":5.42,"20240924":5.49,"20240925":6.09,"20240926":5.04,"20240927":3.24,"20240928":7.28,"20240929":7.29,"20240930":5.12,"20241001":5.77,"20241002":4.91,"20241003":2.31,"20241004":3.06,"20241005":3.45,"20241006":3.9,"20241007":5.38,"20241008":4.56,"20241009":4.01,"20241010":6.49,"20241011":5.16,"20241012":5.99,"20241013":4.63,"20241014":7.04,"20241015":6.35,"20241016":5.91,"20241017":6.61,"20241018":5.65,"20241019":2.61,"20241020":3.38,"20241021":3.81,"20241022":3.21,"20241023":5.28,"20241024":5.58,"20241025":5.05,"20241026":6.0,"20241027":4.66,"20241028":3.18,"20241029":4.82,"20241030":4.01,"20241031":5.24,"20241101":7.17,"20241102":4.92,"20241103":4.78,"20241104":4.57,"20241105":5.51,"20241106":7.08,"20241107":4.2,"20241108":5.09,"20241109":7.34,"20241110":4.76,"20241111":6.97,"20241112":8.73,"20241113":7.11,"20241114":5.07,"20241115":4.7,"20241116":7.56,"20241117":5.3,"20241118":5.35,"20241119":4.4,"20241120":2.84,"20241121":7.21,"20241122":9.43,"20241123":7.67,"20241124":8.83,"20241125":5.25,"20241126":5.63,"20241127":4.7,"20241128":6.27,"20241129":7.08,"20241130":7.08,"20241201":7.4,"20241202":5.16,"20241203":5.17,"20241204":6.31,"20241205":10.82,"20241206":9.41,"20241207":6.75,"20241208":8.2,"20241209":4.31,"20241210":4.04,"20241211":8.92,"20241212":10.22,"20241213":5.92,"20241214":4.63,"20241215":4.32,"20241216":6.33,"20241217":5.91,"20241218":3.69,"20241219":5.57,"20241220":6.5,"20241221":8.31,"20241222":7.7,"20241223":3.77,"20241224":5.49,"20241225":5.09,"20241226":3.65,"20241227":1.94,"20241228":3.14,"20241229":4.58,"20241230":8.04,"20241231":4.53},"RH2M":{"20240101":78.91,"20240102":79.46,"20240103":78.93,"20240104":75.07,"20240105":74.39,"20240106":76.82,"20240107":94.01,"20240108":78.7,"20240109":78.29,"20240110":82.5,"20240111":78.78,"20240112":83.96,"20240113":86.81,"20240114":71.68,"20240115":72.67,"20240116":90.52,"20240117":83.71,"20240118":72.98,"20240119":78.73,"20240120":83.6,"20240121":81.59,"20240122":79.21,"20240123":83.07,"20240124":91.85,"20240125":96.69,"20240126":97.44,"20240127":94.62,"20240128":94.87,"20240129":88.32,"20240130":81.35,"20240131":79.81,"20240201":84.43,"20240202":92.72,"20240203":81.93,"20240204":74.86,"20240205":73.76,"20240206":75.12,"20240207":79.88,"20240208":77.83,"20240209":93.48,"20240210":95.84,"20240211":88.53,"20240212":81.1,"20240213":91.43,"20240214":78.16,"20240215":73.56,"20240216":74.68,"20240217":78.32,"20240218":72.21,"20240219":73.1,"20240220":66.29,"20240221":73.46,"20240222":79.66,"20240223":95.46,"20240224":82.76,"20240225":68.39,"20240226":86.54,"20240227":96.67,"20240228":96.47,"20240229":67.71,"20240301":63.1,"20240302":91.55,"20240303":88.94,"20240304":94.34,"20240305":96.9,"20240306":94.04,"20240307":93.51,"20240308":83.17,"20240309":88.18,"20240310":87.2,"20240311":72.94,"20240312":77.49,"20240313":79.6,"20240314":90.75,"20240315":89.64,"20240316":86.8,"20240317":83.31,"20240318":72.01,"20240319":71.29,"20240320":80.92,"20240321":64.8,"20240322":64.66,"20240323":89.78,"20240324":71.35,"20240325":75.64,"20240326":85.17,"20240327":89.92,"20240328":94.99,"20240329":75.71,"20240330":74.05,"20240331":82.52,"20240401":86.61,"20240402":92.46,"20240403":93.22,"20240404":87.37,"20240405":78.12,"20240406":78.89,"20240407":78.73,"20240408":74.76,"20240409":81.39,"20240410":93.83,"20240411":96.16,"20240412":92.02,"20240413":80.7,"20240414":80.03,"20240415":82.81,"20240416":73.38,"20240417":89.26,"20240418":93.02,"20240419":86.75,"20240420":88.7,"20240421":70.39,"20240422":70.63,"20240423":83.19,"20240424":80.72,"20240425":67.5,"20240426":72.83,"20240427":79.0,"20240428":91.94,"20240429":91.88,"20240430":94.75,"20240501":89.9,"20240502":89.45,"20240503":85.64,"20240504":85.06,"20240505":91.67,"20240506":93.42,"20240507":79.57,"20240508":90.78,"20240509":79.86,"20240510":86.9,"20240511":76.95,"20240512":83.07,"20240513":85.79,"20240514":92.3,"20240515":94.25,"20240516":90.63,"20240517":88.02,"20240518":86.83,"20240519":89.01,"20240520":90.69,"20240521":90.93,"20240522":89.07,"20240523":91.46,"20240524":81.41,"20240525":83.16,"20240526":92.3,"20240527":95.87,"20240528":85.0,"20240529":83.48,"20240530":79.35,"20240531":71.1,"20240601":71.04,"20240602":80.73,"20240603":83.81,"20240604":89.33,"20240605":94.04,"20240606":93.69,"20240607":81.81,"20240608":75.95,"20240609":82.42,"20240610":75.92,"20240611":76.07,"20240612":79.34,"20240613":86.71,"20240614":87.77,"20240615":79.39,"20240616":74.92,"20240617":87.03,"20240618":87.5,"20240619":86.41,"20240620":85.07,"20240621":82.62,"20240622":87.18,"20240623":87.79,"20240624":78.0,"20240625":66.25,"20240626":80.25,"20240627":81.28,"20240628":62.83,"20240629":83.41,"20240630":95.09,"20240701":77.79,"20240702":70.89,"20240703":81.76,"20240704":87.64,"20240705":91.7,"20240706":91.46,"20240707":86.99,"20240708":84.37,"20240709":89.31,"20240710":90.45,"20240711":84.04,"20240712":88.58,"20240713":90.49,"20240714":83.81,"20240715":85.9,"20240716":80.82,"20240717":86.53,"20240718":83.58,"20240719":66.5,"20240720":80.95,"20240721":80.4,"20240722":88.77,"20240723":85.53,"20240724":90.01,"20240725":84.13,"20240726":64.59,"20240727":70.11,"20240728":74.25,"20240729":80.99,"20240730":88.25,"20240731":89.62,"20240801":81.06,"20240802":87.87,"20240803":90.29,"20240804":91.58,"20240805":83.65,"20240806":87.43,"20240807":90.72,"20240808":92.18,"20240809":94.5,"20240810":84.21,"20240811":79.95,"20240812":76.04,"20240813":72.71,"20240814":73.59,"20240815":76.36,"20240816":80.21,"20240817":90.48,"20240818":90.08,"20240819":90.11,"20240820":73.61,"20240821":68.9,"20240822":69.44,"20240823":74.99,"20240824":76.84,"20240825":79.54,"20240826":82.24,"20240827":83.0,"20240828":81.61,"20240829":75.3,"20240830":79.54,"20240831":85.86,"20240901":90.67,"20240902":73.39,"20240903":57.4,"20240904":57.21,"20240905":68.64,"20240906":83.27,"20240907":88.3,"20240908":66.46,"20240909":62.92,"20240910":66.38,"20240911":68.49,"20240912":79.33,"20240913":82.33,"20240914":81.85,"20240915":80.4,"20240916":74.86,"20240917":87.38,"20240918":86.91,"20240919":71.45,"20240920":75.81,"20240921":75.89,"20240922":74.86,"20240923":73.81,"20240924":75.78,"20240925":80.36,"20240926":91.73,"20240927":89.18,"20240928":90.35,"20240929":87.48,"20240930":80.08,"20241001":81.02,"20241002":78.75,"20241003":72.85,"20241004":83.33,"20241005":78.97,"20241006":72.92,"20241007":79.94,"20241008":61.53,"20241009":64.02,"20241010":63.45,"20241011":64.44,"20241012":62.39,"20241013":72.02,"20241014":75.29,"20241015":65.8,"20241016":64.85,"20241017":66.32,"20241018":62.78,"20241019":67.73,"20241020":72.73,"20241021":67.45,"20241022":74.23,"20241023":91.01,"20241024":74.14,"20241025":63.08,"20241026":62.3,"20241027":55.26,"20241028":53.66,"20241029":77.08,"20241030":87.31,"20241031":85.64,"20241101":76.32,"20241102":62.01,"20241103":61.26,"20241104":70.11,"20241105":86.53,"20241106":86.19,"20241107":76.17,"20241108":67.6,"20241109":52.44,"20241110":57.49,"20241111":83.56,"20241112":63.72,"20241113":59.76,"20241114":64.55,"20241115":52.04,"20241116":58.58,"20241117":61.05,"20241118":68.34,"20241119":70.07,"20241120":74.47,"20241121":89.0,"20241122":87.71,"20241123":83.79,"20241124":75.04,"20241125":72.95,"20241126":83.16,"20241127":72.2,"20241128":82.74,"20241129":75.03,"20241130":71.86,"20241201":70.64,"20241202":69.75,"20241203":74.47,"20241204":70.37,"20241205":79.41,"20241206":70.83,"20241207":69.28,"20241208":67.53,"20241209":88.46,"20241210":96.54,"20241211":97.28,"20241212":70.74,"20241213":66.42,"20241214":68.52,"20241215":71.79,"20241216":92.32,"20241217":91.74,"20241218":87.38,"20241219":80.01,"20241220":84.95,"20241221":82.51,"20241222":77.28,"20241223":80.74,"20241224":80.21,"20241225":80.83,"20241226":75.53,"20241227":73.97,"20241228":95.93,"20241229":98.32,"20241230":87.1,"20241231":86.86}}},"header":{"title":"NASA/POWER Source Native Resolution Daily Data","api":{"version":"v2.9.6","name":"POWER Daily API"},"sources":["MERRA2","POWER"],"fill_value":-999.0,"time_standard":"UTC","start":"20240101","end":"20241231"},"messages":[],"parameters":{"T2M":{"units":"C","longname":"Temperature at 2 Meters"},"T2M_MAX":{"units":"C","longname":"Temperature at 2 Meters Maximum"},"T2M_MIN":{"units":"C","longname":"Temperature at 2 Meters Minimum"},"PRECTOTCORR":{"units":"mm/day","longname":"Precipitation Corrected"},"WS10M":{"units":"m/s","longname":"Wind Speed at 10 Meters"},"RH2M":{"units":"%","longname":"Relative Humidity at 2 Meters"}},"times":{"data":0.922,"process":0.02}}