{"type":"Feature","geometry":{"type":"Point","coordinates":[121.458,31.222,3.54]},"properties":{"parameter":{"T2M":{"20240101":4.18,"20240102":5.81,"20240103":3.58,"20240104":5.44,"20240105":7.21,"20240106":5.61,"20240107":3.95,"20240108":6.71,"20240109":7.48,"20240110":3.07,"20240111":5.51,"20240112":10.36,"20240113":9.07,"20240114":8.79,"20240115":3.75,"20240116":8.12,"20240117":10.83,"20240118":8.51,"20240119":8.06,"20240120":4.21,"20240121":3.74,"20240122":-2.05,"20240123":-2.55,"20240124":-0.33,"20240125":1.62,"20240126":3.21,"20240127":3.07,"20240128":4.4,"20240129":7.41,"20240130":9.19,"20240131":9.45,"20240201":5.83,"20240202":5.48,"20240203":5.34,"20240204":3.83,"20240205":1.51,"20240206":2.04,"20240207":2.46,"20240208":3.06,"20240209":4.4,"20240210":8.07,"20240211":8.19,"20240212":9.27,"20240213":12.46,"20240214":15.64,"20240215":4.62,"20240216":5.7,"20240217":11.54,"20240218":16.39,"20240219":11.41,"20240220":8.55,"20240221":4.95,"20240222":2.35,"20240223":2.58,"20240224":1.29,"20240225":1.99,"20240226":4.64,"20240227":6.66,"20240228":8.09,"20240229":5.13,"20240301":3.16,"20240302":4.3,"20240303":8.46,"20240304":11.72,"20240305":10.42,"20240306":6.43,"20240307":7.51,"20240308":6.54,"20240309":7.13,"20240310":9.09,"20240311":10.53,"20240312":7.84,"20240313":8.92,"20240314":10.99,"20240315":13.0,"20240316":15.45,"20240317":9.07,"20240318":8.77,"20240319":9.98,"20240320":9.78,"20240321":12.23,"20240322":17.85,"20240323":18.19,"20240324":16.35,"20240325":14.17,"20240326":11.32,"20240327":13.26,"20240328":12.79,"20240329":19.12,"20240330":18.17,"20240331":13.09,"20240401":16.96,"20240402":20.56,"20240403":15.15,"20240404":12.22,"20240405":13.97,"20240406":13.85,"20240407":14.07,"20240408":11.82,"20240409":15.41,"20240410":15.29,"20240411":17.12,"20240412":16.08,"20240413":17.03,"20240414":19.6,"20240415":19.24,"20240416":17.99,"20240417":13.21,"20240418":15.4,"20240419":17.45,"20240420":17.82,"20240421":17.31,"20240422":17.23,"20240423":17.89,"20240424":19.0,"20240425":18.1,"20240426":16.69,"20240427":18.86,"20240428":19.5,"20240429":18.46,"20240430":14.71,"20240501":16.53,"20240502":17.34,"20240503":17.66,"20240504":18.11,"20240505":18.87,"20240506":20.93,"20240507":20.79,"20240508":17.37,"20240509":18.52,"20240510":22.1,"20240511":20.8,"20240512":17.62,"20240513":19.08,"20240514":19.65,"20240515":17.12,"20240516":19.16,"20240517":22.54,"20240518":22.45,"20240519":22.52,"20240520":22.15,"20240521":21.15,"20240522":21.38,"20240523":22.4,"20240524":22.86,"20240525":24.23,"20240526":26.45,"20240527":18.64,"20240528":20.78,"20240529":21.8,"20240530":22.35,"20240531":21.59,"20240601":21.62,"20240602":22.33,"20240603":24.31,"20240604":23.27,"20240605":20.45,"20240606":20.04,"20240607":22.44,"20240608":24.33,"20240609":24.87,"20240610":22.83,"20240611":24.02,"20240612":26.34,"20240613":25.78,"20240614":25.93,"20240615":26.65,"20240616":25.4,"20240617":22.85,"20240618":25.21,"20240619":26.04,"20240620":26.5,"20240621":28.06,"20240622":28.38,"20240623":26.12,"20240624":25.02,"20240625":22.91,"20240626":25.16,"20240627":24.58,"20240628":25.93,"20240629":27.83,"20240630":27.15,"20240701":27.7,"20240702":28.69,"20240703":30.03,"20240704":30.85,"20240705":31.5,"20240706":30.88,"20240707":31.91,"20240708":31.34,"20240709":30.57,"20240710":29.81,"20240711":26.48,"20240712":28.13,"20240713":28.01,"20240714":28.44,"20240715":30.34,"20240716":30.21,"20240717":30.08,"20240718":30.38,"20240719":31.12,"20240720":31.76,"20240721":30.95,"20240722":30.68,"20240723":30.3,"20240724":29.8,"20240725":29.27,"20240726":29.33,"20240727":29.61,"20240728":29.75,"20240729":30.25,"20240730":30.7,"20240731":32.05,"20240801":32.78,"20240802":32.49,"20240803":32.56,"20240804":31.26,"20240805":30.32,"20240806":30.65,"20240807":30.93,"20240808":31.27,"20240809":32.32,"20240810":32.22,"20240811":33.15,"20240812":31.44,"20240813":30.12,"20240814":30.13,"20240815":29.79,"20240816":29.68,"20240817":30.13,"20240818":30.58,"20240819":30.93,"20240820":31.01,"20240821":30.18,"20240822":31.18,"20240823":31.39,"20240824":30.37,"20240825":30.77,"20240826":31.83,"20240827":29.46,"20240828":30.25,"20240829":30.01,"20240830":30.75,"20240831":30.67,"20240901":31.56,"20240902":31.25,"20240903":29.22,"20240904":30.21,"20240905":30.46,"20240906":29.94,"20240907":30.41,"20240908":30.1,"20240909":29.87,"20240910":29.16,"20240911":29.26,"20240912":29.43,"20240913":30.31,"20240914":29.1,"20240915":29.45,"20240916":28.79,"20240917":29.11,"20240918":28.95,"20240919":28.65,"20240920":28.32,"20240921":23.58,"20240922":22.24,"20240923":23.0,"20240924":24.02,"20240925":25.25,"20240926":25.59,"20240927":24.23,"20240928":25.42,"20240929":27.02,"20240930":26.9,"20241001":21.43,"20241002":19.82,"20241003":19.62,"20241004":21.41,"20241005":22.21,"20241006":20.09,"20241007":18.86,"20241008":18.33,"20241009":18.51,"20241010":19.3,"20241011":20.65,"20241012":22.25,"20241013":23.99,"20241014":23.53,"20241015":21.56,"20241016":21.99,"20241017":23.83,"20241018":24.54,"20241019":18.33,"20241020":20.37,"20241021":21.75,"20241022":16.64,"20241023":15.92,"20241024":17.89,"20241025":21.5,"20241026":22.49,"20241027":19.3,"20241028":16.84,"20241029":16.69,"20241030":18.7,"20241031":21.38,"20241101":17.65,"20241102":17.48,"20241103":18.34,"20241104":17.24,"20241105":13.98,"20241106":14.16,"20241107":15.1,"20241108":17.76,"20241109":17.89,"20241110":16.26,"20241111":16.4,"20241112":17.39,"20241113":18.78,"20241114":20.79,"20241115":20.35,"20241116":19.46,"20241117":14.4,"20241118":12.69,"20241119":12.44,"20241120":11.56,"20241121":11.44,"20241122":12.51,"20241123":12.37,"20241124":14.18,"20241125":12.44,"20241126":7.61,"20241127":6.66,"20241128":6.77,"20241129":8.23,"20241130":10.38,"20241201":11.94,"20241202":12.3,"20241203":10.7,"20241204":10.96,"20241205":9.38,"20241206":8.4,"20241207":7.94,"20241208":5.04,"20241209":7.55,"20241210":8.72,"20241211":7.55,"20241212":7.79,"20241213":5.32,"20241214":2.24,"20241215":3.07,"20241216":5.13,"20241217":6.5,"20241218":4.25,"20241219":4.41,"20241220":4.37,"20241221":2.51,"20241222":3.86,"20241223":5.47,"20241224":6.59,"20241225":6.97,"20241226":5.21,"20241227":3.59,"20241228":1.82,"20241229":3.7,"20241230":4.88,"20241231":4.6},"T2M_MAX":{"20240101":9.28,"20240102":10.99,"20240103":9.12,"20240104":11.1,"20240105":13.83,"20240106":12.18,"20240107":9.22,"20240108":9.83,"20240109":12.94,"20240110":8.02,"20240111":11.05,"20240112":16.42,"20240113":15.44,"20240114":18.84,"20240115":8.28,"20240116":12.77,"20240117":18.16,"20240118":10.64,"20240119":12.03,"20240120":6.16,"20240121":8.83,"20240122":0.97,"20240123":0.72,"20240124":4.04,"20240125":6.58,"20240126":7.76,"20240127":8.15,"20240128":10.02,"20240129":10.85,"20240130":12.97,"20240131":13.7,"20240201":9.56,"20240202":7.86,"20240203":7.76,"20240204":8.38,"20240205":5.42,"20240206":4.84,"20240207":7.52,"20240208":7.24,"20240209":9.09,"20240210":13.19,"20240211":13.89,"20240212":15.68,"20240213":18.02,"20240214":21.47,"20240215":11.96,"20240216":10.14,"20240217":15.39,"20240218":21.97,"20240219":20.23,"20240220":10.81,"20240221":10.01,"20240222":5.85,"20240223":5.54,"20240224":4.16,"20240225":4.87,"20240226":8.89,"20240227":10.36,"20240228":9.9,"20240229":6.85,"20240301":7.36,"20240302":8.62,"20240303":13.37,"20240304":14.06,"20240305":15.7,"20240306":12.44,"20240307":11.62,"20240308":11.19,"20240309":11.96,"20240310":12.87,"20240311":14.7,"20240312":15.52,"20240313":13.22,"20240314":15.6,"20240315":17.46,"20240316":20.8,"20240317":15.09,"20240318":12.68,"20240319":16.58,"20240320":17.04,"20240321":17.79,"20240322":23.46,"20240323":22.38,"20240324":23.31,"20240325":25.74,"20240326":15.71,"20240327":16.99,"20240328":16.33,"20240329":25.44,"20240330":26.63,"20240331":16.86,"20240401":21.71,"20240402":25.5,"20240403":20.69,"20240404":15.81,"20240405":18.21,"20240406":17.07,"20240407":17.81,"20240408":14.68,"20240409":21.83,"20240410":19.66,"20240411":21.09,"20240412":19.67,"20240413":21.92,"20240414":23.46,"20240415":25.76,"20240416":24.45,"20240417":17.75,"20240418":21.66,"20240419":19.01,"20240420":22.36,"20240421":21.5,"20240422":20.53,"20240423":22.01,"20240424":24.42,"20240425":23.6,"20240426":19.67,"20240427":22.84,"20240428":22.62,"20240429":23.94,"20240430":17.14,"20240501":21.09,"20240502":20.97,"20240503":21.09,"20240504":19.58,"20240505":22.82,"20240506":24.45,"20240507":25.15,"20240508":22.52,"20240509":23.24,"20240510":26.83,"20240511":25.18,"20240512":22.21,"20240513":24.76,"20240514":26.18,"20240515":24.75,"20240516":25.25,"20240517":29.13,"20240518":27.77,"20240519":26.84,"20240520":24.98,"20240521":24.4,"20240522":24.72,"20240523":26.41,"20240524":28.15,"20240525":27.93,"20240526":32.06,"20240527":21.09,"20240528":26.39,"20240529":25.5,"20240530":25.84,"20240531":24.43,"20240601":26.88,"20240602":26.68,"20240603":30.12,"20240604":27.61,"20240605":23.88,"20240606":23.31,"20240607":25.97,"20240608":29.14,"20240609":29.93,"20240610":25.48,"20240611":27.4,"20240612":30.7,"20240613":30.99,"20240614":30.72,"20240615":32.88,"20240616":30.69,"20240617":26.51,"20240618":29.17,"20240619":28.74,"20240620":28.49,"20240621":31.51,"20240622":31.08,"20240623":29.19,"20240624":27.79,"20240625":24.15,"20240626":28.44,"20240627":25.88,"20240628":27.98,"20240629":29.91,"20240630":28.92,"20240701":30.04,"20240702":33.05,"20240703":33.44,"20240704":34.55,"20240705":35.22,"20240706":34.44,"20240707":35.58,"20240708":34.91,"20240709":33.6,"20240710":32.21,"20240711":30.28,"20240712":30.86,"20240713":29.92,"20240714":31.14,"20240715":34.27,"20240716":33.82,"20240717":32.54,"20240718":32.61,"20240719":34.41,"20240720":34.88,"20240721":34.59,"20240722":34.88,"20240723":34.14,"20240724":32.65,"20240725":31.69,"20240726":31.24,"20240727":32.39,"20240728":33.09,"20240729":33.93,"20240730":34.58,"20240731":35.79,"20240801":35.62,"20240802":37.06,"20240803":37.92,"20240804":35.58,"20240805":33.56,"20240806":34.55,"20240807":34.15,"20240808":35.48,"20240809":37.7,"20240810":36.71,"20240811":37.83,"20240812":35.12,"20240813":32.83,"20240814":33.77,"20240815":32.4,"20240816":32.63,"20240817":33.48,"20240818":33.76,"20240819":34.43,"20240820":34.91,"20240821":34.6,"20240822":34.48,"20240823":36.16,"20240824":34.46,"20240825":34.35,"20240826":36.47,"20240827":34.79,"20240828":33.91,"20240829":34.46,"20240830":35.18,"20240831":35.29,"20240901":36.52,"20240902":36.46,"20240903":32.47,"20240904":33.98,"20240905":34.97,"20240906":33.27,"20240907":34.5,"20240908":33.85,"20240909":34.15,"20240910":31.34,"20240911":31.8,"20240912":32.27,"20240913":34.27,"20240914":32.38,"20240915":33.0,"20240916":29.78,"20240917":32.9,"20240918":32.21,"20240919":31.1,"20240920":29.61,"20240921":27.59,"20240922":25.57,"20240923":26.6,"20240924":26.51,"20240925":27.56,"20240926":28.46,"20240927":28.37,"20240928":28.52,"20240929":30.23,"20240930":30.3,"20241001":26.3,"20241002":23.04,"20241003":23.64,"20241004":24.54,"20241005":24.51,"20241006":21.86,"20241007":22.66,"20241008":23.07,"20241009":22.46,"20241010":21.98,"20241011":25.0,"20241012":25.18,"20241013":27.52,"20241014":27.64,"20241015":24.39,"20241016":24.57,"20241017":27.32,"20241018":30.18,"20241019":23.63,"20241020":22.52,"20241021":25.62,"20241022":22.15,"20241023":19.59,"20241024":21.04,"20241025":23.45,"20241026":24.96,"20241027":24.49,"20241028":21.15,"20241029":20.28,"20241030":21.61,"20241031":23.59,"20241101":19.75,"20241102":22.29,"20241103":23.08,"20241104":21.52,"20241105":18.68,"20241106":18.11,"20241107":18.25,"20241108":19.86,"20241109":20.34,"20241110":19.68,"20241111":21.11,"20241112":21.48,"20241113":22.38,"20241114":23.7,"20241115":23.05,"20241116":23.48,"20241117":18.88,"20241118":15.72,"20241119":15.44,"20241120":15.87,"20241121":15.67,"20241122":16.65,"20241123":16.07,"20241124":17.42,"20241125":18.81,"20241126":11.18,"20241127":12.35,"20241128":13.32,"20241129":14.07,"20241130":15.88,"20241201":17.45,"20241202":19.68,"20241203":15.61,"20241204":14.3,"20241205":12.31,"20241206":12.45,"20241207":13.11,"20241208":9.94,"20241209":10.36,"20241210":9.93,"20241211":9.78,"20241212":11.58,"20241213":9.38,"20241214":7.34,"20241215":8.29,"20241216":10.38,"20241217":12.69,"20241218":8.79,"20241219":8.0,"20241220":9.51,"20241221":7.57,"20241222":7.71,"20241223":8.72,"20241224":10.68,"20241225":12.16,"20241226":10.6,"20241227":8.86,"20241228":5.75,"20241229":9.07,"20241230":11.8,"20241231":10.05},"T2M_MIN":{"20240101":0.26,"20240102":1.77,"20240103":0.13,"20240104":1.91,"20240105":3.07,"20240106":1.44,"20240107":0.94,"20240108":4.45,"20240109":2.78,"20240110":-0.38,"20240111":2.01,"20240112":4.71,"20240113":4.01,"20240114":1.62,"20240115":0.94,"20240116":5.19,"20240117":6.67,"20240118":6.85,"20240119":4.55,"20240120":3.0,"20240121":-1.03,"20240122":-5.46,"20240123":-4.24,"20240124":-2.45,"20240125":-1.87,"20240126":-0.25,"20240127":-1.57,"20240128":0.9,"20240129":5.06,"20240130":6.94,"20240131":7.37,"20240201":3.72,"20240202":4.3,"20240203":3.84,"20240204":-0.3,"20240205":-1.3,"20240206":-0.24,"20240207":-0.96,"20240208":-1.15,"20240209":0.14,"20240210":3.33,"20240211":2.49,"20240212":5.04,"20240213":8.22,"20240214":11.63,"20240215":0.98,"20240216":2.92,"20240217":8.32,"20240218":12.6,"20240219":7.47,"20240220":7.07,"20240221":2.36,"20240222":0.26,"20240223":1.18,"20240224":-1.66,"20240225":0.41,"20240226":1.58,"20240227":4.68,"20240228":5.9,"20240229":2.01,"20240301":-0.36,"20240302":0.94,"20240303":5.31,"20240304":10.21,"20240305":6.46,"20240306":1.91,"20240307":3.43,"20240308":1.9,"20240309":2.53,"20240310":6.83,"20240311":7.46,"20240312":2.06,"20240313":6.08,"20240314":8.13,"20240315":10.66,"20240316":10.13,"20240317":5.07,"20240318":4.81,"20240319":4.7,"20240320":4.73,"20240321":8.5,"20240322":13.45,"20240323":16.31,"20240324":12.25,"20240325":8.17,"20240326":7.59,"20240327":11.29,"20240328":10.49,"20240329":14.4,"20240330":11.77,"20240331":9.98,"20240401":14.29,"20240402":16.15,"20240403":11.21,"20240404":8.82,"20240405":11.52,"20240406":11.03,"20240407":12.21,"20240408":9.35,"20240409":10.56,"20240410":12.49,"20240411":14.52,"20240412":13.25,"20240413":14.13,"20240414":15.7,"20240415":15.34,"20240416":14.9,"20240417":8.96,"20240418":10.61,"20240419":15.89,"20240420":13.66,"20240421":14.64,"20240422":14.78,"20240423":12.26,"20240424":13.54,"20240425":13.88,"20240426":14.71,"20240427":16.42,"20240428":17.47,"20240429":14.32,"20240430":12.61,"20240501":13.16,"20240502":14.33,"20240503":15.35,"20240504":17.16,"20240505":15.18,"20240506":16.9,"20240507":15.62,"20240508":12.77,"20240509":14.55,"20240510":19.43,"20240511":15.67,"20240512":12.96,"20240513":13.63,"20240514":13.76,"20240515":12.4,"20240516":13.21,"20240517":18.19,"20240518":18.28,"20240519":19.45,"20240520":19.33,"20240521":18.59,"20240522":18.34,"20240523":18.98,"20240524":18.93,"20240525":21.23,"20240526":19.5,"20240527":16.08,"20240528":16.28,"20240529":18.89,"20240530":19.5,"20240531":18.44,"20240601":16.99,"20240602":18.61,"20240603":18.68,"20240604":20.31,"20240605":17.47,"20240606":17.96,"20240607":20.02,"20240608":20.99,"20240609":21.31,"20240610":20.77,"20240611":21.76,"20240612":22.45,"20240613":22.05,"20240614":22.33,"20240615":22.11,"20240616":22.29,"20240617":19.68,"20240618":22.69,"20240619":24.35,"20240620":24.71,"20240621":26.14,"20240622":25.62,"20240623":23.9,"20240624":22.38,"20240625":21.82,"20240626":23.05,"20240627":22.89,"20240628":24.44,"20240629":25.42,"20240630":25.28,"20240701":26.32,"20240702":25.32,"20240703":26.87,"20240704":27.19,"20240705":27.75,"20240706":27.53,"20240707":28.39,"20240708":28.0,"20240709":27.94,"20240710":27.62,"20240711":24.24,"20240712":26.41,"20240713":26.96,"20240714":26.83,"20240715":27.82,"20240716":27.75,"20240717":27.51,"20240718":28.27,"20240719":28.37,"20240720":28.8,"20240721":27.59,"20240722":27.76,"20240723":27.64,"20240724":28.01,"20240725":27.66,"20240726":28.11,"20240727":27.71,"20240728":27.15,"20240729":27.57,"20240730":27.42,"20240731":28.98,"20240801":29.64,"20240802":29.13,"20240803":28.66,"20240804":28.07,"20240805":27.61,"20240806":27.96,"20240807":28.48,"20240808":27.67,"20240809":28.65,"20240810":29.19,"20240811":29.77,"20240812":28.84,"20240813":28.04,"20240814":27.11,"20240815":27.61,"20240816":27.26,"20240817":27.2,"20240818":28.26,"20240819":28.35,"20240820":27.85,"20240821":26.98,"20240822":28.24,"20240823":27.87,"20240824":27.55,"20240825":28.16,"20240826":28.87,"20240827":25.04,"20240828":27.54,"20240829":26.34,"20240830":27.14,"20240831":27.17,"20240901":28.1,"20240902":27.82,"20240903":27.23,"20240904":27.12,"20240905":27.09,"20240906":27.15,"20240907":27.47,"20240908":27.37,"20240909":26.78,"20240910":27.55,"20240911":27.47,"20240912":26.95,"20240913":27.63,"20240914":26.94,"20240915":27.4,"20240916":28.13,"20240917":26.32,"20240918":27.24,"20240919":27.02,"20240920":25.29,"20240921":20.75,"20240922":19.84,"20240923":19.83,"20240924":21.83,"20240925":23.17,"20240926":23.57,"20240927":21.35,"20240928":23.43,"20240929":25.19,"20240930":24.28,"20241001":17.96,"20241002":17.74,"20241003":16.64,"20241004":19.33,"20241005":20.13,"20241006":19.05,"20241007":16.33,"20241008":15.24,"20241009":14.55,"20241010":15.87,"20241011":18.11,"20241012":20.44,"20241013":21.59,"20241014":20.51,"20241015":20.15,"20241016":20.59,"20241017":21.43,"20241018":18.18,"20241019":15.75,"20241020":17.63,"20241021":18.54,"20241022":11.57,"20241023":13.58,"20241024":15.85,"20241025":20.07,"20241026":20.84,"20241027":16.12,"20241028":12.7,"20241029":14.61,"20241030":17.05,"20241031":19.98,"20241101":14.81,"20241102":14.04,"20241103":14.57,"20241104":13.75,"20241105":10.41,"20241106":11.47,"20241107":12.94,"20241108":16.44,"20241109":16.05,"20241110":13.18,"20241111":12.69,"20241112":14.88,"20241113":16.8,"20241114":17.99,"20241115":18.72,"20241116":16.14,"20241117":11.22,"20241118":10.86,"20241119":10.0,"20241120":7.61,"20241121":8.25,"20241122":9.56,"20241123":9.54,"20241124":12.47,"20241125":5.49,"20241126":4.4,"20241127":2.79,"20241128":1.31,"20241129":3.79,"20241130":5.33,"20241201":6.92,"20241202":8.66,"20241203":7.35,"20241204":8.66,"20241205":6.23,"20241206":5.6,"20241207":2.29,"20241208":0.92,"20241209":5.52,"20241210":7.4,"20241211":5.85,"20241212":4.48,"20241213":0.7,"20241214":-1.92,"20241215":-1.16,"20241216":0.25,"20241217":2.41,"20241218":0.89,"20241219":0.69,"20241220":-0.05,"20241221":-1.01,"20241222":1.75,"20241223":2.24,"20241224":4.12,"20241225":3.04,"20241226":1.17,"20241227":-2.08,"20241228":-0.12,"20241229":-0.61,"20241230":0.07,"20241231":1.64},"PRECTOTCORR":{"20240101":0.0,"20240102":2.33,"20240103":1.07,"20240104":0.0,"20240105":0.0,"20240106":0.0,"20240107":0.0,"20240108":0.15,"20240109":0.01,"20240110":0.01,"20240111":0.0,"20240112":0.0,"20240113":0.0,"20240114":0.1,"20240115":0.0,"20240116":0.0,"20240117":0.4,"20240118":6.44,"20240119":14.56,"20240120":3.35,"20240121":0.05,"20240122":0.02,"20240123":0.0,"20240124":0.0,"20240125":0.0,"20240126":0.0,"20240127":0.0,"20240128":0.0,"20240129":3.92,"20240130":2.4,"20240131":13.46,"20240201":17.4,"20240202":13.68,"20240203":12.11,"20240204":13.02,"20240205":0.8,"20240206":3.33,"20240207":0.1,"20240208":0.0,"20240209":0.0,"20240210":0.02,"20240211":0.0,"20240212":0.0,"20240213":0.6,"20240214":0.32,"20240215":3.82,"20240216":0.12,"20240217":0.06,"20240218":0.5,"20240219":3.87,"20240220":14.66,"20240221":36.41,"20240222":10.07,"20240223":5.39,"20240224":5.53,"20240225":0.12,"20240226":0.07,"20240227":3.73,"20240228":24.78,"20240229":19.48,"20240301":0.13,"20240302":0.0,"20240303":0.04,"20240304":11.83,"20240305":11.22,"20240306":0.25,"20240307":0.03,"20240308":0.01,"20240309":0.0,"20240310":1.0,"20240311":3.55,"20240312":0.0,"20240313":0.0,"20240314":0.02,"20240315":0.57,"20240316":0.3,"20240317":0.35,"20240318":0.68,"20240319":0.01,"20240320":0.0,"20240321":0.0,"20240322":0.08,"20240323":6.46,"20240324":2.67,"20240325":7.39,"20240326":0.0,"20240327":20.27,"20240328":12.72,"20240329":0.0,"20240330":0.15,"20240331":0.76,"20240401":8.61,"20240402":6.66,"20240403":1.94,"20240404":1.38,"20240405":2.73,"20240406":2.2,"20240407":24.83,"20240408":10.76,"20240409":0.0,"20240410":0.11,"20240411":7.52,"20240412":6.64,"20240413":15.95,"20240414":6.38,"20240415":0.76,"20240416":11.32,"20240417":33.31,"20240418":0.0,"20240419":7.84,"20240420":8.47,"20240421":4.67,"20240422":6.77,"20240423":5.34,"20240424":0.0,"20240425":1.26,"20240426":0.45,"20240427":0.95,"20240428":8.69,"20240429":0.75,"20240430":14.3,"20240501":0.26,"20240502":0.03,"20240503":1.72,"20240504":9.21,"20240505":5.94,"20240506":0.18,"20240507":0.2,"20240508":0.0,"20240509":0.0,"20240510":3.38,"20240511":26.53,"20240512":4.43,"20240513":0.0,"20240514":0.0,"20240515":0.0,"20240516":0.0,"20240517":0.04,"20240518":0.01,"20240519":0.03,"20240520":0.04,"20240521":0.03,"20240522":0.01,"20240523":0.01,"20240524":0.09,"20240525":0.04,"20240526":15.58,"20240527":17.91,"20240528":0.0,"20240529":0.0,"20240530":17.54,"20240531":7.7,"20240601":0.08,"20240602":0.0,"20240603":0.11,"20240604":0.14,"20240605":6.02,"20240606":0.88,"20240607":0.19,"20240608":0.27,"20240609":4.12,"20240610":5.6,"20240611":3.41,"20240612":1.3,"20240613":0.11,"20240614":0.17,"20240615":0.02,"20240616":4.77,"20240617":2.97,"20240618":8.36,"20240619":29.12,"20240620":14.99,"20240621":21.37,"20240622":23.18,"20240623":22.35,"20240624":15.78,"20240625":48.37,"20240626":43.35,"20240627":22.4,"20240628":12.51,"20240629":16.57,"20240630":52.5,"20240701":5.26,"20240702":2.19,"20240703":1.93,"20240704":0.29,"20240705":0.11,"20240706":0.14,"20240707":0.15,"20240708":0.12,"20240709":1.16,"20240710":22.05,"20240711":32.71,"20240712":11.49,"20240713":12.51,"20240714":5.56,"20240715":1.03,"20240716":0.18,"20240717":0.88,"20240718":1.09,"20240719":0.41,"20240720":0.55,"20240721":0.13,"20240722":0.01,"20240723":0.19,"20240724":0.85,"20240725":3.18,"20240726":7.74,"20240727":0.36,"20240728":0.02,"20240729":0.01,"20240730":0.01,"20240731":0.07,"20240801":0.12,"20240802":0.33,"20240803":0.04,"20240804":0.79,"20240805":0.35,"20240806":0.08,"20240807":0.07,"20240808":0.06,"20240809":0.03,"20240810":0.15,"20240811":3.05,"20240812":6.44,"20240813":3.57,"20240814":1.15,"20240815":3.37,"20240816":3.19,"20240817":0.16,"20240818":1.86,"20240819":3.04,"20240820":1.54,"20240821":8.51,"20240822":0.13,"20240823":0.49,"20240824":0.06,"20240825":0.02,"20240826":0.02,"20240827":3.34,"20240828":0.55,"20240829":2.75,"20240830":0.1,"20240831":0.0,"20240901":0.07,"20240902":2.33,"20240903":1.26,"20240904":0.27,"20240905":0.0,"20240906":0.02,"20240907":0.54,"20240908":4.2,"20240909":3.49,"20240910":65.23,"20240911":12.03,"20240912":0.94,"20240913":0.14,"20240914":0.06,"20240915":18.82,"20240916":49.34,"20240917":1.06,"20240918":2.87,"20240919":27.46,"20240920":39.1,"20240921":2.99,"20240922":0.54,"20240923":2.85,"20240924":6.5,"20240925":2.31,"20240926":2.32,"20240927":2.5,"20240928":0.15,"20240929":0.69,"20240930":12.07,"20241001":7.61,"20241002":0.02,"20241003":0.0,"20241004":1.77,"20241005":8.65,"20241006":16.46,"20241007":8.71,"20241008":0.9,"20241009":0.0,"20241010":0.0,"20241011":0.0,"20241012":0.13,"20241013":0.92,"20241014":4.19,"20241015":7.94,"20241016":6.8,"20241017":0.33,"20241018":1.88,"20241019":0.7,"20241020":2.63,"20241021":0.19,"20241022":0.08,"20241023":0.0,"20241024":0.0,"20241025":11.54,"20241026":19.4,"20241027":12.66,"20241028":0.11,"20241029":0.01,"20241030":0.07,"20241031":95.76,"20241101":76.57,"20241102":0.31,"20241103":0.0,"20241104":0.04,"20241105":0.0,"20241106":0.0,"20241107":0.01,"20241108":0.03,"20241109":2.78,"20241110":2.35,"20241111":0.0,"20241112":0.01,"20241113":0.02,"20241114":23.99,"20241115":2.12,"20241116":2.91,"20241117":3.2,"20241118":0.03,"20241119":0.02,"20241120":0.11,"20241121":0.01,"20241122":0.0,"20241123":0.0,"20241124":0.46,"20241125":7.05,"20241126":2.17,"20241127":0.0,"20241128":0.0,"20241129":0.0,"20241130":0.0,"20241201":0.0,"20241202":0.0,"20241203":0.0,"20241204":0.61,"20241205":0.56,"20241206":0.07,"20241207":0.0,"20241208":0.0,"20241209":0.07,"20241210":11.68,"20241211":3.37,"20241212":0.51,"20241213":0.12,"20241214":0.0,"20241215":0.0,"20241216":0.0,"20241217":0.0,"20241218":0.0,"20241219":0.0,"20241220":0.0,"20241221":0.0,"20241222":0.0,"20241223":0.0,"20241224":0.01,"20241225":0.02,"20241226":0.0,"20241227":0.0,"20241228":0.0,"20241229":0.0,"20241230":0.0,"20241231":0.0},"WS10M":{"20240101":3.35,"20240102":4.6,"20240103":4.4,"20240104":3.61,"20240105":3.85,"20240106":4.78,"20240107":4.95,"20240108":1.86,"20240109":5.61,"20240110":4.88,"20240111":3.54,"20240112":2.03,"20240113":4.36,"20240114":7.32,"20240115":5.42,"20240116":4.19,"20240117":4.27,"20240118":5.27,"20240119":6.19,"20240120":8.62,"20240121":8.74,"20240122":9.52,"20240123":7.51,"20240124":5.35,"20240125":3.88,"20240126":2.85,"20240127":3.03,"20240128":2.99,"20240129":3.91,"20240130":2.54,"20240131":3.78,"20240201":8.94,"20240202":6.12,"20240203":6.65,"20240204":6.79,"20240205":7.25,"20240206":5.42,"20240207":6.32,"20240208":4.01,"20240209":3.72,"20240210":3.41,"20240211":3.39,"20240212":6.37,"20240213":4.13,"20240214":2.59,"20240215":8.28,"20240216":3.26,"20240217":4.97,"20240218":5.05,"20240219":8.05,"20240220":6.16,"20240221":8.6,"20240222":7.58,"20240223":6.57,"20240224":6.95,"20240225":5.91,"20240226":5.26,"20240227":3.31,"20240228":3.18,"20240229":7.56,"20240301":5.0,"20240302":3.22,"20240303":4.67,"20240304":3.56,"20240305":7.42,"20240306":6.98,"20240307":3.84,"20240308":4.65,"20240309":3.71,"20240310":5.62,"20240311":3.93,"20240312":5.46,"20240313":3.34,"20240314":2.91,"20240315":5.02,"20240316":2.74,"20240317":7.56,"20240318":4.2,"20240319":4.93,"20240320":4.89,"20240321":6.65,"20240322":3.78,"20240323":4.03,"20240324":4.02,"20240325":8.4,"20240326":4.85,"20240327":6.15,"20240328":5.54,"20240329":4.76,"20240330":4.81,"20240331":3.35,"20240401":7.15,"20240402":5.03,"20240403":6.96,"20240404":4.7,"20240405":3.86,"20240406":3.41,"20240407":3.89,"20240408":5.12,"20240409":4.08,"20240410":5.9,"20240411":4.61,"20240412":3.66,"20240413":5.49,"20240414":3.99,"20240415":3.67,"20240416":4.7,"20240417":5.63,"20240418":3.73,"20240419":8.44,"20240420":5.26,"20240421":2.93,"20240422":2.94,"20240423":3.11,"20240424":3.07,"20240425":6.43,"20240426":4.51,"20240427":5.18,"20240428":3.94,"20240429":5.39,"20240430":6.73,"20240501":4.25,"20240502":4.31,"20240503":4.78,"20240504":5.87,"20240505":4.47,"20240506":3.2,"20240507":2.47,"20240508":4.79,"20240509":4.79,"20240510":5.25,"20240511":5.39,"20240512":5.14,"20240513":3.4,"20240514":3.25,"20240515":6.14,"20240516":5.27,"20240517":5.89,"20240518":5.84,"20240519":5.61,"20240520":4.82,"20240521":5.15,"20240522":3.9,"20240523":3.52,"20240524":4.64,"20240525":4.95,"20240526":6.02,"20240527":7.84,"20240528":5.74,"20240529":6.33,"20240530":2.74,"20240531":2.44,"20240601":4.27,"20240602":3.16,"20240603":3.01,"20240604":5.67,"20240605":5.91,"20240606":3.85,"20240607":3.46,"20240608":2.67,"20240609":2.99,"20240610":5.4,"20240611":3.24,"20240612":1.98,"20240613":4.01,"20240614":3.22,"20240615":3.28,"20240616":5.5,"20240617":4.57,"20240618":5.46,"20240619":5.88,"20240620":3.61,"20240621":5.48,"20240622":5.49,"20240623":3.46,"20240624":3.16,"20240625":2.46,"20240626":5.32,"20240627":3.76,"20240628":5.23,"20240629":5.47,"20240630":3.86,"20240701":4.95,"20240702":4.55,"20240703":3.04,"20240704":4.07,"20240705":3.96,"20240706":3.92,"20240707":3.71,"20240708":3.88,"20240709":4.71,"20240710":3.21,"20240711":3.35,"20240712":4.26,"20240713":4.45,"20240714":3.0,"20240715":3.14,"20240716":5.45,"20240717":4.28,"20240718":3.56,"20240719":2.93,"20240720":2.68,"20240721":4.44,"20240722":6.25,"20240723":5.91,"20240724":8.54,"20240725":10.88,"20240726":13.2,"20240727":11.54,"20240728":8.29,"20240729":5.73,"20240730":5.49,"20240731":3.46,"20240801":3.27,"20240802":1.9,"20240803":2.57,"20240804":2.95,"20240805":3.72,"20240806":3.2,"20240807":1.97,"20240808":2.15,"20240809":3.26,"20240810":3.48,"20240811":1.98,"20240812":2.39,"20240813":4.57,"20240814":4.33,"20240815":3.72,"20240816":3.63,"20240817":3.61,"20240818":3.81,"20240819":4.68,"20240820":3.99,"20240821":5.72,"20240822":2.27,"20240823":2.86,"20240824":3.44,"20240825":4.27,"20240826":2.48,"20240827":5.14,"20240828":5.04,"20240829":4.13,"20240830":3.21,"20240831":3.15,"20240901":3.25,"20240902":4.65,"20240903":4.76,"20240904":3.84,"20240905":4.55,"20240906":4.24,"20240907":4.98,"20240908":5.31,"20240909":4.97,"20240910":8.75,"20240911":7.04,"20240912":4.38,"20240913":3.13,"20240914":5.73,"20240915":9.5,"20240916":7.73,"20240917":5.76,"20240918":7.52,"20240919":6.63,"20240920":5.97,"20240921":9.03,"20240922":7.27,"20240923":4.31,"20240924":3.31,"20240925":2.12,"20240926":4.45,"20240927":5.2,"20240928":5.01,"20240929":5.78,"20240930":4.49,"20241001":10.05,"20241002":7.76,"20241003":6.86,"20241004":6.76,"20241005":7.66,"20241006":6.52,"20241007":6.85,"20241008":5.54,"20241009":2.95,"20241010":2.3,"20241011":3.8,"20241012":4.69,"20241013":4.23,"20241014":2.92,"20241015":4.66,"20241016":5.29,"20241017":3.77,"20241018":5.4,"20241019":8.89,"20241020":3.42,"20241021":2.05,"20241022":7.59,"20241023":4.88,"20241024":6.21,"20241025":8.21,"20241026":4.19,"20241027":7.16,"20241028":4.92,"20241029":5.78,"20241030":7.07,"20241031":8.12,"20241101":13.73,"20241102":5.2,"20241103":3.51,"20241104":7.34,"20241105":6.19,"20241106":5.32,"20241107":4.67,"20241108":5.45,"20241109":6.19,"20241110":4.9,"20241111":4.02,"20241112":4.45,"20241113":3.91,"20241114":2.2,"20241115":3.36,"20241116":6.72,"20241117":9.72,"20241118":7.67,"20241119":4.72,"20241120":4.68,"20241121":4.57,"20241122":5.05,"20241123":4.63,"20241124":3.97,"20241125":7.69,"20241126":6.53,"20241127":6.75,"20241128":7.79,"20241129":4.71,"20241130":2.97,"20241201":3.39,"20241202":4.08,"20241203":5.33,"20241204":4.12,"20241205":3.68,"20241206":4.22,"20241207":7.33,"20241208":4.93,"20241209":2.68,"20241210":5.99,"20241211":6.59,"20241212":5.55,"20241213":7.81,"20241214":6.06,"20241215":4.5,"20241216":3.35,"20241217":4.05,"20241218":7.69,"20241219":4.02,"20241220":4.46,"20241221":7.41,"20241222":5.16,"20241223":4.79,"20241224":3.16,"20241225":3.96,"20241226":5.61,"20241227":5.26,"20241228":4.47,"20241229":2.94,"20241230":5.33,"20241231":3.74},"RH2M":{"20240101":81.68,"20240102":79.89,"20240103":86.4,"20240104":80.0,"20240105":80.94,"20240106":85.01,"20240107":70.19,"20240108":82.58,"20240109":84.09,"20240110":74.51,"20240111":73.32,"20240112":68.0,"20240113":84.11,"20240114":76.1,"20240115":78.88,"20240116":84.15,"20240117":82.9,"20240118":90.5,"20240119":87.24,"20240120":92.2,"20240121":77.53,"20240122":67.18,"20240123":67.01,"20240124":63.89,"20240125":60.55,"20240126":64.46,"20240127":64.6,"20240128":72.52,"20240129":79.61,"20240130":93.81,"20240131":92.99,"20240201":88.66,"20240202":86.15,"20240203":91.64,"20240204":92.84,"20240205":79.86,"20240206":86.47,"20240207":79.63,"20240208":77.45,"20240209":74.35,"20240210":71.52,"20240211":71.73,"20240212":77.89,"20240213":81.36,"20240214":76.21,"20240215":80.6,"20240216":77.19,"20240217":83.58,"20240218":87.1,"20240219":85.06,"20240220":89.79,"20240221":89.27,"20240222":88.31,"20240223":88.18,"20240224":90.04,"20240225":82.89,"20240226":80.32,"20240227":81.26,"20240228":94.39,"20240229":89.58,"20240301":68.53,"20240302":75.39,"20240303":77.57,"20240304":90.01,"20240305":90.76,"20240306":81.49,"20240307":75.37,"20240308":77.42,"20240309":73.38,"20240310":82.4,"20240311":88.62,"20240312":79.71,"20240313":78.97,"20240314":85.55,"20240315":87.07,"20240316":86.3,"20240317":82.3,"20240318":82.88,"20240319":68.09,"20240320":72.0,"20240321":75.55,"20240322":76.42,"20240323":91.0,"20240324":87.65,"20240325":85.26,"20240326":83.67,"20240327":84.48,"20240328":90.48,"20240329":75.43,"20240330":75.14,"20240331":83.11,"20240401":79.1,"20240402":89.63,"20240403":83.39,"20240404":72.24,"20240405":81.25,"20240406":89.65,"20240407":85.91,"20240408":91.04,"20240409":74.78,"20240410":82.79,"20240411":87.12,"20240412":92.4,"20240413":88.08,"20240414":90.91,"20240415":78.86,"20240416":85.08,"20240417":90.65,"20240418":74.39,"20240419":86.81,"20240420":85.71,"20240421":84.53,"20240422":86.74,"20240423":82.41,"20240424":62.23,"20240425":75.74,"20240426":90.13,"20240427":87.84,"20240428":91.45,"20240429":81.16,"20240430":87.03,"20240501":67.97,"20240502":78.41,"20240503":77.86,"20240504":86.56,"20240505":91.77,"20240506":79.88,"20240507":72.73,"20240508":73.25,"20240509":78.22,"20240510":76.34,"20240511":88.59,"20240512":72.0,"20240513":67.06,"20240514":71.02,"20240515":69.05,"20240516":68.71,"20240517":74.49,"20240518":83.41,"20240519":86.12,"20240520":89.48,"20240521":86.68,"20240522":86.76,"20240523":83.27,"20240524":81.43,"20240525":85.06,"20240526":81.25,"20240527":85.13,"20240528":66.81,"20240529":78.15,"20240530":82.96,"20240531":82.92,"20240601":74.18,"20240602":65.45,"20240603":68.22,"20240604":80.67,"20240605":83.36,"20240606":84.66,"20240607":82.9,"20240608":77.57,"20240609":73.6,"20240610":82.47,"20240611":86.45,"20240612":79.29,"20240613":81.13,"20240614":79.95,"20240615":76.83,"20240616":77.63,"20240617":79.07,"20240618":77.94,"20240619":86.78,"20240620":90.61,"20240621":88.87,"20240622":89.53,"20240623":88.73,"20240624":85.9,"20240625":87.08,"20240626":89.22,"20240627":92.24,"20240628":90.08,"20240629":89.07,"20240630":93.59,"20240701":90.01,"20240702":80.85,"20240703":79.53,"20240704":80.66,"20240705":76.73,"20240706":81.98,"20240707":77.0,"20240708":79.43,"20240709":81.66,"20240710":85.82,"20240711":90.45,"20240712":89.21,"20240713":91.95,"20240714":85.3,"20240715":81.07,"20240716":83.16,"20240717":83.74,"20240718":85.23,"20240719":76.67,"20240720":77.68,"20240721":79.16,"20240722":81.36,"20240723":84.02,"20240724":84.68,"20240725":86.26,"20240726":87.53,"20240727":84.3,"20240728":82.73,"20240729":80.76,"20240730":81.07,"20240731":78.6,"20240801":75.08,"20240802":74.93,"20240803":76.96,"20240804":81.45,"20240805":83.67,"20240806":82.26,"20240807":82.23,"20240808":78.82,"20240809":71.76,"20240810":78.09,"20240811":74.16,"20240812":81.21,"20240813":85.28,"20240814":76.58,"20240815":80.82,"20240816":79.89,"20240817":78.37,"20240818":80.23,"20240819":79.33,"20240820":78.75,"20240821":81.14,"20240822":75.08,"20240823":73.73,"20240824":81.35,"20240825":79.72,"20240826":74.84,"20240827":79.95,"20240828":78.35,"20240829":75.26,"20240830":71.35,"20240831":69.36,"20240901":72.02,"20240902":76.2,"20240903":79.52,"20240904":76.92,"20240905":72.8,"20240906":74.46,"20240907":74.59,"20240908":77.67,"20240909":76.92,"20240910":83.75,"20240911":89.31,"20240912":84.35,"20240913":77.96,"20240914":78.21,"20240915":82.17,"20240916":92.13,"20240917":85.24,"20240918":85.04,"20240919":88.5,"20240920":91.54,"20240921":85.25,"20240922":75.71,"20240923":77.7,"20240924":86.31,"20240925":83.84,"20240926":83.59,"20240927":80.95,"20240928":81.13,"20240929":85.0,"20240930":86.81,"20241001":79.51,"20241002":68.73,"20241003":66.66,"20241004":72.65,"20241005":81.56,"20241006":89.74,"20241007":87.2,"20241008":77.68,"20241009":73.58,"20241010":68.07,"20241011":73.12,"20241012":80.81,"20241013":85.01,"20241014":84.93,"20241015":88.95,"20241016":88.02,"20241017":89.03,"20241018":80.74,"20241019":77.93,"20241020":87.37,"20241021":85.01,"20241022":84.88,"20241023":76.62,"20241024":77.38,"20241025":86.79,"20241026":93.77,"20241027":90.01,"20241028":79.86,"20241029":77.46,"20241030":84.19,"20241031":89.19,"20241101":92.41,"20241102":87.67,"20241103":83.37,"20241104":80.86,"20241105":78.33,"20241106":71.51,"20241107":76.04,"20241108":84.22,"20241109":87.18,"20241110":91.3,"20241111":87.46,"20241112":87.13,"20241113":88.37,"20241114":92.12,"20241115":92.74,"20241116":88.19,"20241117":72.6,"20241118":74.92,"20241119":79.51,"20241120":81.8,"20241121":80.4,"20241122":79.26,"20241123":75.31,"20241124":79.84,"20241125":84.15,"20241126":69.59,"20241127":67.89,"20241128":68.97,"20241129":71.54,"20241130":72.81,"20241201":72.15,"20241202":81.4,"20241203":83.84,"20241204":78.6,"20241205":82.28,"20241206":82.41,"20241207":74.08,"20241208":74.52,"20241209":70.54,"20241210":90.77,"20241211":87.38,"20241212":80.93,"20241213":82.55,"20241214":70.57,"20241215":67.25,"20241216":64.54,"20241217":78.04,"20241218":78.59,"20241219":81.19,"20241220":76.86,"20241221":75.37,"20241222":80.46,"20241223":85.59,"20241224":82.11,"20241225":88.85,"20241226":81.84,"20241227":78.3,"20241228":54.68,"20241229":68.56,"20241230":76.16,"20241231":73.31}}},"header":{"title":"NASA/POWER Source Native Resolution Daily Data","api":{"version":"v2.9.6","name":"POWER Daily API"},"sources":["MERRA2","POWER"],"fill_value":-999.0,"time_standard":"UTC","start":"20240101","end":"20241231"},"messages":[],"parameters":{"T2M":{"units":"C","longname":"Temperature at 2 Meters"},"T2M_MAX":{"units":"C","longname":"Temperature at 2 Meters Maximum"},"T2M_MIN":{"units":"C","longname":"Temperature at 2 Meters Minimum"},"PRECTOTCORR":{"units":"mm/day","longname":"Precipitation Corrected"},"WS10M":{"units":"m/s","longname":"Wind Speed at 10 Meters"},"RH2M":{"units":"%","longname":"Relative Humidity at 2 Meters"}},"times":{"data":0.816,"process":0.01}}