{"type":"Feature","geometry":{"type":"Point","coordinates":[106.63,10.823,46.81]},"properties":{"parameter":{"T2M":{"20240101":26.91,"20240102":27.41,"20240103":27.11,"20240104":25.8,"20240105":26.02,"20240106":27.42,"20240107":27.14,"20240108":27.23,"20240109":27.17,"20240110":27.49,"20240111":27.25,"20240112":25.18,"20240113":25.61,"20240114":25.77,"20240115":26.47,"20240116":26.89,"20240117":27.98,"20240118":27.58,"20240119":26.89,"20240120":26.28,"20240121":26.39,"20240122":26.96,"20240123":27.42,"20240124":26.9,"20240125":26.71,"20240126":26.62,"20240127":26.41,"20240128":26.71,"20240129":26.83,"20240130":27.34,"20240131":27.44,"20240201":27.53,"20240202":27.58,"20240203":28.06,"20240204":28.66,"20240205":28.62,"20240206":28.99,"20240207":29.02,"20240208":28.51,"20240209":29.38,"20240210":29.08,"20240211":28.11,"20240212":27.88,"20240213":29.51,"20240214":30.16,"20240215":29.92,"20240216":29.59,"20240217":29.26,"20240218":30.39,"20240219":29.57,"20240220":29.51,"20240221":28.78,"20240222":29.09,"20240223":29.54,"20240224":30.2,"20240225":30.78,"20240226":31.32,"20240227":30.55,"20240228":30.0,"20240229":30.56,"20240301":30.91,"20240302":31.36,"20240303":30.45,"20240304":30.81,"20240305":30.42,"20240306":31.41,"20240307":30.31,"20240308":30.82,"20240309":30.91,"20240310":30.39,"20240311":31.81,"20240312":32.32,"20240313":31.1,"20240314":30.52,"20240315":29.65,"20240316":30.52,"20240317":30.95,"20240318":30.23,"20240319":29.82,"20240320":31.51,"20240321":31.43,"20240322":30.7,"20240323":30.38,"20240324":30.89,"20240325":31.5,"20240326":32.09,"20240327":32.33,"20240328":30.08,"20240329":30.56,"20240330":31.26,"20240331":30.02,"20240401":31.29,"20240402":31.18,"20240403":31.64,"20240404":32.02,"20240405":31.1,"20240406":31.61,"20240407":32.18,"20240408":32.64,"20240409":31.79,"20240410":32.2,"20240411":32.86,"20240412":33.51,"20240413":32.11,"20240414":32.11,"20240415":32.26,"20240416":32.52,"20240417":32.18,"20240418":32.27,"20240419":32.58,"20240420":32.31,"20240421":32.26,"20240422":32.26,"20240423":32.59,"20240424":33.53,"20240425":34.37,"20240426":33.83,"20240427":33.9,"20240428":34.15,"20240429":34.06,"20240430":33.78,"20240501":32.56,"20240502":32.62,"20240503":32.82,"20240504":33.2,"20240505":29.85,"20240506":32.99,"20240507":33.27,"20240508":31.17,"20240509":30.04,"20240510":31.47,"20240511":32.65,"20240512":32.76,"20240513":32.26,"20240514":30.52,"20240515":30.66,"20240516":30.74,"20240517":29.56,"20240518":29.93,"20240519":29.51,"20240520":30.1,"20240521":28.65,"20240522":30.2,"20240523":29.28,"20240524":30.46,"20240525":30.53,"20240526":30.4,"20240527":29.4,"20240528":28.94,"20240529":28.9,"20240530":28.64,"20240531":28.24,"20240601":28.58,"20240602":29.28,"20240603":28.63,"20240604":29.4,"20240605":29.33,"20240606":29.05,"20240607":29.33,"20240608":28.13,"20240609":27.43,"20240610":27.92,"20240611":28.54,"20240612":28.54,"20240613":29.34,"20240614":28.02,"20240615":29.25,"20240616":27.56,"20240617":28.24,"20240618":28.7,"20240619":28.15,"20240620":27.8,"20240621":27.16,"20240622":26.36,"20240623":26.78,"20240624":26.63,"20240625":26.51,"20240626":27.64,"20240627":27.56,"20240628":27.43,"20240629":27.59,"20240630":28.27,"20240701":27.5,"20240702":28.02,"20240703":26.78,"20240704":27.32,"20240705":27.0,"20240706":28.43,"20240707":28.12,"20240708":28.04,"20240709":26.36,"20240710":26.97,"20240711":27.5,"20240712":27.07,"20240713":26.24,"20240714":26.05,"20240715":26.66,"20240716":26.62,"20240717":26.43,"20240718":27.11,"20240719":26.71,"20240720":26.3,"20240721":26.91,"20240722":27.7,"20240723":27.19,"20240724":27.03,"20240725":27.06,"20240726":26.68,"20240727":26.96,"20240728":27.36,"20240729":27.4,"20240730":27.35,"20240731":27.45,"20240801":27.4,"20240802":27.84,"20240803":27.21,"20240804":27.24,"20240805":27.24,"20240806":27.69,"20240807":27.66,"20240808":27.59,"20240809":27.5,"20240810":27.9,"20240811":28.59,"20240812":27.36,"20240813":27.81,"20240814":27.69,"20240815":28.63,"20240816":27.88,"20240817":27.91,"20240818":28.66,"20240819":28.68,"20240820":27.98,"20240821":27.96,"20240822":27.89,"20240823":27.86,"20240824":27.94,"20240825":27.23,"20240826":26.36,"20240827":27.3,"20240828":27.1,"20240829":26.76,"20240830":27.31,"20240831":26.26,"20240901":26.49,"20240902":27.2,"20240903":27.05,"20240904":27.07,"20240905":27.09,"20240906":27.1,"20240907":27.38,"20240908":27.29,"20240909":27.53,"20240910":27.46,"20240911":27.11,"20240912":27.57,"20240913":26.92,"20240914":25.87,"20240915":26.66,"20240916":27.01,"20240917":26.08,"20240918":26.47,"20240919":26.27,"20240920":26.96,"20240921":26.65,"20240922":26.62,"20240923":26.9,"20240924":27.73,"20240925":27.96,"20240926":26.7,"20240927":26.53,"20240928":27.46,"20240929":27.59,"20240930":27.37,"20241001":28.12,"20241002":27.75,"20241003":27.57,"20241004":27.59,"20241005":27.69,"20241006":26.02,"20241007":27.0,"20241008":26.78,"20241009":27.67,"20241010":27.92,"20241011":27.5,"20241012":27.6,"20241013":27.94,"20241014":28.43,"20241015":26.31,"20241016":26.74,"20241017":26.78,"20241018":26.78,"20241019":26.75,"20241020":27.03,"20241021":26.57,"20241022":25.04,"20241023":25.9,"20241024":27.57,"20241025":26.22,"20241026":25.83,"20241027":25.22,"20241028":25.56,"20241029":24.81,"20241030":26.31,"20241031":27.07,"20241101":27.43,"20241102":25.14,"20241103":27.26,"20241104":27.38,"20241105":27.23,"20241106":27.12,"20241107":26.44,"20241108":26.38,"20241109":27.63,"20241110":27.66,"20241111":27.52,"20241112":27.8,"20241113":26.85,"20241114":26.91,"20241115":27.22,"20241116":27.32,"20241117":27.36,"20241118":27.29,"20241119":27.79,"20241120":27.52,"20241121":28.04,"20241122":27.6,"20241123":27.72,"20241124":27.04,"20241125":27.48,"20241126":27.05,"20241127":27.28,"20241128":25.92,"20241129":24.76,"20241130":25.89,"20241201":25.87,"20241202":27.22,"20241203":25.94,"20241204":25.81,"20241205":26.39,"20241206":26.98,"20241207":26.0,"20241208":26.31,"20241209":26.59,"20241210":25.8,"20241211":25.63,"20241212":26.46,"20241213":25.68,"20241214":25.85,"20241215":25.07,"20241216":24.54,"20241217":25.7,"20241218":25.82,"20241219":25.76,"20241220":23.89,"20241221":23.88,"20241222":22.77,"20241223":24.57,"20241224":23.0,"20241225":23.75,"20241226":26.41,"20241227":25.94,"20241228":25.8,"20241229":24.9,"20241230":25.2,"20241231":24.96},"T2M_MAX":{"20240101":31.56,"20240102":32.12,"20240103":31.83,"20240104":31.09,"20240105":30.97,"20240106":32.59,"20240107":32.46,"20240108":32.5,"20240109":32.43,"20240110":32.47,"20240111":32.5,"20240112":30.73,"20240113":31.55,"20240114":30.74,"20240115":32.58,"20240116":32.31,"20240117":33.37,"20240118":33.23,"20240119":33.06,"20240120":32.78,"20240121":33.01,"20240122":33.64,"20240123":34.05,"20240124":33.97,"20240125":33.49,"20240126":33.31,"20240127":33.38,"20240128":33.92,"20240129":34.01,"20240130":34.76,"20240131":34.4,"20240201":34.21,"20240202":34.43,"20240203":35.99,"20240204":35.65,"20240205":35.82,"20240206":36.55,"20240207":36.09,"20240208":35.29,"20240209":36.54,"20240210":37.35,"20240211":36.08,"20240212":36.08,"20240213":37.26,"20240214":37.87,"20240215":38.23,"20240216":38.48,"20240217":38.42,"20240218":38.68,"20240219":37.66,"20240220":37.22,"20240221":36.93,"20240222":37.24,"20240223":37.92,"20240224":38.78,"20240225":39.12,"20240226":39.14,"20240227":38.17,"20240228":38.44,"20240229":38.06,"20240301":39.31,"20240302":39.51,"20240303":38.91,"20240304":39.4,"20240305":38.46,"20240306":39.62,"20240307":39.16,"20240308":40.03,"20240309":38.96,"20240310":38.69,"20240311":39.9,"20240312":40.45,"20240313":38.75,"20240314":38.89,"20240315":39.27,"20240316":39.48,"20240317":39.29,"20240318":39.75,"20240319":38.89,"20240320":39.91,"20240321":39.74,"20240322":39.46,"20240323":38.35,"20240324":39.15,"20240325":39.66,"20240326":40.76,"20240327":41.36,"20240328":34.6,"20240329":37.45,"20240330":38.96,"20240331":34.84,"20240401":38.11,"20240402":39.3,"20240403":39.12,"20240404":39.91,"20240405":38.98,"20240406":40.32,"20240407":40.84,"20240408":40.73,"20240409":40.38,"20240410":40.77,"20240411":42.21,"20240412":41.83,"20240413":39.54,"20240414":41.01,"20240415":40.42,"20240416":41.56,"20240417":40.05,"20240418":39.74,"20240419":40.74,"20240420":40.83,"20240421":40.67,"20240422":39.6,"20240423":39.31,"20240424":42.14,"20240425":42.06,"20240426":41.98,"20240427":42.45,"20240428":42.6,"20240429":42.93,"20240430":41.62,"20240501":38.64,"20240502":40.56,"20240503":39.45,"20240504":39.43,"20240505":34.7,"20240506":40.72,"20240507":41.4,"20240508":37.99,"20240509":34.55,"20240510":37.36,"20240511":39.76,"20240512":40.45,"20240513":39.62,"20240514":35.08,"20240515":36.71,"20240516":37.41,"20240517":33.04,"20240518":34.66,"20240519":33.37,"20240520":34.55,"20240521":32.01,"20240522":34.7,"20240523":33.3,"20240524":35.87,"20240525":35.67,"20240526":34.82,"20240527":32.31,"20240528":31.55,"20240529":32.15,"20240530":32.8,"20240531":31.79,"20240601":32.48,"20240602":33.39,"20240603":32.34,"20240604":33.27,"20240605":33.29,"20240606":32.14,"20240607":32.91,"20240608":31.69,"20240609":30.54,"20240610":31.93,"20240611":32.41,"20240612":32.26,"20240613":33.71,"20240614":32.12,"20240615":33.25,"20240616":30.75,"20240617":32.05,"20240618":32.34,"20240619":31.37,"20240620":31.02,"20240621":29.92,"20240622":27.91,"20240623":29.3,"20240624":29.2,"20240625":29.55,"20240626":30.93,"20240627":30.87,"20240628":30.79,"20240629":30.79,"20240630":32.07,"20240701":30.69,"20240702":31.51,"20240703":30.24,"20240704":31.35,"20240705":31.25,"20240706":32.46,"20240707":31.88,"20240708":31.45,"20240709":28.97,"20240710":29.73,"20240711":31.01,"20240712":30.97,"20240713":28.77,"20240714":28.17,"20240715":29.21,"20240716":29.48,"20240717":29.18,"20240718":30.17,"20240719":29.21,"20240720":28.73,"20240721":30.58,"20240722":31.31,"20240723":30.53,"20240724":30.2,"20240725":30.84,"20240726":29.57,"20240727":30.24,"20240728":30.92,"20240729":31.21,"20240730":30.67,"20240731":31.2,"20240801":30.98,"20240802":31.46,"20240803":30.4,"20240804":30.96,"20240805":30.84,"20240806":31.32,"20240807":31.02,"20240808":30.74,"20240809":30.89,"20240810":31.79,"20240811":32.56,"20240812":30.5,"20240813":31.2,"20240814":31.55,"20240815":32.76,"20240816":30.88,"20240817":31.23,"20240818":32.76,"20240819":31.93,"20240820":31.6,"20240821":30.66,"20240822":31.89,"20240823":31.75,"20240824":31.32,"20240825":30.82,"20240826":28.5,"20240827":30.86,"20240828":30.24,"20240829":30.02,"20240830":30.67,"20240831":28.88,"20240901":29.4,"20240902":31.41,"20240903":30.1,"20240904":30.26,"20240905":29.88,"20240906":29.38,"20240907":31.09,"20240908":31.1,"20240909":30.21,"20240910":30.78,"20240911":30.08,"20240912":31.03,"20240913":30.03,"20240914":28.09,"20240915":29.75,"20240916":30.37,"20240917":28.95,"20240918":29.12,"20240919":28.34,"20240920":30.06,"20240921":29.06,"20240922":29.63,"20240923":30.18,"20240924":30.67,"20240925":31.99,"20240926":29.73,"20240927":30.08,"20240928":30.59,"20240929":30.93,"20240930":31.18,"20241001":32.14,"20241002":31.18,"20241003":31.52,"20241004":31.31,"20241005":30.8,"20241006":28.4,"20241007":29.66,"20241008":29.86,"20241009":31.88,"20241010":32.28,"20241011":30.7,"20241012":30.81,"20241013":31.9,"20241014":32.33,"20241015":27.97,"20241016":30.06,"20241017":30.53,"20241018":30.37,"20241019":30.35,"20241020":30.28,"20241021":29.44,"20241022":28.25,"20241023":29.02,"20241024":31.88,"20241025":30.79,"20241026":30.07,"20241027":28.22,"20241028":27.0,"20241029":28.57,"20241030":29.92,"20241031":30.97,"20241101":30.69,"20241102":28.24,"20241103":30.87,"20241104":30.85,"20241105":31.54,"20241106":31.57,"20241107":30.11,"20241108":29.23,"20241109":32.32,"20241110":31.18,"20241111":31.64,"20241112":31.62,"20241113":30.85,"20241114":31.44,"20241115":31.75,"20241116":32.14,"20241117":31.91,"20241118":32.05,"20241119":32.06,"20241120":30.64,"20241121":32.32,"20241122":31.99,"20241123":32.16,"20241124":31.41,"20241125":32.25,"20241126":31.87,"20241127":31.59,"20241128":30.97,"20241129":29.33,"20241130":30.56,"20241201":29.66,"20241202":31.38,"20241203":29.63,"20241204":28.66,"20241205":30.78,"20241206":29.93,"20241207":31.31,"20241208":31.08,"20241209":31.32,"20241210":28.98,"20241211":27.7,"20241212":29.05,"20241213":29.18,"20241214":29.41,"20241215":29.74,"20241216":29.74,"20241217":29.95,"20241218":30.25,"20241219":30.04,"20241220":27.78,"20241221":29.33,"20241222":27.78,"20241223":29.17,"20241224":27.83,"20241225":25.89,"20241226":31.06,"20241227":29.88,"20241228":30.63,"20241229":29.58,"20241230":29.71,"20241231":28.94},"T2M_MIN":{"20240101":22.66,"20240102":23.66,"20240103":21.62,"20240104":20.74,"20240105":21.75,"20240106":23.43,"20240107":22.33,"20240108":23.35,"20240109":23.58,"20240110":23.32,"20240111":22.65,"20240112":19.37,"20240113":20.27,"20240114":20.85,"20240115":21.65,"20240116":21.97,"20240117":23.88,"20240118":22.34,"20240119":21.67,"20240120":21.6,"20240121":21.1,"20240122":21.24,"20240123":21.41,"20240124":21.24,"20240125":20.49,"20240126":20.53,"20240127":20.11,"20240128":20.69,"20240129":21.53,"20240130":21.3,"20240131":22.04,"20240201":22.22,"20240202":22.13,"20240203":22.71,"20240204":23.72,"20240205":23.54,"20240206":23.49,"20240207":23.65,"20240208":23.43,"20240209":23.45,"20240210":21.22,"20240211":20.63,"20240212":21.17,"20240213":23.64,"20240214":23.73,"20240215":22.5,"20240216":21.92,"20240217":21.97,"20240218":24.14,"20240219":24.02,"20240220":24.08,"20240221":22.84,"20240222":23.37,"20240223":23.26,"20240224":23.93,"20240225":23.31,"20240226":25.41,"20240227":23.86,"20240228":23.24,"20240229":24.13,"20240301":24.51,"20240302":24.9,"20240303":24.73,"20240304":25.26,"20240305":24.74,"20240306":25.87,"20240307":24.53,"20240308":23.43,"20240309":24.0,"20240310":24.24,"20240311":25.74,"20240312":26.55,"20240313":25.68,"20240314":24.27,"20240315":22.91,"20240316":23.4,"20240317":24.92,"20240318":22.43,"20240319":22.6,"20240320":24.5,"20240321":25.59,"20240322":25.68,"20240323":25.0,"20240324":25.22,"20240325":25.75,"20240326":25.28,"20240327":26.46,"20240328":26.22,"20240329":25.98,"20240330":26.43,"20240331":26.01,"20240401":26.5,"20240402":25.64,"20240403":27.0,"20240404":26.88,"20240405":25.53,"20240406":26.35,"20240407":26.69,"20240408":27.05,"20240409":24.69,"20240410":25.49,"20240411":26.22,"20240412":28.03,"20240413":26.82,"20240414":26.83,"20240415":27.22,"20240416":27.62,"20240417":26.7,"20240418":26.78,"20240419":27.21,"20240420":27.09,"20240421":26.93,"20240422":27.12,"20240423":27.51,"20240424":27.68,"20240425":29.17,"20240426":29.2,"20240427":28.2,"20240428":28.0,"20240429":27.35,"20240430":28.76,"20240501":26.9,"20240502":27.68,"20240503":28.39,"20240504":28.8,"20240505":26.77,"20240506":28.37,"20240507":26.84,"20240508":27.22,"20240509":26.72,"20240510":26.9,"20240511":27.76,"20240512":27.47,"20240513":27.35,"20240514":27.2,"20240515":26.01,"20240516":26.86,"20240517":26.54,"20240518":26.56,"20240519":25.87,"20240520":26.37,"20240521":25.72,"20240522":26.52,"20240523":25.93,"20240524":26.35,"20240525":26.76,"20240526":26.8,"20240527":26.58,"20240528":26.3,"20240529":25.99,"20240530":25.91,"20240531":25.58,"20240601":25.04,"20240602":25.84,"20240603":25.84,"20240604":26.22,"20240605":25.99,"20240606":25.62,"20240607":25.9,"20240608":25.39,"20240609":24.96,"20240610":24.72,"20240611":25.05,"20240612":25.18,"20240613":25.77,"20240614":24.89,"20240615":26.15,"20240616":24.91,"20240617":25.21,"20240618":25.86,"20240619":25.62,"20240620":25.37,"20240621":25.42,"20240622":24.81,"20240623":24.87,"20240624":24.4,"20240625":23.6,"20240626":25.33,"20240627":25.07,"20240628":24.75,"20240629":25.41,"20240630":25.05,"20240701":24.87,"20240702":25.46,"20240703":24.41,"20240704":23.77,"20240705":23.87,"20240706":25.37,"20240707":25.31,"20240708":25.5,"20240709":24.51,"20240710":24.34,"20240711":24.65,"20240712":24.64,"20240713":24.32,"20240714":24.29,"20240715":24.64,"20240716":24.21,"20240717":24.11,"20240718":24.98,"20240719":24.58,"20240720":24.13,"20240721":24.21,"20240722":24.88,"20240723":24.52,"20240724":24.6,"20240725":24.56,"20240726":23.89,"20240727":24.36,"20240728":24.57,"20240729":24.43,"20240730":24.24,"20240731":24.85,"20240801":24.43,"20240802":24.82,"20240803":24.65,"20240804":24.14,"20240805":23.93,"20240806":24.68,"20240807":25.13,"20240808":24.89,"20240809":24.57,"20240810":24.67,"20240811":25.66,"20240812":24.74,"20240813":24.91,"20240814":24.49,"20240815":24.94,"20240816":25.61,"20240817":24.94,"20240818":25.43,"20240819":25.49,"20240820":25.03,"20240821":25.29,"20240822":24.56,"20240823":25.15,"20240824":25.44,"20240825":24.38,"20240826":24.38,"20240827":24.68,"20240828":24.8,"20240829":23.89,"20240830":24.88,"20240831":23.94,"20240901":23.33,"20240902":24.45,"20240903":24.18,"20240904":25.04,"20240905":25.29,"20240906":25.86,"20240907":24.42,"20240908":24.02,"20240909":25.43,"20240910":25.06,"20240911":24.28,"20240912":24.79,"20240913":24.89,"20240914":24.05,"20240915":24.68,"20240916":24.48,"20240917":23.41,"20240918":24.35,"20240919":24.66,"20240920":25.09,"20240921":24.76,"20240922":24.34,"20240923":24.53,"20240924":25.17,"20240925":24.9,"20240926":24.19,"20240927":23.87,"20240928":24.23,"20240929":24.63,"20240930":24.48,"20241001":24.93,"20241002":24.93,"20241003":24.55,"20241004":23.9,"20241005":25.01,"20241006":24.16,"20241007":24.9,"20241008":24.36,"20241009":25.08,"20241010":25.17,"20241011":25.0,"20241012":25.49,"20241013":25.08,"20241014":25.24,"20241015":24.6,"20241016":24.3,"20241017":24.0,"20241018":24.6,"20241019":24.17,"20241020":24.41,"20241021":24.54,"20241022":23.46,"20241023":23.18,"20241024":24.14,"20241025":21.63,"20241026":22.0,"20241027":21.56,"20241028":23.62,"20241029":22.47,"20241030":23.39,"20241031":24.05,"20241101":23.22,"20241102":22.76,"20241103":23.58,"20241104":24.27,"20241105":23.35,"20241106":22.99,"20241107":23.02,"20241108":23.58,"20241109":24.24,"20241110":24.18,"20241111":23.89,"20241112":24.45,"20241113":23.46,"20241114":23.64,"20241115":23.06,"20241116":23.65,"20241117":22.64,"20241118":23.04,"20241119":24.81,"20241120":24.16,"20241121":23.93,"20241122":23.25,"20241123":23.61,"20241124":23.04,"20241125":23.1,"20241126":22.39,"20241127":22.95,"20241128":21.49,"20241129":19.7,"20241130":21.62,"20241201":23.45,"20241202":23.56,"20241203":22.95,"20241204":23.32,"20241205":23.53,"20241206":24.36,"20241207":22.59,"20241208":22.05,"20241209":23.11,"20241210":23.15,"20241211":23.52,"20241212":23.95,"20241213":23.2,"20241214":22.79,"20241215":21.17,"20241216":19.78,"20241217":22.01,"20241218":20.92,"20241219":21.46,"20241220":19.61,"20241221":18.52,"20241222":18.96,"20241223":20.44,"20241224":19.77,"20241225":21.58,"20241226":23.73,"20241227":22.9,"20241228":20.75,"20241229":19.86,"20241230":21.31,"20241231":21.35},"PRECTOTCORR":{"20240101":0.0,"20240102":0.01,"20240103":0.0,"20240104":0.0,"20240105":0.0,"20240106":0.1,"20240107":0.0,"20240108":0.0,"20240109":0.0,"20240110":0.01,"20240111":0.0,"20240112":0.0,"20240113":0.0,"20240114":0.0,"20240115":0.0,"20240116":0.0,"20240117":0.0,"20240118":0.0,"20240119":0.0,"20240120":0.0,"20240121":0.0,"20240122":0.0,"20240123":0.18,"20240124":0.17,"20240125":0.0,"20240126":0.0,"20240127":0.0,"20240128":0.0,"20240129":0.0,"20240130":0.0,"20240131":0.0,"20240201":0.0,"20240202":0.0,"20240203":0.0,"20240204":0.0,"20240205":0.0,"20240206":0.0,"20240207":0.0,"20240208":0.02,"20240209":0.0,"20240210":0.0,"20240211":0.0,"20240212":0.0,"20240213":0.0,"20240214":0.0,"20240215":0.0,"20240216":0.0,"20240217":0.0,"20240218":0.0,"20240219":0.0,"20240220":0.0,"20240221":0.0,"20240222":0.0,"20240223":0.0,"20240224":0.0,"20240225":0.0,"20240226":0.0,"20240227":0.14,"20240228":0.0,"20240229":0.0,"20240301":0.0,"20240302":0.0,"20240303":0.0,"20240304":0.0,"20240305":0.0,"20240306":0.0,"20240307":0.0,"20240308":0.0,"20240309":0.0,"20240310":0.0,"20240311":0.0,"20240312":0.0,"20240313":0.0,"20240314":0.0,"20240315":0.0,"20240316":0.0,"20240317":0.0,"20240318":0.0,"20240319":0.0,"20240320":0.01,"20240321":0.02,"20240322":0.05,"20240323":0.01,"20240324":0.0,"20240325":0.0,"20240326":0.0,"20240327":0.0,"20240328":0.01,"20240329":0.0,"20240330":0.0,"20240331":0.0,"20240401":0.01,"20240402":2.57,"20240403":0.45,"20240404":0.02,"20240405":0.03,"20240406":0.0,"20240407":0.0,"20240408":0.0,"20240409":0.0,"20240410":0.0,"20240411":0.0,"20240412":0.0,"20240413":0.0,"20240414":0.0,"20240415":0.0,"20240416":0.0,"20240417":0.0,"20240418":0.0,"20240419":0.0,"20240420":0.0,"20240421":0.0,"20240422":0.0,"20240423":0.0,"20240424":0.0,"20240425":0.0,"20240426":0.0,"20240427":0.0,"20240428":0.0,"20240429":0.0,"20240430":0.01,"20240501":0.0,"20240502":0.72,"20240503":0.62,"20240504":0.9,"20240505":1.39,"20240506":0.05,"20240507":9.55,"20240508":14.69,"20240509":3.39,"20240510":0.15,"20240511":1.48,"20240512":3.1,"20240513":1.48,"20240514":13.93,"20240515":1.32,"20240516":36.5,"20240517":20.48,"20240518":0.89,"20240519":12.36,"20240520":17.95,"20240521":5.98,"20240522":1.86,"20240523":3.48,"20240524":4.05,"20240525":1.92,"20240526":1.64,"20240527":8.33,"20240528":22.63,"20240529":10.1,"20240530":6.37,"20240531":4.18,"20240601":2.79,"20240602":4.46,"20240603":2.69,"20240604":0.26,"20240605":0.87,"20240606":0.81,"20240607":1.72,"20240608":11.05,"20240609":23.79,"20240610":1.21,"20240611":0.41,"20240612":1.9,"20240613":8.34,"20240614":19.45,"20240615":7.71,"20240616":2.67,"20240617":0.53,"20240618":0.15,"20240619":3.81,"20240620":11.7,"20240621":19.9,"20240622":45.65,"20240623":9.21,"20240624":7.13,"20240625":2.04,"20240626":4.51,"20240627":6.95,"20240628":1.34,"20240629":0.77,"20240630":5.62,"20240701":1.65,"20240702":4.35,"20240703":15.97,"20240704":5.26,"20240705":1.75,"20240706":4.03,"20240707":0.93,"20240708":5.48,"20240709":6.21,"20240710":7.1,"20240711":16.67,"20240712":10.22,"20240713":10.7,"20240714":9.48,"20240715":8.86,"20240716":11.96,"20240717":12.23,"20240718":17.72,"20240719":19.23,"20240720":22.6,"20240721":3.56,"20240722":19.36,"20240723":7.53,"20240724":10.15,"20240725":26.23,"20240726":17.58,"20240727":26.2,"20240728":17.55,"20240729":0.87,"20240730":2.77,"20240731":2.17,"20240801":1.18,"20240802":4.65,"20240803":7.83,"20240804":8.54,"20240805":2.07,"20240806":0.71,"20240807":3.22,"20240808":1.87,"20240809":1.41,"20240810":1.65,"20240811":20.13,"20240812":20.82,"20240813":6.4,"20240814":2.8,"20240815":8.65,"20240816":6.78,"20240817":8.58,"20240818":0.71,"20240819":0.86,"20240820":3.29,"20240821":5.68,"20240822":5.19,"20240823":1.83,"20240824":5.34,"20240825":6.14,"20240826":15.54,"20240827":22.45,"20240828":8.92,"20240829":6.92,"20240830":3.89,"20240831":6.0,"20240901":12.29,"20240902":10.85,"20240903":8.26,"20240904":8.13,"20240905":11.18,"20240906":7.12,"20240907":3.96,"20240908":6.15,"20240909":2.72,"20240910":5.71,"20240911":4.71,"20240912":10.86,"20240913":11.38,"20240914":11.28,"20240915":8.39,"20240916":2.12,"20240917":12.28,"20240918":13.52,"20240919":5.45,"20240920":14.06,"20240921":21.56,"20240922":3.88,"20240923":2.2,"20240924":0.37,"20240925":5.33,"20240926":3.85,"20240927":2.92,"20240928":1.07,"20240929":13.83,"20240930":0.08,"20241001":5.8,"20241002":8.77,"20241003":7.97,"20241004":9.49,"20241005":8.63,"20241006":0.75,"20241007":21.97,"20241008":7.59,"20241009":6.96,"20241010":3.21,"20241011":1.43,"20241012":7.87,"20241013":4.44,"20241014":2.59,"20241015":11.08,"20241016":11.89,"20241017":11.05,"20241018":5.88,"20241019":10.67,"20241020":9.36,"20241021":13.23,"20241022":16.39,"20241023":3.88,"20241024":0.19,"20241025":0.02,"20241026":0.47,"20241027":19.43,"20241028":15.61,"20241029":6.35,"20241030":0.11,"20241031":2.38,"20241101":8.64,"20241102":16.89,"20241103":7.42,"20241104":10.41,"20241105":2.44,"20241106":5.13,"20241107":0.5,"20241108":4.8,"20241109":0.1,"20241110":0.26,"20241111":0.19,"20241112":8.97,"20241113":12.92,"20241114":12.81,"20241115":0.0,"20241116":0.13,"20241117":0.09,"20241118":0.0,"20241119":0.2,"20241120":0.63,"20241121":0.27,"20241122":0.08,"20241123":0.58,"20241124":0.7,"20241125":0.23,"20241126":0.0,"20241127":0.01,"20241128":0.35,"20241129":0.15,"20241130":0.02,"20241201":0.0,"20241202":0.46,"20241203":1.07,"20241204":5.58,"20241205":1.52,"20241206":1.08,"20241207":1.01,"20241208":0.02,"20241209":0.0,"20241210":2.59,"20241211":1.74,"20241212":7.29,"20241213":18.07,"20241214":7.61,"20241215":25.68,"20241216":0.21,"20241217":0.0,"20241218":0.0,"20241219":0.01,"20241220":0.01,"20241221":0.0,"20241222":0.0,"20241223":0.0,"20241224":0.17,"20241225":0.9,"20241226":1.09,"20241227":3.79,"20241228":8.89,"20241229":0.07,"20241230":0.02,"20241231":0.3},"WS10M":{"20240101":1.17,"20240102":1.01,"20240103":1.26,"20240104":1.48,"20240105":0.91,"20240106":1.29,"20240107":1.7,"20240108":1.21,"20240109":1.37,"20240110":1.45,"20240111":1.61,"20240112":1.32,"20240113":1.34,"20240114":1.35,"20240115":1.9,"20240116":1.33,"20240117":1.68,"20240118":1.7,"20240119":2.06,"20240120":2.09,"20240121":2.1,"20240122":1.87,"20240123":1.72,"20240124":2.6,"20240125":2.56,"20240126":2.35,"20240127":2.26,"20240128":2.33,"20240129":2.21,"20240130":3.14,"20240131":2.69,"20240201":2.27,"20240202":2.51,"20240203":2.59,"20240204":2.08,"20240205":2.95,"20240206":3.03,"20240207":2.55,"20240208":3.21,"20240209":3.3,"20240210":3.05,"20240211":2.88,"20240212":2.14,"20240213":2.64,"20240214":2.98,"20240215":3.42,"20240216":2.87,"20240217":3.55,"20240218":3.5,"20240219":4.17,"20240220":4.18,"20240221":4.66,"20240222":4.58,"20240223":4.61,"20240224":3.57,"20240225":2.18,"20240226":3.44,"20240227":4.8,"20240228":4.77,"20240229":4.11,"20240301":3.07,"20240302":2.39,"20240303":3.71,"20240304":3.65,"20240305":3.2,"20240306":2.85,"20240307":4.81,"20240308":4.47,"20240309":3.85,"20240310":5.08,"20240311":3.51,"20240312":3.12,"20240313":3.47,"20240314":4.68,"20240315":4.76,"20240316":4.42,"20240317":4.05,"20240318":5.2,"20240319":5.46,"20240320":4.16,"20240321":5.32,"20240322":5.63,"20240323":5.5,"20240324":5.09,"20240325":5.21,"20240326":5.45,"20240327":4.84,"20240328":3.57,"20240329":3.98,"20240330":3.68,"20240331":3.14,"20240401":3.54,"20240402":4.51,"20240403":4.38,"20240404":4.23,"20240405":4.77,"20240406":4.73,"20240407":4.71,"20240408":4.16,"20240409":5.26,"20240410":4.91,"20240411":4.86,"20240412":4.9,"20240413":4.76,"20240414":5.18,"20240415":5.58,"20240416":5.53,"20240417":4.18,"20240418":3.81,"20240419":4.28,"20240420":4.77,"20240421":4.62,"20240422":4.08,"20240423":3.94,"20240424":3.88,"20240425":4.47,"20240426":4.06,"20240427":3.22,"20240428":3.74,"20240429":3.33,"20240430":4.13,"20240501":4.34,"20240502":3.59,"20240503":3.9,"20240504":3.34,"20240505":2.16,"20240506":4.63,"20240507":3.67,"20240508":3.29,"20240509":2.52,"20240510":4.5,"20240511":3.27,"20240512":4.58,"20240513":3.42,"20240514":2.47,"20240515":2.65,"20240516":2.97,"20240517":1.61,"20240518":1.85,"20240519":1.69,"20240520":1.72,"20240521":1.54,"20240522":1.86,"20240523":2.24,"20240524":2.46,"20240525":2.98,"20240526":1.87,"20240527":2.08,"20240528":2.34,"20240529":2.84,"20240530":2.83,"20240531":2.36,"20240601":2.27,"20240602":2.73,"20240603":2.8,"20240604":2.35,"20240605":2.86,"20240606":2.19,"20240607":1.87,"20240608":2.36,"20240609":3.43,"20240610":3.16,"20240611":2.67,"20240612":3.31,"20240613":3.13,"20240614":2.46,"20240615":2.63,"20240616":1.87,"20240617":2.46,"20240618":3.18,"20240619":3.39,"20240620":2.65,"20240621":3.34,"20240622":4.24,"20240623":3.79,"20240624":2.98,"20240625":2.67,"20240626":2.09,"20240627":1.76,"20240628":2.78,"20240629":2.45,"20240630":2.0,"20240701":2.79,"20240702":2.55,"20240703":2.29,"20240704":2.3,"20240705":2.43,"20240706":1.5,"20240707":2.11,"20240708":2.22,"20240709":1.95,"20240710":2.04,"20240711":3.61,"20240712":3.89,"20240713":4.31,"20240714":4.67,"20240715":4.03,"20240716":4.32,"20240717":4.19,"20240718":4.53,"20240719":4.1,"20240720":3.78,"20240721":4.0,"20240722":4.6,"20240723":4.29,"20240724":4.26,"20240725":4.76,"20240726":4.17,"20240727":3.64,"20240728":3.59,"20240729":2.88,"20240730":2.84,"20240731":2.5,"20240801":2.39,"20240802":2.42,"20240803":2.3,"20240804":2.48,"20240805":2.88,"20240806":2.84,"20240807":3.13,"20240808":2.65,"20240809":2.53,"20240810":2.84,"20240811":3.44,"20240812":3.27,"20240813":2.5,"20240814":2.26,"20240815":2.54,"20240816":1.77,"20240817":2.09,"20240818":1.95,"20240819":1.87,"20240820":1.92,"20240821":1.3,"20240822":1.7,"20240823":1.69,"20240824":1.94,"20240825":2.61,"20240826":1.67,"20240827":2.62,"20240828":2.93,"20240829":3.9,"20240830":3.59,"20240831":3.51,"20240901":2.8,"20240902":2.76,"20240903":3.7,"20240904":4.59,"20240905":4.99,"20240906":5.26,"20240907":4.31,"20240908":3.81,"20240909":3.02,"20240910":2.78,"20240911":2.42,"20240912":3.06,"20240913":3.4,"20240914":3.89,"20240915":4.02,"20240916":4.64,"20240917":3.62,"20240918":4.26,"20240919":4.69,"20240920":4.85,"20240921":4.4,"20240922":3.02,"20240923":2.05,"20240924":0.9,"20240925":1.38,"20240926":2.25,"20240927":2.56,"20240928":1.66,"20240929":2.19,"20240930":1.76,"20241001":1.87,"20241002":1.3,"20241003":1.68,"20241004":1.93,"20241005":1.65,"20241006":2.49,"20241007":1.98,"20241008":1.89,"20241009":1.57,"20241010":1.64,"20241011":1.86,"20241012":1.72,"20241013":1.5,"20241014":1.65,"20241015":1.9,"20241016":2.18,"20241017":1.5,"20241018":1.8,"20241019":2.32,"20241020":1.42,"20241021":3.36,"20241022":3.42,"20241023":2.15,"20241024":2.13,"20241025":2.74,"20241026":3.12,"20241027":3.4,"20241028":2.61,"20241029":2.86,"20241030":2.9,"20241031":3.0,"20241101":2.18,"20241102":2.21,"20241103":1.7,"20241104":1.68,"20241105":1.64,"20241106":1.91,"20241107":2.2,"20241108":1.51,"20241109":1.3,"20241110":1.16,"20241111":1.31,"20241112":1.61,"20241113":2.11,"20241114":2.64,"20241115":1.92,"20241116":2.01,"20241117":1.35,"20241118":1.31,"20241119":1.71,"20241120":1.46,"20241121":1.28,"20241122":1.26,"20241123":1.96,"20241124":2.05,"20241125":1.93,"20241126":2.36,"20241127":2.02,"20241128":2.75,"20241129":2.57,"20241130":1.5,"20241201":1.57,"20241202":0.9,"20241203":2.0,"20241204":2.28,"20241205":2.15,"20241206":1.61,"20241207":2.94,"20241208":2.45,"20241209":2.07,"20241210":2.94,"20241211":2.34,"20241212":2.2,"20241213":2.94,"20241214":2.87,"20241215":2.51,"20241216":2.16,"20241217":1.5,"20241218":2.0,"20241219":2.0,"20241220":1.78,"20241221":2.08,"20241222":2.72,"20241223":2.7,"20241224":4.41,"20241225":3.23,"20241226":2.59,"20241227":1.83,"20241228":1.91,"20241229":1.91,"20241230":1.83,"20241231":2.22},"RH2M":{"20240101":79.3,"20240102":80.73,"20240103":78.23,"20240104":75.76,"20240105":75.1,"20240106":78.69,"20240107":78.37,"20240108":79.28,"20240109":81.25,"20240110":78.24,"20240111":75.85,"20240112":76.24,"20240113":74.25,"20240114":69.2,"20240115":71.82,"20240116":72.44,"20240117":72.71,"20240118":72.39,"20240119":73.38,"20240120":74.49,"20240121":74.37,"20240122":70.25,"20240123":64.49,"20240124":68.68,"20240125":67.62,"20240126":65.98,"20240127":65.25,"20240128":62.87,"20240129":64.96,"20240130":67.92,"20240131":69.62,"20240201":72.29,"20240202":72.74,"20240203":70.24,"20240204":69.27,"20240205":71.45,"20240206":68.38,"20240207":68.62,"20240208":69.9,"20240209":61.38,"20240210":58.08,"20240211":57.53,"20240212":54.95,"20240213":58.13,"20240214":57.54,"20240215":58.08,"20240216":54.1,"20240217":58.07,"20240218":59.65,"20240219":63.72,"20240220":66.25,"20240221":66.78,"20240222":65.42,"20240223":63.41,"20240224":57.85,"20240225":51.06,"20240226":50.52,"20240227":58.38,"20240228":56.13,"20240229":54.64,"20240301":52.24,"20240302":49.52,"20240303":56.03,"20240304":59.11,"20240305":63.2,"20240306":61.72,"20240307":62.23,"20240308":49.83,"20240309":51.37,"20240310":54.74,"20240311":50.66,"20240312":48.86,"20240313":57.06,"20240314":58.46,"20240315":57.95,"20240316":55.94,"20240317":56.84,"20240318":57.57,"20240319":54.44,"20240320":47.67,"20240321":52.04,"20240322":57.69,"20240323":60.92,"20240324":59.81,"20240325":56.67,"20240326":52.51,"20240327":55.73,"20240328":66.57,"20240329":65.23,"20240330":63.63,"20240331":66.95,"20240401":60.57,"20240402":62.33,"20240403":59.93,"20240404":57.36,"20240405":59.55,"20240406":59.16,"20240407":58.53,"20240408":58.58,"20240409":58.85,"20240410":52.45,"20240411":51.44,"20240412":52.46,"20240413":57.29,"20240414":57.83,"20240415":56.81,"20240416":56.14,"20240417":56.27,"20240418":57.31,"20240419":55.82,"20240420":56.4,"20240421":55.84,"20240422":56.78,"20240423":56.92,"20240424":54.98,"20240425":48.77,"20240426":53.9,"20240427":53.16,"20240428":55.38,"20240429":52.8,"20240430":56.86,"20240501":54.98,"20240502":58.43,"20240503":52.96,"20240504":54.69,"20240505":69.54,"20240506":52.47,"20240507":58.84,"20240508":70.29,"20240509":73.28,"20240510":66.12,"20240511":61.81,"20240512":61.59,"20240513":62.7,"20240514":75.83,"20240515":70.32,"20240516":74.35,"20240517":80.96,"20240518":78.68,"20240519":81.49,"20240520":79.33,"20240521":84.02,"20240522":76.44,"20240523":80.47,"20240524":74.99,"20240525":76.29,"20240526":76.41,"20240527":80.72,"20240528":85.54,"20240529":83.11,"20240530":84.42,"20240531":86.57,"20240601":82.43,"20240602":78.76,"20240603":80.96,"20240604":79.18,"20240605":80.47,"20240606":79.21,"20240607":77.05,"20240608":85.06,"20240609":89.77,"20240610":81.04,"20240611":81.49,"20240612":80.97,"20240613":78.15,"20240614":86.64,"20240615":82.67,"20240616":87.93,"20240617":83.8,"20240618":81.74,"20240619":84.2,"20240620":86.7,"20240621":89.96,"20240622":93.8,"20240623":91.63,"20240624":90.57,"20240625":89.33,"20240626":86.44,"20240627":86.53,"20240628":87.44,"20240629":86.08,"20240630":84.25,"20240701":87.7,"20240702":86.1,"20240703":87.35,"20240704":84.39,"20240705":83.65,"20240706":81.13,"20240707":84.58,"20240708":84.95,"20240709":89.4,"20240710":88.9,"20240711":87.44,"20240712":87.05,"20240713":90.3,"20240714":91.3,"20240715":91.79,"20240716":90.79,"20240717":90.62,"20240718":89.66,"20240719":91.51,"20240720":91.54,"20240721":87.72,"20240722":89.17,"20240723":89.48,"20240724":87.33,"20240725":89.31,"20240726":90.62,"20240727":90.27,"20240728":89.13,"20240729":87.2,"20240730":87.87,"20240731":87.29,"20240801":87.22,"20240802":86.31,"20240803":89.64,"20240804":87.52,"20240805":86.45,"20240806":87.07,"20240807":87.85,"20240808":89.22,"20240809":88.86,"20240810":87.82,"20240811":86.6,"20240812":91.8,"20240813":88.11,"20240814":87.15,"20240815":85.07,"20240816":87.88,"20240817":85.85,"20240818":84.76,"20240819":85.3,"20240820":86.01,"20240821":84.82,"20240822":85.66,"20240823":84.76,"20240824":86.2,"20240825":87.98,"20240826":89.38,"20240827":89.03,"20240828":89.36,"20240829":90.55,"20240830":89.06,"20240831":92.4,"20240901":91.49,"20240902":88.2,"20240903":90.09,"20240904":90.41,"20240905":91.69,"20240906":92.17,"20240907":89.55,"20240908":89.39,"20240909":90.46,"20240910":90.27,"20240911":91.53,"20240912":87.7,"20240913":90.4,"20240914":91.56,"20240915":89.95,"20240916":88.68,"20240917":91.75,"20240918":92.62,"20240919":94.04,"20240920":90.79,"20240921":91.86,"20240922":90.89,"20240923":88.08,"20240924":83.05,"20240925":84.34,"20240926":89.01,"20240927":89.57,"20240928":85.79,"20240929":87.73,"20240930":85.62,"20241001":85.24,"20241002":85.68,"20241003":86.83,"20241004":84.64,"20241005":84.36,"20241006":93.44,"20241007":89.88,"20241008":89.26,"20241009":85.28,"20241010":85.03,"20241011":88.17,"20241012":89.56,"20241013":86.04,"20241014":84.96,"20241015":94.67,"20241016":89.5,"20241017":86.49,"20241018":87.26,"20241019":88.59,"20241020":87.5,"20241021":91.19,"20241022":92.08,"20241023":90.62,"20241024":84.71,"20241025":86.31,"20241026":84.23,"20241027":90.16,"20241028":93.87,"20241029":91.48,"20241030":89.67,"20241031":87.31,"20241101":86.43,"20241102":89.36,"20241103":84.96,"20241104":85.36,"20241105":85.33,"20241106":85.3,"20241107":84.19,"20241108":87.7,"20241109":83.59,"20241110":86.17,"20241111":83.7,"20241112":82.66,"20241113":87.18,"20241114":86.42,"20241115":86.16,"20241116":85.18,"20241117":81.73,"20241118":79.51,"20241119":84.24,"20241120":84.6,"20241121":82.48,"20241122":82.53,"20241123":83.5,"20241124":86.68,"20241125":83.07,"20241126":82.9,"20241127":83.5,"20241128":82.52,"20241129":82.45,"20241130":79.8,"20241201":83.42,"20241202":80.72,"20241203":88.05,"20241204":88.8,"20241205":86.88,"20241206":87.49,"20241207":87.46,"20241208":83.09,"20241209":84.2,"20241210":87.67,"20241211":91.87,"20241212":89.05,"20241213":92.67,"20241214":89.68,"20241215":89.03,"20241216":85.58,"20241217":82.47,"20241218":82.45,"20241219":80.89,"20241220":82.81,"20241221":80.7,"20241222":81.37,"20241223":81.87,"20241224":84.23,"20241225":89.56,"20241226":86.13,"20241227":87.94,"20241228":85.46,"20241229":82.14,"20241230":81.56,"20241231":84.29}}},"header":{"title":"NASA/POWER Source Native Resolution Daily Data","api":{"version":"v2.9.6","name":"POWER Daily API"},"sources":["MERRA2","POWER"],"fill_value":-999.0,"time_standard":"UTC","start":"20240101","end":"20241231"},"messages":[],"parameters":{"T2M":{"units":"C","longname":"Temperature at 2 Meters"},"T2M_MAX":{"units":"C","longname":"Temperature at 2 Meters Maximum"},"T2M_MIN":{"units":"C","longname":"Temperature at 2 Meters Minimum"},"PRECTOTCORR":{"units":"mm/day","longname":"Precipitation Corrected"},"WS10M":{"units":"m/s","longname":"Wind Speed at 10 Meters"},"RH2M":{"units":"%","longname":"Relative Humidity at 2 Meters"}},"times":{"data":0.891,"process":0.02}}