{"type":"Feature","geometry":{"type":"Point","coordinates":[28.044,-26.202,1538.19]},"properties":{"parameter":{"T2M":{"20240101":23.4,"20240102":22.59,"20240103":23.83,"20240104":24.16,"20240105":21.04,"20240106":24.2,"20240107":25.86,"20240108":24.39,"20240109":21.09,"20240110":21.31,"20240111":23.14,"20240112":24.06,"20240113":24.4,"20240114":23.44,"20240115":25.29,"20240116":24.4,"20240117":20.75,"20240118":19.42,"20240119":18.09,"20240120":19.84,"20240121":22.0,"20240122":24.17,"20240123":22.61,"20240124":22.51,"20240125":23.58,"20240126":24.4,"20240127":23.12,"20240128":23.8,"20240129":24.84,"20240130":25.62,"20240131":21.83,"20240201":21.58,"20240202":22.21,"20240203":22.71,"20240204":23.33,"20240205":24.46,"20240206":24.36,"20240207":26.23,"20240208":27.17,"20240209":23.52,"20240210":24.51,"20240211":21.18,"20240212":22.53,"20240213":25.6,"20240214":25.96,"20240215":25.02,"20240216":25.82,"20240217":25.92,"20240218":25.25,"20240219":23.43,"20240220":24.31,"20240221":26.39,"20240222":24.29,"20240223":24.01,"20240224":24.51,"20240225":25.13,"20240226":24.04,"20240227":20.62,"20240228":20.82,"20240229":21.32,"20240301":22.11,"20240302":23.57,"20240303":23.41,"20240304":22.65,"20240305":24.2,"20240306":25.73,"20240307":22.26,"20240308":24.31,"20240309":24.74,"20240310":25.23,"20240311":24.14,"20240312":23.52,"20240313":25.48,"20240314":24.57,"20240315":22.87,"20240316":24.03,"20240317":24.83,"20240318":23.21,"20240319":24.65,"20240320":25.75,"20240321":20.72,"20240322":19.26,"20240323":18.18,"20240324":18.0,"20240325":18.95,"20240326":18.99,"20240327":19.53,"20240328":19.11,"20240329":20.01,"20240330":18.23,"20240331":17.9,"20240401":17.38,"20240402":19.96,"20240403":20.24,"20240404":19.18,"20240405":18.39,"20240406":18.04,"20240407":16.87,"20240408":16.4,"20240409":14.6,"20240410":13.95,"20240411":14.52,"20240412":13.87,"20240413":13.79,"20240414":14.65,"20240415":13.39,"20240416":14.55,"20240417":15.93,"20240418":15.69,"20240419":16.89,"20240420":17.9,"20240421":20.72,"20240422":19.1,"20240423":19.15,"20240424":20.03,"20240425":19.25,"20240426":18.64,"20240427":15.96,"20240428":15.06,"20240429":15.07,"20240430":16.11,"20240501":17.31,"20240502":17.59,"20240503":17.02,"20240504":15.58,"20240505":16.85,"20240506":16.87,"20240507":17.43,"20240508":18.0,"20240509":17.02,"20240510":16.75,"20240511":17.86,"20240512":16.98,"20240513":15.91,"20240514":16.01,"20240515":15.08,"20240516":15.96,"20240517":16.09,"20240518":15.65,"20240519":16.36,"20240520":15.71,"20240521":15.07,"20240522":13.95,"20240523":12.67,"20240524":14.13,"20240525":13.02,"20240526":12.98,"20240527":12.96,"20240528":12.83,"20240529":12.99,"20240530":12.58,"20240531":13.88,"20240601":13.62,"20240602":13.97,"20240603":9.14,"20240604":5.5,"20240605":9.3,"20240606":11.01,"20240607":6.44,"20240608":7.83,"20240609":7.52,"20240610":7.89,"20240611":6.82,"20240612":8.71,"20240613":10.14,"20240614":10.41,"20240615":10.86,"20240616":10.29,"20240617":9.37,"20240618":10.45,"20240619":10.01,"20240620":10.61,"20240621":11.3,"20240622":12.0,"20240623":10.82,"20240624":10.42,"20240625":9.29,"20240626":9.9,"20240627":9.83,"20240628":10.32,"20240629":10.0,"20240630":11.79,"20240701":11.98,"20240702":11.57,"20240703":11.45,"20240704":8.0,"20240705":7.3,"20240706":7.07,"20240707":9.21,"20240708":3.3,"20240709":3.88,"20240710":8.96,"20240711":10.57,"20240712":12.55,"20240713":12.65,"20240714":10.52,"20240715":9.16,"20240716":10.74,"20240717":12.57,"20240718":13.81,"20240719":12.73,"20240720":10.99,"20240721":11.38,"20240722":13.02,"20240723":13.5,"20240724":12.15,"20240725":11.25,"20240726":11.03,"20240727":11.53,"20240728":9.74,"20240729":8.51,"20240730":11.03,"20240731":11.35,"20240801":11.84,"20240802":12.19,"20240803":14.03,"20240804":14.48,"20240805":10.66,"20240806":11.08,"20240807":14.47,"20240808":15.19,"20240809":14.68,"20240810":14.91,"20240811":16.22,"20240812":12.53,"20240813":13.48,"20240814":11.56,"20240815":13.3,"20240816":15.08,"20240817":15.85,"20240818":17.21,"20240819":16.64,"20240820":15.73,"20240821":16.84,"20240822":16.82,"20240823":12.25,"20240824":13.14,"20240825":16.86,"20240826":16.75,"20240827":18.18,"20240828":16.06,"20240829":14.08,"20240830":13.45,"20240831":12.59,"20240901":14.3,"20240902":16.97,"20240903":16.92,"20240904":16.23,"20240905":16.76,"20240906":18.14,"20240907":16.87,"20240908":18.04,"20240909":18.81,"20240910":14.73,"20240911":17.39,"20240912":19.99,"20240913":22.28,"20240914":22.85,"20240915":22.15,"20240916":19.98,"20240917":19.57,"20240918":19.53,"20240919":18.38,"20240920":14.01,"20240921":8.97,"20240922":11.83,"20240923":12.88,"20240924":16.28,"20240925":20.64,"20240926":21.5,"20240927":20.65,"20240928":21.08,"20240929":21.81,"20240930":13.27,"20241001":12.46,"20241002":13.56,"20241003":14.87,"20241004":14.58,"20241005":16.22,"20241006":17.47,"20241007":20.15,"20241008":19.72,"20241009":19.96,"20241010":21.81,"20241011":23.05,"20241012":24.78,"20241013":24.74,"20241014":24.45,"20241015":16.74,"20241016":16.64,"20241017":18.46,"20241018":20.75,"20241019":20.86,"20241020":20.16,"20241021":17.69,"20241022":18.72,"20241023":18.77,"20241024":19.76,"20241025":22.77,"20241026":23.21,"20241027":22.72,"20241028":18.36,"20241029":17.42,"20241030":19.76,"20241031":20.37,"20241101":22.34,"20241102":25.24,"20241103":26.59,"20241104":26.46,"20241105":21.3,"20241106":21.78,"20241107":21.93,"20241108":21.22,"20241109":19.64,"20241110":19.23,"20241111":18.45,"20241112":18.89,"20241113":22.01,"20241114":19.1,"20241115":19.32,"20241116":22.56,"20241117":23.49,"20241118":24.05,"20241119":24.92,"20241120":23.51,"20241121":25.03,"20241122":22.77,"20241123":24.99,"20241124":23.68,"20241125":23.82,"20241126":24.9,"20241127":23.57,"20241128":19.6,"20241129":18.73,"20241130":20.89,"20241201":23.05,"20241202":24.44,"20241203":25.86,"20241204":27.62,"20241205":27.34,"20241206":27.68,"20241207":27.08,"20241208":25.75,"20241209":26.08,"20241210":28.1,"20241211":25.84,"20241212":27.6,"20241213":28.0,"20241214":25.65,"20241215":23.35,"20241216":25.53,"20241217":22.74,"20241218":24.26,"20241219":22.25,"20241220":22.4,"20241221":18.64,"20241222":20.89,"20241223":20.41,"20241224":21.07,"20241225":20.36,"20241226":22.5,"20241227":22.24,"20241228":22.99,"20241229":23.87,"20241230":24.7,"20241231":22.81},"T2M_MAX":{"20240101":31.47,"20240102":29.82,"20240103":30.46,"20240104":31.76,"20240105":26.34,"20240106":32.3,"20240107":33.55,"20240108":30.29,"20240109":25.97,"20240110":26.83,"20240111":29.38,"20240112":31.05,"20240113":31.56,"20240114":30.61,"20240115":33.47,"20240116":32.18,"20240117":24.88,"20240118":27.19,"20240119":27.5,"20240120":28.75,"20240121":30.91,"20240122":30.55,"20240123":30.03,"20240124":30.08,"20240125":31.83,"20240126":32.7,"20240127":31.47,"20240128":30.44,"20240129":31.06,"20240130":33.36,"20240131":30.11,"20240201":29.56,"20240202":30.79,"20240203":31.05,"20240204":29.73,"20240205":33.49,"20240206":34.45,"20240207":35.67,"20240208":35.18,"20240209":30.63,"20240210":32.67,"20240211":28.08,"20240212":29.77,"20240213":34.16,"20240214":35.79,"20240215":33.7,"20240216":34.32,"20240217":35.11,"20240218":32.96,"20240219":30.15,"20240220":31.67,"20240221":35.58,"20240222":31.8,"20240223":31.48,"20240224":32.09,"20240225":31.94,"20240226":31.49,"20240227":27.26,"20240228":29.09,"20240229":29.2,"20240301":29.74,"20240302":31.4,"20240303":31.44,"20240304":30.19,"20240305":33.42,"20240306":35.08,"20240307":28.19,"20240308":32.8,"20240309":33.03,"20240310":33.17,"20240311":33.07,"20240312":33.12,"20240313":34.45,"20240314":34.01,"20240315":30.74,"20240316":33.85,"20240317":34.5,"20240318":30.64,"20240319":33.18,"20240320":34.67,"20240321":25.64,"20240322":23.52,"20240323":23.24,"20240324":23.95,"20240325":25.49,"20240326":25.52,"20240327":25.99,"20240328":25.07,"20240329":26.98,"20240330":23.77,"20240331":24.29,"20240401":23.96,"20240402":27.14,"20240403":26.77,"20240404":24.77,"20240405":23.88,"20240406":24.3,"20240407":22.25,"20240408":21.12,"20240409":21.52,"20240410":22.68,"20240411":22.1,"20240412":20.29,"20240413":20.54,"20240414":21.57,"20240415":18.01,"20240416":21.04,"20240417":21.87,"20240418":23.03,"20240419":25.62,"20240420":27.69,"20240421":28.82,"20240422":27.43,"20240423":28.6,"20240424":28.8,"20240425":27.98,"20240426":26.81,"20240427":22.96,"20240428":22.31,"20240429":23.22,"20240430":25.21,"20240501":26.74,"20240502":26.86,"20240503":25.75,"20240504":24.69,"20240505":25.68,"20240506":25.98,"20240507":25.68,"20240508":26.7,"20240509":26.28,"20240510":26.09,"20240511":27.17,"20240512":25.65,"20240513":23.35,"20240514":22.49,"20240515":23.43,"20240516":24.86,"20240517":25.75,"20240518":24.95,"20240519":24.49,"20240520":24.31,"20240521":24.88,"20240522":23.7,"20240523":21.97,"20240524":23.51,"20240525":21.94,"20240526":22.65,"20240527":21.91,"20240528":21.55,"20240529":21.38,"20240530":20.19,"20240531":21.72,"20240601":21.74,"20240602":21.88,"20240603":15.99,"20240604":14.56,"20240605":18.65,"20240606":21.59,"20240607":13.66,"20240608":16.36,"20240609":16.14,"20240610":16.9,"20240611":15.48,"20240612":17.51,"20240613":19.73,"20240614":20.09,"20240615":20.21,"20240616":19.67,"20240617":17.62,"20240618":19.75,"20240619":20.15,"20240620":21.0,"20240621":18.23,"20240622":20.75,"20240623":19.41,"20240624":18.14,"20240625":17.38,"20240626":17.97,"20240627":17.41,"20240628":17.99,"20240629":16.7,"20240630":18.68,"20240701":19.74,"20240702":19.63,"20240703":20.18,"20240704":16.35,"20240705":18.03,"20240706":17.22,"20240707":19.45,"20240708":9.86,"20240709":14.91,"20240710":21.2,"20240711":21.78,"20240712":22.19,"20240713":22.55,"20240714":22.26,"20240715":20.16,"20240716":20.98,"20240717":22.61,"20240718":23.67,"20240719":23.28,"20240720":21.65,"20240721":22.03,"20240722":22.24,"20240723":23.93,"20240724":23.58,"20240725":22.02,"20240726":20.82,"20240727":21.59,"20240728":20.04,"20240729":19.6,"20240730":20.39,"20240731":20.59,"20240801":20.38,"20240802":20.97,"20240803":23.34,"20240804":24.3,"20240805":19.87,"20240806":21.03,"20240807":22.81,"20240808":25.49,"20240809":25.12,"20240810":27.15,"20240811":26.68,"20240812":22.67,"20240813":23.62,"20240814":21.29,"20240815":23.74,"20240816":25.09,"20240817":24.85,"20240818":26.87,"20240819":27.77,"20240820":26.46,"20240821":27.16,"20240822":27.63,"20240823":21.04,"20240824":23.05,"20240825":26.51,"20240826":27.23,"20240827":28.3,"20240828":27.49,"20240829":24.31,"20240830":21.32,"20240831":20.87,"20240901":25.26,"20240902":27.16,"20240903":26.85,"20240904":26.44,"20240905":26.24,"20240906":27.8,"20240907":26.81,"20240908":28.1,"20240909":28.82,"20240910":22.84,"20240911":26.74,"20240912":29.79,"20240913":32.06,"20240914":32.39,"20240915":31.32,"20240916":29.3,"20240917":26.52,"20240918":29.25,"20240919":28.66,"20240920":21.83,"20240921":14.27,"20240922":18.98,"20240923":20.97,"20240924":25.65,"20240925":29.86,"20240926":30.68,"20240927":31.35,"20240928":30.51,"20240929":31.58,"20240930":22.79,"20241001":23.26,"20241002":23.67,"20241003":24.93,"20241004":25.42,"20241005":27.07,"20241006":28.04,"20241007":29.55,"20241008":28.16,"20241009":29.42,"20241010":31.55,"20241011":33.19,"20241012":35.64,"20241013":33.51,"20241014":34.35,"20241015":20.42,"20241016":23.71,"20241017":27.76,"20241018":29.14,"20241019":30.85,"20241020":30.65,"20241021":23.33,"20241022":26.94,"20241023":29.27,"20241024":29.3,"20241025":32.29,"20241026":32.38,"20241027":33.02,"20241028":28.47,"20241029":26.07,"20241030":29.47,"20241031":28.86,"20241101":31.43,"20241102":34.33,"20241103":35.47,"20241104":36.05,"20241105":28.53,"20241106":31.21,"20241107":29.79,"20241108":28.43,"20241109":25.66,"20241110":23.36,"20241111":22.56,"20241112":25.7,"20241113":30.83,"20241114":25.72,"20241115":26.39,"20241116":31.0,"20241117":32.65,"20241118":32.68,"20241119":33.44,"20241120":31.36,"20241121":32.64,"20241122":30.11,"20241123":34.05,"20241124":31.29,"20241125":31.26,"20241126":32.73,"20241127":31.7,"20241128":28.8,"20241129":28.83,"20241130":30.01,"20241201":32.34,"20241202":34.24,"20241203":35.58,"20241204":37.3,"20241205":35.86,"20241206":36.98,"20241207":37.02,"20241208":33.31,"20241209":34.18,"20241210":37.59,"20241211":32.56,"20241212":36.5,"20241213":37.62,"20241214":35.46,"20241215":30.22,"20241216":33.36,"20241217":29.1,"20241218":31.93,"20241219":28.9,"20241220":29.55,"20241221":21.26,"20241222":28.38,"20241223":25.75,"20241224":26.93,"20241225":26.03,"20241226":30.49,"20241227":29.47,"20241228":29.47,"20241229":31.58,"20241230":32.91,"20241231":29.12},"T2M_MIN":{"20240101":15.67,"20240102":14.75,"20240103":16.65,"20240104":16.13,"20240105":16.25,"20240106":14.57,"20240107":16.54,"20240108":18.44,"20240109":17.03,"20240110":15.93,"20240111":17.14,"20240112":18.19,"20240113":17.22,"20240114":16.43,"20240115":16.5,"20240116":16.6,"20240117":16.93,"20240118":12.11,"20240119":8.43,"20240120":10.18,"20240121":10.89,"20240122":17.08,"20240123":15.88,"20240124":15.26,"20240125":14.98,"20240126":14.54,"20240127":15.7,"20240128":16.68,"20240129":17.26,"20240130":17.48,"20240131":15.0,"20240201":13.65,"20240202":12.85,"20240203":13.9,"20240204":15.86,"20240205":15.8,"20240206":14.95,"20240207":15.74,"20240208":18.87,"20240209":18.03,"20240210":16.59,"20240211":14.25,"20240212":15.14,"20240213":18.21,"20240214":15.62,"20240215":16.05,"20240216":18.11,"20240217":16.09,"20240218":17.5,"20240219":18.02,"20240220":16.0,"20240221":16.69,"20240222":17.8,"20240223":17.3,"20240224":17.18,"20240225":17.7,"20240226":17.06,"20240227":15.06,"20240228":13.95,"20240229":13.33,"20240301":12.56,"20240302":14.32,"20240303":15.99,"20240304":16.73,"20240305":16.05,"20240306":15.23,"20240307":17.93,"20240308":17.47,"20240309":14.85,"20240310":16.5,"20240311":16.38,"20240312":13.68,"20240313":17.81,"20240314":16.58,"20240315":16.03,"20240316":15.93,"20240317":15.32,"20240318":16.6,"20240319":16.82,"20240320":17.52,"20240321":17.47,"20240322":15.58,"20240323":14.76,"20240324":12.88,"20240325":12.81,"20240326":13.19,"20240327":13.8,"20240328":14.43,"20240329":12.95,"20240330":13.5,"20240331":13.2,"20240401":12.54,"20240402":11.95,"20240403":14.44,"20240404":14.95,"20240405":13.85,"20240406":12.61,"20240407":12.93,"20240408":12.71,"20240409":7.99,"20240410":7.42,"20240411":6.34,"20240412":9.3,"20240413":7.6,"20240414":7.4,"20240415":9.06,"20240416":8.72,"20240417":11.27,"20240418":9.36,"20240419":10.15,"20240420":10.15,"20240421":10.9,"20240422":12.85,"20240423":10.98,"20240424":14.09,"20240425":12.25,"20240426":10.93,"20240427":10.56,"20240428":9.63,"20240429":8.18,"20240430":8.84,"20240501":9.54,"20240502":10.81,"20240503":9.43,"20240504":8.22,"20240505":9.28,"20240506":8.05,"20240507":8.78,"20240508":10.36,"20240509":8.06,"20240510":10.51,"20240511":9.61,"20240512":9.34,"20240513":10.5,"20240514":10.5,"20240515":8.02,"20240516":8.54,"20240517":9.15,"20240518":8.56,"20240519":9.28,"20240520":7.27,"20240521":6.58,"20240522":8.1,"20240523":5.57,"20240524":6.1,"20240525":5.23,"20240526":5.74,"20240527":5.28,"20240528":5.86,"20240529":5.51,"20240530":7.77,"20240531":8.25,"20240601":7.08,"20240602":7.35,"20240603":0.28,"20240604":-1.43,"20240605":-0.36,"20240606":3.33,"20240607":1.27,"20240608":2.07,"20240609":0.24,"20240610":1.06,"20240611":-0.45,"20240612":2.07,"20240613":2.92,"20240614":2.9,"20240615":2.69,"20240616":2.53,"20240617":1.82,"20240618":3.81,"20240619":3.16,"20240620":2.68,"20240621":5.71,"20240622":6.08,"20240623":5.67,"20240624":5.61,"20240625":2.65,"20240626":4.58,"20240627":4.38,"20240628":3.59,"20240629":5.75,"20240630":4.24,"20240701":7.01,"20240702":4.27,"20240703":4.61,"20240704":1.56,"20240705":0.41,"20240706":-0.62,"20240707":1.0,"20240708":-2.98,"20240709":-4.62,"20240710":-0.6,"20240711":2.77,"20240712":6.01,"20240713":4.69,"20240714":2.45,"20240715":1.76,"20240716":2.16,"20240717":4.45,"20240718":7.89,"20240719":6.1,"20240720":2.89,"20240721":1.69,"20240722":7.04,"20240723":6.09,"20240724":4.11,"20240725":2.44,"20240726":0.76,"20240727":4.04,"20240728":2.33,"20240729":0.0,"20240730":2.74,"20240731":2.9,"20240801":6.84,"20240802":7.0,"20240803":6.76,"20240804":7.05,"20240805":3.59,"20240806":1.16,"20240807":8.11,"20240808":6.45,"20240809":7.07,"20240810":4.93,"20240811":8.04,"20240812":4.6,"20240813":4.2,"20240814":4.23,"20240815":3.05,"20240816":5.16,"20240817":9.48,"20240818":9.63,"20240819":7.5,"20240820":6.31,"20240821":9.23,"20240822":7.38,"20240823":5.16,"20240824":4.32,"20240825":8.89,"20240826":8.31,"20240827":10.96,"20240828":7.68,"20240829":4.85,"20240830":7.68,"20240831":6.69,"20240901":5.76,"20240902":7.67,"20240903":7.48,"20240904":7.57,"20240905":8.52,"20240906":10.09,"20240907":9.13,"20240908":8.58,"20240909":10.72,"20240910":8.22,"20240911":9.61,"20240912":10.84,"20240913":12.82,"20240914":13.82,"20240915":14.77,"20240916":15.25,"20240917":13.92,"20240918":12.37,"20240919":9.94,"20240920":7.55,"20240921":4.44,"20240922":4.47,"20240923":4.77,"20240924":6.91,"20240925":10.16,"20240926":12.34,"20240927":9.86,"20240928":11.5,"20240929":11.47,"20240930":5.12,"20241001":2.53,"20241002":4.15,"20241003":6.14,"20241004":5.54,"20241005":6.44,"20241006":6.56,"20241007":8.97,"20241008":11.11,"20241009":10.3,"20241010":11.23,"20241011":12.74,"20241012":13.78,"20241013":14.75,"20241014":13.81,"20241015":12.56,"20241016":10.88,"20241017":8.5,"20241018":12.78,"20241019":11.2,"20241020":11.12,"20241021":13.57,"20241022":11.31,"20241023":8.09,"20241024":10.11,"20241025":13.42,"20241026":14.68,"20241027":12.7,"20241028":9.75,"20241029":8.67,"20241030":9.99,"20241031":11.9,"20241101":12.76,"20241102":14.53,"20241103":16.66,"20241104":17.71,"20241105":13.41,"20241106":11.35,"20241107":14.33,"20241108":13.95,"20241109":14.67,"20241110":15.4,"20241111":14.41,"20241112":13.25,"20241113":12.64,"20241114":13.28,"20241115":11.92,"20241116":14.15,"20241117":15.23,"20241118":14.56,"20241119":18.06,"20241120":15.82,"20241121":15.7,"20241122":17.36,"20241123":15.75,"20241124":16.02,"20241125":16.08,"20241126":15.89,"20241127":13.55,"20241128":10.84,"20241129":8.78,"20241130":10.42,"20241201":12.89,"20241202":13.95,"20241203":15.51,"20241204":16.38,"20241205":18.3,"20241206":18.98,"20241207":18.16,"20241208":18.07,"20241209":19.17,"20241210":17.42,"20241211":19.16,"20241212":17.5,"20241213":18.97,"20241214":17.09,"20241215":15.69,"20241216":17.22,"20241217":18.0,"20241218":17.68,"20241219":17.39,"20241220":16.27,"20241221":16.4,"20241222":16.28,"20241223":16.2,"20241224":16.06,"20241225":15.86,"20241226":14.72,"20241227":15.5,"20241228":17.49,"20241229":16.02,"20241230":17.72,"20241231":18.53},"PRECTOTCORR":{"20240101":0.07,"20240102":0.3,"20240103":0.63,"20240104":0.45,"20240105":6.01,"20240106":0.32,"20240107":0.07,"20240108":3.01,"20240109":9.82,"20240110":10.76,"20240111":0.57,"20240112":1.2,"20240113":0.94,"20240114":1.85,"20240115":0.28,"20240116":7.24,"20240117":3.67,"20240118":0.15,"20240119":0.0,"20240120":0.0,"20240121":0.0,"20240122":0.16,"20240123":0.46,"20240124":0.72,"20240125":0.06,"20240126":0.32,"20240127":5.45,"20240128":3.83,"20240129":4.02,"20240130":0.11,"20240131":0.19,"20240201":0.7,"20240202":0.11,"20240203":1.52,"20240204":0.36,"20240205":0.0,"20240206":0.11,"20240207":0.0,"20240208":1.31,"20240209":16.71,"20240210":0.14,"20240211":1.74,"20240212":0.11,"20240213":0.0,"20240214":0.0,"20240215":0.09,"20240216":0.02,"20240217":0.01,"20240218":2.71,"20240219":4.88,"20240220":0.32,"20240221":0.0,"20240222":6.91,"20240223":4.14,"20240224":2.01,"20240225":0.0,"20240226":1.59,"20240227":0.5,"20240228":0.25,"20240229":0.01,"20240301":0.12,"20240302":0.18,"20240303":0.52,"20240304":5.16,"20240305":0.03,"20240306":0.1,"20240307":9.57,"20240308":0.43,"20240309":0.11,"20240310":0.3,"20240311":0.03,"20240312":0.01,"20240313":0.0,"20240314":0.02,"20240315":0.28,"20240316":0.04,"20240317":0.02,"20240318":0.57,"20240319":0.21,"20240320":0.33,"20240321":74.76,"20240322":2.24,"20240323":1.05,"20240324":0.04,"20240325":0.24,"20240326":0.19,"20240327":0.57,"20240328":0.87,"20240329":0.05,"20240330":4.05,"20240331":0.76,"20240401":0.79,"20240402":0.13,"20240403":1.9,"20240404":3.71,"20240405":11.92,"20240406":1.95,"20240407":1.42,"20240408":8.01,"20240409":30.63,"20240410":0.0,"20240411":0.04,"20240412":0.73,"20240413":0.08,"20240414":0.04,"20240415":1.7,"20240416":1.27,"20240417":1.38,"20240418":0.11,"20240419":0.0,"20240420":0.0,"20240421":0.0,"20240422":0.0,"20240423":0.0,"20240424":0.0,"20240425":0.0,"20240426":0.55,"20240427":3.78,"20240428":0.16,"20240429":0.0,"20240430":0.0,"20240501":0.0,"20240502":0.0,"20240503":0.0,"20240504":0.0,"20240505":0.0,"20240506":0.0,"20240507":0.0,"20240508":0.0,"20240509":0.0,"20240510":0.0,"20240511":0.0,"20240512":0.22,"20240513":1.26,"20240514":1.12,"20240515":0.04,"20240516":0.0,"20240517":0.0,"20240518":0.0,"20240519":0.0,"20240520":0.0,"20240521":0.0,"20240522":0.04,"20240523":0.0,"20240524":0.0,"20240525":0.0,"20240526":0.0,"20240527":0.0,"20240528":0.01,"20240529":0.0,"20240530":0.0,"20240531":0.0,"20240601":0.0,"20240602":6.45,"20240603":2.34,"20240604":0.0,"20240605":0.0,"20240606":0.0,"20240607":0.0,"20240608":0.0,"20240609":0.0,"20240610":0.0,"20240611":0.0,"20240612":0.0,"20240613":0.0,"20240614":0.0,"20240615":0.0,"20240616":0.0,"20240617":0.0,"20240618":0.0,"20240619":0.0,"20240620":0.0,"20240621":0.16,"20240622":0.01,"20240623":0.04,"20240624":0.02,"20240625":0.0,"20240626":0.0,"20240627":0.0,"20240628":0.0,"20240629":0.0,"20240630":0.0,"20240701":0.0,"20240702":0.0,"20240703":0.0,"20240704":0.0,"20240705":0.0,"20240706":0.0,"20240707":0.0,"20240708":0.0,"20240709":0.0,"20240710":0.0,"20240711":0.0,"20240712":0.0,"20240713":0.0,"20240714":0.0,"20240715":0.0,"20240716":0.0,"20240717":0.0,"20240718":0.0,"20240719":0.0,"20240720":0.0,"20240721":0.0,"20240722":0.0,"20240723":0.0,"20240724":0.0,"20240725":0.0,"20240726":0.0,"20240727":0.0,"20240728":0.0,"20240729":0.0,"20240730":0.0,"20240731":0.08,"20240801":0.5,"20240802":0.59,"20240803":0.0,"20240804":0.0,"20240805":0.0,"20240806":0.0,"20240807":0.0,"20240808":0.0,"20240809":0.0,"20240810":0.0,"20240811":0.0,"20240812":0.0,"20240813":0.0,"20240814":0.0,"20240815":0.0,"20240816":0.0,"20240817":0.0,"20240818":0.0,"20240819":0.0,"20240820":0.0,"20240821":0.0,"20240822":0.0,"20240823":0.0,"20240824":0.01,"20240825":0.0,"20240826":0.0,"20240827":0.0,"20240828":0.0,"20240829":0.06,"20240830":0.2,"20240831":0.0,"20240901":0.01,"20240902":0.0,"20240903":0.0,"20240904":0.0,"20240905":0.0,"20240906":0.0,"20240907":0.07,"20240908":0.0,"20240909":0.1,"20240910":0.01,"20240911":0.01,"20240912":0.0,"20240913":0.0,"20240914":0.0,"20240915":0.02,"20240916":5.72,"20240917":0.15,"20240918":0.0,"20240919":0.0,"20240920":2.18,"20240921":1.38,"20240922":0.05,"20240923":0.0,"20240924":0.0,"20240925":0.0,"20240926":0.0,"20240927":0.0,"20240928":0.04,"20240929":0.03,"20240930":0.0,"20241001":0.0,"20241002":0.0,"20241003":0.0,"20241004":0.0,"20241005":0.0,"20241006":0.0,"20241007":0.0,"20241008":0.04,"20241009":0.5,"20241010":0.0,"20241011":0.0,"20241012":0.0,"20241013":0.0,"20241014":0.11,"20241015":13.22,"20241016":0.15,"20241017":0.08,"20241018":0.03,"20241019":0.0,"20241020":11.29,"20241021":2.02,"20241022":0.32,"20241023":0.0,"20241024":0.36,"20241025":0.0,"20241026":0.21,"20241027":0.53,"20241028":0.0,"20241029":0.0,"20241030":0.01,"20241031":0.15,"20241101":0.08,"20241102":0.0,"20241103":0.0,"20241104":0.0,"20241105":0.71,"20241106":0.3,"20241107":1.18,"20241108":1.12,"20241109":2.28,"20241110":12.34,"20241111":1.01,"20241112":2.75,"20241113":1.21,"20241114":1.28,"20241115":2.25,"20241116":0.1,"20241117":0.77,"20241118":0.01,"20241119":3.02,"20241120":0.51,"20241121":0.03,"20241122":3.19,"20241123":0.02,"20241124":0.03,"20241125":0.03,"20241126":0.02,"20241127":2.03,"20241128":0.0,"20241129":0.1,"20241130":0.0,"20241201":0.0,"20241202":0.0,"20241203":0.0,"20241204":0.0,"20241205":0.07,"20241206":0.0,"20241207":0.23,"20241208":0.54,"20241209":0.01,"20241210":1.32,"20241211":1.5,"20241212":2.26,"20241213":0.0,"20241214":3.63,"20241215":2.29,"20241216":10.75,"20241217":1.6,"20241218":0.8,"20241219":15.78,"20241220":0.16,"20241221":12.95,"20241222":1.55,"20241223":9.69,"20241224":3.22,"20241225":0.2,"20241226":0.0,"20241227":1.47,"20241228":2.01,"20241229":0.3,"20241230":0.26,"20241231":9.51},"WS10M":{"20240101":4.35,"20240102":2.53,"20240103":2.6,"20240104":2.69,"20240105":2.69,"20240106":2.28,"20240107":1.59,"20240108":2.91,"20240109":2.42,"20240110":3.08,"20240111":2.51,"20240112":1.52,"20240113":1.83,"20240114":2.67,"20240115":2.51,"20240116":3.53,"20240117":1.55,"20240118":6.07,"20240119":4.89,"20240120":2.45,"20240121":2.29,"20240122":2.98,"20240123":3.14,"20240124":2.69,"20240125":3.12,"20240126":3.18,"20240127":3.11,"20240128":2.12,"20240129":1.14,"20240130":3.51,"20240131":3.29,"20240201":2.89,"20240202":1.87,"20240203":2.66,"20240204":2.45,"20240205":3.65,"20240206":3.12,"20240207":3.87,"20240208":3.49,"20240209":3.46,"20240210":3.05,"20240211":3.98,"20240212":2.71,"20240213":3.07,"20240214":2.86,"20240215":5.16,"20240216":5.36,"20240217":3.15,"20240218":3.46,"20240219":2.4,"20240220":2.85,"20240221":1.94,"20240222":2.39,"20240223":3.02,"20240224":2.62,"20240225":3.05,"20240226":3.8,"20240227":3.83,"20240228":3.04,"20240229":2.39,"20240301":2.48,"20240302":2.39,"20240303":3.02,"20240304":3.98,"20240305":4.98,"20240306":3.54,"20240307":4.4,"20240308":3.4,"20240309":2.67,"20240310":2.71,"20240311":3.52,"20240312":2.9,"20240313":3.7,"20240314":3.08,"20240315":4.65,"20240316":4.01,"20240317":4.11,"20240318":3.72,"20240319":3.71,"20240320":3.83,"20240321":2.59,"20240322":2.26,"20240323":3.27,"20240324":3.63,"20240325":3.09,"20240326":1.7,"20240327":2.09,"20240328":2.77,"20240329":2.39,"20240330":3.03,"20240331":2.34,"20240401":2.26,"20240402":1.65,"20240403":1.96,"20240404":2.77,"20240405":2.22,"20240406":3.19,"20240407":6.56,"20240408":8.29,"20240409":5.78,"20240410":4.69,"20240411":2.77,"20240412":3.04,"20240413":2.63,"20240414":2.35,"20240415":2.93,"20240416":3.64,"20240417":3.07,"20240418":2.44,"20240419":3.5,"20240420":4.01,"20240421":1.83,"20240422":3.5,"20240423":3.48,"20240424":3.47,"20240425":3.3,"20240426":2.39,"20240427":3.67,"20240428":1.43,"20240429":2.03,"20240430":3.91,"20240501":3.62,"20240502":3.53,"20240503":2.4,"20240504":2.18,"20240505":1.99,"20240506":2.25,"20240507":2.41,"20240508":2.17,"20240509":1.92,"20240510":2.63,"20240511":2.76,"20240512":2.41,"20240513":2.27,"20240514":1.34,"20240515":3.45,"20240516":3.32,"20240517":4.56,"20240518":3.53,"20240519":1.93,"20240520":2.44,"20240521":2.83,"20240522":2.18,"20240523":2.66,"20240524":2.69,"20240525":2.35,"20240526":3.51,"20240527":2.66,"20240528":1.94,"20240529":2.22,"20240530":3.44,"20240531":2.69,"20240601":3.35,"20240602":6.94,"20240603":6.85,"20240604":4.08,"20240605":3.52,"20240606":5.93,"20240607":6.51,"20240608":4.48,"20240609":2.12,"20240610":2.25,"20240611":2.93,"20240612":3.18,"20240613":3.79,"20240614":2.21,"20240615":2.28,"20240616":2.84,"20240617":3.21,"20240618":3.73,"20240619":3.97,"20240620":3.72,"20240621":3.05,"20240622":3.23,"20240623":3.21,"20240624":1.38,"20240625":3.45,"20240626":4.47,"20240627":3.73,"20240628":2.01,"20240629":2.55,"20240630":2.08,"20240701":2.5,"20240702":3.31,"20240703":4.36,"20240704":6.06,"20240705":6.02,"20240706":4.54,"20240707":5.46,"20240708":7.55,"20240709":4.82,"20240710":4.39,"20240711":4.31,"20240712":3.64,"20240713":3.62,"20240714":4.37,"20240715":4.02,"20240716":3.65,"20240717":2.9,"20240718":3.69,"20240719":3.5,"20240720":4.49,"20240721":3.24,"20240722":3.18,"20240723":3.61,"20240724":4.58,"20240725":3.17,"20240726":3.85,"20240727":4.21,"20240728":6.0,"20240729":4.12,"20240730":3.6,"20240731":4.58,"20240801":4.77,"20240802":4.68,"20240803":3.32,"20240804":5.95,"20240805":4.69,"20240806":2.97,"20240807":2.36,"20240808":4.17,"20240809":4.55,"20240810":4.07,"20240811":5.27,"20240812":5.0,"20240813":4.65,"20240814":6.77,"20240815":3.34,"20240816":2.14,"20240817":2.43,"20240818":2.24,"20240819":3.29,"20240820":2.63,"20240821":3.14,"20240822":3.93,"20240823":4.26,"20240824":4.03,"20240825":2.72,"20240826":4.21,"20240827":4.51,"20240828":5.73,"20240829":4.46,"20240830":4.53,"20240831":4.27,"20240901":2.92,"20240902":3.24,"20240903":2.19,"20240904":3.49,"20240905":4.1,"20240906":3.46,"20240907":4.98,"20240908":4.87,"20240909":5.96,"20240910":6.1,"20240911":5.69,"20240912":5.28,"20240913":4.3,"20240914":4.73,"20240915":5.31,"20240916":5.17,"20240917":7.63,"20240918":4.93,"20240919":4.27,"20240920":7.76,"20240921":6.54,"20240922":5.09,"20240923":3.74,"20240924":4.3,"20240925":3.61,"20240926":6.15,"20240927":4.9,"20240928":5.47,"20240929":6.18,"20240930":7.03,"20241001":4.5,"20241002":4.19,"20241003":3.98,"20241004":3.9,"20241005":3.15,"20241006":2.83,"20241007":3.32,"20241008":4.65,"20241009":2.92,"20241010":2.84,"20241011":3.11,"20241012":3.1,"20241013":2.7,"20241014":3.88,"20241015":5.11,"20241016":3.31,"20241017":3.41,"20241018":4.78,"20241019":4.64,"20241020":6.22,"20241021":8.39,"20241022":6.18,"20241023":3.17,"20241024":3.26,"20241025":3.15,"20241026":6.21,"20241027":8.99,"20241028":5.47,"20241029":5.08,"20241030":2.91,"20241031":4.74,"20241101":3.81,"20241102":3.6,"20241103":4.41,"20241104":5.44,"20241105":5.85,"20241106":5.62,"20241107":5.01,"20241108":3.96,"20241109":3.39,"20241110":3.28,"20241111":3.76,"20241112":3.04,"20241113":2.92,"20241114":3.78,"20241115":3.0,"20241116":2.77,"20241117":2.49,"20241118":2.3,"20241119":2.44,"20241120":2.94,"20241121":2.7,"20241122":3.62,"20241123":2.04,"20241124":4.01,"20241125":3.37,"20241126":4.39,"20241127":6.67,"20241128":5.39,"20241129":3.39,"20241130":2.57,"20241201":4.5,"20241202":4.34,"20241203":5.06,"20241204":4.11,"20241205":5.13,"20241206":4.29,"20241207":4.6,"20241208":4.69,"20241209":2.6,"20241210":2.3,"20241211":3.73,"20241212":4.03,"20241213":4.92,"20241214":6.39,"20241215":5.84,"20241216":3.65,"20241217":4.5,"20241218":3.75,"20241219":2.91,"20241220":3.3,"20241221":2.79,"20241222":3.84,"20241223":2.83,"20241224":2.4,"20241225":4.16,"20241226":2.35,"20241227":2.94,"20241228":2.24,"20241229":2.2,"20241230":3.18,"20241231":3.16},"RH2M":{"20240101":52.32,"20240102":59.4,"20240103":56.06,"20240104":48.75,"20240105":69.03,"20240106":53.1,"20240107":45.7,"20240108":54.92,"20240109":71.59,"20240110":74.79,"20240111":65.06,"20240112":59.37,"20240113":57.2,"20240114":61.13,"20240115":50.5,"20240116":57.24,"20240117":72.52,"20240118":58.62,"20240119":44.58,"20240120":46.58,"20240121":44.74,"20240122":46.45,"20240123":57.65,"20240124":56.25,"20240125":52.35,"20240126":54.02,"20240127":60.47,"20240128":56.94,"20240129":55.9,"20240130":48.11,"20240131":54.07,"20240201":53.29,"20240202":49.54,"20240203":57.13,"20240204":56.08,"20240205":43.98,"20240206":42.44,"20240207":34.12,"20240208":41.0,"20240209":67.74,"20240210":54.67,"20240211":65.21,"20240212":57.03,"20240213":40.1,"20240214":46.05,"20240215":46.4,"20240216":39.45,"20240217":33.52,"20240218":56.92,"20240219":63.13,"20240220":53.74,"20240221":37.65,"20240222":54.7,"20240223":58.93,"20240224":53.58,"20240225":50.36,"20240226":58.36,"20240227":63.76,"20240228":58.01,"20240229":53.21,"20240301":47.74,"20240302":43.3,"20240303":44.67,"20240304":56.65,"20240305":45.15,"20240306":35.63,"20240307":74.43,"20240308":49.21,"20240309":47.51,"20240310":53.31,"20240311":46.33,"20240312":45.93,"20240313":37.58,"20240314":36.07,"20240315":57.42,"20240316":43.94,"20240317":49.18,"20240318":57.67,"20240319":49.11,"20240320":45.09,"20240321":77.62,"20240322":80.07,"20240323":77.93,"20240324":67.29,"20240325":70.67,"20240326":67.08,"20240327":67.85,"20240328":68.29,"20240329":59.46,"20240330":76.44,"20240331":72.46,"20240401":74.52,"20240402":61.7,"20240403":61.52,"20240404":72.55,"20240405":76.67,"20240406":78.72,"20240407":79.53,"20240408":84.18,"20240409":72.82,"20240410":64.02,"20240411":64.06,"20240412":77.97,"20240413":70.07,"20240414":65.34,"20240415":74.77,"20240416":79.82,"20240417":74.27,"20240418":70.61,"20240419":58.68,"20240420":51.08,"20240421":39.3,"20240422":42.62,"20240423":46.88,"20240424":44.4,"20240425":48.16,"20240426":51.94,"20240427":70.89,"20240428":60.78,"20240429":53.59,"20240430":51.98,"20240501":47.98,"20240502":47.9,"20240503":54.15,"20240504":57.09,"20240505":41.05,"20240506":38.21,"20240507":35.95,"20240508":39.67,"20240509":43.82,"20240510":40.58,"20240511":43.16,"20240512":60.08,"20240513":69.54,"20240514":63.44,"20240515":54.46,"20240516":47.41,"20240517":43.42,"20240518":46.27,"20240519":43.62,"20240520":41.47,"20240521":41.38,"20240522":64.27,"20240523":62.49,"20240524":42.43,"20240525":50.57,"20240526":42.2,"20240527":41.02,"20240528":59.61,"20240529":48.0,"20240530":47.01,"20240531":40.95,"20240601":44.76,"20240602":57.31,"20240603":56.88,"20240604":54.1,"20240605":38.07,"20240606":34.25,"20240607":60.49,"20240608":64.44,"20240609":60.91,"20240610":54.55,"20240611":60.01,"20240612":49.41,"20240613":51.04,"20240614":50.21,"20240615":40.65,"20240616":44.34,"20240617":65.05,"20240618":57.53,"20240619":41.53,"20240620":46.05,"20240621":64.77,"20240622":49.81,"20240623":63.82,"20240624":61.39,"20240625":53.49,"20240626":71.41,"20240627":71.89,"20240628":62.48,"20240629":68.33,"20240630":57.09,"20240701":48.88,"20240702":51.97,"20240703":48.54,"20240704":42.37,"20240705":38.14,"20240706":33.1,"20240707":25.9,"20240708":51.77,"20240709":38.95,"20240710":25.88,"20240711":21.41,"20240712":16.91,"20240713":19.42,"20240714":32.46,"20240715":34.97,"20240716":32.54,"20240717":28.73,"20240718":25.16,"20240719":25.14,"20240720":30.79,"20240721":22.93,"20240722":27.9,"20240723":26.74,"20240724":20.21,"20240725":20.71,"20240726":43.18,"20240727":31.6,"20240728":31.36,"20240729":28.91,"20240730":22.25,"20240731":49.99,"20240801":69.42,"20240802":63.11,"20240803":40.03,"20240804":39.3,"20240805":42.49,"20240806":40.22,"20240807":33.89,"20240808":35.29,"20240809":28.41,"20240810":15.6,"20240811":16.0,"20240812":30.87,"20240813":45.21,"20240814":28.88,"20240815":21.64,"20240816":12.27,"20240817":16.26,"20240818":15.69,"20240819":20.32,"20240820":45.81,"20240821":22.88,"20240822":28.01,"20240823":55.28,"20240824":51.75,"20240825":31.91,"20240826":22.43,"20240827":16.55,"20240828":21.83,"20240829":34.53,"20240830":58.51,"20240831":59.32,"20240901":48.78,"20240902":34.02,"20240903":37.89,"20240904":38.85,"20240905":22.96,"20240906":22.72,"20240907":44.6,"20240908":31.44,"20240909":35.35,"20240910":64.37,"20240911":57.43,"20240912":44.95,"20240913":28.31,"20240914":25.73,"20240915":26.73,"20240916":49.98,"20240917":57.96,"20240918":41.37,"20240919":29.73,"20240920":61.02,"20240921":69.84,"20240922":62.45,"20240923":61.25,"20240924":54.76,"20240925":41.77,"20240926":26.52,"20240927":22.82,"20240928":40.06,"20240929":36.39,"20240930":25.51,"20241001":22.93,"20241002":42.76,"20241003":45.49,"20241004":36.39,"20241005":26.02,"20241006":26.26,"20241007":17.36,"20241008":41.49,"20241009":44.83,"20241010":33.11,"20241011":31.4,"20241012":22.94,"20241013":25.1,"20241014":31.4,"20241015":74.81,"20241016":62.24,"20241017":53.43,"20241018":38.81,"20241019":22.99,"20241020":53.29,"20241021":73.98,"20241022":55.36,"20241023":34.41,"20241024":48.66,"20241025":36.18,"20241026":50.62,"20241027":40.44,"20241028":26.32,"20241029":32.41,"20241030":33.29,"20241031":51.69,"20241101":46.38,"20241102":34.87,"20241103":30.04,"20241104":24.85,"20241105":27.94,"20241106":44.82,"20241107":56.84,"20241108":57.43,"20241109":67.04,"20241110":80.37,"20241111":79.16,"20241112":68.74,"20241113":53.01,"20241114":61.8,"20241115":61.52,"20241116":47.91,"20241117":49.58,"20241118":46.15,"20241119":39.83,"20241120":50.33,"20241121":43.12,"20241122":51.09,"20241123":43.82,"20241124":51.39,"20241125":49.59,"20241126":43.59,"20241127":39.93,"20241128":23.8,"20241129":33.74,"20241130":35.33,"20241201":32.45,"20241202":26.69,"20241203":26.27,"20241204":20.38,"20241205":25.48,"20241206":23.25,"20241207":36.99,"20241208":52.44,"20241209":43.39,"20241210":40.18,"20241211":48.48,"20241212":39.07,"20241213":26.71,"20241214":46.6,"20241215":57.27,"20241216":50.55,"20241217":65.12,"20241218":58.55,"20241219":68.18,"20241220":63.76,"20241221":83.72,"20241222":71.44,"20241223":74.72,"20241224":72.69,"20241225":69.4,"20241226":56.02,"20241227":64.6,"20241228":66.49,"20241229":61.98,"20241230":59.3,"20241231":72.21}}},"header":{"title":"NASA/POWER Source Native Resolution Daily Data","api":{"version":"v2.9.6","name":"POWER Daily API"},"sources":["MERRA2","POWER"],"fill_value":-999.0,"time_standard":"UTC","start":"20240101","end":"20241231"},"messages":[],"parameters":{"T2M":{"units":"C","longname":"Temperature at 2 Meters"},"T2M_MAX":{"units":"C","longname":"Temperature at 2 Meters Maximum"},"T2M_MIN":{"units":"C","longname":"Temperature at 2 Meters Minimum"},"PRECTOTCORR":{"units":"mm/day","longname":"Precipitation Corrected"},"WS10M":{"units":"m/s","longname":"Wind Speed at 10 Meters"},"RH2M":{"units":"%","longname":"Relative Humidity at 2 Meters"}},"times":{"data":0.783,"process":0.01}}