{"type":"Feature","geometry":{"type":"Point","coordinates":[39.186,21.49,123.46]},"properties":{"parameter":{"T2M":{"20240101":24.6,"20240102":24.54,"20240103":23.58,"20240104":24.77,"20240105":24.94,"20240106":25.07,"20240107":26.13,"20240108":26.39,"20240109":25.69,"20240110":25.89,"20240111":25.57,"20240112":24.4,"20240113":24.54,"20240114":25.25,"20240115":24.99,"20240116":24.39,"20240117":23.35,"20240118":22.61,"20240119":24.59,"20240120":26.08,"20240121":26.7,"20240122":26.45,"20240123":26.73,"20240124":25.96,"20240125":25.08,"20240126":22.12,"20240127":21.03,"20240128":21.82,"20240129":22.45,"20240130":21.9,"20240131":21.22,"20240201":20.24,"20240202":18.98,"20240203":20.38,"20240204":20.95,"20240205":21.47,"20240206":22.12,"20240207":24.06,"20240208":24.67,"20240209":25.24,"20240210":24.79,"20240211":22.97,"20240212":24.72,"20240213":25.29,"20240214":26.85,"20240215":25.97,"20240216":23.2,"20240217":21.22,"20240218":21.88,"20240219":22.39,"20240220":23.16,"20240221":25.29,"20240222":26.46,"20240223":28.02,"20240224":26.81,"20240225":25.83,"20240226":24.9,"20240227":24.72,"20240228":23.98,"20240229":25.48,"20240301":27.92,"20240302":27.52,"20240303":26.64,"20240304":25.63,"20240305":27.11,"20240306":26.01,"20240307":25.1,"20240308":24.37,"20240309":26.09,"20240310":27.24,"20240311":27.33,"20240312":29.33,"20240313":29.88,"20240314":30.85,"20240315":30.13,"20240316":30.98,"20240317":31.1,"20240318":30.35,"20240319":24.84,"20240320":25.0,"20240321":26.75,"20240322":26.75,"20240323":26.89,"20240324":25.39,"20240325":23.96,"20240326":24.25,"20240327":26.99,"20240328":29.3,"20240329":29.52,"20240330":29.38,"20240331":29.73,"20240401":30.61,"20240402":29.07,"20240403":28.31,"20240404":29.48,"20240405":30.32,"20240406":30.93,"20240407":30.36,"20240408":28.94,"20240409":28.87,"20240410":28.48,"20240411":27.57,"20240412":27.86,"20240413":27.43,"20240414":26.69,"20240415":26.63,"20240416":27.99,"20240417":29.18,"20240418":30.33,"20240419":31.27,"20240420":30.78,"20240421":29.37,"20240422":30.31,"20240423":32.26,"20240424":32.58,"20240425":32.89,"20240426":33.51,"20240427":32.52,"20240428":33.47,"20240429":32.72,"20240430":30.86,"20240501":29.44,"20240502":28.25,"20240503":28.65,"20240504":29.89,"20240505":30.0,"20240506":30.97,"20240507":30.21,"20240508":30.24,"20240509":32.15,"20240510":33.16,"20240511":34.26,"20240512":34.62,"20240513":32.33,"20240514":30.92,"20240515":30.14,"20240516":29.86,"20240517":32.32,"20240518":35.05,"20240519":35.52,"20240520":34.44,"20240521":34.25,"20240522":33.44,"20240523":33.99,"20240524":34.66,"20240525":33.18,"20240526":31.75,"20240527":32.46,"20240528":34.47,"20240529":34.76,"20240530":34.38,"20240531":33.09,"20240601":33.38,"20240602":34.37,"20240603":34.17,"20240604":36.57,"20240605":36.66,"20240606":37.64,"20240607":37.44,"20240608":35.97,"20240609":35.77,"20240610":34.85,"20240611":34.46,"20240612":34.82,"20240613":35.83,"20240614":34.7,"20240615":35.59,"20240616":35.98,"20240617":36.76,"20240618":37.12,"20240619":35.66,"20240620":36.0,"20240621":36.08,"20240622":34.86,"20240623":34.93,"20240624":33.94,"20240625":34.64,"20240626":34.34,"20240627":35.43,"20240628":36.04,"20240629":36.84,"20240630":36.16,"20240701":35.44,"20240702":35.7,"20240703":36.23,"20240704":36.22,"20240705":35.35,"20240706":35.72,"20240707":36.13,"20240708":35.83,"20240709":36.64,"20240710":36.98,"20240711":36.99,"20240712":36.46,"20240713":36.91,"20240714":35.83,"20240715":35.44,"20240716":34.88,"20240717":35.01,"20240718":34.87,"20240719":35.09,"20240720":35.86,"20240721":36.09,"20240722":35.7,"20240723":36.08,"20240724":36.57,"20240725":34.68,"20240726":34.71,"20240727":35.39,"20240728":35.66,"20240729":35.74,"20240730":35.3,"20240731":35.73,"20240801":34.86,"20240802":34.88,"20240803":34.46,"20240804":35.09,"20240805":35.42,"20240806":35.01,"20240807":33.96,"20240808":34.26,"20240809":33.57,"20240810":34.95,"20240811":36.43,"20240812":35.54,"20240813":35.46,"20240814":35.54,"20240815":35.6,"20240816":35.53,"20240817":35.92,"20240818":35.47,"20240819":35.3,"20240820":35.33,"20240821":35.88,"20240822":34.57,"20240823":34.16,"20240824":33.64,"20240825":31.63,"20240826":32.5,"20240827":33.25,"20240828":33.18,"20240829":32.96,"20240830":32.4,"20240831":33.21,"20240901":33.47,"20240902":32.39,"20240903":34.67,"20240904":34.56,"20240905":33.96,"20240906":33.19,"20240907":33.4,"20240908":33.86,"20240909":34.75,"20240910":34.1,"20240911":34.89,"20240912":36.94,"20240913":34.35,"20240914":33.54,"20240915":34.05,"20240916":33.99,"20240917":33.81,"20240918":34.15,"20240919":34.05,"20240920":34.13,"20240921":33.94,"20240922":33.08,"20240923":33.21,"20240924":32.94,"20240925":33.86,"20240926":36.01,"20240927":35.13,"20240928":35.48,"20240929":34.11,"20240930":33.43,"20241001":33.42,"20241002":33.29,"20241003":33.45,"20241004":33.03,"20241005":32.66,"20241006":32.48,"20241007":32.91,"20241008":32.71,"20241009":32.64,"20241010":32.11,"20241011":33.02,"20241012":33.22,"20241013":32.87,"20241014":32.88,"20241015":34.11,"20241016":34.33,"20241017":34.21,"20241018":32.6,"20241019":32.22,"20241020":32.66,"20241021":32.06,"20241022":32.34,"20241023":32.41,"20241024":32.42,"20241025":31.88,"20241026":30.04,"20241027":30.64,"20241028":31.06,"20241029":28.96,"20241030":29.87,"20241031":29.6,"20241101":29.61,"20241102":29.66,"20241103":29.53,"20241104":28.93,"20241105":28.82,"20241106":30.09,"20241107":30.45,"20241108":30.64,"20241109":30.49,"20241110":30.82,"20241111":29.91,"20241112":29.58,"20241113":29.88,"20241114":29.22,"20241115":29.3,"20241116":29.39,"20241117":29.5,"20241118":28.72,"20241119":28.27,"20241120":27.76,"20241121":27.63,"20241122":28.59,"20241123":29.07,"20241124":28.99,"20241125":27.85,"20241126":27.22,"20241127":26.44,"20241128":26.43,"20241129":26.38,"20241130":25.84,"20241201":25.22,"20241202":25.37,"20241203":26.22,"20241204":26.64,"20241205":26.23,"20241206":27.37,"20241207":27.43,"20241208":27.61,"20241209":26.05,"20241210":27.73,"20241211":27.15,"20241212":26.26,"20241213":26.83,"20241214":26.24,"20241215":27.3,"20241216":27.27,"20241217":27.48,"20241218":27.37,"20241219":27.08,"20241220":24.99,"20241221":22.53,"20241222":24.5,"20241223":24.84,"20241224":24.58,"20241225":24.85,"20241226":25.75,"20241227":26.37,"20241228":25.53,"20241229":24.78,"20241230":23.39,"20241231":21.76},"T2M_MAX":{"20240101":30.95,"20240102":29.86,"20240103":29.3,"20240104":29.88,"20240105":30.17,"20240106":30.74,"20240107":31.67,"20240108":32.63,"20240109":31.9,"20240110":31.13,"20240111":31.01,"20240112":29.73,"20240113":29.97,"20240114":30.27,"20240115":30.35,"20240116":30.79,"20240117":28.95,"20240118":28.45,"20240119":31.6,"20240120":31.83,"20240121":32.5,"20240122":31.77,"20240123":32.07,"20240124":31.69,"20240125":30.26,"20240126":25.86,"20240127":24.13,"20240128":27.34,"20240129":27.78,"20240130":27.56,"20240131":27.06,"20240201":25.03,"20240202":23.66,"20240203":26.85,"20240204":27.22,"20240205":27.28,"20240206":28.51,"20240207":30.59,"20240208":29.81,"20240209":30.04,"20240210":30.54,"20240211":29.58,"20240212":31.61,"20240213":30.04,"20240214":31.77,"20240215":30.44,"20240216":28.82,"20240217":27.39,"20240218":29.43,"20240219":29.21,"20240220":30.32,"20240221":31.65,"20240222":32.13,"20240223":34.26,"20240224":32.63,"20240225":32.54,"20240226":31.24,"20240227":31.81,"20240228":30.93,"20240229":33.5,"20240301":33.96,"20240302":32.3,"20240303":33.19,"20240304":32.45,"20240305":32.89,"20240306":32.27,"20240307":32.63,"20240308":31.64,"20240309":34.33,"20240310":33.91,"20240311":33.69,"20240312":36.06,"20240313":36.17,"20240314":37.29,"20240315":35.65,"20240316":35.27,"20240317":36.84,"20240318":34.36,"20240319":30.52,"20240320":32.43,"20240321":32.76,"20240322":33.37,"20240323":33.59,"20240324":31.14,"20240325":30.2,"20240326":31.11,"20240327":33.36,"20240328":35.13,"20240329":34.25,"20240330":34.71,"20240331":34.92,"20240401":35.57,"20240402":33.0,"20240403":33.49,"20240404":35.97,"20240405":36.57,"20240406":36.71,"20240407":35.28,"20240408":34.75,"20240409":35.52,"20240410":35.79,"20240411":34.91,"20240412":35.31,"20240413":34.31,"20240414":34.03,"20240415":33.5,"20240416":36.39,"20240417":36.19,"20240418":37.01,"20240419":38.67,"20240420":37.91,"20240421":36.8,"20240422":38.74,"20240423":41.06,"20240424":38.67,"20240425":38.65,"20240426":38.62,"20240427":37.59,"20240428":39.34,"20240429":37.82,"20240430":35.27,"20240501":35.28,"20240502":34.75,"20240503":35.02,"20240504":37.37,"20240505":36.4,"20240506":37.58,"20240507":37.56,"20240508":37.18,"20240509":38.14,"20240510":38.44,"20240511":40.45,"20240512":40.06,"20240513":38.57,"20240514":37.53,"20240515":37.24,"20240516":37.0,"20240517":39.72,"20240518":41.97,"20240519":41.47,"20240520":39.36,"20240521":41.29,"20240522":40.53,"20240523":40.53,"20240524":41.64,"20240525":40.09,"20240526":39.49,"20240527":39.9,"20240528":41.64,"20240529":42.31,"20240530":42.89,"20240531":41.68,"20240601":41.75,"20240602":41.65,"20240603":40.2,"20240604":43.43,"20240605":44.52,"20240606":44.93,"20240607":44.2,"20240608":42.37,"20240609":42.86,"20240610":41.87,"20240611":41.51,"20240612":42.36,"20240613":42.62,"20240614":40.97,"20240615":42.67,"20240616":42.24,"20240617":44.08,"20240618":45.47,"20240619":41.07,"20240620":41.58,"20240621":41.84,"20240622":41.08,"20240623":41.66,"20240624":40.57,"20240625":42.1,"20240626":40.98,"20240627":42.71,"20240628":42.56,"20240629":43.2,"20240630":42.23,"20240701":42.25,"20240702":41.82,"20240703":41.82,"20240704":42.42,"20240705":42.01,"20240706":41.87,"20240707":42.12,"20240708":41.76,"20240709":42.8,"20240710":43.05,"20240711":44.22,"20240712":43.75,"20240713":44.11,"20240714":43.46,"20240715":41.56,"20240716":41.07,"20240717":41.74,"20240718":41.13,"20240719":41.39,"20240720":42.38,"20240721":42.66,"20240722":42.42,"20240723":42.65,"20240724":42.16,"20240725":38.68,"20240726":39.79,"20240727":41.48,"20240728":41.14,"20240729":40.52,"20240730":40.27,"20240731":41.04,"20240801":39.19,"20240802":39.12,"20240803":39.07,"20240804":40.43,"20240805":40.4,"20240806":39.82,"20240807":37.97,"20240808":39.04,"20240809":38.31,"20240810":40.8,"20240811":42.52,"20240812":41.3,"20240813":41.04,"20240814":40.58,"20240815":41.17,"20240816":40.95,"20240817":41.58,"20240818":40.68,"20240819":41.47,"20240820":41.12,"20240821":42.13,"20240822":38.79,"20240823":40.75,"20240824":38.11,"20240825":33.59,"20240826":35.6,"20240827":38.08,"20240828":38.11,"20240829":38.08,"20240830":36.76,"20240831":38.45,"20240901":38.8,"20240902":36.23,"20240903":41.57,"20240904":40.57,"20240905":40.59,"20240906":38.74,"20240907":39.94,"20240908":41.02,"20240909":41.98,"20240910":41.33,"20240911":42.39,"20240912":46.25,"20240913":40.1,"20240914":38.28,"20240915":40.35,"20240916":40.78,"20240917":40.73,"20240918":40.2,"20240919":40.58,"20240920":40.85,"20240921":40.59,"20240922":38.04,"20240923":39.94,"20240924":40.05,"20240925":42.06,"20240926":44.63,"20240927":42.69,"20240928":42.41,"20240929":41.84,"20240930":40.28,"20241001":39.98,"20241002":41.06,"20241003":40.86,"20241004":40.03,"20241005":39.25,"20241006":38.32,"20241007":39.29,"20241008":39.5,"20241009":40.25,"20241010":37.09,"20241011":38.89,"20241012":39.77,"20241013":39.72,"20241014":39.49,"20241015":41.83,"20241016":42.44,"20241017":41.91,"20241018":40.08,"20241019":39.21,"20241020":40.45,"20241021":38.35,"20241022":38.49,"20241023":38.32,"20241024":38.24,"20241025":36.92,"20241026":33.33,"20241027":35.51,"20241028":36.63,"20241029":33.71,"20241030":34.27,"20241031":34.35,"20241101":34.15,"20241102":34.26,"20241103":34.03,"20241104":34.22,"20241105":34.33,"20241106":35.61,"20241107":35.69,"20241108":36.2,"20241109":35.8,"20241110":35.92,"20241111":34.79,"20241112":35.61,"20241113":36.78,"20241114":35.3,"20241115":34.42,"20241116":34.04,"20241117":34.48,"20241118":34.32,"20241119":34.4,"20241120":33.76,"20241121":33.63,"20241122":34.0,"20241123":33.88,"20241124":33.05,"20241125":31.71,"20241126":31.39,"20241127":31.17,"20241128":32.19,"20241129":31.63,"20241130":31.43,"20241201":30.67,"20241202":31.12,"20241203":31.55,"20241204":31.23,"20241205":31.55,"20241206":33.03,"20241207":32.74,"20241208":34.27,"20241209":30.58,"20241210":35.51,"20241211":33.87,"20241212":32.47,"20241213":32.29,"20241214":31.4,"20241215":33.82,"20241216":32.63,"20241217":32.63,"20241218":32.36,"20241219":30.76,"20241220":29.9,"20241221":28.22,"20241222":29.94,"20241223":29.19,"20241224":30.07,"20241225":30.54,"20241226":30.93,"20241227":30.78,"20241228":30.4,"20241229":30.13,"20241230":28.15,"20241231":27.38},"T2M_MIN":{"20240101":18.76,"20240102":20.26,"20240103":19.31,"20240104":20.03,"20240105":21.15,"20240106":20.46,"20240107":21.9,"20240108":21.76,"20240109":20.9,"20240110":21.19,"20240111":21.5,"20240112":20.43,"20240113":20.05,"20240114":21.25,"20240115":21.39,"20240116":20.34,"20240117":19.3,"20240118":18.01,"20240119":18.32,"20240120":20.9,"20240121":22.23,"20240122":22.25,"20240123":22.78,"20240124":21.85,"20240125":21.11,"20240126":18.24,"20240127":18.03,"20240128":17.75,"20240129":18.38,"20240130":17.61,"20240131":16.58,"20240201":16.51,"20240202":14.9,"20240203":15.46,"20240204":15.29,"20240205":16.38,"20240206":17.81,"20240207":17.17,"20240208":20.44,"20240209":21.43,"20240210":19.88,"20240211":17.93,"20240212":17.0,"20240213":21.7,"20240214":22.46,"20240215":22.36,"20240216":17.69,"20240217":16.15,"20240218":15.62,"20240219":16.75,"20240220":16.77,"20240221":18.52,"20240222":21.98,"20240223":23.02,"20240224":22.39,"20240225":20.52,"20240226":19.44,"20240227":18.65,"20240228":18.08,"20240229":17.86,"20240301":21.65,"20240302":24.22,"20240303":21.37,"20240304":20.44,"20240305":21.23,"20240306":20.14,"20240307":19.47,"20240308":18.39,"20240309":18.58,"20240310":22.2,"20240311":22.04,"20240312":23.89,"20240313":24.47,"20240314":25.64,"20240315":25.24,"20240316":26.12,"20240317":28.07,"20240318":24.35,"20240319":19.76,"20240320":18.45,"20240321":22.04,"20240322":21.7,"20240323":21.03,"20240324":19.76,"20240325":18.83,"20240326":17.53,"20240327":19.41,"20240328":24.48,"20240329":26.02,"20240330":25.3,"20240331":24.79,"20240401":26.24,"20240402":25.54,"20240403":24.18,"20240404":23.5,"20240405":24.28,"20240406":25.86,"20240407":26.63,"20240408":25.09,"20240409":23.72,"20240410":22.48,"20240411":21.45,"20240412":21.11,"20240413":21.85,"20240414":21.24,"20240415":20.85,"20240416":20.43,"20240417":22.46,"20240418":24.3,"20240419":24.99,"20240420":25.54,"20240421":23.09,"20240422":22.59,"20240423":24.69,"20240424":26.48,"20240425":28.63,"20240426":28.93,"20240427":28.27,"20240428":28.8,"20240429":28.7,"20240430":27.28,"20240501":23.26,"20240502":22.38,"20240503":22.75,"20240504":22.67,"20240505":24.21,"20240506":25.55,"20240507":24.29,"20240508":23.63,"20240509":25.95,"20240510":28.4,"20240511":28.77,"20240512":29.46,"20240513":27.55,"20240514":25.57,"20240515":24.66,"20240516":23.44,"20240517":24.04,"20240518":27.38,"20240519":30.11,"20240520":30.11,"20240521":27.69,"20240522":27.25,"20240523":27.29,"20240524":29.07,"20240525":26.78,"20240526":25.63,"20240527":24.98,"20240528":27.23,"20240529":28.25,"20240530":27.94,"20240531":27.09,"20240601":26.85,"20240602":28.07,"20240603":28.57,"20240604":31.13,"20240605":30.48,"20240606":31.69,"20240607":32.27,"20240608":31.61,"20240609":29.55,"20240610":29.16,"20240611":28.81,"20240612":28.29,"20240613":29.62,"20240614":29.44,"20240615":29.76,"20240616":30.93,"20240617":31.09,"20240618":31.2,"20240619":31.44,"20240620":31.94,"20240621":30.78,"20240622":29.96,"20240623":29.07,"20240624":28.4,"20240625":28.66,"20240626":28.6,"20240627":28.42,"20240628":29.89,"20240629":31.51,"20240630":29.13,"20240701":29.02,"20240702":29.18,"20240703":29.85,"20240704":29.79,"20240705":29.81,"20240706":30.27,"20240707":30.28,"20240708":30.75,"20240709":30.52,"20240710":30.79,"20240711":31.06,"20240712":31.39,"20240713":30.68,"20240714":30.13,"20240715":30.22,"20240716":28.96,"20240717":28.69,"20240718":29.09,"20240719":30.48,"20240720":29.59,"20240721":30.86,"20240722":30.16,"20240723":29.86,"20240724":30.5,"20240725":30.71,"20240726":30.22,"20240727":30.03,"20240728":30.68,"20240729":30.96,"20240730":30.7,"20240731":31.24,"20240801":31.43,"20240802":31.53,"20240803":30.83,"20240804":30.79,"20240805":31.32,"20240806":31.37,"20240807":31.08,"20240808":30.4,"20240809":30.3,"20240810":29.58,"20240811":31.4,"20240812":31.24,"20240813":30.74,"20240814":31.02,"20240815":30.88,"20240816":30.53,"20240817":30.27,"20240818":31.13,"20240819":30.33,"20240820":30.35,"20240821":30.83,"20240822":30.85,"20240823":30.02,"20240824":30.39,"20240825":29.92,"20240826":29.9,"20240827":30.08,"20240828":29.38,"20240829":29.03,"20240830":29.07,"20240831":29.33,"20240901":29.41,"20240902":29.47,"20240903":29.03,"20240904":29.88,"20240905":29.23,"20240906":29.32,"20240907":28.11,"20240908":27.77,"20240909":28.87,"20240910":29.14,"20240911":29.82,"20240912":29.67,"20240913":30.32,"20240914":29.36,"20240915":29.33,"20240916":29.24,"20240917":29.07,"20240918":29.21,"20240919":29.29,"20240920":29.14,"20240921":28.83,"20240922":29.42,"20240923":28.56,"20240924":27.88,"20240925":28.07,"20240926":28.91,"20240927":29.45,"20240928":30.68,"20240929":28.88,"20240930":28.24,"20241001":28.19,"20241002":28.11,"20241003":28.06,"20241004":27.91,"20241005":27.88,"20241006":27.38,"20241007":28.2,"20241008":27.46,"20241009":27.87,"20241010":28.95,"20241011":28.92,"20241012":28.67,"20241013":28.53,"20241014":27.71,"20241015":27.26,"20241016":28.37,"20241017":29.03,"20241018":27.31,"20241019":26.91,"20241020":27.34,"20241021":27.42,"20241022":27.49,"20241023":28.14,"20241024":28.79,"20241025":28.58,"20241026":27.54,"20241027":27.2,"20241028":27.31,"20241029":25.95,"20241030":26.63,"20241031":26.19,"20241101":25.74,"20241102":26.13,"20241103":26.24,"20241104":25.39,"20241105":24.74,"20241106":25.63,"20241107":26.67,"20241108":26.39,"20241109":26.6,"20241110":26.64,"20241111":25.9,"20241112":25.68,"20241113":25.29,"20241114":25.47,"20241115":25.12,"20241116":25.8,"20241117":25.82,"20241118":24.52,"20241119":23.4,"20241120":23.6,"20241121":23.18,"20241122":23.82,"20241123":25.63,"20241124":26.48,"20241125":25.41,"20241126":24.67,"20241127":23.09,"20241128":22.19,"20241129":22.7,"20241130":21.63,"20241201":21.33,"20241202":20.56,"20241203":21.54,"20241204":23.28,"20241205":22.28,"20241206":22.92,"20241207":23.65,"20241208":23.75,"20241209":22.39,"20241210":22.56,"20241211":22.19,"20241212":21.44,"20241213":22.28,"20241214":22.16,"20241215":22.39,"20241216":22.32,"20241217":23.79,"20241218":23.64,"20241219":23.77,"20241220":20.58,"20241221":18.67,"20241222":18.74,"20241223":21.57,"20241224":20.6,"20241225":20.74,"20241226":21.29,"20241227":22.82,"20241228":22.2,"20241229":21.18,"20241230":19.69,"20241231":18.26},"PRECTOTCORR":{"20240101":0.0,"20240102":0.0,"20240103":0.0,"20240104":0.0,"20240105":0.01,"20240106":0.25,"20240107":0.0,"20240108":0.0,"20240109":0.01,"20240110":0.01,"20240111":0.0,"20240112":0.0,"20240113":0.0,"20240114":0.0,"20240115":0.0,"20240116":0.0,"20240117":0.0,"20240118":0.0,"20240119":0.0,"20240120":0.0,"20240121":0.0,"20240122":0.0,"20240123":0.0,"20240124":0.0,"20240125":0.0,"20240126":0.0,"20240127":0.0,"20240128":0.0,"20240129":0.0,"20240130":0.0,"20240131":0.0,"20240201":0.0,"20240202":0.0,"20240203":0.0,"20240204":0.0,"20240205":0.0,"20240206":0.0,"20240207":0.0,"20240208":0.0,"20240209":0.42,"20240210":0.8,"20240211":0.0,"20240212":0.0,"20240213":0.0,"20240214":0.12,"20240215":0.0,"20240216":0.0,"20240217":0.0,"20240218":0.0,"20240219":0.0,"20240220":0.0,"20240221":0.0,"20240222":0.0,"20240223":0.0,"20240224":0.0,"20240225":0.0,"20240226":0.0,"20240227":0.0,"20240228":0.0,"20240229":0.0,"20240301":0.0,"20240302":0.0,"20240303":0.0,"20240304":0.0,"20240305":0.0,"20240306":0.0,"20240307":0.0,"20240308":0.0,"20240309":0.0,"20240310":0.0,"20240311":0.0,"20240312":0.0,"20240313":0.0,"20240314":0.0,"20240315":0.0,"20240316":0.0,"20240317":0.01,"20240318":1.69,"20240319":0.2,"20240320":0.0,"20240321":0.0,"20240322":0.0,"20240323":0.0,"20240324":0.0,"20240325":0.0,"20240326":0.0,"20240327":0.0,"20240328":0.5,"20240329":1.68,"20240330":0.36,"20240331":0.84,"20240401":2.74,"20240402":7.25,"20240403":2.57,"20240404":0.67,"20240405":0.99,"20240406":0.19,"20240407":0.01,"20240408":0.0,"20240409":0.0,"20240410":0.0,"20240411":0.0,"20240412":0.0,"20240413":0.0,"20240414":0.0,"20240415":0.0,"20240416":0.0,"20240417":0.0,"20240418":0.0,"20240419":0.0,"20240420":0.0,"20240421":0.0,"20240422":0.0,"20240423":0.04,"20240424":0.22,"20240425":0.37,"20240426":0.67,"20240427":1.38,"20240428":0.7,"20240429":5.51,"20240430":5.95,"20240501":0.03,"20240502":0.0,"20240503":0.0,"20240504":0.0,"20240505":0.0,"20240506":0.0,"20240507":0.0,"20240508":0.0,"20240509":0.0,"20240510":0.2,"20240511":3.39,"20240512":2.08,"20240513":0.25,"20240514":0.0,"20240515":0.0,"20240516":0.0,"20240517":0.0,"20240518":0.0,"20240519":0.01,"20240520":0.1,"20240521":0.0,"20240522":0.0,"20240523":0.0,"20240524":0.0,"20240525":0.01,"20240526":0.0,"20240527":0.0,"20240528":0.0,"20240529":0.0,"20240530":0.0,"20240531":0.0,"20240601":0.0,"20240602":0.0,"20240603":0.02,"20240604":0.0,"20240605":0.0,"20240606":0.0,"20240607":0.0,"20240608":0.0,"20240609":0.0,"20240610":0.03,"20240611":0.02,"20240612":0.01,"20240613":1.36,"20240614":2.25,"20240615":0.0,"20240616":0.0,"20240617":0.0,"20240618":0.0,"20240619":0.0,"20240620":0.01,"20240621":0.03,"20240622":0.02,"20240623":0.0,"20240624":0.02,"20240625":0.03,"20240626":0.0,"20240627":0.0,"20240628":0.0,"20240629":0.0,"20240630":0.0,"20240701":0.0,"20240702":0.0,"20240703":0.0,"20240704":0.0,"20240705":0.0,"20240706":0.0,"20240707":0.0,"20240708":0.0,"20240709":0.0,"20240710":0.0,"20240711":0.0,"20240712":0.0,"20240713":0.0,"20240714":0.0,"20240715":0.0,"20240716":0.0,"20240717":0.0,"20240718":0.0,"20240719":0.0,"20240720":0.0,"20240721":0.0,"20240722":0.01,"20240723":0.03,"20240724":0.0,"20240725":0.0,"20240726":0.0,"20240727":0.0,"20240728":0.0,"20240729":0.0,"20240730":0.0,"20240731":0.03,"20240801":0.05,"20240802":0.04,"20240803":0.0,"20240804":0.05,"20240805":0.04,"20240806":0.3,"20240807":2.11,"20240808":3.45,"20240809":2.73,"20240810":0.08,"20240811":0.1,"20240812":0.14,"20240813":0.05,"20240814":0.01,"20240815":0.12,"20240816":0.48,"20240817":0.07,"20240818":0.03,"20240819":0.01,"20240820":0.01,"20240821":0.17,"20240822":1.13,"20240823":4.14,"20240824":0.33,"20240825":0.37,"20240826":0.28,"20240827":0.76,"20240828":2.45,"20240829":9.35,"20240830":1.87,"20240831":0.8,"20240901":9.25,"20240902":0.58,"20240903":0.46,"20240904":0.36,"20240905":0.02,"20240906":0.01,"20240907":0.0,"20240908":0.0,"20240909":0.0,"20240910":0.0,"20240911":0.0,"20240912":0.0,"20240913":0.0,"20240914":0.0,"20240915":0.0,"20240916":0.0,"20240917":0.0,"20240918":0.0,"20240919":0.0,"20240920":0.0,"20240921":0.0,"20240922":0.0,"20240923":0.02,"20240924":0.0,"20240925":0.0,"20240926":0.0,"20240927":0.0,"20240928":0.02,"20240929":0.01,"20240930":0.11,"20241001":0.17,"20241002":0.0,"20241003":0.0,"20241004":0.0,"20241005":0.0,"20241006":0.0,"20241007":0.0,"20241008":0.0,"20241009":0.0,"20241010":0.0,"20241011":0.0,"20241012":2.32,"20241013":1.51,"20241014":0.11,"20241015":0.07,"20241016":0.05,"20241017":0.06,"20241018":0.0,"20241019":0.0,"20241020":0.0,"20241021":0.0,"20241022":0.4,"20241023":1.07,"20241024":3.86,"20241025":2.27,"20241026":7.74,"20241027":2.09,"20241028":2.43,"20241029":4.06,"20241030":0.24,"20241031":0.47,"20241101":0.84,"20241102":0.05,"20241103":0.02,"20241104":0.0,"20241105":0.0,"20241106":0.0,"20241107":0.0,"20241108":0.0,"20241109":0.0,"20241110":0.0,"20241111":0.0,"20241112":0.0,"20241113":0.0,"20241114":0.0,"20241115":0.0,"20241116":0.0,"20241117":0.0,"20241118":0.0,"20241119":0.0,"20241120":0.0,"20241121":0.0,"20241122":0.12,"20241123":0.73,"20241124":0.88,"20241125":2.33,"20241126":0.2,"20241127":0.0,"20241128":0.0,"20241129":0.0,"20241130":0.0,"20241201":0.0,"20241202":0.0,"20241203":0.0,"20241204":0.0,"20241205":0.0,"20241206":0.0,"20241207":0.0,"20241208":0.0,"20241209":0.0,"20241210":0.0,"20241211":0.0,"20241212":0.0,"20241213":0.0,"20241214":0.0,"20241215":0.0,"20241216":0.0,"20241217":0.01,"20241218":0.0,"20241219":0.02,"20241220":1.4,"20241221":0.0,"20241222":0.0,"20241223":0.0,"20241224":0.0,"20241225":0.0,"20241226":0.0,"20241227":0.0,"20241228":0.0,"20241229":0.0,"20241230":0.0,"20241231":0.0},"WS10M":{"20240101":2.92,"20240102":3.24,"20240103":3.5,"20240104":2.54,"20240105":3.64,"20240106":3.24,"20240107":2.86,"20240108":3.54,"20240109":3.03,"20240110":3.21,"20240111":3.5,"20240112":4.27,"20240113":2.77,"20240114":2.82,"20240115":5.08,"20240116":6.03,"20240117":5.13,"20240118":4.22,"20240119":3.62,"20240120":2.99,"20240121":2.83,"20240122":3.42,"20240123":3.66,"20240124":4.67,"20240125":4.4,"20240126":5.75,"20240127":4.51,"20240128":5.06,"20240129":4.66,"20240130":5.15,"20240131":5.49,"20240201":6.32,"20240202":6.26,"20240203":5.28,"20240204":4.77,"20240205":4.95,"20240206":4.89,"20240207":3.1,"20240208":2.91,"20240209":2.91,"20240210":3.69,"20240211":4.95,"20240212":3.62,"20240213":4.93,"20240214":4.9,"20240215":4.21,"20240216":5.79,"20240217":6.27,"20240218":5.62,"20240219":5.7,"20240220":4.77,"20240221":4.03,"20240222":3.58,"20240223":3.2,"20240224":3.27,"20240225":4.82,"20240226":4.01,"20240227":3.55,"20240228":4.72,"20240229":3.9,"20240301":3.96,"20240302":3.31,"20240303":3.52,"20240304":4.18,"20240305":3.2,"20240306":3.64,"20240307":4.8,"20240308":5.03,"20240309":4.43,"20240310":4.19,"20240311":3.64,"20240312":3.14,"20240313":4.07,"20240314":6.49,"20240315":3.83,"20240316":2.95,"20240317":3.97,"20240318":6.41,"20240319":7.36,"20240320":6.05,"20240321":4.54,"20240322":3.76,"20240323":3.28,"20240324":4.25,"20240325":5.46,"20240326":4.68,"20240327":3.99,"20240328":4.44,"20240329":3.93,"20240330":3.25,"20240331":2.56,"20240401":3.31,"20240402":3.95,"20240403":3.29,"20240404":3.04,"20240405":3.08,"20240406":3.03,"20240407":3.74,"20240408":5.06,"20240409":5.17,"20240410":5.11,"20240411":5.5,"20240412":4.45,"20240413":4.5,"20240414":3.94,"20240415":4.41,"20240416":4.54,"20240417":4.68,"20240418":3.65,"20240419":3.51,"20240420":3.32,"20240421":4.29,"20240422":3.29,"20240423":4.66,"20240424":3.99,"20240425":3.48,"20240426":4.36,"20240427":5.54,"20240428":3.38,"20240429":3.83,"20240430":3.37,"20240501":3.32,"20240502":3.43,"20240503":3.97,"20240504":3.26,"20240505":3.32,"20240506":3.62,"20240507":5.99,"20240508":5.14,"20240509":3.68,"20240510":3.41,"20240511":4.12,"20240512":3.26,"20240513":5.17,"20240514":6.46,"20240515":6.16,"20240516":5.57,"20240517":4.06,"20240518":2.84,"20240519":2.72,"20240520":3.36,"20240521":2.63,"20240522":3.5,"20240523":3.08,"20240524":2.85,"20240525":5.99,"20240526":6.06,"20240527":4.29,"20240528":4.4,"20240529":6.23,"20240530":7.95,"20240531":8.62,"20240601":6.4,"20240602":3.69,"20240603":3.4,"20240604":3.55,"20240605":4.23,"20240606":3.21,"20240607":2.82,"20240608":2.91,"20240609":3.43,"20240610":5.95,"20240611":6.03,"20240612":5.43,"20240613":3.31,"20240614":2.94,"20240615":2.93,"20240616":3.01,"20240617":3.48,"20240618":3.25,"20240619":3.47,"20240620":3.3,"20240621":3.29,"20240622":4.99,"20240623":5.7,"20240624":5.56,"20240625":5.55,"20240626":4.17,"20240627":4.76,"20240628":3.42,"20240629":2.48,"20240630":2.96,"20240701":4.21,"20240702":4.19,"20240703":4.02,"20240704":4.29,"20240705":4.23,"20240706":3.24,"20240707":2.96,"20240708":3.09,"20240709":4.21,"20240710":4.89,"20240711":6.28,"20240712":6.13,"20240713":4.3,"20240714":5.19,"20240715":4.06,"20240716":4.08,"20240717":4.76,"20240718":3.93,"20240719":4.37,"20240720":4.54,"20240721":4.2,"20240722":4.05,"20240723":3.46,"20240724":3.41,"20240725":5.14,"20240726":5.39,"20240727":4.59,"20240728":4.13,"20240729":4.12,"20240730":5.04,"20240731":5.26,"20240801":5.44,"20240802":4.72,"20240803":3.76,"20240804":3.65,"20240805":4.64,"20240806":4.09,"20240807":3.45,"20240808":3.52,"20240809":3.32,"20240810":4.8,"20240811":2.62,"20240812":3.14,"20240813":3.83,"20240814":3.73,"20240815":4.51,"20240816":3.63,"20240817":3.2,"20240818":3.9,"20240819":4.15,"20240820":5.62,"20240821":4.0,"20240822":4.75,"20240823":4.43,"20240824":3.24,"20240825":5.0,"20240826":3.67,"20240827":3.59,"20240828":4.06,"20240829":4.18,"20240830":4.18,"20240831":4.23,"20240901":3.95,"20240902":2.94,"20240903":4.67,"20240904":4.45,"20240905":4.19,"20240906":3.81,"20240907":5.68,"20240908":5.19,"20240909":5.7,"20240910":5.57,"20240911":5.39,"20240912":4.8,"20240913":4.7,"20240914":4.2,"20240915":3.41,"20240916":5.0,"20240917":5.67,"20240918":3.19,"20240919":4.23,"20240920":4.09,"20240921":2.51,"20240922":2.94,"20240923":6.09,"20240924":5.93,"20240925":5.45,"20240926":3.99,"20240927":3.49,"20240928":2.83,"20240929":3.94,"20240930":3.48,"20241001":4.16,"20241002":4.27,"20241003":4.46,"20241004":4.29,"20241005":4.05,"20241006":3.32,"20241007":3.68,"20241008":3.81,"20241009":3.78,"20241010":2.68,"20241011":2.78,"20241012":2.72,"20241013":3.3,"20241014":3.88,"20241015":5.75,"20241016":4.86,"20241017":6.29,"20241018":5.35,"20241019":4.79,"20241020":4.78,"20241021":3.64,"20241022":3.29,"20241023":3.25,"20241024":3.1,"20241025":3.39,"20241026":2.49,"20241027":3.03,"20241028":3.13,"20241029":2.69,"20241030":4.27,"20241031":4.58,"20241101":4.86,"20241102":3.15,"20241103":3.6,"20241104":5.05,"20241105":4.51,"20241106":3.33,"20241107":3.6,"20241108":3.17,"20241109":2.92,"20241110":2.96,"20241111":4.1,"20241112":2.86,"20241113":3.78,"20241114":2.5,"20241115":3.04,"20241116":2.86,"20241117":3.04,"20241118":3.09,"20241119":4.5,"20241120":5.22,"20241121":4.29,"20241122":3.8,"20241123":3.43,"20241124":2.6,"20241125":3.06,"20241126":4.02,"20241127":6.4,"20241128":5.33,"20241129":4.72,"20241130":4.28,"20241201":4.23,"20241202":3.24,"20241203":2.85,"20241204":4.25,"20241205":4.43,"20241206":3.1,"20241207":2.45,"20241208":3.04,"20241209":2.62,"20241210":4.25,"20241211":3.88,"20241212":2.95,"20241213":3.36,"20241214":3.97,"20241215":4.71,"20241216":3.17,"20241217":2.45,"20241218":2.28,"20241219":3.78,"20241220":6.09,"20241221":4.33,"20241222":3.06,"20241223":2.69,"20241224":3.82,"20241225":3.16,"20241226":2.53,"20241227":3.38,"20241228":4.01,"20241229":4.28,"20241230":5.24,"20241231":6.03},"RH2M":{"20240101":56.11,"20240102":64.36,"20240103":62.16,"20240104":64.43,"20240105":64.89,"20240106":64.63,"20240107":58.64,"20240108":47.42,"20240109":41.24,"20240110":58.28,"20240111":66.95,"20240112":59.28,"20240113":60.9,"20240114":68.96,"20240115":59.43,"20240116":51.75,"20240117":57.05,"20240118":55.99,"20240119":43.99,"20240120":54.42,"20240121":58.36,"20240122":66.82,"20240123":68.42,"20240124":63.84,"20240125":59.29,"20240126":55.01,"20240127":57.84,"20240128":51.91,"20240129":55.28,"20240130":54.36,"20240131":53.76,"20240201":56.72,"20240202":43.46,"20240203":38.24,"20240204":45.48,"20240205":45.21,"20240206":40.24,"20240207":41.91,"20240208":58.16,"20240209":69.14,"20240210":65.26,"20240211":45.19,"20240212":32.55,"20240213":66.87,"20240214":72.64,"20240215":70.26,"20240216":54.49,"20240217":43.3,"20240218":42.54,"20240219":50.26,"20240220":46.23,"20240221":45.3,"20240222":56.63,"20240223":58.28,"20240224":59.56,"20240225":51.79,"20240226":52.98,"20240227":47.63,"20240228":42.92,"20240229":33.15,"20240301":40.8,"20240302":65.08,"20240303":64.28,"20240304":49.08,"20240305":46.73,"20240306":57.44,"20240307":50.12,"20240308":47.71,"20240309":30.3,"20240310":34.82,"20240311":62.84,"20240312":57.72,"20240313":56.42,"20240314":44.61,"20240315":52.67,"20240316":42.95,"20240317":44.64,"20240318":45.05,"20240319":52.33,"20240320":38.54,"20240321":48.11,"20240322":51.71,"20240323":45.9,"20240324":37.8,"20240325":38.02,"20240326":47.01,"20240327":38.49,"20240328":51.97,"20240329":58.99,"20240330":57.36,"20240331":55.56,"20240401":53.11,"20240402":66.83,"20240403":62.52,"20240404":45.83,"20240405":44.08,"20240406":51.74,"20240407":50.26,"20240408":43.3,"20240409":33.24,"20240410":40.13,"20240411":38.53,"20240412":42.1,"20240413":48.53,"20240414":52.27,"20240415":50.79,"20240416":46.71,"20240417":34.21,"20240418":36.44,"20240419":35.1,"20240420":34.91,"20240421":43.36,"20240422":36.25,"20240423":32.52,"20240424":34.66,"20240425":41.19,"20240426":39.76,"20240427":47.9,"20240428":42.94,"20240429":49.8,"20240430":60.71,"20240501":58.67,"20240502":48.14,"20240503":45.66,"20240504":46.13,"20240505":40.19,"20240506":36.11,"20240507":34.65,"20240508":38.14,"20240509":39.0,"20240510":46.37,"20240511":48.37,"20240512":45.89,"20240513":49.71,"20240514":44.0,"20240515":42.93,"20240516":46.93,"20240517":38.97,"20240518":31.92,"20240519":36.13,"20240520":37.71,"20240521":36.3,"20240522":34.75,"20240523":33.51,"20240524":36.25,"20240525":44.42,"20240526":43.39,"20240527":36.29,"20240528":29.41,"20240529":37.19,"20240530":39.22,"20240531":45.39,"20240601":43.72,"20240602":43.07,"20240603":42.36,"20240604":28.67,"20240605":29.0,"20240606":23.04,"20240607":24.85,"20240608":31.97,"20240609":35.59,"20240610":40.62,"20240611":37.68,"20240612":35.0,"20240613":34.54,"20240614":42.55,"20240615":36.66,"20240616":30.87,"20240617":36.55,"20240618":35.41,"20240619":41.51,"20240620":37.43,"20240621":41.23,"20240622":48.94,"20240623":44.38,"20240624":47.92,"20240625":44.36,"20240626":41.73,"20240627":36.61,"20240628":30.47,"20240629":26.27,"20240630":34.24,"20240701":36.75,"20240702":31.29,"20240703":27.67,"20240704":25.72,"20240705":28.72,"20240706":31.2,"20240707":32.91,"20240708":43.15,"20240709":34.93,"20240710":27.55,"20240711":31.52,"20240712":39.47,"20240713":42.81,"20240714":46.12,"20240715":42.77,"20240716":41.68,"20240717":44.52,"20240718":47.72,"20240719":49.52,"20240720":41.31,"20240721":37.91,"20240722":40.65,"20240723":36.36,"20240724":35.21,"20240725":52.33,"20240726":54.53,"20240727":53.39,"20240728":49.35,"20240729":51.48,"20240730":53.94,"20240731":52.58,"20240801":56.04,"20240802":52.83,"20240803":55.99,"20240804":53.19,"20240805":53.47,"20240806":55.4,"20240807":56.31,"20240808":55.56,"20240809":60.33,"20240810":55.96,"20240811":52.93,"20240812":56.4,"20240813":55.91,"20240814":56.68,"20240815":50.92,"20240816":46.17,"20240817":43.63,"20240818":47.25,"20240819":48.75,"20240820":53.42,"20240821":48.56,"20240822":52.56,"20240823":57.4,"20240824":57.48,"20240825":66.96,"20240826":66.67,"20240827":63.67,"20240828":59.23,"20240829":60.52,"20240830":62.64,"20240831":59.08,"20240901":60.31,"20240902":67.66,"20240903":54.3,"20240904":55.65,"20240905":52.27,"20240906":55.21,"20240907":50.44,"20240908":47.41,"20240909":43.38,"20240910":49.95,"20240911":50.23,"20240912":44.14,"20240913":53.47,"20240914":57.83,"20240915":56.49,"20240916":55.1,"20240917":57.38,"20240918":53.97,"20240919":51.93,"20240920":49.55,"20240921":49.05,"20240922":52.69,"20240923":53.7,"20240924":54.27,"20240925":49.47,"20240926":32.96,"20240927":32.88,"20240928":39.82,"20240929":50.27,"20240930":50.99,"20241001":43.62,"20241002":39.38,"20241003":41.35,"20241004":46.65,"20241005":47.65,"20241006":47.76,"20241007":44.65,"20241008":48.33,"20241009":52.7,"20241010":53.42,"20241011":43.52,"20241012":44.22,"20241013":48.24,"20241014":43.08,"20241015":32.22,"20241016":33.1,"20241017":35.6,"20241018":39.65,"20241019":38.97,"20241020":42.72,"20241021":56.17,"20241022":48.92,"20241023":48.93,"20241024":48.51,"20241025":54.79,"20241026":72.01,"20241027":66.51,"20241028":61.66,"20241029":66.4,"20241030":65.93,"20241031":66.41,"20241101":65.15,"20241102":64.31,"20241103":66.08,"20241104":55.21,"20241105":51.92,"20241106":53.75,"20241107":56.51,"20241108":51.68,"20241109":54.74,"20241110":47.7,"20241111":50.63,"20241112":55.02,"20241113":52.98,"20241114":48.75,"20241115":55.17,"20241116":64.29,"20241117":61.49,"20241118":60.5,"20241119":55.37,"20241120":55.55,"20241121":54.43,"20241122":54.07,"20241123":56.92,"20241124":60.12,"20241125":62.85,"20241126":62.55,"20241127":56.76,"20241128":52.76,"20241129":58.66,"20241130":57.77,"20241201":56.96,"20241202":54.99,"20241203":56.86,"20241204":57.09,"20241205":55.64,"20241206":58.4,"20241207":61.89,"20241208":56.47,"20241209":50.86,"20241210":32.33,"20241211":33.9,"20241212":45.45,"20241213":57.22,"20241214":54.44,"20241215":38.0,"20241216":40.12,"20241217":48.45,"20241218":57.8,"20241219":65.88,"20241220":63.55,"20241221":48.51,"20241222":44.08,"20241223":57.81,"20241224":53.4,"20241225":50.78,"20241226":53.46,"20241227":60.72,"20241228":58.77,"20241229":52.58,"20241230":51.57,"20241231":44.84}}},"header":{"title":"NASA/POWER Source Native Resolution Daily Data","api":{"version":"v2.9.6","name":"POWER Daily API"},"sources":["MERRA2","POWER"],"fill_value":-999.0,"time_standard":"UTC","start":"20240101","end":"20241231"},"messages":[],"parameters":{"T2M":{"units":"C","longname":"Temperature at 2 Meters"},"T2M_MAX":{"units":"C","longname":"Temperature at 2 Meters Maximum"},"T2M_MIN":{"units":"C","longname":"Temperature at 2 Meters Minimum"},"PRECTOTCORR":{"units":"mm/day","longname":"Precipitation Corrected"},"WS10M":{"units":"m/s","longname":"Wind Speed at 10 Meters"},"RH2M":{"units":"%","longname":"Relative Humidity at 2 Meters"}},"times":{"data":0.818,"process":0.01}}