{"type":"Feature","geometry":{"type":"Point","coordinates":[-97.743,30.267,184.44]},"properties":{"parameter":{"T2M":{"20250401":21.39,"20250402":25.4,"20250403":26.43,"20250404":26.67,"20250405":20.13,"20250406":11.55,"20250407":12.05,"20250408":16.04,"20250409":18.94,"20250410":21.97,"20250411":23.66,"20250412":22.8,"20250413":24.61,"20250414":24.84,"20250415":23.81,"20250416":23.85,"20250417":24.96,"20250418":25.4,"20250419":24.81,"20250420":24.64,"20250421":22.32,"20250422":23.59,"20250423":25.17,"20250424":24.58,"20250425":24.61,"20250426":25.22,"20250427":26.2,"20250428":25.37,"20250429":25.97,"20250430":25.56,"20250501":26.68,"20250502":24.35,"20250503":20.94,"20250504":19.94,"20250505":20.23,"20250506":23.05,"20250507":21.52,"20250508":22.34,"20250509":22.28,"20250510":21.32,"20250511":21.55,"20250512":22.35,"20250513":26.45,"20250514":29.59,"20250515":29.03,"20250516":29.57,"20250517":29.5,"20250518":29.58,"20250519":28.37,"20250520":29.5,"20250521":26.71,"20250522":28.9,"20250523":28.75,"20250524":29.75,"20250525":29.79,"20250526":27.98,"20250527":25.52,"20250528":25.65,"20250529":25.35,"20250530":25.12,"20250531":24.81,"20250601":27.19,"20250602":28.77,"20250603":28.16,"20250604":27.66,"20250605":28.29,"20250606":29.2,"20250607":29.58,"20250608":29.8,"20250609":29.27,"20250610":28.12,"20250611":26.49,"20250612":25.77,"20250613":26.23,"20250614":27.7,"20250615":27.96,"20250616":27.75,"20250617":28.19,"20250618":29.32,"20250619":29.37,"20250620":29.89,"20250621":29.53,"20250622":29.98,"20250623":30.03,"20250624":29.63,"20250625":28.39,"20250626":27.96,"20250627":28.95,"20250628":29.82,"20250629":29.53,"20250630":29.47,"20250701":28.92,"20250702":28.55,"20250703":27.08,"20250704":26.38,"20250705":25.65,"20250706":26.11,"20250707":27.15,"20250708":27.37,"20250709":26.2,"20250710":26.92,"20250711":27.37,"20250712":27.5,"20250713":26.49,"20250714":26.95,"20250715":27.85,"20250716":28.17,"20250717":27.76,"20250718":27.6,"20250719":28.38,"20250720":28.18,"20250721":28.85,"20250722":28.72,"20250723":29.52,"20250724":29.86,"20250725":29.35,"20250726":29.4,"20250727":28.6,"20250728":29.43,"20250729":30.26,"20250730":29.84,"20250731":30.73,"20250801":31.06,"20250802":30.44,"20250803":30.18,"20250804":29.81,"20250805":29.19,"20250806":30.36,"20250807":31.31,"20250808":31.35,"20250809":31.37,"20250810":31.07,"20250811":31.44,"20250812":32.16,"20250813":31.32,"20250814":31.2,"20250815":31.78,"20250816":30.68,"20250817":31.93,"20250818":32.43,"20250819":32.14,"20250820":31.54,"20250821":30.22,"20250822":28.98,"20250823":28.74,"20250824":30.0,"20250825":30.3,"20250826":29.53,"20250827":30.42,"20250828":32.09,"20250829":32.24,"20250830":31.26,"20250831":29.08,"20250901":27.6,"20250902":28.9,"20250903":29.49,"20250904":29.41,"20250905":30.64,"20250906":29.43,"20250907":24.57,"20250908":25.66,"20250909":24.58,"20250910":25.65,"20250911":26.93,"20250912":28.98,"20250913":28.36,"20250914":29.27,"20250915":28.67,"20250916":28.97,"20250917":29.53,"20250918":29.0,"20250919":30.04,"20250920":29.72,"20250921":30.08,"20250922":31.04,"20250923":31.59,"20250924":30.24,"20250925":27.37,"20250926":26.47,"20250927":26.11,"20250928":25.96,"20250929":25.31,"20250930":26.73},"T2M_MAX":{"20250401":31.62,"20250402":31.96,"20250403":33.17,"20250404":34.02,"20250405":26.65,"20250406":15.6,"20250407":22.16,"20250408":26.55,"20250409":30.97,"20250410":33.4,"20250411":32.94,"20250412":33.62,"20250413":35.16,"20250414":35.09,"20250415":30.01,"20250416":32.41,"20250417":32.51,"20250418":31.91,"20250419":28.38,"20250420":31.48,"20250421":32.45,"20250422":30.77,"20250423":32.09,"20250424":29.71,"20250425":31.91,"20250426":33.0,"20250427":33.75,"20250428":30.61,"20250429":33.26,"20250430":30.88,"20250501":33.91,"20250502":30.38,"20250503":27.88,"20250504":29.16,"20250505":25.66,"20250506":30.86,"20250507":28.41,"20250508":27.58,"20250509":26.99,"20250510":26.29,"20250511":29.13,"20250512":32.74,"20250513":38.44,"20250514":39.25,"20250515":37.66,"20250516":37.83,"20250517":37.79,"20250518":36.61,"20250519":34.37,"20250520":37.0,"20250521":35.9,"20250522":38.47,"20250523":37.43,"20250524":37.74,"20250525":37.64,"20250526":33.33,"20250527":31.63,"20250528":30.67,"20250529":30.97,"20250530":28.62,"20250531":30.68,"20250601":34.54,"20250602":35.5,"20250603":33.68,"20250604":31.36,"20250605":34.2,"20250606":35.87,"20250607":37.01,"20250608":36.81,"20250609":36.66,"20250610":32.83,"20250611":30.43,"20250612":28.65,"20250613":32.49,"20250614":32.81,"20250615":34.02,"20250616":33.89,"20250617":35.12,"20250618":35.7,"20250619":35.91,"20250620":36.31,"20250621":36.29,"20250622":37.09,"20250623":37.11,"20250624":35.98,"20250625":33.59,"20250626":34.4,"20250627":36.4,"20250628":36.94,"20250629":36.29,"20250630":36.95,"20250701":35.91,"20250702":33.7,"20250703":30.46,"20250704":28.93,"20250705":27.27,"20250706":32.13,"20250707":31.31,"20250708":32.41,"20250709":30.07,"20250710":33.1,"20250711":33.07,"20250712":31.46,"20250713":29.19,"20250714":31.91,"20250715":32.96,"20250716":34.13,"20250717":34.7,"20250718":34.27,"20250719":34.45,"20250720":32.51,"20250721":36.23,"20250722":36.41,"20250723":37.27,"20250724":37.9,"20250725":35.76,"20250726":35.73,"20250727":34.01,"20250728":37.14,"20250729":38.87,"20250730":39.55,"20250731":39.86,"20250801":39.69,"20250802":36.74,"20250803":38.24,"20250804":35.21,"20250805":37.29,"20250806":38.39,"20250807":38.8,"20250808":39.63,"20250809":38.99,"20250810":38.08,"20250811":38.68,"20250812":39.63,"20250813":38.3,"20250814":39.53,"20250815":38.7,"20250816":37.25,"20250817":40.14,"20250818":39.89,"20250819":38.65,"20250820":39.35,"20250821":36.67,"20250822":35.35,"20250823":36.7,"20250824":37.98,"20250825":37.71,"20250826":37.44,"20250827":38.38,"20250828":40.18,"20250829":40.42,"20250830":38.37,"20250831":33.16,"20250901":34.07,"20250902":36.33,"20250903":36.65,"20250904":40.25,"20250905":39.37,"20250906":33.78,"20250907":29.3,"20250908":33.1,"20250909":34.57,"20250910":36.26,"20250911":36.98,"20250912":37.4,"20250913":36.69,"20250914":37.32,"20250915":33.21,"20250916":37.22,"20250917":37.55,"20250918":37.09,"20250919":37.18,"20250920":37.47,"20250921":38.09,"20250922":38.68,"20250923":39.04,"20250924":34.08,"20250925":33.53,"20250926":34.19,"20250927":34.81,"20250928":34.21,"20250929":33.04,"20250930":35.29},"T2M_MIN":{"20250401":13.9,"20250402":21.8,"20250403":21.84,"20250404":22.54,"20250405":17.01,"20250406":6.04,"20250407":3.65,"20250408":6.94,"20250409":10.33,"20250410":13.36,"20250411":15.48,"20250412":13.87,"20250413":16.61,"20250414":17.43,"20250415":18.77,"20250416":17.75,"20250417":19.24,"20250418":20.9,"20250419":21.48,"20250420":20.17,"20250421":13.17,"20250422":17.86,"20250423":19.54,"20250424":20.48,"20250425":19.63,"20250426":19.34,"20250427":19.79,"20250428":22.04,"20250429":21.75,"20250430":21.68,"20250501":21.57,"20250502":19.93,"20250503":14.82,"20250504":13.73,"20250505":14.91,"20250506":17.89,"20250507":14.78,"20250508":16.22,"20250509":17.22,"20250510":15.91,"20250511":15.45,"20250512":13.47,"20250513":17.69,"20250514":22.76,"20250515":23.01,"20250516":23.93,"20250517":23.19,"20250518":24.56,"20250519":25.0,"20250520":23.17,"20250521":18.69,"20250522":21.41,"20250523":21.11,"20250524":23.47,"20250525":23.27,"20250526":24.53,"20250527":20.97,"20250528":21.53,"20250529":20.41,"20250530":23.16,"20250531":19.91,"20250601":20.68,"20250602":22.35,"20250603":23.58,"20250604":24.2,"20250605":24.04,"20250606":24.09,"20250607":23.35,"20250608":24.11,"20250609":23.33,"20250610":24.33,"20250611":23.27,"20250612":23.77,"20250613":21.88,"20250614":23.14,"20250615":23.49,"20250616":23.05,"20250617":22.02,"20250618":23.73,"20250619":24.21,"20250620":24.3,"20250621":23.95,"20250622":24.43,"20250623":24.18,"20250624":23.43,"20250625":23.47,"20250626":23.36,"20250627":23.71,"20250628":23.99,"20250629":23.35,"20250630":23.3,"20250701":22.96,"20250702":23.15,"20250703":24.07,"20250704":24.47,"20250705":24.6,"20250706":22.03,"20250707":24.25,"20250708":23.12,"20250709":22.61,"20250710":22.79,"20250711":22.09,"20250712":23.8,"20250713":24.06,"20250714":23.11,"20250715":23.13,"20250716":23.96,"20250717":22.15,"20250718":21.45,"20250719":23.42,"20250720":24.38,"20250721":24.57,"20250722":22.71,"20250723":23.06,"20250724":22.59,"20250725":22.95,"20250726":23.94,"20250727":24.33,"20250728":23.23,"20250729":22.8,"20250730":19.97,"20250731":22.27,"20250801":23.99,"20250802":24.55,"20250803":23.48,"20250804":24.54,"20250805":22.42,"20250806":23.24,"20250807":24.37,"20250808":24.21,"20250809":24.55,"20250810":24.4,"20250811":25.59,"20250812":25.25,"20250813":25.17,"20250814":24.86,"20250815":25.2,"20250816":24.88,"20250817":24.91,"20250818":26.42,"20250819":25.65,"20250820":24.22,"20250821":24.73,"20250822":23.37,"20250823":22.23,"20250824":22.6,"20250825":23.47,"20250826":22.43,"20250827":24.35,"20250828":26.0,"20250829":25.58,"20250830":25.78,"20250831":26.23,"20250901":23.48,"20250902":22.31,"20250903":23.57,"20250904":20.29,"20250905":24.49,"20250906":25.35,"20250907":22.16,"20250908":19.9,"20250909":16.41,"20250910":17.44,"20250911":19.02,"20250912":21.86,"20250913":21.18,"20250914":21.65,"20250915":23.98,"20250916":21.59,"20250917":22.12,"20250918":21.94,"20250919":22.89,"20250920":22.35,"20250921":23.35,"20250922":24.83,"20250923":25.11,"20250924":26.36,"20250925":21.96,"20250926":19.55,"20250927":18.69,"20250928":19.23,"20250929":18.95,"20250930":18.55},"PRECTOTCORR":{"20250401":0.0,"20250402":0.17,"20250403":0.16,"20250404":2.1,"20250405":5.95,"20250406":0.02,"20250407":0.0,"20250408":0.0,"20250409":0.0,"20250410":0.0,"20250411":0.0,"20250412":0.0,"20250413":0.0,"20250414":0.0,"20250415":0.0,"20250416":0.01,"20250417":0.0,"20250418":0.03,"20250419":4.45,"20250420":3.06,"20250421":0.0,"20250422":6.12,"20250423":10.25,"20250424":3.91,"20250425":2.34,"20250426":0.33,"20250427":0.02,"20250428":0.01,"20250429":0.02,"20250430":3.44,"20250501":5.84,"20250502":8.13,"20250503":4.2,"20250504":0.01,"20250505":7.29,"20250506":24.94,"20250507":0.24,"20250508":0.44,"20250509":0.07,"20250510":2.07,"20250511":0.02,"20250512":0.01,"20250513":0.0,"20250514":0.0,"20250515":0.0,"20250516":1.87,"20250517":2.17,"20250518":0.35,"20250519":0.31,"20250520":0.06,"20250521":0.0,"20250522":2.35,"20250523":9.98,"20250524":0.01,"20250525":0.45,"20250526":31.0,"20250527":15.15,"20250528":4.88,"20250529":8.95,"20250530":12.71,"20250531":0.0,"20250601":0.03,"20250602":0.02,"20250603":3.99,"20250604":14.02,"20250605":2.97,"20250606":0.0,"20250607":0.0,"20250608":3.7,"20250609":6.54,"20250610":6.76,"20250611":13.32,"20250612":17.69,"20250613":0.68,"20250614":1.06,"20250615":5.84,"20250616":5.52,"20250617":0.0,"20250618":0.01,"20250619":0.02,"20250620":0.03,"20250621":0.03,"20250622":0.09,"20250623":0.05,"20250624":0.54,"20250625":1.29,"20250626":2.56,"20250627":0.79,"20250628":0.0,"20250629":0.14,"20250630":1.1,"20250701":0.27,"20250702":0.92,"20250703":11.45,"20250704":52.13,"20250705":41.56,"20250706":19.39,"20250707":14.19,"20250708":2.04,"20250709":6.17,"20250710":2.39,"20250711":0.27,"20250712":4.0,"20250713":13.23,"20250714":10.76,"20250715":0.57,"20250716":0.1,"20250717":0.0,"20250718":0.0,"20250719":0.04,"20250720":0.0,"20250721":0.0,"20250722":0.0,"20250723":0.0,"20250724":0.0,"20250725":0.0,"20250726":0.1,"20250727":0.53,"20250728":0.23,"20250729":0.0,"20250730":0.0,"20250731":0.0,"20250801":0.6,"20250802":4.42,"20250803":0.31,"20250804":2.29,"20250805":0.21,"20250806":0.02,"20250807":0.0,"20250808":0.0,"20250809":0.0,"20250810":0.0,"20250811":0.0,"20250812":0.2,"20250813":3.59,"20250814":1.26,"20250815":0.43,"20250816":0.41,"20250817":0.23,"20250818":0.0,"20250819":2.52,"20250820":0.19,"20250821":9.78,"20250822":1.84,"20250823":0.26,"20250824":0.0,"20250825":0.0,"20250826":0.0,"20250827":0.5,"20250828":0.07,"20250829":0.31,"20250830":1.95,"20250831":9.43,"20250901":2.35,"20250902":0.02,"20250903":0.03,"20250904":0.0,"20250905":0.04,"20250906":4.91,"20250907":5.7,"20250908":0.12,"20250909":0.0,"20250910":0.0,"20250911":0.0,"20250912":0.0,"20250913":0.0,"20250914":0.0,"20250915":0.0,"20250916":0.0,"20250917":0.01,"20250918":0.04,"20250919":0.08,"20250920":0.0,"20250921":0.0,"20250922":0.0,"20250923":0.02,"20250924":6.65,"20250925":0.04,"20250926":0.0,"20250927":0.0,"20250928":0.0,"20250929":0.0,"20250930":0.0},"WS10M":{"20250401":4.87,"20250402":6.15,"20250403":3.49,"20250404":4.85,"20250405":4.9,"20250406":8.58,"20250407":4.4,"20250408":1.77,"20250409":5.52,"20250410":4.15,"20250411":3.09,"20250412":3.9,"20250413":7.05,"20250414":6.03,"20250415":4.42,"20250416":4.08,"20250417":7.67,"20250418":8.85,"20250419":6.93,"20250420":5.61,"20250421":3.01,"20250422":2.8,"20250423":3.91,"20250424":4.17,"20250425":3.33,"20250426":3.65,"20250427":4.69,"20250428":6.33,"20250429":5.96,"20250430":7.08,"20250501":4.64,"20250502":3.55,"20250503":5.81,"20250504":3.45,"20250505":4.48,"20250506":6.38,"20250507":3.27,"20250508":3.47,"20250509":5.38,"20250510":4.58,"20250511":4.38,"20250512":2.85,"20250513":5.59,"20250514":6.3,"20250515":4.91,"20250516":4.87,"20250517":3.88,"20250518":6.72,"20250519":7.15,"20250520":4.57,"20250521":3.22,"20250522":3.46,"20250523":3.78,"20250524":5.38,"20250525":5.84,"20250526":5.57,"20250527":2.23,"20250528":2.63,"20250529":2.39,"20250530":2.46,"20250531":1.51,"20250601":2.58,"20250602":4.42,"20250603":5.11,"20250604":3.32,"20250605":2.56,"20250606":4.31,"20250607":4.58,"20250608":4.22,"20250609":3.49,"20250610":2.16,"20250611":3.38,"20250612":3.19,"20250613":2.91,"20250614":3.6,"20250615":3.49,"20250616":3.28,"20250617":5.26,"20250618":6.65,"20250619":4.05,"20250620":4.57,"20250621":6.27,"20250622":5.74,"20250623":4.35,"20250624":3.3,"20250625":3.02,"20250626":3.31,"20250627":3.62,"20250628":3.76,"20250629":3.6,"20250630":4.5,"20250701":2.03,"20250702":2.94,"20250703":3.07,"20250704":4.49,"20250705":5.52,"20250706":3.8,"20250707":2.81,"20250708":3.16,"20250709":3.35,"20250710":3.73,"20250711":5.16,"20250712":4.59,"20250713":3.77,"20250714":2.95,"20250715":3.69,"20250716":4.44,"20250717":3.66,"20250718":3.18,"20250719":4.1,"20250720":4.97,"20250721":5.06,"20250722":4.53,"20250723":4.4,"20250724":3.49,"20250725":2.76,"20250726":3.48,"20250727":3.88,"20250728":2.28,"20250729":2.4,"20250730":2.41,"20250731":2.73,"20250801":2.79,"20250802":1.95,"20250803":1.06,"20250804":2.24,"20250805":2.16,"20250806":2.37,"20250807":2.77,"20250808":3.35,"20250809":3.43,"20250810":3.2,"20250811":2.18,"20250812":2.7,"20250813":1.61,"20250814":3.13,"20250815":4.69,"20250816":4.27,"20250817":3.55,"20250818":2.69,"20250819":2.73,"20250820":2.32,"20250821":2.73,"20250822":2.43,"20250823":3.12,"20250824":2.59,"20250825":2.31,"20250826":2.56,"20250827":1.94,"20250828":3.64,"20250829":3.25,"20250830":2.3,"20250831":2.37,"20250901":1.94,"20250902":2.69,"20250903":3.09,"20250904":2.03,"20250905":4.08,"20250906":2.71,"20250907":4.08,"20250908":3.04,"20250909":2.43,"20250910":2.29,"20250911":2.8,"20250912":2.97,"20250913":3.3,"20250914":3.37,"20250915":2.39,"20250916":2.68,"20250917":2.77,"20250918":2.49,"20250919":2.61,"20250920":2.65,"20250921":3.57,"20250922":4.39,"20250923":4.39,"20250924":4.56,"20250925":3.7,"20250926":2.33,"20250927":2.48,"20250928":2.63,"20250929":2.19,"20250930":2.77},"RH2M":{"20250401":69.4,"20250402":77.52,"20250403":75.77,"20250404":75.39,"20250405":81.23,"20250406":55.7,"20250407":46.15,"20250408":42.22,"20250409":51.53,"20250410":60.55,"20250411":54.58,"20250412":47.31,"20250413":55.66,"20250414":58.84,"20250415":47.0,"20250416":54.07,"20250417":60.5,"20250418":68.11,"20250419":72.53,"20250420":63.75,"20250421":46.2,"20250422":64.86,"20250423":73.19,"20250424":76.87,"20250425":79.77,"20250426":70.24,"20250427":67.43,"20250428":72.48,"20250429":70.12,"20250430":72.49,"20250501":73.27,"20250502":78.47,"20250503":64.88,"20250504":57.49,"20250505":70.81,"20250506":85.27,"20250507":77.28,"20250508":76.22,"20250509":67.75,"20250510":68.13,"20250511":60.25,"20250512":56.58,"20250513":56.8,"20250514":62.18,"20250515":65.8,"20250516":65.78,"20250517":66.6,"20250518":63.2,"20250519":69.01,"20250520":56.42,"20250521":46.54,"20250522":61.34,"20250523":65.07,"20250524":62.82,"20250525":63.11,"20250526":74.17,"20250527":82.08,"20250528":78.18,"20250529":81.82,"20250530":82.74,"20250531":72.26,"20250601":69.24,"20250602":67.62,"20250603":71.98,"20250604":79.51,"20250605":77.68,"20250606":69.07,"20250607":68.31,"20250608":66.51,"20250609":69.32,"20250610":73.82,"20250611":81.48,"20250612":87.04,"20250613":82.94,"20250614":78.97,"20250615":76.76,"20250616":78.52,"20250617":71.05,"20250618":67.02,"20250619":68.93,"20250620":67.59,"20250621":64.06,"20250622":63.98,"20250623":62.79,"20250624":63.83,"20250625":68.52,"20250626":74.19,"20250627":70.71,"20250628":63.63,"20250629":64.46,"20250630":65.71,"20250701":61.01,"20250702":61.26,"20250703":80.76,"20250704":88.09,"20250705":90.17,"20250706":83.88,"20250707":82.23,"20250708":77.88,"20250709":78.75,"20250710":75.24,"20250711":74.2,"20250712":80.41,"20250713":85.76,"20250714":83.5,"20250715":78.76,"20250716":72.83,"20250717":70.86,"20250718":69.62,"20250719":71.47,"20250720":72.4,"20250721":70.62,"20250722":68.54,"20250723":65.36,"20250724":62.46,"20250725":62.11,"20250726":65.87,"20250727":71.43,"20250728":66.13,"20250729":56.36,"20250730":43.09,"20250731":47.66,"20250801":55.82,"20250802":60.26,"20250803":58.34,"20250804":61.93,"20250805":60.71,"20250806":57.93,"20250807":54.81,"20250808":51.1,"20250809":52.41,"20250810":51.77,"20250811":53.6,"20250812":48.95,"20250813":53.5,"20250814":55.11,"20250815":56.24,"20250816":59.67,"20250817":54.35,"20250818":48.16,"20250819":47.58,"20250820":49.45,"20250821":58.52,"20250822":68.09,"20250823":63.12,"20250824":54.55,"20250825":51.47,"20250826":48.19,"20250827":56.12,"20250828":51.35,"20250829":50.08,"20250830":58.56,"20250831":73.39,"20250901":75.13,"20250902":60.13,"20250903":54.21,"20250904":40.64,"20250905":50.27,"20250906":59.53,"20250907":79.47,"20250908":63.42,"20250909":50.63,"20250910":45.54,"20250911":54.81,"20250912":54.72,"20250913":50.24,"20250914":51.41,"20250915":47.78,"20250916":47.25,"20250917":45.83,"20250918":45.81,"20250919":46.3,"20250920":41.85,"20250921":52.21,"20250922":55.58,"20250923":54.45,"20250924":62.37,"20250925":59.3,"20250926":48.87,"20250927":44.76,"20250928":43.93,"20250929":40.24,"20250930":34.77}}},"header":{"title":"NASA/POWER Source Native Resolution Daily Data","api":{"version":"v2.9.6","name":"POWER Daily API"},"sources":["MERRA2","POWER"],"fill_value":-999.0,"time_standard":"UTC","start":"20250401","end":"20250930"},"messages":[],"parameters":{"T2M":{"units":"C","longname":"Temperature at 2 Meters"},"T2M_MAX":{"units":"C","longname":"Temperature at 2 Meters Maximum"},"T2M_MIN":{"units":"C","longname":"Temperature at 2 Meters Minimum"},"PRECTOTCORR":{"units":"mm/day","longname":"Precipitation Corrected"},"WS10M":{"units":"m/s","longname":"Wind Speed at 10 Meters"},"RH2M":{"units":"%","longname":"Relative Humidity at 2 Meters"}},"times":{"data":0.85,"process":0.02}}