{"type":"Feature","geometry":{"type":"Point","coordinates":[-71.059,42.36,71.06]},"properties":{"parameter":{"T2M":{"20200101":-0.37,"20200102":-1.22,"20200103":2.89,"20200104":2.81,"20200105":0.29,"20200106":-2.31,"20200107":-0.07},"T2M_MAX":{"20200101":1.42,"20200102":3.25,"20200103":6.5,"20200104":3.9,"20200105":3.5,"20200106":1.22,"20200107":2.71},"T2M_MIN":{"20200101":-2.51,"20200102":-5.18,"20200103":1.57,"20200104":0.97,"20200105":-2.79,"20200106":-5.45,"20200107":-2.15},"PRECTOTCORR":{"20200101":0.14,"20200102":0.0,"20200103":0.08,"20200104":3.23,"20200105":3.22,"20200106":0.26,"20200107":0.02}}},"header":{"title":"NASA/POWER Source Native Resolution Daily Data","api":{"version":"v2.9.6","name":"POWER Daily API"},"sources":["MERRA2","POWER"],"fill_value":-999.0,"time_standard":"UTC","start":"20200101","end":"20200107"},"messages":[],"parameters":{"T2M":{"units":"C","longname":"Temperature at 2 Meters"},"T2M_MAX":{"units":"C","longname":"Temperature at 2 Meters Maximum"},"T2M_MIN":{"units":"C","longname":"Temperature at 2 Meters Minimum"},"PRECTOTCORR":{"units":"mm/day","longname":"Precipitation Corrected"}},"times":{"data":0.479,"process":0.01}}