{"type":"FeatureCollection","features":[{"type":"Feature","geometry":{"type":"Polygon","coordinates":[[[-122.45977,47.67242],[-122.45974,47.67212],[-122.45962,47.67112],[-122.45938,47.66916],[-122.45857,47.66561],[-122.4581,47.66391],[-122.45725,47.66133],[-122.45676,47.65968],[-122.45606,47.65771],[-122.45522,47.65532],[-122.45441,47.65325],[-122.45435,47.65266],[-122.45428,47.65202],[-122.4541,47.65112],[-122.45339,47.64765],[-122.45325,47.64671],[-122.45318,47.64625],[-122.45281,47.6438],[-122.45269,47.64235],[-122.45268,47.64056],[-122.45268,47.63911],[-122.45269,47.63875],[-122.45284,47.63609],[-122.45307,47.63452],[-122.45352,47.63256],[-122.45368,47.63201],[-122.45387,47.63137],[-122.45407,47.6307],[-122.4542,47.63026],[-122.45437,47.62967],[-122.45457,47.62901],[-122.45491,47.62765],[-122.45499,47.62719],[-122.45491,47.62656],[-122.45425,47.62464],[-122.45376,47.62378],[-122.45301,47.62288],[-122.4514,47.62096],[-122.45005,47.61902],[-122.44954,47.61817],[-122.4492,47.61752],[-122.44867,47.61651],[-122.44864,47.61645],[-122.44861,47.61638],[-122.44832,47.6157],[-122.44791,47.61474],[-122.44771,47.61421],[-122.4473,47.61307],[-122.44685,47.61242],[-122.4465,47.61149],[-122.44606,47.608],[-122.4462,47.60703],[-122.44656,47.60277],[-122.44686,47.59916],[-122.44695,47.5981],[-122.44698,47.59761],[-122.44716,47.59557],[-122.4473,47.59445],[-122.44757,47.59331],[-122.44788,47.5923],[-122.44833,47.59125],[-122.44969,47.58896],[-122.45051,47.58742],[-122.45138,47.5857],[-122.4517,47.58508],[-122.45316,47.58221],[-122.45358,47.58124],[-122.4541,47.57966],[-122.45463,47.57721],[-122.45473,47.57659],[-122.45475,47.57639],[-122.45478,47.57619],[-122.45485,47.57476],[-122.45479,47.57397],[-122.45477,47.57368],[-122.45448,47.57233],[-122.45413,47.57132],[-122.45399,47.57091],[-122.45337,47.5696],[-122.45325,47.5694],[-122.45306,47.5691],[-122.45245,47.56837],[-122.45168,47.56747],[-122.45083,47.56637],[-122.45025,47.56562],[-122.44849,47.56298],[-122.44765,47.56172],[-122.447,47.56074],[-122.44572,47.55883],[-122.44516,47.55776],[-122.44477,47.55688],[-122.44462,47.55646],[-122.4443,47.55557],[-122.44401,47.55448],[-122.44389,47.55372],[-122.44386,47.5518],[-122.44437,47.54783],[-122.44478,47.54442],[-122.44464,47.5433],[-122.44487,47.54266],[-122.44503,47.54253],[-122.44503,47.54185],[-122.44503,47.54019],[-122.44488,47.53923],[-122.44458,47.53724],[-122.44445,47.53641],[-122.44332,47.53281],[-122.44324,47.53264],[-122.44297,47.53204],[-122.44156,47.52909],[-122.43928,47.52562],[-122.43648,47.52234],[-122.43609,47.52194],[-122.4308,47.51661],[-122.42629,47.51207],[-122.42333,47.50828],[-122.42079,47.50505],[-122.41807,47.50157],[-122.41695,47.49985],[-122.41545,47.49711],[-122.40937,47.48605],[-122.40934,47.486],[-122.40932,47.48595],[-122.40766,47.48215],[-122.39924,47.48522],[-122.38181,47.49191],[-122.38013,47.4932],[-122.37565,47.49643],[-122.37531,47.49687],[-122.37521,47.49703],[-122.37507,47.49725],[-122.37502,47.49732],[-122.37492,47.4975],[-122.37485,47.49766],[-122.37428,47.49922],[-122.37413,47.49962],[-122.37406,47.49992],[-122.37397,47.50058],[-122.37392,47.5007],[-122.3738,47.50083],[-122.37312,47.50138],[-122.37226,47.50201],[-122.37205,47.50218],[-122.37141,47.50278],[-122.37092,47.50324],[-122.37069,47.50351],[-122.3706,47.50368],[-122.37056,47.50387],[-122.37055,47.50452],[-122.37054,47.50513],[-122.37047,47.5054],[-122.37045,47.5055],[-122.3704,47.50569],[-122.37039,47.50582],[-122.37046,47.5064],[-122.37046,47.50641],[-122.37053,47.50666],[-122.37071,47.50726],[-122.37086,47.50802],[-122.37088,47.5082],[-122.37086,47.50946],[-122.37089,47.51004],[-122.37098,47.51205],[-122.371,47.51229],[-122.37102,47.51255],[-122.37108,47.51333],[-122.3711,47.51371],[-122.37115,47.51446],[-122.37126,47.51574],[-122.37127,47.51602],[-122.37127,47.51608],[-122.37132,47.51665],[-122.3714,47.51742],[-122.36866,47.51739],[-122.36769,47.51738],[-122.36728,47.51738],[-122.36592,47.51736],[-122.36457,47.51736],[-122.36323,47.51736],[-122.36262,47.51736],[-122.36185,47.51736],[-122.36113,47.51736],[-122.36054,47.51736],[-122.36054,47.51682],[-122.36049,47.51553],[-122.35918,47.51553],[-122.35856,47.51553],[-122.35856,47.51645],[-122.35856,47.51735],[-122.35823,47.51735],[-122.35786,47.51736],[-122.35651,47.51738],[-122.35611,47.51739],[-122.35517,47.51738],[-122.35404,47.51737],[-122.3534,47.51737],[-122.35291,47.51736],[-122.35178,47.51734],[-122.35174,47.51734],[-122.35065,47.51733],[-122.34925,47.51732],[-122.34802,47.51732],[-122.34797,47.51732],[-122.3467,47.51731],[-122.34543,47.5173],[-122.34464,47.5173],[-122.34415,47.51729],[-122.34387,47.51729],[-122.34288,47.51729],[-122.34161,47.51728],[-122.34144,47.51728],[-122.34075,47.51722],[-122.34045,47.51724],[-122.34013,47.51728],[-122.33992,47.51727],[-122.33793,47.51726],[-122.33754,47.51726],[-122.33752,47.51726],[-122.33749,47.51707],[-122.33748,47.51701],[-122.33747,47.51694],[-122.33741,47.5166],[-122.33739,47.5165],[-122.33727,47.51586],[-122.33712,47.51502],[-122.33704,47.51389],[-122.33665,47.51391],[-122.33651,47.51391],[-122.33571,47.51392],[-122.33425,47.5139],[-122.33435,47.5145],[-122.33436,47.51452],[-122.33404,47.51452],[-122.33351,47.51453],[-122.33355,47.51474],[-122.3335,47.51473],[-122.33262,47.51488],[-122.3314,47.5151],[-122.33138,47.51513],[-122.33118,47.51515],[-122.33115,47.51512],[-122.33097,47.51494],[-122.33059,47.51454],[-122.33029,47.51403],[-122.33027,47.514],[-122.33008,47.514],[-122.32857,47.514],[-122.32818,47.51399],[-122.32733,47.514],[-122.32864,47.5165],[-122.32871,47.51659],[-122.32885,47.51676],[-122.32918,47.51713],[-122.3292,47.51717],[-122.32921,47.51718],[-122.32921,47.51723],[-122.32923,47.51728],[-122.32924,47.51733],[-122.32926,47.51738],[-122.32931,47.51753],[-122.32936,47.51781],[-122.32937,47.51783],[-122.32952,47.51812],[-122.32956,47.51819],[-122.32961,47.5183],[-122.32969,47.51846],[-122.32984,47.51917],[-122.32985,47.51924],[-122.32991,47.51955],[-122.32992,47.51956],[-122.33063,47.52051],[-122.33091,47.5209],[-122.33078,47.5209],[-122.3306,47.5209],[-122.33007,47.52091],[-122.32959,47.52091],[-122.3279,47.52092],[-122.32588,47.52092],[-122.32588,47.52023],[-122.32588,47.51869],[-122.3251,47.51867],[-122.32451,47.51869],[-122.32413,47.51869],[-122.32407,47.51869],[-122.32386,47.51869],[-122.32344,47.51869],[-122.32323,47.51868],[-122.32315,47.51869],[-122.32161,47.51871],[-122.32129,47.51872],[-122.32034,47.51871],[-122.32014,47.51871],[-122.3186,47.51872],[-122.31841,47.51872],[-122.31813,47.51873],[-122.31753,47.51873],[-122.31753,47.51883],[-122.31754,47.5192],[-122.31757,47.51983],[-122.31757,47.51995],[-122.31758,47.52011],[-122.31759,47.52039],[-122.31759,47.52055],[-122.31761,47.52101],[-122.31764,47.52183],[-122.31766,47.52222],[-122.31602,47.52222],[-122.31586,47.52221],[-122.31511,47.52221],[-122.31498,47.5222],[-122.31489,47.52219],[-122.31427,47.52218],[-122.31367,47.52218],[-122.31352,47.52215],[-122.31336,47.52213],[-122.31099,47.52215],[-122.31013,47.52215],[-122.30976,47.52215],[-122.30967,47.52215],[-122.30967,47.52219],[-122.30962,47.52276],[-122.30955,47.5231],[-122.30952,47.5234],[-122.30952,47.52347],[-122.30953,47.5237],[-122.30959,47.524],[-122.30964,47.52412],[-122.3097,47.5243],[-122.30986,47.52458],[-122.30997,47.52475],[-122.31015,47.52491],[-122.31032,47.52505],[-122.31108,47.52576],[-122.31143,47.52618],[-122.31161,47.52636],[-122.31172,47.52649],[-122.31184,47.52656],[-122.31189,47.52658],[-122.31265,47.52678],[-122.31283,47.52682],[-122.3149,47.52737],[-122.31499,47.5274],[-122.31509,47.52743],[-122.31748,47.52817],[-122.31755,47.52821],[-122.3176,47.52855],[-122.31759,47.52883],[-122.31758,47.52903],[-122.31757,47.52917],[-122.31758,47.52941],[-122.31758,47.52944],[-122.31824,47.52944],[-122.31849,47.52944],[-122.31849,47.52969],[-122.31849,47.52978],[-122.31847,47.53047],[-122.31847,47.53057],[-122.31847,47.53084],[-122.31847,47.53091],[-122.31846,47.53111],[-122.31845,47.53177],[-122.31826,47.53177],[-122.31803,47.53177],[-122.31796,47.53177],[-122.31681,47.53177],[-122.31329,47.53177],[-122.30918,47.53174],[-122.30892,47.53174],[-122.30843,47.53173],[-122.30731,47.53171],[-122.3071,47.53171],[-122.30517,47.53168],[-122.30511,47.5313],[-122.30508,47.53105],[-122.30334,47.53025],[-122.30215,47.52964],[-122.30158,47.52935],[-122.30137,47.52925],[-122.30092,47.52903],[-122.30027,47.52798],[-122.29989,47.52709],[-122.29986,47.52697],[-122.29985,47.52691],[-122.29978,47.52661],[-122.29975,47.52626],[-122.29976,47.52602],[-122.30009,47.525],[-122.30014,47.52491],[-122.30021,47.52478],[-122.30021,47.52475],[-122.30024,47.52471],[-122.3003,47.52466],[-122.30056,47.52458],[-122.30099,47.52445],[-122.3005,47.52445],[-122.30048,47.52445],[-122.29995,47.52443],[-122.29984,47.52443],[-122.29773,47.5244],[-122.29548,47.52436],[-122.29406,47.52433],[-122.29383,47.52433],[-122.29365,47.52446],[-122.29336,47.52446],[-122.29294,47.52446],[-122.2918,47.52446],[-122.29137,47.52446],[-122.2913,47.52446],[-122.29129,47.52438],[-122.29129,47.52428],[-122.29129,47.5242],[-122.29129,47.52338],[-122.29129,47.52334],[-122.29129,47.52295],[-122.29129,47.52284],[-122.29129,47.52236],[-122.29129,47.52231],[-122.29129,47.52132],[-122.29129,47.52126],[-122.29129,47.5209],[-122.29129,47.52067],[-122.29129,47.52055],[-122.29129,47.52049],[-122.29128,47.52],[-122.29128,47.51974],[-122.29128,47.51969],[-122.29128,47.51952],[-122.29128,47.5193],[-122.29128,47.51884],[-122.29128,47.51857],[-122.29128,47.51782],[-122.29128,47.51768],[-122.29128,47.51698],[-122.29128,47.51675],[-122.29128,47.51641],[-122.29129,47.51489],[-122.2913,47.51389],[-122.2913,47.51374],[-122.2913,47.51367],[-122.29131,47.51359],[-122.29131,47.51342],[-122.29132,47.51163],[-122.29133,47.51088],[-122.29133,47.51083],[-122.29133,47.51077],[-122.29133,47.51069],[-122.29134,47.51063],[-122.29134,47.5104],[-122.29134,47.51025],[-122.29134,47.51015],[-122.29079,47.51013],[-122.29026,47.51012],[-122.29017,47.51012],[-122.29005,47.51012],[-122.28985,47.51011],[-122.28782,47.51007],[-122.28765,47.51006],[-122.2875,47.51006],[-122.28652,47.51004],[-122.28623,47.51003],[-122.28615,47.51003],[-122.28593,47.51002],[-122.28576,47.51002],[-122.28564,47.51002],[-122.28525,47.51001],[-122.28488,47.51],[-122.2848,47.51],[-122.28467,47.50999],[-122.28442,47.50999],[-122.28387,47.50998],[-122.28369,47.50997],[-122.28337,47.50996],[-122.28297,47.50995],[-122.28256,47.50994],[-122.28246,47.50994],[-122.28128,47.50992],[-122.28076,47.5099],[-122.27985,47.50988],[-122.27872,47.50986],[-122.27865,47.50986],[-122.27855,47.50985],[-122.27823,47.50985],[-122.27823,47.50979],[-122.27824,47.50891],[-122.27823,47.50799],[-122.27789,47.50799],[-122.2777,47.50797],[-122.27754,47.50794],[-122.27739,47.50789],[-122.27722,47.50784],[-122.27708,47.50777],[-122.27624,47.50723],[-122.27598,47.50722],[-122.27564,47.50715],[-122.27543,47.50714],[-122.27542,47.50893],[-122.27541,47.50963],[-122.27541,47.50978],[-122.27408,47.50975],[-122.27155,47.5097],[-122.27007,47.50966],[-122.27007,47.50954],[-122.27009,47.50878],[-122.27012,47.50703],[-122.27014,47.50658],[-122.27014,47.50609],[-122.27016,47.5051],[-122.27016,47.5049],[-122.27017,47.50448],[-122.27017,47.50318],[-122.2702,47.50263],[-122.27026,47.50147],[-122.27079,47.50159],[-122.27089,47.50161],[-122.27087,47.50155],[-122.27086,47.50146],[-122.2707,47.50083],[-122.27075,47.50081],[-122.27067,47.5003],[-122.27059,47.50028],[-122.27045,47.50028],[-122.27033,47.5003],[-122.27023,47.50028],[-122.27027,47.49758],[-122.27028,47.49733],[-122.27028,47.49706],[-122.27028,47.497],[-122.27029,47.49657],[-122.27029,47.49635],[-122.2703,47.49603],[-122.2703,47.49554],[-122.27026,47.49554],[-122.26969,47.49553],[-122.26928,47.49553],[-122.26857,47.49552],[-122.26843,47.49552],[-122.26686,47.49555],[-122.26642,47.49556],[-122.26535,47.49556],[-122.26485,47.49556],[-122.26427,47.49557],[-122.26408,47.49555],[-122.25964,47.4956],[-122.25964,47.49599],[-122.25961,47.49735],[-122.25955,47.50015],[-122.25953,47.50131],[-122.25952,47.50241],[-122.25951,47.50254],[-122.25362,47.50273],[-122.25164,47.50283],[-122.25141,47.5028],[-122.25081,47.50283],[-122.25073,47.50272],[-122.25063,47.50252],[-122.25051,47.50222],[-122.25035,47.5017],[-122.25026,47.5014],[-122.25017,47.5011],[-122.24995,47.50039],[-122.24975,47.49971],[-122.24964,47.49934],[-122.24951,47.49934],[-122.24902,47.49936],[-122.2489,47.49936],[-122.24884,47.49936],[-122.24882,47.49936],[-122.24879,47.49936],[-122.24867,47.49936],[-122.24846,47.49935],[-122.24841,47.49935],[-122.24816,47.49935],[-122.24158,47.49925],[-122.24087,47.49924],[-122.24086,47.49957],[-122.24086,47.49963],[-122.24084,47.50147],[-122.24083,47.50223],[-122.24082,47.50288],[-122.24125,47.50289],[-122.24238,47.5029],[-122.24313,47.50291],[-122.24496,47.50294],[-122.24564,47.50295],[-122.24884,47.50299],[-122.24884,47.50308],[-122.24883,47.50384],[-122.24882,47.50402],[-122.24882,47.50413],[-122.24881,47.50479],[-122.24879,47.50612],[-122.24879,47.50626],[-122.24879,47.50628],[-122.24878,47.50636],[-122.24808,47.50635],[-122.24797,47.50635],[-122.24798,47.50632],[-122.24798,47.50625],[-122.24798,47.50622],[-122.24798,47.50616],[-122.24798,47.50613],[-122.24798,47.50599],[-122.24798,47.50579],[-122.24799,47.50559],[-122.24799,47.50529],[-122.24799,47.50518],[-122.24799,47.50515],[-122.248,47.50451],[-122.248,47.50446],[-122.24801,47.50405],[-122.24801,47.50385],[-122.24801,47.50371],[-122.24802,47.50365],[-122.24802,47.50352],[-122.24802,47.50308],[-122.24721,47.50307],[-122.24563,47.50306],[-122.24555,47.50353],[-122.2455,47.50381],[-122.24549,47.50389],[-122.2455,47.50391],[-122.24561,47.5041],[-122.24571,47.50428],[-122.2458,47.50443],[-122.2459,47.50458],[-122.24599,47.50475],[-122.24611,47.50494],[-122.24619,47.50508],[-122.2462,47.5051],[-122.24624,47.50516],[-122.24628,47.50523],[-122.24627,47.50528],[-122.24626,47.50531],[-122.2462,47.50552],[-122.24615,47.50572],[-122.24611,47.50588],[-122.24607,47.50602],[-122.24606,47.50604],[-122.24605,47.50611],[-122.24603,47.50617],[-122.24603,47.5062],[-122.24604,47.50632],[-122.24604,47.50637],[-122.24605,47.5065],[-122.24605,47.50656],[-122.24605,47.50661],[-122.24606,47.50679],[-122.24607,47.50697],[-122.24608,47.50715],[-122.24608,47.50719],[-122.24608,47.50721],[-122.24608,47.50723],[-122.24608,47.50724],[-122.24611,47.50727],[-122.24697,47.50821],[-122.24674,47.50897],[-122.24683,47.50901],[-122.2469,47.50908],[-122.24694,47.50915],[-122.24694,47.50923],[-122.24712,47.50966],[-122.24715,47.50973],[-122.2471,47.50973],[-122.24579,47.50973],[-122.24565,47.50972],[-122.24539,47.50971],[-122.245,47.5097],[-122.24413,47.50969],[-122.24409,47.50969],[-122.24373,47.50969],[-122.24336,47.50968],[-122.2433,47.50964],[-122.24322,47.5096],[-122.24303,47.5096],[-122.24157,47.5096],[-122.24115,47.50959],[-122.23892,47.50956],[-122.23881,47.50953],[-122.23843,47.50954],[-122.23833,47.50954],[-122.23822,47.50953],[-122.23819,47.50952],[-122.23705,47.50952],[-122.23623,47.50952],[-122.23529,47.50951],[-122.22461,47.50976],[-122.21982,47.5098],[-122.22748,47.51362],[-122.2357,47.51777],[-122.24032,47.51987],[-122.24313,47.52115],[-122.24324,47.52119],[-122.24447,47.52179],[-122.2461,47.52257],[-122.24718,47.52322],[-122.24873,47.52414],[-122.24909,47.52441],[-122.25106,47.52586],[-122.25119,47.52596],[-122.25147,47.52625],[-122.25262,47.52764],[-122.25313,47.52845],[-122.25354,47.5291],[-122.25424,47.53062],[-122.2547,47.53218],[-122.25491,47.53377],[-122.25494,47.53415],[-122.25489,47.53526],[-122.25468,47.53637],[-122.25429,47.53746],[-122.25423,47.53756],[-122.25373,47.53851],[-122.25372,47.53853],[-122.25302,47.53952],[-122.25216,47.54047],[-122.25122,47.5413],[-122.25107,47.5414],[-122.24883,47.5428],[-122.24675,47.54439],[-122.245,47.54605],[-122.24493,47.54612],[-122.24339,47.54797],[-122.24248,47.54938],[-122.24214,47.54992],[-122.2412,47.55195],[-122.24058,47.55404],[-122.24028,47.5561],[-122.24018,47.55807],[-122.24039,47.56003],[-122.24089,47.56196],[-122.2417,47.56385],[-122.24222,47.56472],[-122.24279,47.56567],[-122.24415,47.56741],[-122.24578,47.56903],[-122.24765,47.57054],[-122.24974,47.5719],[-122.25103,47.57261],[-122.25116,47.57268],[-122.25185,47.57296],[-122.25377,47.57361],[-122.25571,47.57411],[-122.25587,47.57415],[-122.25721,47.57447],[-122.2586,47.57492],[-122.25992,47.57547],[-122.26115,47.57612],[-122.26228,47.57684],[-122.26269,47.57717],[-122.26328,47.57764],[-122.2639,47.57824],[-122.26416,47.5785],[-122.26485,47.57937],[-122.26492,47.57948],[-122.26541,47.58049],[-122.26624,47.58274],[-122.26649,47.58378],[-122.26682,47.58637],[-122.26683,47.58737],[-122.26672,47.58884],[-122.26661,47.58947],[-122.26657,47.58979],[-122.26656,47.58995],[-122.26654,47.59005],[-122.26633,47.5918],[-122.26592,47.59509],[-122.26567,47.59706],[-122.26541,47.59921],[-122.26515,47.60132],[-122.26484,47.6037],[-122.26465,47.6052],[-122.26407,47.60982],[-122.26365,47.61312],[-122.26272,47.62115],[-122.26224,47.62478],[-122.26223,47.62481],[-122.26221,47.62489],[-122.26109,47.62869],[-122.261,47.62939],[-122.26067,47.63201],[-122.26005,47.63699],[-122.25985,47.6386],[-122.25962,47.64037],[-122.2596,47.64045],[-122.25953,47.64079],[-122.25948,47.64101],[-122.25937,47.64152],[-122.2591,47.64264],[-122.25818,47.64497],[-122.25691,47.64723],[-122.25529,47.64938],[-122.25335,47.65141],[-122.25117,47.65324],[-122.25103,47.65335],[-122.24955,47.65424],[-122.24593,47.65613],[-122.24199,47.65777],[-122.24018,47.65843],[-122.23944,47.65876],[-122.23792,47.65946],[-122.23708,47.65993],[-122.23583,47.66063],[-122.23394,47.66195],[-122.23226,47.6634],[-122.23192,47.66376],[-122.23131,47.66441],[-122.23081,47.66495],[-122.23068,47.66515],[-122.23023,47.666],[-122.22991,47.66688],[-122.22972,47.66778],[-122.22968,47.66868],[-122.22998,47.67717],[-122.23027,47.67956],[-122.23034,47.68003],[-122.23058,47.6809],[-122.23094,47.68175],[-122.23144,47.68257],[-122.23207,47.68335],[-122.23281,47.68408],[-122.23366,47.68476],[-122.23631,47.68622],[-122.23821,47.68711],[-122.24181,47.6888],[-122.24245,47.68906],[-122.24342,47.68952],[-122.24696,47.6912],[-122.25105,47.69361],[-122.25506,47.69687],[-122.26072,47.70226],[-122.26232,47.70431],[-122.26526,47.70807],[-122.26709,47.71093],[-122.26763,47.71176],[-122.26794,47.71225],[-122.26914,47.71412],[-122.27041,47.717],[-122.27122,47.71886],[-122.27192,47.72043],[-122.27327,47.72579],[-122.27331,47.72591],[-122.27346,47.72648],[-122.27349,47.72658],[-122.27352,47.72668],[-122.27359,47.72693],[-122.27437,47.73349],[-122.2744,47.73373],[-122.27493,47.73373],[-122.27963,47.73374],[-122.28063,47.73374],[-122.28201,47.73374],[-122.28376,47.73374],[-122.28454,47.73374],[-122.28466,47.73374],[-122.28596,47.73373],[-122.28632,47.73373],[-122.28671,47.73372],[-122.28705,47.73372],[-122.28841,47.73373],[-122.28975,47.73373],[-122.2911,47.73374],[-122.29144,47.73374],[-122.29244,47.73375],[-122.29381,47.73376],[-122.29469,47.73377],[-122.29516,47.73377],[-122.29531,47.73377],[-122.29652,47.73378],[-122.29788,47.73379],[-122.29923,47.73381],[-122.30059,47.73382],[-122.30195,47.73383],[-122.3036,47.73385],[-122.30457,47.73386],[-122.30484,47.73386],[-122.30599,47.73387],[-122.30617,47.73388],[-122.30733,47.73389],[-122.30804,47.7339],[-122.3084,47.7339],[-122.3087,47.7339],[-122.31005,47.73392],[-122.31275,47.73395],[-122.31544,47.73397],[-122.31676,47.73399],[-122.31812,47.734],[-122.3208,47.73403],[-122.32222,47.73404],[-122.32359,47.73405],[-122.32446,47.73406],[-122.32452,47.73406],[-122.32473,47.73406],[-122.32498,47.73406],[-122.32525,47.73407],[-122.32532,47.73406],[-122.32566,47.73407],[-122.32622,47.73407],[-122.32638,47.73407],[-122.32888,47.73409],[-122.33023,47.7341],[-122.33158,47.73411],[-122.33303,47.73413],[-122.33375,47.73413],[-122.33428,47.73413],[-122.33533,47.73413],[-122.33555,47.73413],[-122.33593,47.73413],[-122.33698,47.73413],[-122.33808,47.73413],[-122.33863,47.73413],[-122.33969,47.73413],[-122.34074,47.73413],[-122.34103,47.73413],[-122.34134,47.73413],[-122.34239,47.73413],[-122.34342,47.73413],[-122.344,47.73413],[-122.34499,47.73413],[-122.3451,47.73413],[-122.34521,47.73413],[-122.3463,47.73413],[-122.3478,47.73413],[-122.35051,47.73413],[-122.35177,47.73413],[-122.35304,47.73413],[-122.35426,47.73413],[-122.35557,47.73413],[-122.35917,47.73414],[-122.36093,47.73414],[-122.36196,47.73414],[-122.36385,47.73414],[-122.36392,47.73414],[-122.3663,47.73414],[-122.36706,47.73414],[-122.36715,47.73414],[-122.36903,47.73415],[-122.37025,47.73416],[-122.37036,47.73416],[-122.37167,47.73416],[-122.37175,47.73416],[-122.37208,47.73416],[-122.37216,47.73416],[-122.37245,47.73416],[-122.37335,47.73416],[-122.37347,47.73416],[-122.3742,47.73416],[-122.37424,47.73416],[-122.3743,47.73416],[-122.37432,47.73416],[-122.37448,47.73416],[-122.37462,47.73416],[-122.37468,47.73416],[-122.37489,47.73416],[-122.37505,47.73416],[-122.38127,47.7343],[-122.42992,47.73528],[-122.43199,47.73241],[-122.43222,47.73193],[-122.43267,47.73096],[-122.43321,47.72958],[-122.43329,47.72935],[-122.43346,47.72891],[-122.434,47.72672],[-122.43406,47.72636],[-122.4344,47.72435],[-122.43532,47.71982],[-122.43579,47.71798],[-122.43661,47.7152],[-122.43688,47.71429],[-122.43705,47.71393],[-122.43746,47.71305],[-122.43929,47.71123],[-122.44002,47.71059],[-122.4416,47.70946],[-122.44431,47.70765],[-122.44491,47.70709],[-122.44566,47.70629],[-122.44643,47.70519],[-122.44692,47.70448],[-122.44805,47.70228],[-122.44853,47.70152],[-122.44883,47.70104],[-122.44893,47.70086],[-122.44931,47.70014],[-122.44986,47.69886],[-122.45063,47.6975],[-122.45156,47.69586],[-122.45191,47.69524],[-122.45274,47.69379],[-122.45303,47.69327],[-122.45332,47.69267],[-122.45443,47.69099],[-122.45476,47.69049],[-122.45609,47.68831],[-122.45697,47.6865],[-122.45749,47.68543],[-122.45761,47.68517],[-122.458,47.68408],[-122.45811,47.68376],[-122.45856,47.6825],[-122.45897,47.68093],[-122.45968,47.67592],[-122.4597,47.67579],[-122.45971,47.67538],[-122.45977,47.67242]]]},"properties":{"GEOID":"5363000","BASENAME":"Seattle","NAME":"Seattle city","STATE":"53","PLACE":"63000","AREALAND":"217623540","AREAWATER":"150342248","LSADC":"25","FUNCSTAT":"A"}}]}