{"type":"Feature","geometry":{"type":"Point","coordinates":[-122.332,47.606,110.01]},"properties":{"parameter":{"T2M":{"20250401":7.23,"20250402":6.94,"20250403":7.2,"20250404":7.85,"20250405":9.27,"20250406":9.93,"20250407":8.82,"20250408":8.09,"20250409":8.45,"20250410":9.53,"20250411":8.85,"20250412":7.86,"20250413":7.42,"20250414":8.74,"20250415":10.28,"20250416":10.39,"20250417":9.7,"20250418":9.07,"20250419":11.08,"20250420":9.05,"20250421":8.1,"20250422":8.03,"20250423":9.33,"20250424":11.08,"20250425":12.26,"20250426":11.08,"20250427":9.32,"20250428":8.54,"20250429":9.83,"20250430":9.05,"20250501":11.51,"20250502":14.45,"20250503":11.22,"20250504":9.09,"20250505":8.74,"20250506":12.28,"20250507":13.78,"20250508":9.21,"20250509":10.19,"20250510":11.22,"20250511":9.91,"20250512":10.19,"20250513":10.25,"20250514":10.89,"20250515":8.98,"20250516":9.35,"20250517":10.9,"20250518":9.82,"20250519":10.34,"20250520":10.38,"20250521":10.73,"20250522":11.16,"20250523":11.79,"20250524":11.45,"20250525":12.23,"20250526":12.85,"20250527":12.6,"20250528":16.75,"20250529":14.01,"20250530":13.0,"20250531":14.28,"20250601":11.74,"20250602":12.95,"20250603":11.77,"20250604":12.31,"20250605":11.64,"20250606":17.08,"20250607":16.96,"20250608":18.66,"20250609":19.78,"20250610":18.98,"20250611":16.79,"20250612":12.81,"20250613":11.56,"20250614":11.41,"20250615":10.69,"20250616":12.83,"20250617":13.66,"20250618":15.56,"20250619":12.21,"20250620":11.53,"20250621":10.88,"20250622":9.28,"20250623":10.94,"20250624":16.81,"20250625":14.91,"20250626":14.13,"20250627":13.97,"20250628":12.67,"20250629":14.79,"20250630":17.45,"20250701":18.64,"20250702":17.9,"20250703":13.95,"20250704":10.66,"20250705":11.38,"20250706":12.98,"20250707":17.05,"20250708":17.82,"20250709":15.76,"20250710":13.84,"20250711":14.19,"20250712":18.12,"20250713":19.43,"20250714":18.36,"20250715":16.09,"20250716":20.35,"20250717":20.22,"20250718":17.82,"20250719":14.47,"20250720":11.31,"20250721":11.09,"20250722":14.52,"20250723":16.2,"20250724":18.33,"20250725":13.94,"20250726":10.33,"20250727":10.2,"20250728":11.84,"20250729":15.75,"20250730":18.26,"20250731":18.6,"20250801":17.43,"20250802":17.33,"20250803":13.74,"20250804":10.63,"20250805":12.18,"20250806":14.67,"20250807":15.42,"20250808":13.14,"20250809":15.98,"20250810":16.91,"20250811":19.7,"20250812":20.16,"20250813":20.29,"20250814":16.84,"20250815":16.17,"20250816":16.61,"20250817":14.77,"20250818":11.43,"20250819":13.21,"20250820":15.56,"20250821":14.23,"20250822":17.21,"20250823":19.11,"20250824":19.3,"20250825":18.42,"20250826":17.59,"20250827":17.02,"20250828":18.29,"20250829":18.1,"20250830":16.22,"20250831":16.5,"20250901":17.15,"20250902":16.99,"20250903":17.25,"20250904":16.17,"20250905":17.01,"20250906":15.79,"20250907":14.86,"20250908":13.62,"20250909":14.73,"20250910":13.37,"20250911":13.95,"20250912":11.85,"20250913":12.98,"20250914":12.11,"20250915":10.06,"20250916":15.22,"20250917":17.52,"20250918":13.52,"20250919":12.87,"20250920":14.41,"20250921":13.43,"20250922":9.61,"20250923":13.55,"20250924":14.51,"20250925":12.18,"20250926":10.43,"20250927":11.5,"20250928":14.23,"20250929":13.53,"20250930":11.96},"T2M_MAX":{"20250401":11.77,"20250402":11.41,"20250403":11.17,"20250404":15.21,"20250405":15.44,"20250406":16.24,"20250407":11.09,"20250408":11.33,"20250409":12.47,"20250410":15.04,"20250411":13.24,"20250412":12.5,"20250413":13.76,"20250414":17.46,"20250415":18.1,"20250416":17.18,"20250417":16.65,"20250418":15.4,"20250419":15.65,"20250420":14.05,"20250421":12.7,"20250422":13.89,"20250423":16.61,"20250424":19.16,"20250425":19.92,"20250426":19.03,"20250427":13.25,"20250428":12.78,"20250429":12.4,"20250430":14.17,"20250501":23.08,"20250502":24.49,"20250503":16.88,"20250504":14.92,"20250505":14.97,"20250506":21.93,"20250507":20.82,"20250508":14.19,"20250509":15.63,"20250510":16.18,"20250511":13.43,"20250512":15.21,"20250513":14.36,"20250514":13.69,"20250515":13.23,"20250516":12.28,"20250517":14.0,"20250518":15.44,"20250519":14.55,"20250520":14.78,"20250521":14.66,"20250522":15.96,"20250523":15.76,"20250524":17.96,"20250525":17.99,"20250526":16.9,"20250527":21.37,"20250528":24.08,"20250529":22.26,"20250530":20.82,"20250531":21.45,"20250601":17.72,"20250602":17.48,"20250603":19.22,"20250604":19.38,"20250605":18.49,"20250606":23.33,"20250607":23.05,"20250608":26.25,"20250609":27.93,"20250610":29.24,"20250611":25.49,"20250612":17.66,"20250613":16.12,"20250614":14.46,"20250615":17.52,"20250616":18.14,"20250617":19.33,"20250618":19.39,"20250619":17.09,"20250620":15.02,"20250621":14.41,"20250622":12.77,"20250623":17.03,"20250624":23.36,"20250625":22.4,"20250626":18.54,"20250627":17.5,"20250628":17.9,"20250629":21.57,"20250630":24.59,"20250701":26.01,"20250702":25.41,"20250703":20.54,"20250704":16.42,"20250705":16.31,"20250706":20.25,"20250707":23.95,"20250708":24.1,"20250709":23.67,"20250710":17.96,"20250711":22.57,"20250712":24.56,"20250713":26.73,"20250714":26.37,"20250715":24.54,"20250716":27.6,"20250717":27.2,"20250718":24.97,"20250719":20.54,"20250720":15.43,"20250721":16.01,"20250722":18.92,"20250723":24.82,"20250724":25.97,"20250725":21.68,"20250726":14.02,"20250727":18.29,"20250728":18.81,"20250729":23.48,"20250730":24.88,"20250731":23.01,"20250801":21.75,"20250802":21.69,"20250803":20.12,"20250804":15.61,"20250805":17.32,"20250806":20.7,"20250807":20.68,"20250808":18.4,"20250809":22.53,"20250810":25.29,"20250811":25.12,"20250812":29.31,"20250813":30.27,"20250814":23.16,"20250815":18.94,"20250816":21.46,"20250817":20.06,"20250818":16.41,"20250819":18.4,"20250820":21.29,"20250821":20.92,"20250822":26.52,"20250823":28.08,"20250824":25.77,"20250825":25.15,"20250826":24.4,"20250827":22.0,"20250828":24.65,"20250829":23.95,"20250830":21.04,"20250831":23.03,"20250901":22.42,"20250902":23.05,"20250903":22.23,"20250904":20.86,"20250905":22.61,"20250906":20.28,"20250907":17.69,"20250908":18.4,"20250909":18.17,"20250910":18.9,"20250911":19.31,"20250912":14.73,"20250913":17.54,"20250914":16.58,"20250915":13.51,"20250916":29.42,"20250917":27.31,"20250918":21.86,"20250919":19.88,"20250920":20.33,"20250921":19.16,"20250922":13.52,"20250923":21.11,"20250924":20.79,"20250925":19.62,"20250926":14.84,"20250927":19.07,"20250928":18.65,"20250929":17.25,"20250930":15.39},"T2M_MIN":{"20250401":4.98,"20250402":3.65,"20250403":4.64,"20250404":3.05,"20250405":4.24,"20250406":7.63,"20250407":6.65,"20250408":5.98,"20250409":6.06,"20250410":6.17,"20250411":4.7,"20250412":3.73,"20250413":2.63,"20250414":4.11,"20250415":4.48,"20250416":4.81,"20250417":2.84,"20250418":2.27,"20250419":7.04,"20250420":5.25,"20250421":4.8,"20250422":3.43,"20250423":4.57,"20250424":4.69,"20250425":5.5,"20250426":7.1,"20250427":7.42,"20250428":6.61,"20250429":8.11,"20250430":6.19,"20250501":5.95,"20250502":7.84,"20250503":7.72,"20250504":4.51,"20250505":3.24,"20250506":5.61,"20250507":10.85,"20250508":4.99,"20250509":5.11,"20250510":8.0,"20250511":7.02,"20250512":6.5,"20250513":6.86,"20250514":8.02,"20250515":6.49,"20250516":7.01,"20250517":8.05,"20250518":5.11,"20250519":7.1,"20250520":7.47,"20250521":7.03,"20250522":6.75,"20250523":8.47,"20250524":6.76,"20250525":7.8,"20250526":9.47,"20250527":7.72,"20250528":10.68,"20250529":10.08,"20250530":7.6,"20250531":12.34,"20250601":7.23,"20250602":8.18,"20250603":6.45,"20250604":8.42,"20250605":7.84,"20250606":12.19,"20250607":11.65,"20250608":12.98,"20250609":13.15,"20250610":12.8,"20250611":12.15,"20250612":9.13,"20250613":8.36,"20250614":9.1,"20250615":7.55,"20250616":7.87,"20250617":8.37,"20250618":12.5,"20250619":9.85,"20250620":8.78,"20250621":8.45,"20250622":7.19,"20250623":7.71,"20250624":11.24,"20250625":11.29,"20250626":11.62,"20250627":10.78,"20250628":8.74,"20250629":8.61,"20250630":12.37,"20250701":11.67,"20250702":13.1,"20250703":10.92,"20250704":8.31,"20250705":9.1,"20250706":8.69,"20250707":12.07,"20250708":12.02,"20250709":12.53,"20250710":10.97,"20250711":8.76,"20250712":11.95,"20250713":13.46,"20250714":14.68,"20250715":9.85,"20250716":13.31,"20250717":14.02,"20250718":13.1,"20250719":11.64,"20250720":8.19,"20250721":8.43,"20250722":10.8,"20250723":10.91,"20250724":12.78,"20250725":10.96,"20250726":7.88,"20250727":5.94,"20250728":7.7,"20250729":9.95,"20250730":13.5,"20250731":14.19,"20250801":13.84,"20250802":14.44,"20250803":9.96,"20250804":8.43,"20250805":8.25,"20250806":11.73,"20250807":11.31,"20250808":9.75,"20250809":9.56,"20250810":11.45,"20250811":15.25,"20250812":14.42,"20250813":15.32,"20250814":13.13,"20250815":14.98,"20250816":13.28,"20250817":11.03,"20250818":8.66,"20250819":9.62,"20250820":11.15,"20250821":9.08,"20250822":11.67,"20250823":12.25,"20250824":15.02,"20250825":13.19,"20250826":12.81,"20250827":14.03,"20250828":13.49,"20250829":13.55,"20250830":12.11,"20250831":13.11,"20250901":12.97,"20250902":12.61,"20250903":14.63,"20250904":13.01,"20250905":13.04,"20250906":13.04,"20250907":12.09,"20250908":9.3,"20250909":11.59,"20250910":9.11,"20250911":11.57,"20250912":9.74,"20250913":9.83,"20250914":10.38,"20250915":7.81,"20250916":9.47,"20250917":12.07,"20250918":11.47,"20250919":8.81,"20250920":9.92,"20250921":10.11,"20250922":6.66,"20250923":9.84,"20250924":10.58,"20250925":9.76,"20250926":7.76,"20250927":8.21,"20250928":11.53,"20250929":10.14,"20250930":8.85},"PRECTOTCORR":{"20250401":4.8,"20250402":2.42,"20250403":1.48,"20250404":0.03,"20250405":0.0,"20250406":9.96,"20250407":14.4,"20250408":14.54,"20250409":1.37,"20250410":4.65,"20250411":2.08,"20250412":2.93,"20250413":0.07,"20250414":0.01,"20250415":0.05,"20250416":0.04,"20250417":0.0,"20250418":0.04,"20250419":0.84,"20250420":3.82,"20250421":2.67,"20250422":0.15,"20250423":0.01,"20250424":0.04,"20250425":0.03,"20250426":0.25,"20250427":0.22,"20250428":0.8,"20250429":4.2,"20250430":0.44,"20250501":0.07,"20250502":0.14,"20250503":2.89,"20250504":0.8,"20250505":0.04,"20250506":0.08,"20250507":1.37,"20250508":0.19,"20250509":0.01,"20250510":0.26,"20250511":3.58,"20250512":1.87,"20250513":0.44,"20250514":1.52,"20250515":3.13,"20250516":2.87,"20250517":8.55,"20250518":3.43,"20250519":6.15,"20250520":5.32,"20250521":1.72,"20250522":0.37,"20250523":0.48,"20250524":0.02,"20250525":0.47,"20250526":2.58,"20250527":0.12,"20250528":0.03,"20250529":3.28,"20250530":0.12,"20250531":4.18,"20250601":0.2,"20250602":0.0,"20250603":0.08,"20250604":0.98,"20250605":0.74,"20250606":0.04,"20250607":0.16,"20250608":0.0,"20250609":0.0,"20250610":0.05,"20250611":0.15,"20250612":0.23,"20250613":0.69,"20250614":0.44,"20250615":0.5,"20250616":0.46,"20250617":0.12,"20250618":1.6,"20250619":0.89,"20250620":3.17,"20250621":9.8,"20250622":1.6,"20250623":0.65,"20250624":0.01,"20250625":1.05,"20250626":2.49,"20250627":2.34,"20250628":1.06,"20250629":0.26,"20250630":0.0,"20250701":0.08,"20250702":0.16,"20250703":1.23,"20250704":0.87,"20250705":0.63,"20250706":0.53,"20250707":0.27,"20250708":0.11,"20250709":1.59,"20250710":0.89,"20250711":0.17,"20250712":0.39,"20250713":0.03,"20250714":1.73,"20250715":0.34,"20250716":0.04,"20250717":0.16,"20250718":0.19,"20250719":0.48,"20250720":0.4,"20250721":1.74,"20250722":0.87,"20250723":0.79,"20250724":0.1,"20250725":2.22,"20250726":0.92,"20250727":0.64,"20250728":0.71,"20250729":0.2,"20250730":0.18,"20250731":0.33,"20250801":0.7,"20250802":1.46,"20250803":1.0,"20250804":2.36,"20250805":0.33,"20250806":7.18,"20250807":1.63,"20250808":1.37,"20250809":0.19,"20250810":0.52,"20250811":0.02,"20250812":0.02,"20250813":0.58,"20250814":2.01,"20250815":13.77,"20250816":10.42,"20250817":1.07,"20250818":0.8,"20250819":0.56,"20250820":1.18,"20250821":0.15,"20250822":0.52,"20250823":0.04,"20250824":0.0,"20250825":0.02,"20250826":0.04,"20250827":22.13,"20250828":1.49,"20250829":0.05,"20250830":0.23,"20250831":0.62,"20250901":0.3,"20250902":0.75,"20250903":0.11,"20250904":0.01,"20250905":0.04,"20250906":1.05,"20250907":3.5,"20250908":0.46,"20250909":2.31,"20250910":0.83,"20250911":7.74,"20250912":2.96,"20250913":3.41,"20250914":6.14,"20250915":0.85,"20250916":0.27,"20250917":0.0,"20250918":1.49,"20250919":0.51,"20250920":0.31,"20250921":8.91,"20250922":1.94,"20250923":1.1,"20250924":0.06,"20250925":0.9,"20250926":0.35,"20250927":0.86,"20250928":0.11,"20250929":6.65,"20250930":4.55},"WS10M":{"20250401":1.38,"20250402":1.8,"20250403":1.08,"20250404":1.0,"20250405":1.03,"20250406":1.47,"20250407":2.29,"20250408":3.97,"20250409":1.99,"20250410":2.0,"20250411":1.82,"20250412":0.86,"20250413":1.24,"20250414":1.13,"20250415":1.2,"20250416":1.64,"20250417":1.22,"20250418":1.52,"20250419":1.14,"20250420":1.5,"20250421":1.34,"20250422":1.65,"20250423":0.8,"20250424":1.05,"20250425":1.01,"20250426":1.67,"20250427":1.41,"20250428":1.62,"20250429":1.56,"20250430":1.1,"20250501":0.76,"20250502":1.73,"20250503":1.44,"20250504":1.33,"20250505":0.96,"20250506":0.62,"20250507":1.25,"20250508":1.5,"20250509":1.27,"20250510":1.08,"20250511":1.14,"20250512":0.91,"20250513":1.96,"20250514":1.78,"20250515":1.36,"20250516":1.32,"20250517":1.24,"20250518":2.08,"20250519":2.74,"20250520":2.65,"20250521":1.25,"20250522":1.2,"20250523":0.69,"20250524":1.6,"20250525":0.89,"20250526":1.82,"20250527":1.09,"20250528":1.64,"20250529":2.19,"20250530":0.97,"20250531":1.14,"20250601":1.48,"20250602":1.05,"20250603":1.23,"20250604":1.44,"20250605":1.04,"20250606":0.78,"20250607":1.38,"20250608":1.72,"20250609":1.2,"20250610":0.61,"20250611":1.76,"20250612":2.07,"20250613":1.09,"20250614":1.15,"20250615":1.03,"20250616":0.83,"20250617":1.48,"20250618":2.27,"20250619":0.84,"20250620":2.09,"20250621":1.75,"20250622":1.69,"20250623":1.29,"20250624":1.24,"20250625":1.59,"20250626":1.37,"20250627":1.48,"20250628":1.55,"20250629":1.76,"20250630":2.3,"20250701":1.57,"20250702":1.43,"20250703":1.39,"20250704":1.12,"20250705":1.42,"20250706":0.63,"20250707":1.77,"20250708":1.32,"20250709":2.44,"20250710":1.79,"20250711":1.58,"20250712":1.51,"20250713":1.62,"20250714":1.09,"20250715":2.04,"20250716":1.42,"20250717":0.85,"20250718":2.03,"20250719":1.76,"20250720":1.11,"20250721":0.83,"20250722":1.73,"20250723":0.86,"20250724":1.61,"20250725":1.87,"20250726":0.71,"20250727":1.31,"20250728":1.08,"20250729":1.25,"20250730":1.56,"20250731":1.0,"20250801":0.95,"20250802":1.02,"20250803":0.86,"20250804":1.24,"20250805":1.6,"20250806":2.28,"20250807":1.64,"20250808":1.29,"20250809":1.53,"20250810":1.7,"20250811":1.82,"20250812":1.4,"20250813":1.86,"20250814":1.78,"20250815":3.32,"20250816":2.77,"20250817":1.49,"20250818":0.95,"20250819":1.24,"20250820":0.93,"20250821":2.04,"20250822":1.96,"20250823":1.92,"20250824":1.29,"20250825":1.11,"20250826":1.08,"20250827":1.45,"20250828":0.94,"20250829":1.14,"20250830":1.13,"20250831":1.28,"20250901":1.2,"20250902":1.28,"20250903":1.56,"20250904":1.23,"20250905":1.28,"20250906":1.2,"20250907":2.3,"20250908":0.99,"20250909":0.8,"20250910":0.65,"20250911":1.03,"20250912":1.2,"20250913":1.48,"20250914":1.8,"20250915":1.02,"20250916":1.25,"20250917":1.73,"20250918":1.64,"20250919":1.64,"20250920":1.86,"20250921":2.28,"20250922":1.04,"20250923":1.35,"20250924":1.54,"20250925":1.29,"20250926":1.73,"20250927":1.31,"20250928":1.84,"20250929":2.48,"20250930":1.74},"RH2M":{"20250401":89.64,"20250402":88.31,"20250403":87.7,"20250404":78.24,"20250405":74.47,"20250406":90.06,"20250407":94.64,"20250408":92.49,"20250409":87.49,"20250410":87.56,"20250411":83.18,"20250412":81.0,"20250413":76.73,"20250414":78.21,"20250415":79.78,"20250416":77.97,"20250417":69.49,"20250418":74.88,"20250419":80.37,"20250420":85.53,"20250421":84.56,"20250422":78.85,"20250423":73.35,"20250424":73.25,"20250425":72.13,"20250426":82.94,"20250427":87.89,"20250428":89.91,"20250429":90.6,"20250430":85.12,"20250501":78.7,"20250502":73.87,"20250503":80.04,"20250504":79.49,"20250505":76.56,"20250506":75.54,"20250507":86.92,"20250508":79.8,"20250509":77.91,"20250510":81.04,"20250511":89.04,"20250512":84.84,"20250513":84.87,"20250514":87.28,"20250515":88.21,"20250516":92.84,"20250517":89.58,"20250518":83.31,"20250519":84.87,"20250520":87.78,"20250521":82.51,"20250522":79.44,"20250523":80.61,"20250524":81.6,"20250525":87.08,"20250526":85.05,"20250527":78.47,"20250528":77.72,"20250529":87.93,"20250530":77.99,"20250531":88.35,"20250601":81.02,"20250602":75.5,"20250603":76.27,"20250604":85.14,"20250605":87.84,"20250606":80.53,"20250607":84.91,"20250608":78.45,"20250609":74.24,"20250610":75.11,"20250611":77.32,"20250612":81.25,"20250613":83.58,"20250614":85.77,"20250615":85.1,"20250616":84.27,"20250617":80.29,"20250618":83.28,"20250619":86.45,"20250620":86.47,"20250621":91.92,"20250622":93.27,"20250623":88.86,"20250624":76.76,"20250625":83.44,"20250626":89.81,"20250627":90.15,"20250628":88.0,"20250629":82.63,"20250630":78.06,"20250701":80.09,"20250702":83.63,"20250703":84.21,"20250704":90.6,"20250705":90.46,"20250706":86.74,"20250707":81.11,"20250708":80.48,"20250709":91.15,"20250710":88.7,"20250711":85.88,"20250712":81.85,"20250713":81.47,"20250714":89.12,"20250715":82.71,"20250716":76.47,"20250717":82.09,"20250718":81.46,"20250719":82.85,"20250720":84.68,"20250721":89.92,"20250722":88.25,"20250723":85.72,"20250724":79.67,"20250725":89.86,"20250726":89.32,"20250727":83.24,"20250728":84.83,"20250729":84.95,"20250730":83.99,"20250731":85.04,"20250801":89.78,"20250802":88.51,"20250803":86.95,"20250804":92.31,"20250805":86.06,"20250806":92.19,"20250807":85.34,"20250808":87.69,"20250809":82.67,"20250810":88.24,"20250811":82.58,"20250812":79.43,"20250813":82.11,"20250814":82.12,"20250815":92.38,"20250816":89.61,"20250817":88.62,"20250818":89.57,"20250819":86.91,"20250820":84.83,"20250821":86.1,"20250822":82.4,"20250823":75.85,"20250824":76.14,"20250825":79.5,"20250826":79.71,"20250827":92.62,"20250828":85.64,"20250829":82.71,"20250830":86.51,"20250831":88.52,"20250901":88.21,"20250902":89.52,"20250903":85.59,"20250904":89.53,"20250905":82.0,"20250906":90.22,"20250907":94.51,"20250908":90.01,"20250909":89.26,"20250910":88.33,"20250911":92.76,"20250912":94.08,"20250913":88.22,"20250914":93.45,"20250915":94.11,"20250916":84.8,"20250917":77.48,"20250918":92.16,"20250919":91.48,"20250920":86.91,"20250921":87.6,"20250922":91.21,"20250923":90.01,"20250924":85.8,"20250925":92.63,"20250926":90.01,"20250927":84.77,"20250928":83.08,"20250929":90.43,"20250930":92.34}}},"header":{"title":"NASA/POWER Source Native Resolution Daily Data","api":{"version":"v2.9.6","name":"POWER Daily API"},"sources":["MERRA2","POWER"],"fill_value":-999.0,"time_standard":"UTC","start":"20250401","end":"20250930"},"messages":[],"parameters":{"T2M":{"units":"C","longname":"Temperature at 2 Meters"},"T2M_MAX":{"units":"C","longname":"Temperature at 2 Meters Maximum"},"T2M_MIN":{"units":"C","longname":"Temperature at 2 Meters Minimum"},"PRECTOTCORR":{"units":"mm/day","longname":"Precipitation Corrected"},"WS10M":{"units":"m/s","longname":"Wind Speed at 10 Meters"},"RH2M":{"units":"%","longname":"Relative Humidity at 2 Meters"}},"times":{"data":0.725,"process":0.02}}