{"type":"Feature","geometry":{"type":"Point","coordinates":[-87.63,41.878,180.72]},"properties":{"parameter":{"T2M":{"20250401":2.41,"20250402":7.04,"20250403":8.32,"20250404":5.41,"20250405":5.54,"20250406":4.65,"20250407":2.88,"20250408":0.82,"20250409":2.0,"20250410":3.49,"20250411":4.48,"20250412":6.29,"20250413":8.4,"20250414":10.46,"20250415":7.34,"20250416":4.82,"20250417":6.95,"20250418":12.58,"20250419":10.35,"20250420":8.59,"20250421":10.98,"20250422":10.11,"20250423":13.93,"20250424":11.81,"20250425":7.01,"20250426":6.77,"20250427":8.25,"20250428":12.57,"20250429":15.17,"20250430":9.38,"20250501":12.04,"20250502":8.56,"20250503":6.74,"20250504":6.71,"20250505":8.55,"20250506":11.07,"20250507":11.51,"20250508":8.34,"20250509":8.12,"20250510":10.12,"20250511":9.69,"20250512":12.5,"20250513":14.67,"20250514":14.93,"20250515":16.08,"20250516":17.49,"20250517":13.8,"20250518":11.18,"20250519":7.28,"20250520":10.15,"20250521":9.81,"20250522":9.45,"20250523":9.87,"20250524":9.62,"20250525":10.65,"20250526":10.85,"20250527":12.43,"20250528":12.64,"20250529":13.17,"20250530":15.17,"20250531":11.93,"20250601":11.47,"20250602":14.4,"20250603":18.63,"20250604":15.7,"20250605":14.22,"20250606":15.28,"20250607":15.52,"20250608":17.35,"20250609":16.32,"20250610":16.31,"20250611":19.85,"20250612":18.45,"20250613":17.3,"20250614":16.39,"20250615":16.14,"20250616":19.91,"20250617":21.78,"20250618":21.2,"20250619":19.94,"20250620":21.63,"20250621":23.58,"20250622":25.09,"20250623":25.44,"20250624":25.84,"20250625":21.77,"20250626":25.13,"20250627":24.9,"20250628":22.99,"20250629":24.48,"20250630":25.25,"20250701":24.18,"20250702":25.33,"20250703":25.94,"20250704":25.65,"20250705":26.69,"20250706":24.9,"20250707":21.4,"20250708":22.52,"20250709":22.93,"20250710":22.47,"20250711":23.93,"20250712":24.73,"20250713":23.79,"20250714":24.54,"20250715":25.2,"20250716":26.28,"20250717":21.49,"20250718":20.78,"20250719":23.34,"20250720":22.2,"20250721":21.96,"20250722":23.33,"20250723":24.87,"20250724":26.7,"20250725":24.38,"20250726":24.12,"20250727":25.83,"20250728":26.82,"20250729":26.6,"20250730":25.38,"20250731":22.26,"20250801":21.86,"20250802":21.9,"20250803":22.22,"20250804":22.07,"20250805":23.06,"20250806":23.81,"20250807":25.14,"20250808":26.13,"20250809":26.93,"20250810":26.76,"20250811":25.86,"20250812":25.15,"20250813":24.5,"20250814":23.8,"20250815":25.19,"20250816":26.94,"20250817":24.67,"20250818":24.05,"20250819":24.28,"20250820":22.3,"20250821":22.2,"20250822":22.93,"20250823":23.27,"20250824":20.49,"20250825":18.6,"20250826":19.38,"20250827":20.45,"20250828":19.76,"20250829":18.1,"20250830":19.42,"20250831":19.76,"20250901":20.66,"20250902":21.31,"20250903":20.62,"20250904":16.84,"20250905":17.0,"20250906":16.1,"20250907":16.18,"20250908":17.42,"20250909":17.98,"20250910":19.62,"20250911":19.77,"20250912":20.34,"20250913":20.59,"20250914":20.99,"20250915":21.23,"20250916":21.03,"20250917":21.05,"20250918":21.75,"20250919":22.51,"20250920":22.49,"20250921":21.28,"20250922":22.23,"20250923":21.08,"20250924":19.74,"20250925":19.06,"20250926":20.05,"20250927":21.58,"20250928":21.02,"20250929":21.44,"20250930":20.91},"T2M_MAX":{"20250401":4.98,"20250402":15.0,"20250403":14.3,"20250404":8.07,"20250405":8.37,"20250406":6.11,"20250407":4.59,"20250408":4.01,"20250409":4.56,"20250410":4.76,"20250411":6.65,"20250412":10.76,"20250413":11.29,"20250414":12.15,"20250415":10.0,"20250416":7.78,"20250417":13.62,"20250418":17.19,"20250419":14.84,"20250420":12.37,"20250421":13.7,"20250422":16.58,"20250423":20.0,"20250424":16.39,"20250425":7.91,"20250426":7.62,"20250427":15.2,"20250428":18.28,"20250429":17.18,"20250430":12.96,"20250501":16.03,"20250502":13.74,"20250503":8.06,"20250504":8.25,"20250505":10.73,"20250506":17.67,"20250507":15.54,"20250508":9.57,"20250509":12.11,"20250510":14.11,"20250511":14.39,"20250512":17.83,"20250513":16.74,"20250514":17.34,"20250515":20.78,"20250516":20.44,"20250517":18.37,"20250518":14.59,"20250519":8.31,"20250520":12.31,"20250521":11.78,"20250522":11.59,"20250523":12.82,"20250524":12.56,"20250525":13.29,"20250526":13.47,"20250527":14.99,"20250528":14.06,"20250529":18.32,"20250530":19.18,"20250531":15.83,"20250601":14.42,"20250602":21.22,"20250603":22.86,"20250604":20.6,"20250605":16.84,"20250606":17.37,"20250607":18.76,"20250608":21.64,"20250609":19.38,"20250610":20.47,"20250611":25.43,"20250612":23.56,"20250613":21.28,"20250614":17.7,"20250615":19.85,"20250616":24.37,"20250617":25.5,"20250618":23.79,"20250619":23.95,"20250620":23.73,"20250621":27.39,"20250622":27.64,"20250623":28.35,"20250624":29.32,"20250625":25.8,"20250626":30.11,"20250627":26.54,"20250628":25.26,"20250629":28.43,"20250630":27.56,"20250701":26.75,"20250702":28.94,"20250703":29.86,"20250704":28.45,"20250705":29.98,"20250706":28.27,"20250707":23.19,"20250708":25.09,"20250709":24.64,"20250710":25.01,"20250711":27.16,"20250712":26.61,"20250713":25.76,"20250714":28.13,"20250715":28.85,"20250716":29.2,"20250717":26.36,"20250718":23.52,"20250719":26.1,"20250720":25.1,"20250721":23.68,"20250722":26.48,"20250723":28.7,"20250724":29.12,"20250725":25.83,"20250726":26.7,"20250727":28.21,"20250728":29.41,"20250729":30.47,"20250730":29.3,"20250731":23.26,"20250801":22.59,"20250802":23.83,"20250803":24.07,"20250804":24.3,"20250805":25.19,"20250806":27.16,"20250807":29.05,"20250808":29.76,"20250809":30.36,"20250810":29.5,"20250811":28.16,"20250812":27.46,"20250813":26.69,"20250814":25.9,"20250815":29.77,"20250816":30.99,"20250817":27.03,"20250818":27.92,"20250819":25.94,"20250820":23.65,"20250821":23.02,"20250822":24.84,"20250823":26.59,"20250824":22.87,"20250825":21.2,"20250826":22.01,"20250827":23.76,"20250828":22.86,"20250829":19.25,"20250830":21.6,"20250831":22.4,"20250901":23.04,"20250902":24.16,"20250903":23.54,"20250904":19.45,"20250905":19.51,"20250906":19.62,"20250907":19.08,"20250908":20.77,"20250909":22.17,"20250910":24.82,"20250911":21.85,"20250912":25.58,"20250913":23.75,"20250914":24.36,"20250915":24.25,"20250916":23.89,"20250917":24.22,"20250918":25.49,"20250919":28.0,"20250920":25.42,"20250921":24.89,"20250922":25.49,"20250923":23.17,"20250924":20.46,"20250925":21.23,"20250926":25.78,"20250927":26.5,"20250928":23.27,"20250929":26.49,"20250930":23.45},"T2M_MIN":{"20250401":0.21,"20250402":1.56,"20250403":6.12,"20250404":3.05,"20250405":2.86,"20250406":2.97,"20250407":0.93,"20250408":-1.8,"20250409":0.38,"20250410":2.31,"20250411":2.19,"20250412":2.57,"20250413":6.21,"20250414":9.63,"20250415":4.36,"20250416":2.67,"20250417":2.52,"20250418":9.38,"20250419":6.99,"20250420":6.11,"20250421":8.67,"20250422":6.41,"20250423":10.82,"20250424":6.97,"20250425":5.67,"20250426":5.39,"20250427":4.22,"20250428":8.64,"20250429":12.96,"20250430":6.45,"20250501":9.28,"20250502":6.2,"20250503":5.73,"20250504":5.53,"20250505":7.27,"20250506":6.84,"20250507":7.32,"20250508":7.11,"20250509":5.74,"20250510":8.26,"20250511":6.8,"20250512":8.4,"20250513":13.07,"20250514":13.16,"20250515":13.38,"20250516":13.6,"20250517":10.88,"20250518":8.32,"20250519":6.24,"20250520":8.01,"20250521":8.66,"20250522":7.88,"20250523":6.73,"20250524":6.96,"20250525":8.59,"20250526":8.34,"20250527":10.95,"20250528":11.61,"20250529":9.79,"20250530":10.97,"20250531":9.55,"20250601":9.5,"20250602":10.32,"20250603":15.22,"20250604":12.94,"20250605":12.15,"20250606":12.86,"20250607":13.82,"20250608":14.64,"20250609":13.47,"20250610":12.79,"20250611":15.49,"20250612":14.52,"20250613":14.19,"20250614":15.01,"20250615":13.55,"20250616":16.69,"20250617":18.86,"20250618":18.29,"20250619":17.71,"20250620":18.93,"20250621":21.05,"20250622":22.46,"20250623":22.45,"20250624":23.32,"20250625":18.84,"20250626":20.6,"20250627":22.91,"20250628":20.28,"20250629":21.48,"20250630":23.19,"20250701":21.51,"20250702":21.75,"20250703":22.29,"20250704":23.5,"20250705":22.94,"20250706":22.27,"20250707":19.99,"20250708":20.84,"20250709":21.3,"20250710":20.25,"20250711":21.62,"20250712":23.36,"20250713":21.06,"20250714":21.43,"20250715":22.08,"20250716":23.92,"20250717":18.89,"20250718":18.47,"20250719":20.19,"20250720":20.89,"20250721":20.31,"20250722":20.79,"20250723":21.3,"20250724":24.79,"20250725":23.61,"20250726":22.32,"20250727":23.92,"20250728":24.8,"20250729":23.52,"20250730":21.93,"20250731":21.49,"20250801":20.22,"20250802":20.08,"20250803":20.2,"20250804":20.27,"20250805":20.55,"20250806":20.69,"20250807":22.32,"20250808":22.85,"20250809":23.64,"20250810":23.92,"20250811":23.31,"20250812":23.12,"20250813":22.41,"20250814":21.6,"20250815":21.58,"20250816":23.57,"20250817":23.13,"20250818":21.06,"20250819":23.5,"20250820":21.68,"20250821":21.14,"20250822":21.15,"20250823":20.62,"20250824":18.06,"20250825":15.75,"20250826":16.64,"20250827":17.13,"20250828":17.42,"20250829":16.25,"20250830":17.57,"20250831":17.93,"20250901":19.12,"20250902":19.4,"20250903":18.53,"20250904":13.52,"20250905":14.76,"20250906":12.47,"20250907":12.89,"20250908":13.3,"20250909":13.5,"20250910":15.63,"20250911":18.19,"20250912":17.53,"20250913":17.65,"20250914":18.16,"20250915":18.0,"20250916":17.97,"20250917":18.54,"20250918":18.91,"20250919":19.22,"20250920":20.02,"20250921":18.53,"20250922":19.68,"20250923":19.45,"20250924":18.82,"20250925":17.61,"20250926":16.06,"20250927":17.36,"20250928":19.12,"20250929":19.07,"20250930":18.87},"PRECTOTCORR":{"20250401":0.11,"20250402":28.3,"20250403":1.03,"20250404":4.61,"20250405":2.11,"20250406":0.0,"20250407":0.09,"20250408":0.0,"20250409":1.78,"20250410":0.43,"20250411":0.02,"20250412":0.0,"20250413":0.0,"20250414":0.0,"20250415":0.5,"20250416":0.0,"20250417":0.74,"20250418":1.78,"20250419":1.34,"20250420":0.09,"20250421":7.38,"20250422":0.79,"20250423":3.09,"20250424":0.0,"20250425":3.89,"20250426":1.79,"20250427":0.0,"20250428":0.0,"20250429":0.0,"20250430":1.88,"20250501":12.02,"20250502":0.4,"20250503":0.06,"20250504":1.78,"20250505":3.59,"20250506":0.0,"20250507":0.0,"20250508":0.08,"20250509":0.0,"20250510":0.0,"20250511":0.0,"20250512":0.07,"20250513":0.36,"20250514":0.29,"20250515":1.93,"20250516":1.29,"20250517":0.12,"20250518":0.0,"20250519":0.0,"20250520":15.08,"20250521":7.07,"20250522":0.36,"20250523":0.02,"20250524":0.0,"20250525":0.42,"20250526":0.0,"20250527":0.0,"20250528":9.1,"20250529":0.07,"20250530":0.11,"20250531":0.2,"20250601":0.0,"20250602":0.0,"20250603":6.4,"20250604":18.07,"20250605":0.89,"20250606":0.0,"20250607":0.38,"20250608":5.41,"20250609":1.85,"20250610":0.03,"20250611":0.0,"20250612":0.04,"20250613":0.38,"20250614":0.17,"20250615":0.0,"20250616":0.0,"20250617":1.59,"20250618":24.79,"20250619":9.58,"20250620":0.17,"20250621":0.02,"20250622":0.0,"20250623":0.0,"20250624":5.74,"20250625":3.3,"20250626":7.03,"20250627":4.44,"20250628":0.0,"20250629":1.02,"20250630":3.62,"20250701":0.07,"20250702":0.0,"20250703":0.39,"20250704":2.51,"20250705":0.01,"20250706":6.16,"20250707":1.6,"20250708":1.3,"20250709":3.11,"20250710":0.52,"20250711":23.98,"20250712":5.04,"20250713":0.0,"20250714":0.0,"20250715":0.2,"20250716":5.85,"20250717":0.72,"20250718":0.0,"20250719":7.38,"20250720":10.88,"20250721":0.0,"20250722":0.0,"20250723":0.11,"20250724":4.64,"20250725":3.79,"20250726":13.74,"20250727":1.89,"20250728":2.48,"20250729":0.01,"20250730":8.8,"20250731":7.97,"20250801":0.0,"20250802":0.0,"20250803":0.0,"20250804":0.0,"20250805":0.0,"20250806":0.0,"20250807":0.0,"20250808":0.0,"20250809":0.27,"20250810":1.99,"20250811":2.22,"20250812":11.07,"20250813":3.19,"20250814":0.0,"20250815":0.0,"20250816":0.99,"20250817":34.38,"20250818":18.5,"20250819":22.84,"20250820":0.0,"20250821":0.0,"20250822":0.0,"20250823":0.14,"20250824":0.91,"20250825":0.34,"20250826":0.03,"20250827":0.04,"20250828":5.26,"20250829":0.01,"20250830":0.12,"20250831":0.0,"20250901":0.0,"20250902":0.23,"20250903":3.22,"20250904":0.13,"20250905":0.0,"20250906":0.01,"20250907":0.04,"20250908":0.0,"20250909":0.0,"20250910":0.0,"20250911":0.0,"20250912":0.03,"20250913":16.14,"20250914":0.17,"20250915":0.0,"20250916":0.0,"20250917":0.0,"20250918":0.0,"20250919":0.15,"20250920":2.73,"20250921":6.13,"20250922":3.71,"20250923":3.66,"20250924":0.11,"20250925":0.01,"20250926":0.0,"20250927":0.0,"20250928":0.0,"20250929":0.0,"20250930":0.0},"WS10M":{"20250401":6.07,"20250402":11.11,"20250403":7.14,"20250404":4.46,"20250405":6.58,"20250406":4.02,"20250407":8.45,"20250408":4.95,"20250409":6.49,"20250410":4.57,"20250411":4.21,"20250412":2.26,"20250413":6.23,"20250414":6.76,"20250415":8.96,"20250416":4.46,"20250417":6.76,"20250418":8.57,"20250419":4.25,"20250420":5.63,"20250421":10.16,"20250422":3.78,"20250423":3.77,"20250424":4.33,"20250425":5.56,"20250426":7.81,"20250427":3.65,"20250428":6.63,"20250429":8.83,"20250430":3.54,"20250501":6.13,"20250502":3.58,"20250503":6.76,"20250504":7.08,"20250505":5.24,"20250506":3.69,"20250507":3.57,"20250508":8.18,"20250509":3.9,"20250510":4.96,"20250511":5.43,"20250512":4.3,"20250513":4.08,"20250514":2.8,"20250515":5.32,"20250516":6.78,"20250517":8.29,"20250518":4.89,"20250519":6.61,"20250520":9.1,"20250521":5.45,"20250522":5.92,"20250523":3.47,"20250524":2.88,"20250525":3.44,"20250526":4.56,"20250527":4.62,"20250528":3.22,"20250529":2.27,"20250530":3.37,"20250531":5.38,"20250601":2.08,"20250602":4.06,"20250603":7.48,"20250604":5.78,"20250605":5.02,"20250606":3.38,"20250607":3.87,"20250608":3.3,"20250609":6.0,"20250610":4.99,"20250611":5.1,"20250612":3.78,"20250613":2.79,"20250614":4.73,"20250615":3.74,"20250616":2.75,"20250617":4.61,"20250618":3.6,"20250619":5.35,"20250620":4.19,"20250621":7.45,"20250622":6.79,"20250623":6.28,"20250624":3.56,"20250625":2.78,"20250626":2.92,"20250627":4.71,"20250628":2.8,"20250629":3.15,"20250630":2.84,"20250701":4.31,"20250702":2.68,"20250703":2.52,"20250704":2.67,"20250705":4.89,"20250706":6.23,"20250707":5.83,"20250708":2.49,"20250709":2.91,"20250710":3.21,"20250711":4.42,"20250712":4.63,"20250713":3.16,"20250714":0.85,"20250715":2.47,"20250716":3.65,"20250717":6.76,"20250718":3.19,"20250719":3.72,"20250720":5.04,"20250721":4.67,"20250722":3.8,"20250723":4.99,"20250724":5.35,"20250725":3.04,"20250726":2.25,"20250727":2.51,"20250728":2.07,"20250729":2.24,"20250730":3.66,"20250731":9.06,"20250801":5.99,"20250802":3.55,"20250803":3.26,"20250804":3.65,"20250805":3.59,"20250806":2.63,"20250807":3.11,"20250808":4.75,"20250809":5.6,"20250810":5.09,"20250811":4.85,"20250812":2.71,"20250813":3.49,"20250814":3.22,"20250815":1.95,"20250816":2.78,"20250817":3.97,"20250818":5.49,"20250819":5.63,"20250820":5.57,"20250821":4.77,"20250822":1.68,"20250823":5.32,"20250824":6.39,"20250825":6.26,"20250826":5.25,"20250827":2.62,"20250828":5.55,"20250829":4.71,"20250830":3.16,"20250831":3.05,"20250901":2.92,"20250902":1.79,"20250903":5.54,"20250904":5.78,"20250905":8.66,"20250906":6.54,"20250907":4.75,"20250908":2.89,"20250909":4.07,"20250910":2.57,"20250911":3.74,"20250912":3.1,"20250913":4.62,"20250914":3.69,"20250915":4.33,"20250916":3.43,"20250917":2.25,"20250918":1.93,"20250919":3.62,"20250920":3.23,"20250921":3.4,"20250922":3.4,"20250923":4.33,"20250924":6.2,"20250925":5.1,"20250926":2.98,"20250927":4.2,"20250928":3.93,"20250929":2.22,"20250930":3.44},"RH2M":{"20250401":64.88,"20250402":90.29,"20250403":82.35,"20250404":82.86,"20250405":86.87,"20250406":72.87,"20250407":71.75,"20250408":60.17,"20250409":80.22,"20250410":90.39,"20250411":80.73,"20250412":68.14,"20250413":74.32,"20250414":80.68,"20250415":71.4,"20250416":72.32,"20250417":74.64,"20250418":91.12,"20250419":87.51,"20250420":78.26,"20250421":80.17,"20250422":75.7,"20250423":80.64,"20250424":80.8,"20250425":91.06,"20250426":82.94,"20250427":76.49,"20250428":74.63,"20250429":80.12,"20250430":77.91,"20250501":88.46,"20250502":95.42,"20250503":88.73,"20250504":87.11,"20250505":89.9,"20250506":83.1,"20250507":81.4,"20250508":83.98,"20250509":72.94,"20250510":66.52,"20250511":78.23,"20250512":79.5,"20250513":93.88,"20250514":93.69,"20250515":93.06,"20250516":70.4,"20250517":69.62,"20250518":81.47,"20250519":87.0,"20250520":88.9,"20250521":92.67,"20250522":83.69,"20250523":79.63,"20250524":80.33,"20250525":76.83,"20250526":78.38,"20250527":81.5,"20250528":87.39,"20250529":82.01,"20250530":71.68,"20250531":78.53,"20250601":67.71,"20250602":65.16,"20250603":73.75,"20250604":88.66,"20250605":84.33,"20250606":77.36,"20250607":80.69,"20250608":81.86,"20250609":81.33,"20250610":76.65,"20250611":70.59,"20250612":83.5,"20250613":90.29,"20250614":89.28,"20250615":85.19,"20250616":77.25,"20250617":82.12,"20250618":90.15,"20250619":83.78,"20250620":78.31,"20250621":83.32,"20250622":83.61,"20250623":79.05,"20250624":76.99,"20250625":87.25,"20250626":82.64,"20250627":83.68,"20250628":79.45,"20250629":73.07,"20250630":82.24,"20250701":73.61,"20250702":65.42,"20250703":67.84,"20250704":73.76,"20250705":68.11,"20250706":77.27,"20250707":81.89,"20250708":74.28,"20250709":86.47,"20250710":77.34,"20250711":84.7,"20250712":82.95,"20250713":80.87,"20250714":56.39,"20250715":58.61,"20250716":82.1,"20250717":82.39,"20250718":70.87,"20250719":75.72,"20250720":88.95,"20250721":75.7,"20250722":68.43,"20250723":76.49,"20250724":83.76,"20250725":85.3,"20250726":88.48,"20250727":89.34,"20250728":86.06,"20250729":76.34,"20250730":84.69,"20250731":76.25,"20250801":64.53,"20250802":56.88,"20250803":63.98,"20250804":72.38,"20250805":68.16,"20250806":70.34,"20250807":65.9,"20250808":75.1,"20250809":74.55,"20250810":73.52,"20250811":77.51,"20250812":84.93,"20250813":83.04,"20250814":69.1,"20250815":61.24,"20250816":74.03,"20250817":84.43,"20250818":81.02,"20250819":88.19,"20250820":83.62,"20250821":70.29,"20250822":70.6,"20250823":74.29,"20250824":69.71,"20250825":69.18,"20250826":59.65,"20250827":53.35,"20250828":78.14,"20250829":67.62,"20250830":62.04,"20250831":59.96,"20250901":63.55,"20250902":65.41,"20250903":72.95,"20250904":64.48,"20250905":63.85,"20250906":63.64,"20250907":61.4,"20250908":53.58,"20250909":57.5,"20250910":63.29,"20250911":78.62,"20250912":76.33,"20250913":71.46,"20250914":80.74,"20250915":72.12,"20250916":74.17,"20250917":72.39,"20250918":61.26,"20250919":70.8,"20250920":71.5,"20250921":81.91,"20250922":82.88,"20250923":86.54,"20250924":82.96,"20250925":81.93,"20250926":73.38,"20250927":65.49,"20250928":72.84,"20250929":62.87,"20250930":76.23}}},"header":{"title":"NASA/POWER Source Native Resolution Daily Data","api":{"version":"v2.9.6","name":"POWER Daily API"},"sources":["MERRA2","POWER"],"fill_value":-999.0,"time_standard":"UTC","start":"20250401","end":"20250930"},"messages":[],"parameters":{"T2M":{"units":"C","longname":"Temperature at 2 Meters"},"T2M_MAX":{"units":"C","longname":"Temperature at 2 Meters Maximum"},"T2M_MIN":{"units":"C","longname":"Temperature at 2 Meters Minimum"},"PRECTOTCORR":{"units":"mm/day","longname":"Precipitation Corrected"},"WS10M":{"units":"m/s","longname":"Wind Speed at 10 Meters"},"RH2M":{"units":"%","longname":"Relative Humidity at 2 Meters"}},"times":{"data":0.707,"process":0.01}}