{"type":"FeatureCollection","metadata":{"generated":1786525527000,"url":"https://earthquake.usgs.gov/fdsnws/event/1/query?format=geojson&starttime=2020-01-01T00%3A00%3A00Z&endtime=2020-01-02T00%3A00%3A00Z&minmagnitude=5.0&limit=5&orderby=time-asc","title":"USGS Earthquakes","status":200,"api":"2.7.0","limit":5,"offset":1},"features":[{"type":"Feature","properties":{"mag":5.1,"place":"112 km SSE of Kokopo, Papua New Guinea","time":1577838500289,"updated":1766427900644,"tz":null,"url":"https://earthquake.usgs.gov/earthquakes/eventpage/us70006t13","detail":"https://earthquake.usgs.gov/fdsnws/event/1/query?eventid=us70006t13&format=geojson","felt":null,"cdi":null,"mmi":null,"alert":null,"status":"reviewed","tsunami":0,"sig":400,"net":"us","code":"70006t13","ids":",iscgem617049575,us70006t13,","sources":",iscgem,us,","types":",origin,phase-data,","nst":null,"dmin":1.19,"rms":0.79,"gap":74,"magType":"mb","type":"earthquake","title":"M 5.1 - 112 km SSE of Kokopo, Papua New Guinea"},"geometry":{"type":"Point","coordinates":[152.5514,-5.3245,40.24]},"id":"us70006t13"},
{"type":"Feature","properties":{"mag":5,"place":"56 km SE of Petropavlovsk-Kamchatsky, Russia","time":1577850809023,"updated":1766426197541,"tz":null,"url":"https://earthquake.usgs.gov/earthquakes/eventpage/us70006t2a","detail":"https://earthquake.usgs.gov/fdsnws/event/1/query?eventid=us70006t2a&format=geojson","felt":4,"cdi":3.4,"mmi":null,"alert":null,"status":"reviewed","tsunami":0,"sig":386,"net":"us","code":"70006t2a","ids":",us70006t2a,iscgem617050226,","sources":",us,iscgem,","types":",dyfi,origin,phase-data,","nst":null,"dmin":0.496,"rms":0.66,"gap":94,"magType":"mb","type":"earthquake","title":"M 5.0 - 56 km SE of Petropavlovsk-Kamchatsky, Russia"},"geometry":{"type":"Point","coordinates":[159.1614,52.6367,58.46]},"id":"us70006t2a"},
{"type":"Feature","properties":{"mag":5.4,"place":"207 km NE of Neiafu, Tonga","time":1577867484136,"updated":1766427901931,"tz":null,"url":"https://earthquake.usgs.gov/earthquakes/eventpage/us70006t3c","detail":"https://earthquake.usgs.gov/fdsnws/event/1/query?eventid=us70006t3c&format=geojson","felt":null,"cdi":null,"mmi":0,"alert":"green","status":"reviewed","tsunami":0,"sig":449,"net":"us","code":"70006t3c","ids":",us70006t3c,iscgem617050239,","sources":",us,iscgem,","types":",losspager,moment-tensor,origin,phase-data,shakemap,","nst":null,"dmin":2.947,"rms":1.44,"gap":40,"magType":"mww","type":"earthquake","title":"M 5.4 - 207 km NE of Neiafu, Tonga"},"geometry":{"type":"Point","coordinates":[-172.5044,-17.428,10]},"id":"us70006t3c"},
{"type":"Feature","properties":{"mag":5,"place":"southwest of Africa","time":1577896499178,"updated":1584810801040,"tz":null,"url":"https://earthquake.usgs.gov/earthquakes/eventpage/us70006t6a","detail":"https://earthquake.usgs.gov/fdsnws/event/1/query?eventid=us70006t6a&format=geojson","felt":null,"cdi":null,"mmi":null,"alert":null,"status":"reviewed","tsunami":0,"sig":385,"net":"us","code":"70006t6a","ids":",us70006t6a,","sources":",us,","types":",origin,phase-data,","nst":null,"dmin":19.424,"rms":0.83,"gap":105,"magType":"mb","type":"earthquake","title":"M 5.0 - southwest of Africa"},"geometry":{"type":"Point","coordinates":[9.5001,-53.0907,10]},"id":"us70006t6a"},
{"type":"Feature","properties":{"mag":5,"place":"42 km SSW of Coquimbo, Chile","time":1577897492285,"updated":1659981080636,"tz":null,"url":"https://earthquake.usgs.gov/earthquakes/eventpage/us70006t6h","detail":"https://earthquake.usgs.gov/fdsnws/event/1/query?eventid=us70006t6h&format=geojson","felt":10,"cdi":4.1,"mmi":null,"alert":null,"status":"reviewed","tsunami":0,"sig":389,"net":"us","code":"70006t6h","ids":",us70006t6h,","sources":",us,","types":",dyfi,moment-tensor,origin,phase-data,","nst":null,"dmin":0.392,"rms":0.72,"gap":117,"magType":"mwr","type":"earthquake","title":"M 5.0 - 42 km SSW of Coquimbo, Chile"},"geometry":{"type":"Point","coordinates":[-71.5582,-30.2857,40.88]},"id":"us70006t6h"}],"bbox":[-172.5044,-53.0907,10,159.1614,52.6367,58.46]}