{"type":"FeatureCollection","features":[{"type":"Feature","geometry":{"type":"Polygon","coordinates":[[[-71.19123,42.283],[-71.19125,42.28299],[-71.19123,42.28265],[-71.19113,42.28236],[-71.19097,42.28212],[-71.19075,42.28184],[-71.19051,42.28165],[-71.19025,42.2815],[-71.18993,42.28129],[-71.18953,42.28112],[-71.18908,42.28091],[-71.18866,42.2807],[-71.1884,42.28056],[-71.18832,42.2805],[-71.18821,42.28044],[-71.18817,42.28041],[-71.18809,42.28038],[-71.18802,42.28034],[-71.188,42.28033],[-71.18777,42.28023],[-71.18745,42.28014],[-71.18723,42.28006],[-71.18718,42.28006],[-71.18711,42.28005],[-71.18706,42.28003],[-71.18599,42.27977],[-71.18551,42.27968],[-71.18542,42.27964],[-71.18536,42.27959],[-71.18532,42.27952],[-71.18531,42.2795],[-71.18529,42.27947],[-71.18525,42.27939],[-71.1851,42.27914],[-71.18506,42.27908],[-71.18504,42.27903],[-71.185,42.27897],[-71.18495,42.27888],[-71.18478,42.27858],[-71.18465,42.27838],[-71.18455,42.2782],[-71.18393,42.27714],[-71.18389,42.27707],[-71.18386,42.27703],[-71.18379,42.2769],[-71.18349,42.2764],[-71.18326,42.27599],[-71.18316,42.27591],[-71.18305,42.27585],[-71.1829,42.27585],[-71.18278,42.27588],[-71.1825,42.27597],[-71.18124,42.27621],[-71.18041,42.27637],[-71.17977,42.27649],[-71.17914,42.2766],[-71.17855,42.27671],[-71.17746,42.27687],[-71.17711,42.27686],[-71.17692,42.27684],[-71.17678,42.2768],[-71.17636,42.27665],[-71.17593,42.27647],[-71.17544,42.27624],[-71.17497,42.276],[-71.17476,42.27584],[-71.1746,42.27566],[-71.17456,42.27558],[-71.17451,42.27547],[-71.17447,42.27537],[-71.17444,42.2753],[-71.17442,42.27504],[-71.17451,42.27478],[-71.17461,42.27458],[-71.17477,42.27433],[-71.17482,42.27422],[-71.17482,42.2742],[-71.17485,42.27406],[-71.17486,42.27381],[-71.17485,42.27373],[-71.17482,42.27353],[-71.17475,42.27332],[-71.17461,42.27301],[-71.17433,42.27262],[-71.17404,42.27227],[-71.17386,42.27199],[-71.17371,42.27169],[-71.17362,42.27147],[-71.1736,42.27145],[-71.17358,42.27142],[-71.17353,42.27111],[-71.17341,42.27091],[-71.17334,42.27085],[-71.17318,42.2707],[-71.17315,42.27067],[-71.17299,42.27043],[-71.17295,42.2703],[-71.17296,42.27013],[-71.17302,42.27003],[-71.17322,42.26978],[-71.17342,42.26957],[-71.17348,42.2695],[-71.17353,42.26944],[-71.17356,42.26941],[-71.17366,42.26933],[-71.17381,42.26925],[-71.17416,42.26899],[-71.17429,42.26888],[-71.17432,42.26886],[-71.1745,42.26865],[-71.17461,42.26837],[-71.1746,42.26814],[-71.1746,42.26807],[-71.1746,42.26789],[-71.17458,42.26782],[-71.17453,42.26761],[-71.17444,42.26734],[-71.17432,42.26718],[-71.17415,42.26702],[-71.17392,42.26689],[-71.1739,42.26688],[-71.17369,42.26676],[-71.17356,42.2667],[-71.17333,42.26665],[-71.17318,42.26663],[-71.17316,42.26662],[-71.17279,42.26654],[-71.17246,42.26652],[-71.17242,42.26651],[-71.17215,42.26644],[-71.1721,42.26642],[-71.17202,42.26639],[-71.17183,42.26635],[-71.1718,42.26633],[-71.1717,42.26628],[-71.17154,42.26614],[-71.17144,42.26599],[-71.17138,42.26591],[-71.17132,42.26569],[-71.17132,42.26535],[-71.17121,42.26525],[-71.17105,42.26512],[-71.17103,42.26511],[-71.17066,42.26481],[-71.16875,42.26327],[-71.1686,42.26316],[-71.1685,42.26307],[-71.16837,42.26297],[-71.16739,42.2622],[-71.16722,42.26206],[-71.16699,42.26188],[-71.16686,42.26178],[-71.16648,42.26147],[-71.16486,42.26018],[-71.16339,42.25902],[-71.16313,42.25881],[-71.16302,42.25872],[-71.16167,42.25763],[-71.16157,42.25755],[-71.16156,42.25754],[-71.16099,42.25708],[-71.16082,42.25695],[-71.16042,42.25663],[-71.15858,42.25515],[-71.1583,42.2553],[-71.15813,42.25538],[-71.15739,42.25576],[-71.1567,42.25611],[-71.15628,42.25632],[-71.15596,42.25648],[-71.15522,42.25686],[-71.15421,42.25737],[-71.15316,42.25791],[-71.15231,42.25834],[-71.15212,42.25825],[-71.15158,42.258],[-71.15039,42.25746],[-71.14943,42.25702],[-71.14873,42.25671],[-71.14774,42.25625],[-71.14664,42.25576],[-71.14662,42.25561],[-71.14639,42.2544],[-71.14631,42.25393],[-71.14613,42.25296],[-71.1456,42.2501],[-71.14537,42.24901],[-71.14501,42.24734],[-71.14494,42.247],[-71.14472,42.24599],[-71.14457,42.24528],[-71.14455,42.24519],[-71.14454,42.24514],[-71.14453,42.24511],[-71.14439,42.24441],[-71.14407,42.24282],[-71.14387,42.24184],[-71.14386,42.24177],[-71.14382,42.24161],[-71.14381,42.24155],[-71.14366,42.24083],[-71.1435,42.24007],[-71.14345,42.23978],[-71.14344,42.23972],[-71.14343,42.23967],[-71.1434,42.23954],[-71.14336,42.23935],[-71.14319,42.23851],[-71.14309,42.23801],[-71.14307,42.23791],[-71.143,42.23755],[-71.14288,42.23697],[-71.14285,42.23683],[-71.1428,42.23659],[-71.14276,42.23639],[-71.14275,42.23632],[-71.14268,42.236],[-71.14239,42.2358],[-71.14214,42.23562],[-71.14159,42.23525],[-71.14095,42.23481],[-71.14003,42.23419],[-71.13924,42.23366],[-71.13877,42.23334],[-71.13824,42.23298],[-71.13805,42.23286],[-71.1371,42.23221],[-71.13687,42.23205],[-71.13666,42.23191],[-71.13582,42.23134],[-71.13302,42.22945],[-71.13263,42.22919],[-71.13252,42.2291],[-71.13243,42.22905],[-71.13219,42.2289],[-71.13194,42.22872],[-71.13181,42.22863],[-71.13151,42.22843],[-71.13147,42.2284],[-71.13131,42.22829],[-71.13121,42.22822],[-71.13111,42.22816],[-71.13097,42.22806],[-71.13085,42.22798],[-71.13077,42.22793],[-71.13075,42.22791],[-71.13072,42.22794],[-71.1307,42.22795],[-71.13066,42.22798],[-71.13053,42.22809],[-71.13035,42.22832],[-71.13027,42.2285],[-71.13019,42.2286],[-71.1301,42.22867],[-71.12996,42.22873],[-71.12967,42.22875],[-71.12949,42.22878],[-71.12946,42.2288],[-71.12936,42.22885],[-71.1292,42.22897],[-71.12907,42.22914],[-71.12895,42.22932],[-71.12891,42.22951],[-71.12889,42.22965],[-71.12886,42.22972],[-71.1288,42.2298],[-71.12875,42.22984],[-71.12868,42.22988],[-71.1285,42.23],[-71.12825,42.23018],[-71.12808,42.23037],[-71.12796,42.23054],[-71.12776,42.23078],[-71.12764,42.23096],[-71.12753,42.23112],[-71.12742,42.23118],[-71.12722,42.23121],[-71.127,42.23123],[-71.12678,42.23123],[-71.12661,42.23126],[-71.12639,42.23137],[-71.12622,42.23153],[-71.12616,42.23164],[-71.12605,42.23176],[-71.12595,42.23182],[-71.12581,42.23187],[-71.12564,42.23187],[-71.12548,42.23188],[-71.12544,42.2319],[-71.12535,42.23194],[-71.12523,42.23206],[-71.12512,42.23223],[-71.12506,42.23236],[-71.12497,42.23247],[-71.12488,42.23254],[-71.12485,42.23256],[-71.12474,42.23262],[-71.12458,42.23278],[-71.12452,42.2329],[-71.1245,42.23309],[-71.12451,42.23316],[-71.12453,42.23322],[-71.12461,42.23331],[-71.12466,42.23351],[-71.12471,42.23364],[-71.12472,42.23375],[-71.12468,42.23384],[-71.12459,42.23401],[-71.1245,42.23412],[-71.12446,42.23416],[-71.1244,42.2342],[-71.12423,42.23429],[-71.12405,42.23432],[-71.12381,42.23432],[-71.12361,42.23429],[-71.12338,42.23425],[-71.12313,42.23423],[-71.12294,42.23425],[-71.12289,42.23427],[-71.12287,42.23427],[-71.12283,42.23429],[-71.12274,42.23432],[-71.12264,42.23438],[-71.1226,42.23444],[-71.1226,42.23452],[-71.1226,42.23464],[-71.12258,42.23471],[-71.12257,42.23477],[-71.12248,42.23485],[-71.12246,42.23493],[-71.12248,42.23505],[-71.12252,42.2352],[-71.12262,42.23531],[-71.12264,42.23538],[-71.12267,42.23541],[-71.12275,42.23542],[-71.12296,42.23558],[-71.12327,42.23578],[-71.12334,42.23585],[-71.12348,42.23593],[-71.12381,42.23618],[-71.12408,42.23639],[-71.12424,42.23655],[-71.12446,42.23686],[-71.12455,42.23715],[-71.12461,42.23726],[-71.12469,42.23737],[-71.12476,42.23743],[-71.12485,42.23748],[-71.12501,42.23754],[-71.12504,42.23755],[-71.12509,42.23757],[-71.12524,42.23763],[-71.12538,42.23768],[-71.12547,42.23774],[-71.12554,42.23778],[-71.12568,42.2379],[-71.1257,42.23797],[-71.12577,42.2382],[-71.12587,42.23841],[-71.12595,42.23857],[-71.12602,42.2387],[-71.12608,42.2388],[-71.12614,42.23892],[-71.1263,42.23906],[-71.12638,42.23916],[-71.1258,42.23945],[-71.12567,42.23953],[-71.12255,42.24114],[-71.12212,42.24137],[-71.12139,42.24174],[-71.12052,42.24219],[-71.11993,42.2425],[-71.11964,42.24265],[-71.11942,42.24277],[-71.11653,42.24427],[-71.11641,42.24433],[-71.11616,42.24446],[-71.1154,42.24485],[-71.1152,42.24495],[-71.11507,42.24502],[-71.11465,42.24524],[-71.11456,42.24528],[-71.11446,42.24534],[-71.11345,42.24586],[-71.11327,42.24595],[-71.11299,42.2461],[-71.11261,42.2463],[-71.11216,42.24653],[-71.11206,42.24659],[-71.11178,42.24673],[-71.11094,42.24718],[-71.11029,42.2475],[-71.10993,42.24768],[-71.10935,42.24799],[-71.10935,42.24804],[-71.10936,42.24839],[-71.10936,42.24855],[-71.10938,42.24912],[-71.10941,42.25023],[-71.10943,42.25101],[-71.10946,42.25211],[-71.10947,42.25241],[-71.10949,42.25333],[-71.1095,42.25378],[-71.10952,42.25466],[-71.10953,42.25475],[-71.10954,42.25541],[-71.10973,42.25559],[-71.11043,42.25625],[-71.11086,42.25665],[-71.11139,42.25715],[-71.11237,42.25808],[-71.11239,42.25812],[-71.1124,42.25812],[-71.11243,42.25815],[-71.11247,42.25818],[-71.1125,42.2582],[-71.11258,42.25828],[-71.11262,42.25832],[-71.11295,42.25863],[-71.11301,42.25869],[-71.11311,42.25878],[-71.11312,42.2588],[-71.11315,42.25883],[-71.11326,42.25893],[-71.11333,42.25899],[-71.11328,42.25903],[-71.11301,42.25926],[-71.11276,42.25946],[-71.11256,42.25962],[-71.11235,42.25984],[-71.11214,42.26004],[-71.11187,42.26041],[-71.11166,42.26063],[-71.11146,42.26077],[-71.1111,42.26092],[-71.11075,42.26104],[-71.11047,42.26112],[-71.11032,42.26113],[-71.11022,42.26116],[-71.11008,42.26119],[-71.10999,42.2612],[-71.10985,42.26123],[-71.10961,42.26127],[-71.10951,42.26128],[-71.10928,42.26128],[-71.10924,42.26128],[-71.10915,42.26129],[-71.10895,42.2613],[-71.10868,42.26126],[-71.10847,42.26117],[-71.1084,42.26112],[-71.10834,42.26106],[-71.10813,42.26088],[-71.10793,42.26079],[-71.1076,42.26067],[-71.10746,42.26065],[-71.10703,42.26068],[-71.10674,42.26072],[-71.10633,42.2608],[-71.10608,42.26084],[-71.10589,42.26086],[-71.10579,42.26086],[-71.10577,42.26086],[-71.10574,42.26086],[-71.10566,42.26086],[-71.10563,42.26086],[-71.1056,42.26086],[-71.10554,42.26087],[-71.10526,42.26086],[-71.105,42.2608],[-71.10476,42.26066],[-71.10454,42.26047],[-71.10438,42.2602],[-71.10419,42.25999],[-71.10406,42.25986],[-71.10396,42.25981],[-71.10393,42.25978],[-71.10387,42.25976],[-71.10383,42.25976],[-71.10374,42.25973],[-71.10367,42.25972],[-71.10361,42.25972],[-71.10343,42.25973],[-71.10338,42.25972],[-71.10328,42.25973],[-71.10314,42.25975],[-71.103,42.25978],[-71.10269,42.25988],[-71.10241,42.26002],[-71.10228,42.2601],[-71.10215,42.26019],[-71.10185,42.26038],[-71.10146,42.26058],[-71.10142,42.2606],[-71.10135,42.26064],[-71.10131,42.26066],[-71.10129,42.26067],[-71.10106,42.26084],[-71.10073,42.26107],[-71.10024,42.26143],[-71.0998,42.26177],[-71.09957,42.26196],[-71.09912,42.26237],[-71.09886,42.26259],[-71.0985,42.26272],[-71.09821,42.26278],[-71.0979,42.26288],[-71.09774,42.26293],[-71.09748,42.26309],[-71.09722,42.26346],[-71.09692,42.26398],[-71.09675,42.26434],[-71.09643,42.26474],[-71.09616,42.265],[-71.09585,42.26523],[-71.09569,42.26535],[-71.09545,42.26557],[-71.09526,42.26579],[-71.09508,42.26603],[-71.09496,42.26623],[-71.09491,42.26629],[-71.09478,42.26651],[-71.09471,42.26661],[-71.09467,42.26665],[-71.09465,42.26668],[-71.09463,42.26677],[-71.09459,42.26679],[-71.09439,42.26699],[-71.09413,42.26713],[-71.09394,42.26714],[-71.09391,42.26714],[-71.09374,42.26714],[-71.0935,42.26709],[-71.09341,42.26708],[-71.09313,42.267],[-71.09294,42.26685],[-71.09263,42.26673],[-71.0923,42.26673],[-71.0918,42.26668],[-71.09132,42.26659],[-71.09102,42.26651],[-71.09082,42.26648],[-71.0905,42.26655],[-71.09026,42.26664],[-71.09024,42.26667],[-71.09016,42.26684],[-71.09004,42.26716],[-71.08999,42.26747],[-71.08987,42.26775],[-71.08986,42.26778],[-71.08986,42.26795],[-71.08986,42.26796],[-71.08986,42.26805],[-71.08991,42.26824],[-71.08997,42.26842],[-71.09015,42.26883],[-71.09021,42.26899],[-71.09019,42.26908],[-71.09004,42.26932],[-71.08982,42.26954],[-71.0895,42.26967],[-71.0894,42.26969],[-71.08917,42.26974],[-71.08915,42.26974],[-71.08867,42.26973],[-71.08811,42.26963],[-71.08775,42.26955],[-71.08763,42.26952],[-71.08698,42.26938],[-71.08672,42.26933],[-71.08572,42.26912],[-71.08558,42.26909],[-71.08539,42.26904],[-71.08424,42.26883],[-71.08338,42.26869],[-71.08276,42.26863],[-71.08261,42.26864],[-71.0825,42.26866],[-71.08249,42.26867],[-71.08224,42.26876],[-71.08151,42.26903],[-71.08085,42.26932],[-71.08032,42.26945],[-71.08,42.26946],[-71.07986,42.26947],[-71.0792,42.26954],[-71.07907,42.26955],[-71.07888,42.26958],[-71.07875,42.26963],[-71.07871,42.26964],[-71.07857,42.26969],[-71.0785,42.26972],[-71.07841,42.26975],[-71.07828,42.26983],[-71.07816,42.26989],[-71.0781,42.26992],[-71.07785,42.27002],[-71.07758,42.27015],[-71.07711,42.27038],[-71.07686,42.27045],[-71.07649,42.27051],[-71.07605,42.27052],[-71.07563,42.27046],[-71.07525,42.2703],[-71.07506,42.27028],[-71.07489,42.2703],[-71.07478,42.27031],[-71.07457,42.27032],[-71.07449,42.27032],[-71.074,42.27029],[-71.07371,42.27029],[-71.07359,42.27029],[-71.07329,42.27031],[-71.07326,42.27032],[-71.07323,42.27031],[-71.07321,42.27032],[-71.07313,42.27032],[-71.07304,42.27033],[-71.07299,42.27034],[-71.0729,42.27038],[-71.07271,42.27053],[-71.07243,42.27069],[-71.07204,42.27082],[-71.07168,42.27085],[-71.07135,42.27084],[-71.07121,42.2708],[-71.07105,42.27074],[-71.07103,42.27073],[-71.07093,42.27071],[-71.07061,42.27063],[-71.07042,42.27061],[-71.06978,42.27061],[-71.06971,42.27061],[-71.06946,42.27063],[-71.0693,42.27064],[-71.06925,42.27065],[-71.06901,42.27066],[-71.06885,42.2707],[-71.06878,42.27071],[-71.06869,42.27073],[-71.0685,42.27077],[-71.06841,42.27081],[-71.06837,42.27083],[-71.06814,42.271],[-71.06797,42.27115],[-71.06795,42.27117],[-71.06783,42.27137],[-71.06782,42.2714],[-71.06778,42.27142],[-71.0677,42.27149],[-71.06752,42.27151],[-71.06728,42.27145],[-71.06695,42.2714],[-71.06641,42.27132],[-71.06604,42.27127],[-71.06577,42.2712],[-71.06546,42.27101],[-71.06528,42.27084],[-71.06525,42.27081],[-71.0651,42.27066],[-71.06491,42.27039],[-71.06478,42.27017],[-71.06475,42.26995],[-71.06478,42.26985],[-71.06482,42.26974],[-71.06501,42.26947],[-71.06503,42.26929],[-71.06494,42.26897],[-71.0647,42.26861],[-71.0641,42.26812],[-71.06395,42.26798],[-71.06351,42.26756],[-71.0631,42.26734],[-71.06289,42.26729],[-71.0626,42.26721],[-71.06219,42.26716],[-71.06183,42.26721],[-71.06142,42.26733],[-71.06098,42.26745],[-71.05868,42.26879],[-71.05789,42.26927],[-71.0566,42.27006],[-71.05541,42.27072],[-71.05504,42.27094],[-71.05433,42.27137],[-71.05384,42.2717],[-71.05369,42.27182],[-71.0536,42.27195],[-71.05351,42.27223],[-71.05349,42.27224],[-71.05349,42.27246],[-71.05407,42.2734],[-71.0541,42.27344],[-71.055,42.27417],[-71.05535,42.27462],[-71.05539,42.2747],[-71.05557,42.27505],[-71.05558,42.27571],[-71.05547,42.27593],[-71.05525,42.27634],[-71.05492,42.27661],[-71.0544,42.27702],[-71.05391,42.27727],[-71.05349,42.27743],[-71.05328,42.2775],[-71.0526,42.27767],[-71.05127,42.27793],[-71.0498,42.2781],[-71.04924,42.27806],[-71.04858,42.27791],[-71.04849,42.27786],[-71.04831,42.27777],[-71.0476,42.27737],[-71.04712,42.27708],[-71.04488,42.27627],[-71.04442,42.27631],[-71.04391,42.27653],[-71.04304,42.27689],[-71.04278,42.2771],[-71.04243,42.27733],[-71.04159,42.2781],[-71.0415,42.27842],[-71.04136,42.27889],[-71.04127,42.2792],[-71.04114,42.27968],[-71.041,42.28015],[-71.04091,42.28047],[-71.04086,42.28064],[-71.04078,42.28091],[-71.0407,42.28118],[-71.04065,42.28135],[-71.04051,42.28183],[-71.04049,42.2819],[-71.03973,42.2831],[-71.03947,42.28352],[-71.0394,42.28362],[-71.03929,42.2838],[-71.03918,42.28389],[-71.03908,42.28397],[-71.03902,42.28401],[-71.03897,42.28406],[-71.03894,42.28408],[-71.03889,42.28411],[-71.03885,42.28415],[-71.03882,42.28417],[-71.03864,42.28432],[-71.03836,42.28453],[-71.03808,42.28475],[-71.03789,42.2849],[-71.03782,42.28501],[-71.03718,42.28597],[-71.03529,42.2888],[-71.03551,42.28921],[-71.03612,42.29035],[-71.03623,42.29056],[-71.03639,42.29087],[-71.03656,42.29118],[-71.03667,42.29138],[-71.03693,42.29188],[-71.03732,42.29262],[-71.03772,42.29336],[-71.03798,42.29386],[-71.03862,42.29506],[-71.03958,42.29687],[-71.04054,42.29867],[-71.04118,42.29987],[-71.0412,42.29992],[-71.04123,42.29999],[-71.04127,42.30005],[-71.04129,42.3001],[-71.04131,42.30028],[-71.04137,42.30084],[-71.04139,42.30103],[-71.04141,42.30124],[-71.04147,42.30188],[-71.04149,42.3021],[-71.04159,42.30369],[-71.04169,42.3053],[-71.03863,42.30616],[-71.03709,42.3066],[-71.03537,42.30703],[-71.03021,42.30834],[-71.02849,42.30878],[-71.02847,42.30878],[-71.02841,42.30879],[-71.0284,42.3088],[-71.02652,42.30785],[-71.02209,42.3056],[-71.02077,42.30583],[-71.01869,42.3062],[-71.01694,42.30646],[-71.01539,42.3067],[-71.01175,42.30572],[-71.0102,42.30531],[-71.01022,42.30529],[-71.01026,42.30522],[-71.01009,42.30519],[-71.01003,42.30518],[-71.00999,42.30518],[-71.00995,42.30519],[-71.00991,42.30521],[-71.00988,42.30522],[-71.00947,42.3054],[-71.00925,42.3055],[-71.00919,42.30549],[-71.00918,42.30548],[-71.00354,42.30804],[-71.00209,42.3087],[-70.99859,42.312],[-70.98869,42.3136],[-70.98691,42.31226],[-70.98194,42.30851],[-70.9818,42.30839],[-70.98178,42.30838],[-70.98137,42.30779],[-70.98099,42.30725],[-70.97872,42.304],[-70.97826,42.30334],[-70.97734,42.30203],[-70.97707,42.30165],[-70.97626,42.30049],[-70.97599,42.3001],[-70.97592,42.30009],[-70.97569,42.30009],[-70.97562,42.30008],[-70.97377,42.30001],[-70.96822,42.2998],[-70.96637,42.29973],[-70.96514,42.29969],[-70.96143,42.29955],[-70.96019,42.2995],[-70.94899,42.3013],[-70.94514,42.30447],[-70.93709,42.3111],[-70.92789,42.31017],[-70.92719,42.3101],[-70.92319,42.31172],[-70.92072,42.31272],[-70.91709,42.3142],[-70.90569,42.317],[-70.90451,42.32273],[-70.90333,42.32846],[-70.90329,42.32867],[-70.90325,42.32888],[-70.90055,42.342],[-70.89626,42.36286],[-70.89481,42.3699],[-70.89429,42.3724],[-70.86949,42.37246],[-70.85119,42.3725],[-70.75146,42.37334],[-70.75056,42.37334],[-70.74949,42.37334],[-70.74885,42.37375],[-70.7488,42.40021],[-70.74949,42.40082],[-70.85144,42.39321],[-70.87433,42.38902],[-70.90129,42.3841],[-70.91789,42.386],[-70.95504,42.36405],[-70.96163,42.36016],[-70.96217,42.35983],[-70.96298,42.35936],[-70.96705,42.35695],[-70.96711,42.35701],[-70.96715,42.35698],[-70.96726,42.35707],[-70.9675,42.35688],[-70.96829,42.35627],[-70.96844,42.35615],[-70.96868,42.35597],[-70.96875,42.35592],[-70.96882,42.35587],[-70.96893,42.35593],[-70.96915,42.3558],[-70.97226,42.35397],[-70.97234,42.35392],[-70.97289,42.3536],[-70.98259,42.356],[-70.98518,42.35669],[-70.98527,42.35671],[-70.98559,42.3568],[-70.98572,42.35775],[-70.98574,42.3579],[-70.98585,42.35882],[-70.98628,42.36211],[-70.98629,42.3622],[-70.9866,42.36457],[-70.98847,42.3646],[-70.98994,42.36462],[-70.99391,42.36468],[-70.99894,42.36476],[-70.99905,42.36476],[-71.00074,42.36482],[-71.0007,42.36464],[-71.00099,42.36465],[-71.00169,42.36468],[-71.00348,42.36475],[-71.00374,42.36476],[-71.00514,42.36482],[-71.00522,42.36482],[-71.01036,42.36503],[-71.01031,42.36518],[-71.01024,42.36535],[-71.00929,42.36785],[-71.00824,42.3706],[-71.00755,42.3724],[-71.00712,42.37353],[-71.00665,42.37474],[-71.00612,42.37605],[-71.00551,42.37623],[-71.00061,42.37764],[-71.00021,42.37775],[-71.00017,42.37774],[-71.00009,42.37777],[-71.00001,42.37776],[-70.99972,42.37774],[-70.99952,42.37773],[-70.99938,42.37775],[-70.99933,42.37774],[-70.99932,42.37777],[-70.99932,42.37778],[-70.99931,42.37779],[-70.99898,42.3779],[-70.99799,42.3782],[-70.99669,42.37874],[-70.99617,42.37947],[-70.99465,42.38115],[-70.99466,42.3819],[-70.99467,42.38237],[-70.99464,42.38266],[-70.99463,42.38271],[-70.9946,42.38299],[-70.99441,42.38373],[-70.99424,42.38465],[-70.99337,42.38502],[-70.99304,42.38516],[-70.9916,42.38578],[-70.99145,42.38584],[-70.9914,42.38587],[-70.98828,42.38711],[-70.98809,42.38709],[-70.98806,42.38707],[-70.98804,42.38704],[-70.98801,42.38699],[-70.98798,42.38697],[-70.98795,42.38697],[-70.98791,42.38696],[-70.98784,42.38695],[-70.98778,42.38694],[-70.98775,42.38697],[-70.98772,42.38701],[-70.98768,42.38701],[-70.98764,42.38701],[-70.98757,42.38699],[-70.98751,42.38697],[-70.98744,42.38696],[-70.98739,42.38695],[-70.98736,42.38694],[-70.98731,42.38694],[-70.98722,42.38693],[-70.98711,42.38692],[-70.98704,42.38691],[-70.98695,42.38691],[-70.9869,42.38692],[-70.98682,42.38695],[-70.9868,42.38696],[-70.98673,42.38701],[-70.9867,42.38704],[-70.98667,42.38707],[-70.98662,42.38714],[-70.98659,42.3872],[-70.98654,42.38729],[-70.98647,42.3874],[-70.98646,42.38742],[-70.98644,42.38744],[-70.98643,42.38747],[-70.9865,42.38754],[-70.98605,42.38812],[-70.98699,42.38852],[-70.98729,42.38873],[-70.98742,42.389],[-70.98751,42.38923],[-70.98759,42.38952],[-70.98762,42.38973],[-70.98762,42.38979],[-70.98761,42.38991],[-70.98758,42.39031],[-70.98757,42.39058],[-70.98745,42.39103],[-70.98741,42.39104],[-70.98736,42.39108],[-70.98734,42.39112],[-70.98733,42.39117],[-70.98732,42.39119],[-70.9872,42.39146],[-70.98721,42.39154],[-70.98722,42.39156],[-70.98714,42.39189],[-70.98712,42.39192],[-70.98711,42.39198],[-70.98712,42.39206],[-70.98713,42.39212],[-70.98718,42.39219],[-70.98724,42.39228],[-70.98731,42.39235],[-70.98744,42.39274],[-70.98797,42.39282],[-70.98808,42.39286],[-70.9882,42.39289],[-70.98827,42.3929],[-70.98833,42.39296],[-70.98846,42.39301],[-70.98851,42.39301],[-70.98858,42.39303],[-70.98882,42.39305],[-70.98917,42.39315],[-70.98941,42.39318],[-70.98957,42.3932],[-70.98977,42.39324],[-70.99002,42.39323],[-70.99009,42.39317],[-70.99033,42.3931],[-70.99143,42.39302],[-70.99225,42.39299],[-70.99228,42.39298],[-70.9924,42.39295],[-70.99245,42.39295],[-70.99248,42.39295],[-70.99251,42.39294],[-70.99265,42.39294],[-70.99269,42.39294],[-70.99289,42.39295],[-70.99293,42.39295],[-70.99298,42.39296],[-70.99382,42.39292],[-70.99385,42.39295],[-70.99389,42.39302],[-70.99389,42.39305],[-70.9939,42.39307],[-70.99398,42.39311],[-70.99403,42.39311],[-70.99408,42.39309],[-70.99417,42.39309],[-70.99423,42.39311],[-70.99428,42.39315],[-70.99429,42.39316],[-70.9943,42.39318],[-70.99431,42.39319],[-70.99431,42.39321],[-70.9943,42.39323],[-70.99429,42.39326],[-70.99429,42.3933],[-70.99436,42.39331],[-70.99443,42.39331],[-70.99445,42.39332],[-70.99458,42.39333],[-70.99477,42.39342],[-70.99481,42.39345],[-70.99494,42.3935],[-70.99502,42.39355],[-70.99505,42.39357],[-70.99508,42.39358],[-70.99522,42.39367],[-70.99524,42.39368],[-70.9953,42.39375],[-70.99531,42.39376],[-70.99536,42.39381],[-70.9954,42.39388],[-70.99553,42.39415],[-70.99557,42.39427],[-70.99594,42.39511],[-70.99646,42.39628],[-70.99647,42.39631],[-70.99656,42.39635],[-70.99665,42.3964],[-70.99677,42.39641],[-70.99689,42.39646],[-70.99816,42.39689],[-70.99831,42.39693],[-70.99877,42.39697],[-70.99915,42.39698],[-70.9995,42.39694],[-71.00042,42.39684],[-71.00068,42.39682],[-71.00141,42.39674],[-71.00539,42.39409],[-71.0056,42.39396],[-71.00586,42.39389],[-71.00895,42.39519],[-71.00983,42.39546],[-71.00989,42.39547],[-71.01,42.39549],[-71.01168,42.39572],[-71.01193,42.39575],[-71.01127,42.39659],[-71.01138,42.39663],[-71.0124,42.39702],[-71.01339,42.3974],[-71.01609,42.3959],[-71.01659,42.3945],[-71.01723,42.39247],[-71.01724,42.39246],[-71.01779,42.3907],[-71.01879,42.38954],[-71.01928,42.38898],[-71.01933,42.38893],[-71.02051,42.38764],[-71.02243,42.38637],[-71.02267,42.38626],[-71.02421,42.38559],[-71.02771,42.38404],[-71.03199,42.3846],[-71.03323,42.38491],[-71.03497,42.38588],[-71.03607,42.38609],[-71.03836,42.38653],[-71.03881,42.38681],[-71.03887,42.38681],[-71.03892,42.38681],[-71.03897,42.38681],[-71.03908,42.3868],[-71.03913,42.3868],[-71.03926,42.38683],[-71.03932,42.38685],[-71.03935,42.38685],[-71.03938,42.38685],[-71.03943,42.38686],[-71.03947,42.38686],[-71.03951,42.38685],[-71.04326,42.38359],[-71.0443,42.38321],[-71.04708,42.3851],[-71.04728,42.38528],[-71.04732,42.3853],[-71.04819,42.38569],[-71.0553,42.3871],[-71.05534,42.3871],[-71.05548,42.38711],[-71.05552,42.38712],[-71.0559,42.38715],[-71.05702,42.38726],[-71.0574,42.3873],[-71.05749,42.38729],[-71.05778,42.38727],[-71.05787,42.38726],[-71.0607,42.38702],[-71.06345,42.38678],[-71.0657,42.3866],[-71.06702,42.3872],[-71.06889,42.38807],[-71.0709,42.389],[-71.07073,42.38949],[-71.0707,42.3896],[-71.07068,42.38962],[-71.07067,42.38964],[-71.07058,42.38969],[-71.07052,42.38978],[-71.07049,42.38984],[-71.07048,42.38985],[-71.06912,42.39178],[-71.06816,42.39273],[-71.06741,42.39348],[-71.06708,42.39405],[-71.06703,42.39413],[-71.06697,42.39425],[-71.06703,42.39453],[-71.06694,42.39475],[-71.06686,42.39498],[-71.06737,42.3953],[-71.06759,42.39511],[-71.06801,42.39475],[-71.06886,42.39404],[-71.06895,42.39395],[-71.06904,42.39388],[-71.06913,42.39392],[-71.06918,42.39395],[-71.06926,42.39398],[-71.06932,42.39402],[-71.07011,42.3933],[-71.07041,42.39301],[-71.07086,42.39257],[-71.07131,42.39214],[-71.07161,42.39185],[-71.07201,42.39146],[-71.0727,42.3908],[-71.07315,42.39136],[-71.0735,42.3918],[-71.07361,42.39161],[-71.07379,42.39134],[-71.07397,42.39106],[-71.07408,42.39088],[-71.07412,42.39082],[-71.0742,42.3907],[-71.07423,42.39064],[-71.07427,42.39059],[-71.07462,42.39009],[-71.0756,42.38871],[-71.07567,42.3886],[-71.07595,42.38822],[-71.07601,42.38812],[-71.07614,42.38795],[-71.07626,42.38777],[-71.07635,42.38764],[-71.07644,42.38752],[-71.07654,42.38738],[-71.0766,42.38729],[-71.07663,42.38725],[-71.0768,42.38701],[-71.07701,42.38672],[-71.07715,42.38652],[-71.0774,42.38617],[-71.07754,42.38597],[-71.07756,42.38595],[-71.07764,42.38584],[-71.07765,42.38582],[-71.07776,42.38567],[-71.07804,42.38527],[-71.07847,42.38467],[-71.07873,42.38431],[-71.07894,42.38401],[-71.07943,42.38332],[-71.07948,42.38325],[-71.07971,42.38292],[-71.07977,42.38289],[-71.08048,42.38258],[-71.08081,42.38242],[-71.08087,42.38238],[-71.08094,42.38234],[-71.08097,42.38232],[-71.08095,42.38223],[-71.08093,42.38213],[-71.0807,42.38104],[-71.0806,42.38102],[-71.08015,42.38095],[-71.07978,42.38089],[-71.07936,42.38082],[-71.07884,42.38073],[-71.07867,42.3807],[-71.07851,42.38067],[-71.07821,42.38062],[-71.07806,42.3806],[-71.07802,42.38059],[-71.07777,42.38055],[-71.07764,42.38053],[-71.07761,42.38052],[-71.07758,42.38052],[-71.07746,42.3805],[-71.07744,42.38049],[-71.07739,42.38049],[-71.07732,42.38047],[-71.07724,42.38046],[-71.07722,42.38046],[-71.07717,42.38045],[-71.07708,42.38043],[-71.07702,42.38042],[-71.07694,42.38041],[-71.07687,42.3804],[-71.0768,42.38039],[-71.07673,42.38037],[-71.07669,42.38037],[-71.07657,42.38035],[-71.0765,42.38034],[-71.07646,42.38033],[-71.07619,42.38029],[-71.07598,42.38025],[-71.07585,42.38023],[-71.07566,42.3802],[-71.07557,42.38],[-71.07532,42.3794],[-71.07523,42.3792],[-71.07513,42.37897],[-71.07502,42.37871],[-71.07487,42.37835],[-71.07471,42.37798],[-71.07463,42.37779],[-71.0745,42.37749],[-71.07443,42.37733],[-71.0744,42.37725],[-71.07431,42.37704],[-71.07393,42.37616],[-71.07389,42.37607],[-71.07382,42.37592],[-71.07378,42.37581],[-71.07375,42.37575],[-71.07373,42.3757],[-71.07371,42.37565],[-71.0737,42.37563],[-71.07367,42.37557],[-71.07363,42.37548],[-71.07356,42.37531],[-71.07342,42.37498],[-71.07325,42.37458],[-71.07309,42.37419],[-71.07293,42.37384],[-71.07287,42.37369],[-71.07277,42.37344],[-71.07275,42.37339],[-71.07274,42.37336],[-71.07273,42.37332],[-71.07269,42.37322],[-71.0726,42.373],[-71.07251,42.37277],[-71.07247,42.37266],[-71.07181,42.37256],[-71.07139,42.37249],[-71.07101,42.37243],[-71.07077,42.37239],[-71.07054,42.37236],[-71.0705,42.37235],[-71.07045,42.37234],[-71.07042,42.37234],[-71.07033,42.37232],[-71.07022,42.3723],[-71.07012,42.37229],[-71.07006,42.37228],[-71.06991,42.37225],[-71.06974,42.37223],[-71.06969,42.37222],[-71.06966,42.37222],[-71.06945,42.37218],[-71.06932,42.37216],[-71.06911,42.37213],[-71.06906,42.37212],[-71.069,42.37211],[-71.06895,42.3721],[-71.0687,42.37206],[-71.06844,42.37203],[-71.0683,42.372],[-71.06822,42.37199],[-71.06815,42.37198],[-71.068,42.37195],[-71.06791,42.37194],[-71.06777,42.37192],[-71.06767,42.3719],[-71.06761,42.37189],[-71.06745,42.37187],[-71.06739,42.37186],[-71.06716,42.37182],[-71.06711,42.37182],[-71.06698,42.37169],[-71.0667,42.37143],[-71.06658,42.37132],[-71.06651,42.37126],[-71.06644,42.37119],[-71.06637,42.37113],[-71.06624,42.37101],[-71.06599,42.37078],[-71.06571,42.37052],[-71.06562,42.37044],[-71.06541,42.37025],[-71.06534,42.37018],[-71.06521,42.37006],[-71.06509,42.36995],[-71.06497,42.36984],[-71.06493,42.3698],[-71.06478,42.36966],[-71.06471,42.3696],[-71.06464,42.36954],[-71.06453,42.36944],[-71.06435,42.36927],[-71.06421,42.36914],[-71.06413,42.36907],[-71.06406,42.369],[-71.06398,42.36893],[-71.06428,42.36894],[-71.06448,42.36894],[-71.06471,42.36895],[-71.06499,42.36895],[-71.06503,42.36895],[-71.06506,42.36895],[-71.06509,42.36896],[-71.06511,42.36896],[-71.06521,42.36896],[-71.06528,42.36896],[-71.06543,42.36896],[-71.06559,42.36897],[-71.06564,42.36897],[-71.06574,42.36897],[-71.06584,42.36897],[-71.06599,42.36897],[-71.06618,42.36898],[-71.06638,42.36898],[-71.06694,42.36899],[-71.06773,42.36901],[-71.06789,42.36901],[-71.06807,42.36902],[-71.06833,42.36902],[-71.06948,42.36905],[-71.06951,42.36902],[-71.06984,42.36871],[-71.07003,42.36853],[-71.07044,42.36815],[-71.0705,42.36809],[-71.07055,42.36804],[-71.07056,42.36803],[-71.07058,42.36802],[-71.07064,42.36795],[-71.07083,42.36778],[-71.07134,42.3673],[-71.07139,42.36725],[-71.07142,42.36722],[-71.07145,42.3672],[-71.07154,42.36711],[-71.07197,42.36671],[-71.07372,42.36506],[-71.07388,42.36486],[-71.07479,42.36377],[-71.07494,42.36351],[-71.0751,42.3632],[-71.07555,42.36193],[-71.07566,42.36161],[-71.07571,42.36146],[-71.07609,42.36038],[-71.0764,42.35996],[-71.07643,42.35992],[-71.07666,42.35967],[-71.07681,42.3595],[-71.07733,42.35908],[-71.07795,42.35874],[-71.07936,42.35827],[-71.0834,42.35692],[-71.08518,42.35633],[-71.08751,42.35556],[-71.091,42.3544],[-71.09124,42.35434],[-71.093,42.35389],[-71.09324,42.35385],[-71.09329,42.35384],[-71.09402,42.35372],[-71.09499,42.35356],[-71.09599,42.3534],[-71.09724,42.35319],[-71.09763,42.35315],[-71.09789,42.35312],[-71.10182,42.35269],[-71.1024,42.35262],[-71.10303,42.35251],[-71.10341,42.35245],[-71.10432,42.3524],[-71.10601,42.35247],[-71.10664,42.35249],[-71.10747,42.3525],[-71.10922,42.35255],[-71.11008,42.35255],[-71.11036,42.35259],[-71.11059,42.35262],[-71.11121,42.3527],[-71.1113,42.35271],[-71.11138,42.35272],[-71.11151,42.35274],[-71.1116,42.35275],[-71.11186,42.3528],[-71.11215,42.35285],[-71.11246,42.3529],[-71.11269,42.35297],[-71.11283,42.353],[-71.11292,42.35303],[-71.1132,42.35311],[-71.11371,42.35331],[-71.11409,42.35345],[-71.11492,42.35386],[-71.11517,42.35403],[-71.11591,42.35453],[-71.11653,42.35503],[-71.11654,42.35505],[-71.11685,42.35538],[-71.1169,42.3555],[-71.11707,42.35587],[-71.11708,42.35598],[-71.11711,42.35637],[-71.11717,42.357],[-71.11707,42.35755],[-71.11698,42.35782],[-71.11673,42.35853],[-71.11668,42.35874],[-71.11665,42.35884],[-71.1166,42.35918],[-71.11658,42.35957],[-71.11661,42.36008],[-71.1167,42.36118],[-71.1167,42.36126],[-71.11684,42.36275],[-71.11694,42.36368],[-71.11692,42.36425],[-71.11689,42.36531],[-71.11687,42.36589],[-71.11697,42.36665],[-71.11708,42.36703],[-71.11715,42.36718],[-71.11723,42.36737],[-71.11754,42.36787],[-71.11769,42.36815],[-71.11793,42.36839],[-71.11819,42.36853],[-71.11844,42.36862],[-71.11852,42.36864],[-71.11896,42.36876],[-71.11955,42.36884],[-71.12009,42.36882],[-71.12076,42.36879],[-71.12126,42.36874],[-71.12146,42.36873],[-71.12159,42.36871],[-71.12204,42.3687],[-71.12248,42.36876],[-71.12311,42.36891],[-71.1232,42.36894],[-71.12332,42.36898],[-71.12334,42.36898],[-71.1234,42.36901],[-71.12383,42.36916],[-71.12417,42.36933],[-71.12445,42.36951],[-71.1245,42.36957],[-71.12454,42.36961],[-71.12458,42.36964],[-71.12459,42.36966],[-71.1246,42.36967],[-71.12461,42.36969],[-71.12465,42.36976],[-71.12472,42.36985],[-71.1249,42.3701],[-71.12499,42.37024],[-71.12505,42.37035],[-71.12511,42.37045],[-71.12518,42.37056],[-71.12521,42.37061],[-71.12524,42.37067],[-71.12529,42.37075],[-71.12536,42.37087],[-71.12539,42.37093],[-71.12541,42.37096],[-71.12542,42.37099],[-71.12546,42.37105],[-71.12553,42.37119],[-71.12602,42.37195],[-71.12647,42.37238],[-71.12669,42.37257],[-71.12701,42.37284],[-71.12728,42.37302],[-71.12763,42.37326],[-71.12792,42.37343],[-71.1282,42.37357],[-71.12863,42.37374],[-71.12895,42.37383],[-71.12962,42.37394],[-71.13017,42.37396],[-71.13064,42.37392],[-71.13069,42.37392],[-71.131,42.37389],[-71.13115,42.37387],[-71.13152,42.3738],[-71.13207,42.37359],[-71.13246,42.37338],[-71.13272,42.3732],[-71.13296,42.37294],[-71.1331,42.3727],[-71.13315,42.37256],[-71.13316,42.37245],[-71.13318,42.37234],[-71.13314,42.37217],[-71.13309,42.37198],[-71.13304,42.37191],[-71.13299,42.37183],[-71.13297,42.3718],[-71.13295,42.37178],[-71.13288,42.37169],[-71.13283,42.37162],[-71.13277,42.37155],[-71.1327,42.37147],[-71.13257,42.37131],[-71.13234,42.37107],[-71.13218,42.3709],[-71.13209,42.37075],[-71.13198,42.37053],[-71.13186,42.37028],[-71.13179,42.37006],[-71.13178,42.37],[-71.13176,42.36986],[-71.13177,42.36979],[-71.13179,42.36969],[-71.13187,42.3695],[-71.13197,42.36933],[-71.13212,42.36915],[-71.13237,42.36889],[-71.13294,42.36849],[-71.13344,42.36815],[-71.1338,42.36794],[-71.13417,42.36776],[-71.13472,42.36757],[-71.13506,42.36748],[-71.13522,42.36743],[-71.13535,42.36739],[-71.13551,42.36734],[-71.13559,42.36731],[-71.13572,42.36727],[-71.13581,42.36723],[-71.13603,42.36712],[-71.13631,42.36696],[-71.13644,42.36689],[-71.13666,42.36675],[-71.13691,42.36654],[-71.13754,42.366],[-71.13856,42.3651],[-71.13897,42.36481],[-71.13915,42.3647],[-71.13946,42.36456],[-71.13969,42.36448],[-71.13989,42.36444],[-71.14013,42.36442],[-71.14041,42.3644],[-71.14064,42.36442],[-71.141,42.36449],[-71.14139,42.36457],[-71.14191,42.36473],[-71.14214,42.36481],[-71.14248,42.36494],[-71.14291,42.36503],[-71.14329,42.36508],[-71.14367,42.36508],[-71.1438,42.36506],[-71.14407,42.365],[-71.14449,42.36482],[-71.14473,42.36463],[-71.14496,42.36444],[-71.14524,42.36415],[-71.1454,42.36394],[-71.14555,42.3637],[-71.14564,42.36345],[-71.14577,42.36324],[-71.14593,42.36294],[-71.14613,42.36269],[-71.14634,42.36247],[-71.14665,42.36221],[-71.14698,42.36194],[-71.14717,42.36175],[-71.14724,42.36169],[-71.1473,42.36164],[-71.14757,42.36144],[-71.14781,42.36131],[-71.14808,42.36121],[-71.14833,42.36112],[-71.14864,42.36107],[-71.14903,42.36104],[-71.14945,42.36101],[-71.14973,42.36098],[-71.15007,42.36095],[-71.15064,42.36089],[-71.15145,42.36082],[-71.15199,42.36076],[-71.15248,42.36068],[-71.15294,42.36052],[-71.15371,42.36025],[-71.15415,42.36013],[-71.15448,42.36004],[-71.15482,42.35996],[-71.15525,42.35989],[-71.15561,42.35987],[-71.15636,42.35985],[-71.15672,42.35989],[-71.15706,42.35994],[-71.15708,42.35994],[-71.1571,42.35994],[-71.15745,42.35998],[-71.15782,42.35998],[-71.15827,42.35998],[-71.1585,42.35997],[-71.15883,42.35996],[-71.15928,42.3599],[-71.15975,42.35978],[-71.16052,42.3595],[-71.16096,42.35929],[-71.16135,42.35907],[-71.16151,42.35897],[-71.16169,42.35886],[-71.16188,42.35874],[-71.16211,42.35863],[-71.16229,42.35856],[-71.1626,42.35851],[-71.16301,42.35847],[-71.16327,42.35846],[-71.16342,42.35847],[-71.16363,42.35849],[-71.16389,42.35852],[-71.16422,42.35863],[-71.16457,42.35881],[-71.16523,42.35937],[-71.16535,42.35947],[-71.16569,42.35971],[-71.16588,42.35979],[-71.16616,42.35991],[-71.16649,42.35998],[-71.16682,42.36004],[-71.1673,42.36007],[-71.1674,42.36008],[-71.16751,42.36008],[-71.16761,42.36009],[-71.16763,42.36007],[-71.16764,42.36005],[-71.16807,42.35953],[-71.16825,42.35933],[-71.16828,42.35931],[-71.16853,42.35905],[-71.16862,42.35896],[-71.16947,42.35805],[-71.16989,42.35764],[-71.1699,42.35763],[-71.17006,42.35747],[-71.1704,42.35712],[-71.17066,42.35685],[-71.171,42.3565],[-71.17117,42.35631],[-71.17139,42.35609],[-71.17155,42.35592],[-71.17231,42.35513],[-71.17258,42.35485],[-71.17269,42.35473],[-71.17277,42.35465],[-71.17289,42.35453],[-71.17353,42.35386],[-71.17392,42.35347],[-71.17394,42.3534],[-71.174,42.3532],[-71.17403,42.35308],[-71.17413,42.35274],[-71.17426,42.35231],[-71.1743,42.35216],[-71.17438,42.35192],[-71.1744,42.35183],[-71.17444,42.35172],[-71.17446,42.35163],[-71.17457,42.35127],[-71.17463,42.35109],[-71.17464,42.35103],[-71.17471,42.35082],[-71.17475,42.35066],[-71.1748,42.35051],[-71.17485,42.35034],[-71.1748,42.35028],[-71.1748,42.35027],[-71.17471,42.35015],[-71.17427,42.34958],[-71.17342,42.34853],[-71.17317,42.34821],[-71.17232,42.34717],[-71.1719,42.34665],[-71.17,42.34425],[-71.16942,42.34353],[-71.16832,42.34217],[-71.16812,42.34192],[-71.16699,42.34046],[-71.16668,42.3401],[-71.16669,42.34007],[-71.1667,42.34001],[-71.16674,42.33985],[-71.16681,42.33929],[-71.1677,42.33897],[-71.16773,42.33896],[-71.16831,42.33874],[-71.16863,42.33863],[-71.16894,42.33845],[-71.16909,42.33824],[-71.16922,42.33807],[-71.16919,42.33788],[-71.16912,42.33738],[-71.16886,42.3363],[-71.16889,42.33583],[-71.16857,42.33514],[-71.16847,42.33508],[-71.16841,42.33502],[-71.16819,42.33479],[-71.16802,42.33443],[-71.16757,42.33344],[-71.16677,42.33353],[-71.16646,42.33356],[-71.16544,42.33367],[-71.16519,42.33369],[-71.16478,42.33375],[-71.16431,42.3338],[-71.16403,42.33383],[-71.16367,42.33387],[-71.16297,42.33395],[-71.16273,42.33396],[-71.16253,42.33397],[-71.1623,42.33396],[-71.1621,42.33394],[-71.16172,42.33389],[-71.1613,42.33378],[-71.16092,42.33364],[-71.16035,42.33336],[-71.16026,42.33332],[-71.16017,42.33327],[-71.15972,42.33304],[-71.15933,42.33277],[-71.15896,42.33242],[-71.15872,42.33216],[-71.15855,42.33198],[-71.15767,42.33106],[-71.15751,42.33089],[-71.15735,42.33071],[-71.15711,42.33047],[-71.15704,42.33039],[-71.15626,42.33085],[-71.15496,42.33162],[-71.14985,42.33463],[-71.14996,42.33469],[-71.15046,42.33497],[-71.15013,42.33521],[-71.1501,42.33528],[-71.15006,42.33539],[-71.14965,42.33549],[-71.1496,42.3355],[-71.14853,42.33575],[-71.14829,42.33581],[-71.14847,42.33623],[-71.14848,42.33625],[-71.14849,42.33627],[-71.14852,42.33633],[-71.14856,42.33642],[-71.14858,42.33649],[-71.14871,42.33679],[-71.14874,42.33687],[-71.14727,42.3372],[-71.14675,42.33731],[-71.14645,42.33738],[-71.14616,42.33744],[-71.14626,42.33777],[-71.14634,42.33804],[-71.14642,42.3381],[-71.14649,42.33816],[-71.14661,42.33854],[-71.14651,42.33855],[-71.14625,42.3386],[-71.14622,42.33863],[-71.14616,42.3387],[-71.1458,42.33896],[-71.14556,42.33913],[-71.14527,42.33934],[-71.14478,42.33966],[-71.14469,42.33972],[-71.14466,42.33974],[-71.14421,42.34002],[-71.14263,42.34006],[-71.14251,42.34006],[-71.14249,42.34006],[-71.14239,42.34006],[-71.14234,42.34005],[-71.14194,42.34001],[-71.14193,42.34002],[-71.14192,42.34008],[-71.14191,42.34012],[-71.1419,42.34016],[-71.14188,42.34023],[-71.14187,42.34026],[-71.14186,42.3403],[-71.14182,42.34037],[-71.14181,42.34041],[-71.14178,42.34047],[-71.14177,42.34049],[-71.14174,42.34055],[-71.14171,42.3406],[-71.14168,42.34065],[-71.14163,42.34071],[-71.14161,42.34074],[-71.14159,42.34077],[-71.14154,42.34082],[-71.14149,42.34089],[-71.14142,42.34095],[-71.14134,42.34103],[-71.14133,42.34105],[-71.1413,42.34107],[-71.1411,42.34124],[-71.14071,42.34155],[-71.14007,42.34209],[-71.13998,42.34214],[-71.1389,42.34301],[-71.13881,42.34309],[-71.13875,42.34313],[-71.13865,42.34321],[-71.1385,42.34334],[-71.13797,42.34377],[-71.13782,42.34388],[-71.13736,42.34426],[-71.13711,42.34446],[-71.13676,42.34474],[-71.13599,42.34537],[-71.13546,42.3458],[-71.13528,42.34594],[-71.13515,42.34602],[-71.13425,42.34658],[-71.13338,42.34712],[-71.13201,42.34777],[-71.13128,42.34812],[-71.13107,42.34822],[-71.13075,42.34837],[-71.13053,42.34848],[-71.13014,42.34866],[-71.12975,42.34885],[-71.12928,42.34907],[-71.12923,42.34908],[-71.12914,42.34913],[-71.12907,42.34917],[-71.12901,42.3492],[-71.12893,42.34926],[-71.12887,42.34931],[-71.1288,42.34938],[-71.12873,42.34946],[-71.12868,42.34953],[-71.12864,42.3496],[-71.12862,42.34966],[-71.12861,42.34967],[-71.12858,42.34983],[-71.12843,42.34984],[-71.12826,42.34985],[-71.12816,42.34985],[-71.12806,42.34986],[-71.12795,42.34987],[-71.12784,42.34988],[-71.12769,42.3499],[-71.12755,42.34991],[-71.12746,42.34993],[-71.12735,42.34995],[-71.12721,42.34998],[-71.12707,42.35001],[-71.12693,42.35004],[-71.12679,42.35008],[-71.12666,42.35012],[-71.12653,42.35017],[-71.12646,42.35019],[-71.1264,42.35022],[-71.12631,42.35025],[-71.12622,42.35029],[-71.12613,42.35033],[-71.12602,42.35038],[-71.12591,42.35044],[-71.12583,42.35049],[-71.12578,42.35051],[-71.12566,42.35059],[-71.1253,42.3508],[-71.12496,42.35101],[-71.12472,42.35115],[-71.12465,42.35119],[-71.12457,42.35124],[-71.12452,42.35128],[-71.12421,42.35149],[-71.12413,42.35153],[-71.12407,42.35155],[-71.12399,42.35154],[-71.12352,42.35149],[-71.12294,42.35142],[-71.12286,42.35186],[-71.12243,42.35181],[-71.1224,42.35181],[-71.12228,42.35179],[-71.12224,42.35179],[-71.12223,42.35179],[-71.12218,42.35178],[-71.12153,42.3517],[-71.12131,42.35167],[-71.12111,42.35165],[-71.12053,42.35159],[-71.12049,42.35158],[-71.12029,42.35156],[-71.11992,42.35151],[-71.11972,42.35149],[-71.11881,42.35139],[-71.11844,42.35134],[-71.11841,42.35134],[-71.11834,42.35133],[-71.11831,42.35133],[-71.11828,42.35133],[-71.11807,42.3513],[-71.11744,42.35123],[-71.11724,42.35121],[-71.11695,42.35117],[-71.11609,42.35105],[-71.11581,42.35102],[-71.11563,42.351],[-71.11511,42.35093],[-71.11493,42.35091],[-71.1147,42.35089],[-71.11409,42.35082],[-71.11401,42.35081],[-71.11378,42.35078],[-71.11364,42.35077],[-71.11322,42.35072],[-71.11151,42.35051],[-71.11128,42.35049],[-71.11111,42.35047],[-71.11094,42.35045],[-71.11092,42.35044],[-71.11089,42.35044],[-71.11088,42.35044],[-71.11083,42.35044],[-71.11075,42.35043],[-71.1105,42.35039],[-71.11042,42.35038],[-71.1103,42.35036],[-71.10995,42.35032],[-71.10983,42.3503],[-71.10975,42.35029],[-71.10957,42.35027],[-71.1095,42.35027],[-71.10942,42.35026],[-71.10931,42.35025],[-71.10899,42.35021],[-71.10888,42.3502],[-71.10849,42.35015],[-71.1073,42.35],[-71.10691,42.34995],[-71.10683,42.34994],[-71.10664,42.34992],[-71.10657,42.34991],[-71.1067,42.34943],[-71.10679,42.34905],[-71.10682,42.34889],[-71.10685,42.34876],[-71.10689,42.34859],[-71.10696,42.34822],[-71.10698,42.34814],[-71.10703,42.34792],[-71.10705,42.34784],[-71.10706,42.34777],[-71.10711,42.34754],[-71.10712,42.34747],[-71.10721,42.34705],[-71.10719,42.34698],[-71.10708,42.34675],[-71.10707,42.34673],[-71.10704,42.34668],[-71.10703,42.34666],[-71.10699,42.34658],[-71.10686,42.34634],[-71.10682,42.34625],[-71.1068,42.34621],[-71.10678,42.34614],[-71.10676,42.34608],[-71.10674,42.34604],[-71.10671,42.34598],[-71.10662,42.34581],[-71.10659,42.34575],[-71.10657,42.34573],[-71.10653,42.34565],[-71.10651,42.34562],[-71.10648,42.34555],[-71.10638,42.34533],[-71.10635,42.34525],[-71.10633,42.34522],[-71.10625,42.34507],[-71.10591,42.34457],[-71.10583,42.34445],[-71.1058,42.3444],[-71.10578,42.34432],[-71.10567,42.34412],[-71.10558,42.34394],[-71.10556,42.3439],[-71.10552,42.34381],[-71.10561,42.34379],[-71.10569,42.34375],[-71.10586,42.34369],[-71.10606,42.34359],[-71.10607,42.34358],[-71.10617,42.34349],[-71.10622,42.34343],[-71.10623,42.34337],[-71.10624,42.34332],[-71.1063,42.34326],[-71.10651,42.34311],[-71.10658,42.34307],[-71.10666,42.34303],[-71.10691,42.34295],[-71.10707,42.34289],[-71.10714,42.34286],[-71.1072,42.34283],[-71.10721,42.34282],[-71.10725,42.3428],[-71.10744,42.34269],[-71.10789,42.34255],[-71.10803,42.34248],[-71.10812,42.34241],[-71.10819,42.34233],[-71.10822,42.34227],[-71.10823,42.34219],[-71.10823,42.34211],[-71.10824,42.34206],[-71.10826,42.34203],[-71.10829,42.34198],[-71.10841,42.34189],[-71.10843,42.34187],[-71.10849,42.34184],[-71.10877,42.34175],[-71.10904,42.34166],[-71.10936,42.34158],[-71.10955,42.34149],[-71.1096,42.34146],[-71.10966,42.3414],[-71.10968,42.34136],[-71.10977,42.34122],[-71.10985,42.34117],[-71.10999,42.34111],[-71.11009,42.34103],[-71.11018,42.34096],[-71.11036,42.34073],[-71.11047,42.34059],[-71.11057,42.34045],[-71.11058,42.34044],[-71.1106,42.34041],[-71.11063,42.34033],[-71.11066,42.34027],[-71.11071,42.34013],[-71.11072,42.34008],[-71.11071,42.34004],[-71.11068,42.33999],[-71.11068,42.3399],[-71.11076,42.33972],[-71.11085,42.33951],[-71.11089,42.33888],[-71.11094,42.33874],[-71.11103,42.33856],[-71.11111,42.33836],[-71.11131,42.3379],[-71.1114,42.33763],[-71.11147,42.33755],[-71.11153,42.33746],[-71.11156,42.33738],[-71.11155,42.3373],[-71.11144,42.33721],[-71.11142,42.33719],[-71.1113,42.33708],[-71.11125,42.33702],[-71.11122,42.33699],[-71.1112,42.33691],[-71.11119,42.33687],[-71.11117,42.33677],[-71.11115,42.33672],[-71.11111,42.33666],[-71.11106,42.33662],[-71.11101,42.3366],[-71.11091,42.33655],[-71.1108,42.33643],[-71.11071,42.33631],[-71.1107,42.33626],[-71.11071,42.33621],[-71.11075,42.33617],[-71.1109,42.33601],[-71.11098,42.33594],[-71.111,42.33583],[-71.111,42.33582],[-71.11099,42.33576],[-71.11093,42.33567],[-71.11081,42.33559],[-71.11073,42.33553],[-71.11055,42.33546],[-71.11052,42.3354],[-71.11053,42.33533],[-71.11059,42.33525],[-71.11097,42.33487],[-71.11112,42.33473],[-71.11134,42.3346],[-71.11141,42.33453],[-71.11157,42.33437],[-71.11176,42.33417],[-71.11196,42.33403],[-71.11205,42.3339],[-71.11219,42.3338],[-71.11239,42.33353],[-71.11244,42.33344],[-71.11246,42.33343],[-71.11252,42.33331],[-71.11258,42.33321],[-71.11266,42.33307],[-71.11283,42.33285],[-71.11297,42.33269],[-71.11309,42.3326],[-71.11315,42.33253],[-71.11321,42.33246],[-71.11326,42.33234],[-71.11324,42.33229],[-71.11323,42.33224],[-71.11327,42.33222],[-71.1133,42.33218],[-71.1133,42.3321],[-71.11331,42.33201],[-71.11332,42.3319],[-71.11334,42.33178],[-71.11335,42.33173],[-71.11344,42.33101],[-71.11345,42.33095],[-71.11358,42.33047],[-71.11371,42.33018],[-71.11394,42.32967],[-71.11455,42.32837],[-71.11484,42.32775],[-71.11504,42.32731],[-71.11524,42.32699],[-71.11527,42.32693],[-71.11535,42.32688],[-71.11545,42.32683],[-71.11552,42.3268],[-71.11556,42.32678],[-71.11568,42.32671],[-71.11576,42.32663],[-71.11581,42.32656],[-71.11597,42.32638],[-71.11601,42.32625],[-71.11602,42.32613],[-71.11596,42.32599],[-71.11595,42.32595],[-71.11593,42.32585],[-71.11595,42.32581],[-71.11595,42.32573],[-71.11598,42.32566],[-71.11604,42.32551],[-71.11609,42.32538],[-71.11613,42.32527],[-71.11615,42.32526],[-71.11621,42.3252],[-71.11625,42.32507],[-71.11627,42.32495],[-71.11635,42.32479],[-71.11635,42.32469],[-71.11633,42.3246],[-71.1164,42.3245],[-71.11636,42.32431],[-71.11642,42.32412],[-71.11654,42.32394],[-71.11664,42.32385],[-71.11667,42.32382],[-71.11677,42.32377],[-71.11707,42.3237],[-71.11745,42.32362],[-71.11779,42.32355],[-71.11801,42.32354],[-71.11828,42.32349],[-71.1184,42.32345],[-71.11848,42.32338],[-71.11848,42.3233],[-71.11851,42.32312],[-71.1187,42.32298],[-71.11877,42.32293],[-71.11879,42.32292],[-71.11887,42.32286],[-71.11894,42.32284],[-71.11944,42.32274],[-71.11954,42.32274],[-71.11986,42.32278],[-71.11992,42.32279],[-71.11996,42.32279],[-71.12004,42.32282],[-71.12011,42.32283],[-71.12014,42.32286],[-71.12039,42.32304],[-71.12153,42.32388],[-71.12337,42.32257],[-71.12371,42.32272],[-71.12397,42.32231],[-71.12427,42.32186],[-71.12446,42.32165],[-71.12457,42.32152],[-71.12461,42.32148],[-71.12501,42.32103],[-71.12543,42.32057],[-71.12579,42.32016],[-71.12689,42.31893],[-71.12707,42.31873],[-71.12718,42.31861],[-71.12735,42.31841],[-71.12818,42.31744],[-71.12833,42.31727],[-71.1286,42.31696],[-71.12896,42.31654],[-71.12942,42.31598],[-71.12964,42.31572],[-71.13026,42.31498],[-71.13054,42.31464],[-71.13064,42.31453],[-71.13095,42.31418],[-71.13133,42.31376],[-71.13175,42.3133],[-71.13186,42.31318],[-71.13283,42.31169],[-71.13316,42.3112],[-71.1341,42.30968],[-71.13436,42.30925],[-71.13446,42.3091],[-71.13488,42.30849],[-71.13501,42.30832],[-71.13533,42.30786],[-71.13539,42.30778],[-71.13611,42.30676],[-71.1365,42.3062],[-71.13824,42.30425],[-71.13861,42.30383],[-71.13931,42.30306],[-71.13966,42.30266],[-71.1401,42.30217],[-71.14014,42.30215],[-71.14153,42.30114],[-71.14231,42.30058],[-71.14347,42.29974],[-71.14405,42.29932],[-71.14414,42.29925],[-71.14597,42.29794],[-71.14682,42.29732],[-71.14688,42.29728],[-71.14704,42.2972],[-71.14729,42.29708],[-71.14748,42.29697],[-71.1475,42.29696],[-71.14792,42.29675],[-71.14829,42.29656],[-71.1486,42.2964],[-71.14878,42.29631],[-71.15001,42.29568],[-71.1503,42.29553],[-71.15033,42.29551],[-71.15036,42.2955],[-71.15113,42.2951],[-71.15189,42.2947],[-71.15202,42.29464],[-71.15211,42.29459],[-71.15215,42.29461],[-71.15218,42.29464],[-71.15221,42.29466],[-71.15251,42.29488],[-71.15346,42.29557],[-71.15369,42.29575],[-71.1545,42.29634],[-71.15469,42.29648],[-71.15483,42.29658],[-71.15487,42.29661],[-71.15541,42.29699],[-71.15544,42.29702],[-71.15545,42.29704],[-71.15547,42.29705],[-71.1555,42.29708],[-71.15555,42.29711],[-71.15559,42.29714],[-71.15564,42.29718],[-71.15575,42.29726],[-71.15684,42.29806],[-71.15698,42.29816],[-71.15721,42.29833],[-71.15772,42.2987],[-71.15874,42.29946],[-71.1601,42.30045],[-71.16151,42.30149],[-71.16287,42.30249],[-71.16317,42.3027],[-71.16344,42.3029],[-71.16459,42.30375],[-71.1647,42.30383],[-71.16512,42.30355],[-71.16654,42.30261],[-71.16711,42.30223],[-71.16725,42.30214],[-71.16734,42.30207],[-71.16792,42.30169],[-71.1681,42.30156],[-71.16827,42.30146],[-71.16829,42.30145],[-71.16842,42.30136],[-71.16981,42.30044],[-71.17044,42.30002],[-71.17636,42.2961],[-71.17861,42.29461],[-71.17864,42.2946],[-71.18635,42.28746],[-71.18738,42.28651],[-71.18838,42.28558],[-71.19011,42.28398],[-71.1907,42.28344],[-71.1909,42.28325],[-71.19116,42.28306],[-71.19119,42.28304],[-71.19123,42.283]]]},"properties":{"GEOID":"2507000","BASENAME":"Boston","NAME":"Boston city","STATE":"25","PLACE":"07000","AREALAND":"125203177","AREAWATER":"106897547","LSADC":"25","FUNCSTAT":"A"}}]}