{"type":"Feature","geometry":{"type":"Point","coordinates":[-71.059,42.36,71.06]},"properties":{"parameter":{"T2M":{"20250401":7.57,"20250402":0.69,"20250403":5.85,"20250404":12.12,"20250405":5.02,"20250406":6.3,"20250407":4.22,"20250408":2.59,"20250409":0.51,"20250410":2.58,"20250411":4.39,"20250412":2.38,"20250413":4.39,"20250414":8.86,"20250415":10.62,"20250416":6.47,"20250417":6.59,"20250418":7.5,"20250419":14.11,"20250420":13.06,"20250421":7.55,"20250422":12.48,"20250423":11.77,"20250424":12.55,"20250425":14.52,"20250426":13.97,"20250427":9.24,"20250428":13.27,"20250429":14.38,"20250430":15.06,"20250501":11.21,"20250502":14.9,"20250503":17.05,"20250504":16.97,"20250505":10.96,"20250506":11.75,"20250507":15.36,"20250508":15.17,"20250509":10.65,"20250510":10.46,"20250511":12.87,"20250512":12.18,"20250513":14.77,"20250514":14.69,"20250515":16.55,"20250516":19.49,"20250517":18.98,"20250518":16.11,"20250519":12.16,"20250520":10.33,"20250521":8.81,"20250522":8.22,"20250523":7.75,"20250524":11.3,"20250525":11.67,"20250526":14.03,"20250527":16.48,"20250528":16.64,"20250529":15.6,"20250530":17.34,"20250531":16.0,"20250601":12.4,"20250602":13.55,"20250603":16.82,"20250604":18.4,"20250605":22.47,"20250606":21.97,"20250607":17.96,"20250608":16.47,"20250609":15.43,"20250610":15.43,"20250611":19.58,"20250612":20.89,"20250613":17.78,"20250614":15.06,"20250615":14.97,"20250616":16.33,"20250617":17.07,"20250618":20.04,"20250619":23.36,"20250620":21.83,"20250621":21.03,"20250622":23.29,"20250623":25.52,"20250624":28.1,"20250625":27.45,"20250626":20.46,"20250627":18.24,"20250628":19.04,"20250629":22.47,"20250630":22.86,"20250701":23.98,"20250702":24.04,"20250703":24.33,"20250704":20.9,"20250705":20.26,"20250706":24.36,"20250707":25.21,"20250708":26.51,"20250709":21.9,"20250710":18.96,"20250711":21.42,"20250712":23.81,"20250713":22.65,"20250714":23.68,"20250715":26.07,"20250716":26.87,"20250717":25.9,"20250718":24.35,"20250719":21.97,"20250720":23.72,"20250721":21.5,"20250722":19.54,"20250723":21.7,"20250724":24.22,"20250725":26.41,"20250726":23.67,"20250727":21.58,"20250728":26.21,"20250729":28.5,"20250730":28.16,"20250731":22.38,"20250801":18.93,"20250802":19.67,"20250803":21.75,"20250804":23.21,"20250805":22.19,"20250806":20.34,"20250807":22.21,"20250808":21.93,"20250809":22.3,"20250810":24.47,"20250811":26.78,"20250812":27.54,"20250813":26.74,"20250814":25.87,"20250815":23.98,"20250816":23.21,"20250817":25.79,"20250818":19.97,"20250819":18.73,"20250820":17.35,"20250821":17.07,"20250822":19.92,"20250823":22.37,"20250824":22.05,"20250825":23.31,"20250826":21.81,"20250827":18.91,"20250828":18.81,"20250829":19.93,"20250830":18.5,"20250831":18.83,"20250901":18.99,"20250902":19.69,"20250903":19.63,"20250904":20.15,"20250905":21.91,"20250906":23.38,"20250907":17.64,"20250908":17.2,"20250909":16.41,"20250910":15.55,"20250911":17.43,"20250912":18.2,"20250913":17.38,"20250914":19.96,"20250915":19.12,"20250916":17.66,"20250917":16.95,"20250918":19.73,"20250919":20.59,"20250920":15.9,"20250921":14.85,"20250922":16.03,"20250923":20.12,"20250924":18.25,"20250925":18.5,"20250926":21.57,"20250927":20.04,"20250928":21.06,"20250929":19.96,"20250930":18.57},"T2M_MAX":{"20250401":11.9,"20250402":4.69,"20250403":14.27,"20250404":15.78,"20250405":7.56,"20250406":11.84,"20250407":6.88,"20250408":5.31,"20250409":7.21,"20250410":10.09,"20250411":9.36,"20250412":3.2,"20250413":7.83,"20250414":17.63,"20250415":17.46,"20250416":9.34,"20250417":12.64,"20250418":16.26,"20250419":22.0,"20250420":17.72,"20250421":15.28,"20250422":21.05,"20250423":19.14,"20250424":20.57,"20250425":20.65,"20250426":16.92,"20250427":14.41,"20250428":21.56,"20250429":21.68,"20250430":17.44,"20250501":19.06,"20250502":23.6,"20250503":23.32,"20250504":22.86,"20250505":13.77,"20250506":16.98,"20250507":19.99,"20250508":21.74,"20250509":13.66,"20250510":15.6,"20250511":17.55,"20250512":20.3,"20250513":19.54,"20250514":22.24,"20250515":21.33,"20250516":26.16,"20250517":25.24,"20250518":19.21,"20250519":15.58,"20250520":14.27,"20250521":10.8,"20250522":10.9,"20250523":13.52,"20250524":15.84,"20250525":15.7,"20250526":20.11,"20250527":24.43,"20250528":21.77,"20250529":19.74,"20250530":21.42,"20250531":21.05,"20250601":15.9,"20250602":20.03,"20250603":25.63,"20250604":25.62,"20250605":32.39,"20250606":26.28,"20250607":20.71,"20250608":20.23,"20250609":20.0,"20250610":20.16,"20250611":24.62,"20250612":25.74,"20250613":22.63,"20250614":16.81,"20250615":19.79,"20250616":21.77,"20250617":21.24,"20250618":25.24,"20250619":29.9,"20250620":24.47,"20250621":27.82,"20250622":29.45,"20250623":32.78,"20250624":33.94,"20250625":31.02,"20250626":26.77,"20250627":22.67,"20250628":25.52,"20250629":27.12,"20250630":28.87,"20250701":29.37,"20250702":28.19,"20250703":29.04,"20250704":24.96,"20250705":25.97,"20250706":31.13,"20250707":30.49,"20250708":31.17,"20250709":26.3,"20250710":20.91,"20250711":28.64,"20250712":28.96,"20250713":28.56,"20250714":29.19,"20250715":32.31,"20250716":33.13,"20250717":29.55,"20250718":26.78,"20250719":28.77,"20250720":29.1,"20250721":24.49,"20250722":26.11,"20250723":28.79,"20250724":31.23,"20250725":34.15,"20250726":29.21,"20250727":26.39,"20250728":34.07,"20250729":36.79,"20250730":35.89,"20250731":26.28,"20250801":23.89,"20250802":25.82,"20250803":29.62,"20250804":31.59,"20250805":26.17,"20250806":25.69,"20250807":28.77,"20250808":29.42,"20250809":30.03,"20250810":33.63,"20250811":35.15,"20250812":35.37,"20250813":34.66,"20250814":31.43,"20250815":29.09,"20250816":31.9,"20250817":32.77,"20250818":24.41,"20250819":23.6,"20250820":20.5,"20250821":22.41,"20250822":28.19,"20250823":29.87,"20250824":28.29,"20250825":29.52,"20250826":26.3,"20250827":23.83,"20250828":25.84,"20250829":24.56,"20250830":24.64,"20250831":26.05,"20250901":25.0,"20250902":26.56,"20250903":26.8,"20250904":27.25,"20250905":28.84,"20250906":30.08,"20250907":21.71,"20250908":23.37,"20250909":22.24,"20250910":20.6,"20250911":26.34,"20250912":23.83,"20250913":24.96,"20250914":26.64,"20250915":25.12,"20250916":23.96,"20250917":22.7,"20250918":28.11,"20250919":26.83,"20250920":21.69,"20250921":21.26,"20250922":24.13,"20250923":27.74,"20250924":19.93,"20250925":21.78,"20250926":26.22,"20250927":25.84,"20250928":28.23,"20250929":26.51,"20250930":23.72},"T2M_MIN":{"20250401":3.3,"20250402":-2.76,"20250403":0.48,"20250404":8.66,"20250405":2.3,"20250406":3.06,"20250407":1.48,"20250408":-0.27,"20250409":-3.54,"20250410":-3.34,"20250411":1.01,"20250412":1.13,"20250413":2.2,"20250414":2.82,"20250415":6.32,"20250416":2.99,"20250417":2.23,"20250418":-0.58,"20250419":8.58,"20250420":8.56,"20250421":0.75,"20250422":6.35,"20250423":5.19,"20250424":4.94,"20250425":10.38,"20250426":11.58,"20250427":5.34,"20250428":7.0,"20250429":7.92,"20250430":11.18,"20250501":3.93,"20250502":9.12,"20250503":11.34,"20250504":13.46,"20250505":9.19,"20250506":8.36,"20250507":10.59,"20250508":10.04,"20250509":8.19,"20250510":7.86,"20250511":8.64,"20250512":4.04,"20250513":9.64,"20250514":8.44,"20250515":12.83,"20250516":14.24,"20250517":14.7,"20250518":12.13,"20250519":9.1,"20250520":6.84,"20250521":6.6,"20250522":6.91,"20250523":3.52,"20250524":7.88,"20250525":7.53,"20250526":7.47,"20250527":9.0,"20250528":12.07,"20250529":11.35,"20250530":13.88,"20250531":13.35,"20250601":8.99,"20250602":7.62,"20250603":9.01,"20250604":12.07,"20250605":15.03,"20250606":18.95,"20250607":15.96,"20250608":12.87,"20250609":12.46,"20250610":12.5,"20250611":14.23,"20250612":16.62,"20250613":13.94,"20250614":14.09,"20250615":10.22,"20250616":11.64,"20250617":13.58,"20250618":16.36,"20250619":17.94,"20250620":20.07,"20250621":14.74,"20250622":18.76,"20250623":18.58,"20250624":23.45,"20250625":22.98,"20250626":16.99,"20250627":14.09,"20250628":14.34,"20250629":18.33,"20250630":16.81,"20250701":20.16,"20250702":20.62,"20250703":19.79,"20250704":16.57,"20250705":14.44,"20250706":18.7,"20250707":20.42,"20250708":21.61,"20250709":18.91,"20250710":18.1,"20250711":15.86,"20250712":19.39,"20250713":16.8,"20250714":18.73,"20250715":21.42,"20250716":20.64,"20250717":22.25,"20250718":20.79,"20250719":14.46,"20250720":19.88,"20250721":16.95,"20250722":12.71,"20250723":13.97,"20250724":18.32,"20250725":21.22,"20250726":17.79,"20250727":17.86,"20250728":18.77,"20250729":21.39,"20250730":20.33,"20250731":18.05,"20250801":15.04,"20250802":13.27,"20250803":14.14,"20250804":15.72,"20250805":19.05,"20250806":16.39,"20250807":17.48,"20250808":14.77,"20250809":14.4,"20250810":17.17,"20250811":19.28,"20250812":20.24,"20250813":20.15,"20250814":21.99,"20250815":19.1,"20250816":15.53,"20250817":20.14,"20250818":15.63,"20250819":14.71,"20250820":14.79,"20250821":13.36,"20250822":12.76,"20250823":15.47,"20250824":16.71,"20250825":17.79,"20250826":16.64,"20250827":13.54,"20250828":12.02,"20250829":16.19,"20250830":12.61,"20250831":12.16,"20250901":14.25,"20250902":13.16,"20250903":12.65,"20250904":12.95,"20250905":17.11,"20250906":18.51,"20250907":15.51,"20250908":11.24,"20250909":10.6,"20250910":11.71,"20250911":9.97,"20250912":12.22,"20250913":11.22,"20250914":14.39,"20250915":13.54,"20250916":12.51,"20250917":12.51,"20250918":15.13,"20250919":16.38,"20250920":9.86,"20250921":9.23,"20250922":10.5,"20250923":14.65,"20250924":16.72,"20250925":16.49,"20250926":18.11,"20250927":14.87,"20250928":16.62,"20250929":12.72,"20250930":14.86},"PRECTOTCORR":{"20250401":12.29,"20250402":0.0,"20250403":9.74,"20250404":3.02,"20250405":4.15,"20250406":12.07,"20250407":2.79,"20250408":2.68,"20250409":0.02,"20250410":0.01,"20250411":2.66,"20250412":10.72,"20250413":4.53,"20250414":0.05,"20250415":4.07,"20250416":0.12,"20250417":0.0,"20250418":0.02,"20250419":0.08,"20250420":1.08,"20250421":0.0,"20250422":5.39,"20250423":0.02,"20250424":0.0,"20250425":0.66,"20250426":19.24,"20250427":1.63,"20250428":0.01,"20250429":0.01,"20250430":0.01,"20250501":0.0,"20250502":5.87,"20250503":7.25,"20250504":5.34,"20250505":26.0,"20250506":9.11,"20250507":1.95,"20250508":2.02,"20250509":15.49,"20250510":27.79,"20250511":0.27,"20250512":0.0,"20250513":0.02,"20250514":0.12,"20250515":8.14,"20250516":0.19,"20250517":4.1,"20250518":1.58,"20250519":0.35,"20250520":0.32,"20250521":0.78,"20250522":27.05,"20250523":30.47,"20250524":2.62,"20250525":0.1,"20250526":0.04,"20250527":0.0,"20250528":0.0,"20250529":0.71,"20250530":0.99,"20250531":18.2,"20250601":0.75,"20250602":0.06,"20250603":0.02,"20250604":0.0,"20250605":0.06,"20250606":4.58,"20250607":20.92,"20250608":1.21,"20250609":2.05,"20250610":3.85,"20250611":0.1,"20250612":0.0,"20250613":0.0,"20250614":2.51,"20250615":0.1,"20250616":0.04,"20250617":2.7,"20250618":2.42,"20250619":0.06,"20250620":0.04,"20250621":0.0,"20250622":1.44,"20250623":0.01,"20250624":0.03,"20250625":0.4,"20250626":0.38,"20250627":0.02,"20250628":3.04,"20250629":0.14,"20250630":0.0,"20250701":1.78,"20250702":3.85,"20250703":1.5,"20250704":0.85,"20250705":0.0,"20250706":0.05,"20250707":0.66,"20250708":4.17,"20250709":19.89,"20250710":14.71,"20250711":0.63,"20250712":0.31,"20250713":0.06,"20250714":1.4,"20250715":0.35,"20250716":0.07,"20250717":1.57,"20250718":0.05,"20250719":0.0,"20250720":3.18,"20250721":2.07,"20250722":0.0,"20250723":0.01,"20250724":0.0,"20250725":2.31,"20250726":0.04,"20250727":2.23,"20250728":0.23,"20250729":0.0,"20250730":0.01,"20250731":11.75,"20250801":19.88,"20250802":0.0,"20250803":0.0,"20250804":0.02,"20250805":0.02,"20250806":0.03,"20250807":0.03,"20250808":0.0,"20250809":0.02,"20250810":0.02,"20250811":0.02,"20250812":0.0,"20250813":3.96,"20250814":5.59,"20250815":0.1,"20250816":0.03,"20250817":0.69,"20250818":0.79,"20250819":0.0,"20250820":7.4,"20250821":4.76,"20250822":0.0,"20250823":0.0,"20250824":0.02,"20250825":1.11,"20250826":0.05,"20250827":0.47,"20250828":0.01,"20250829":4.28,"20250830":3.6,"20250831":0.0,"20250901":0.03,"20250902":0.07,"20250903":0.0,"20250904":0.03,"20250905":2.75,"20250906":2.42,"20250907":27.43,"20250908":0.03,"20250909":0.0,"20250910":0.01,"20250911":0.01,"20250912":0.0,"20250913":0.18,"20250914":0.5,"20250915":0.08,"20250916":0.05,"20250917":0.12,"20250918":6.63,"20250919":0.0,"20250920":0.0,"20250921":0.0,"20250922":0.0,"20250923":1.29,"20250924":7.99,"20250925":31.33,"20250926":0.75,"20250927":0.02,"20250928":1.18,"20250929":0.0,"20250930":0.0},"WS10M":{"20250401":4.08,"20250402":2.62,"20250403":3.5,"20250404":3.04,"20250405":2.84,"20250406":1.98,"20250407":2.13,"20250408":2.76,"20250409":3.94,"20250410":1.89,"20250411":1.94,"20250412":3.86,"20250413":3.64,"20250414":2.66,"20250415":2.63,"20250416":4.45,"20250417":3.92,"20250418":2.71,"20250419":3.49,"20250420":4.54,"20250421":2.17,"20250422":1.63,"20250423":2.31,"20250424":1.62,"20250425":1.77,"20250426":3.12,"20250427":4.41,"20250428":3.12,"20250429":3.47,"20250430":4.08,"20250501":1.66,"20250502":2.41,"20250503":1.92,"20250504":1.23,"20250505":2.71,"20250506":2.33,"20250507":2.34,"20250508":1.48,"20250509":2.81,"20250510":3.13,"20250511":3.01,"20250512":2.57,"20250513":2.14,"20250514":1.78,"20250515":1.56,"20250516":1.49,"20250517":2.23,"20250518":3.03,"20250519":4.38,"20250520":3.13,"20250521":2.49,"20250522":3.75,"20250523":3.3,"20250524":2.15,"20250525":2.32,"20250526":1.58,"20250527":1.52,"20250528":2.01,"20250529":1.64,"20250530":2.05,"20250531":2.05,"20250601":3.91,"20250602":2.29,"20250603":1.34,"20250604":2.06,"20250605":1.5,"20250606":1.58,"20250607":1.18,"20250608":1.91,"20250609":2.21,"20250610":1.15,"20250611":2.31,"20250612":3.01,"20250613":1.5,"20250614":1.74,"20250615":1.54,"20250616":1.69,"20250617":1.74,"20250618":1.82,"20250619":1.89,"20250620":3.79,"20250621":1.55,"20250622":2.33,"20250623":1.33,"20250624":2.0,"20250625":1.73,"20250626":1.99,"20250627":1.34,"20250628":1.85,"20250629":1.56,"20250630":1.08,"20250701":2.11,"20250702":1.77,"20250703":1.92,"20250704":2.26,"20250705":1.67,"20250706":2.68,"20250707":2.76,"20250708":1.68,"20250709":1.42,"20250710":1.67,"20250711":1.09,"20250712":1.52,"20250713":1.69,"20250714":1.79,"20250715":1.47,"20250716":1.48,"20250717":2.31,"20250718":2.97,"20250719":1.49,"20250720":2.07,"20250721":2.57,"20250722":1.32,"20250723":1.31,"20250724":2.78,"20250725":2.45,"20250726":1.64,"20250727":2.29,"20250728":1.32,"20250729":1.97,"20250730":1.31,"20250731":2.08,"20250801":2.37,"20250802":1.47,"20250803":1.31,"20250804":1.38,"20250805":1.74,"20250806":1.42,"20250807":1.26,"20250808":1.69,"20250809":1.6,"20250810":1.17,"20250811":1.18,"20250812":1.65,"20250813":1.66,"20250814":1.41,"20250815":1.82,"20250816":1.19,"20250817":2.01,"20250818":2.61,"20250819":1.09,"20250820":1.56,"20250821":2.52,"20250822":2.51,"20250823":2.44,"20250824":2.94,"20250825":1.39,"20250826":2.46,"20250827":1.72,"20250828":1.8,"20250829":2.14,"20250830":2.08,"20250831":1.72,"20250901":1.63,"20250902":1.5,"20250903":1.55,"20250904":2.0,"20250905":2.64,"20250906":2.83,"20250907":1.28,"20250908":1.61,"20250909":1.88,"20250910":2.2,"20250911":1.92,"20250912":1.68,"20250913":1.6,"20250914":1.5,"20250915":1.61,"20250916":1.55,"20250917":1.76,"20250918":1.1,"20250919":2.35,"20250920":1.7,"20250921":1.56,"20250922":1.51,"20250923":1.96,"20250924":1.55,"20250925":2.33,"20250926":2.29,"20250927":1.49,"20250928":1.93,"20250929":1.53,"20250930":2.03},"RH2M":{"20250401":74.18,"20250402":61.37,"20250403":94.88,"20250404":80.02,"20250405":82.97,"20250406":89.81,"20250407":85.23,"20250408":80.98,"20250409":58.63,"20250410":68.8,"20250411":83.38,"20250412":92.83,"20250413":91.11,"20250414":75.82,"20250415":84.83,"20250416":71.2,"20250417":63.81,"20250418":64.09,"20250419":78.19,"20250420":63.83,"20250421":61.41,"20250422":78.79,"20250423":71.12,"20250424":70.88,"20250425":78.77,"20250426":93.89,"20250427":75.81,"20250428":62.65,"20250429":67.78,"20250430":62.69,"20250501":60.49,"20250502":81.01,"20250503":86.06,"20250504":87.66,"20250505":93.2,"20250506":95.06,"20250507":83.27,"20250508":84.12,"20250509":91.94,"20250510":89.04,"20250511":70.79,"20250512":66.87,"20250513":74.2,"20250514":81.28,"20250515":90.29,"20250516":83.25,"20250517":85.63,"20250518":81.13,"20250519":72.81,"20250520":76.1,"20250521":85.5,"20250522":88.41,"20250523":86.08,"20250524":85.26,"20250525":79.4,"20250526":73.18,"20250527":71.84,"20250528":78.85,"20250529":80.42,"20250530":87.03,"20250531":89.87,"20250601":73.41,"20250602":71.25,"20250603":65.36,"20250604":75.26,"20250605":75.16,"20250606":84.55,"20250607":95.43,"20250608":87.21,"20250609":86.17,"20250610":91.45,"20250611":79.76,"20250612":74.6,"20250613":69.78,"20250614":88.42,"20250615":81.07,"20250616":78.75,"20250617":89.9,"20250618":89.47,"20250619":82.68,"20250620":73.58,"20250621":69.87,"20250622":82.77,"20250623":76.28,"20250624":77.4,"20250625":75.73,"20250626":72.61,"20250627":73.19,"20250628":82.57,"20250629":78.47,"20250630":74.25,"20250701":84.09,"20250702":83.21,"20250703":73.65,"20250704":70.66,"20250705":67.73,"20250706":70.73,"20250707":75.74,"20250708":78.95,"20250709":88.34,"20250710":95.71,"20250711":83.49,"20250712":80.52,"20250713":77.83,"20250714":81.15,"20250715":76.05,"20250716":73.57,"20250717":78.98,"20250718":60.62,"20250719":61.42,"20250720":77.98,"20250721":72.48,"20250722":59.54,"20250723":61.0,"20250724":65.74,"20250725":70.86,"20250726":59.43,"20250727":73.99,"20250728":69.12,"20250729":58.69,"20250730":58.46,"20250731":76.17,"20250801":76.9,"20250802":59.96,"20250803":61.21,"20250804":63.01,"20250805":70.39,"20250806":68.24,"20250807":64.2,"20250808":55.18,"20250809":58.59,"20250810":61.81,"20250811":57.15,"20250812":48.75,"20250813":64.52,"20250814":77.06,"20250815":63.35,"20250816":62.62,"20250817":64.86,"20250818":56.46,"20250819":55.12,"20250820":72.07,"20250821":74.81,"20250822":62.5,"20250823":59.27,"20250824":66.14,"20250825":72.64,"20250826":55.56,"20250827":58.15,"20250828":58.78,"20250829":69.42,"20250830":68.13,"20250831":59.5,"20250901":69.01,"20250902":70.67,"20250903":67.07,"20250904":65.79,"20250905":73.53,"20250906":74.82,"20250907":87.17,"20250908":65.06,"20250909":69.7,"20250910":80.79,"20250911":68.55,"20250912":64.32,"20250913":75.91,"20250914":72.29,"20250915":73.54,"20250916":75.18,"20250917":78.68,"20250918":76.04,"20250919":63.94,"20250920":54.67,"20250921":69.24,"20250922":75.71,"20250923":75.01,"20250924":96.92,"20250925":98.19,"20250926":81.77,"20250927":77.59,"20250928":77.12,"20250929":64.03,"20250930":67.7}}},"header":{"title":"NASA/POWER Source Native Resolution Daily Data","api":{"version":"v2.9.6","name":"POWER Daily API"},"sources":["MERRA2","POWER"],"fill_value":-999.0,"time_standard":"UTC","start":"20250401","end":"20250930"},"messages":[],"parameters":{"T2M":{"units":"C","longname":"Temperature at 2 Meters"},"T2M_MAX":{"units":"C","longname":"Temperature at 2 Meters Maximum"},"T2M_MIN":{"units":"C","longname":"Temperature at 2 Meters Minimum"},"PRECTOTCORR":{"units":"mm/day","longname":"Precipitation Corrected"},"WS10M":{"units":"m/s","longname":"Wind Speed at 10 Meters"},"RH2M":{"units":"%","longname":"Relative Humidity at 2 Meters"}},"times":{"data":0.879,"process":0.01}}